Origin Time       2026/01/15 07:13:00
Lat.              42.7
Long.             145.4
Depth. (km)       30
Mag.              5.7
Station Code      HKD099
Station Lat.      43.0736
Station Long.     142.8392
Station Height(m) 177
Record Time       2026/01/15 07:14:13
Sampling Freq(Hz) 100Hz
Duration Time(s)  78
Dir.              N-S
Scale Factor      7845(gal)/8223790
Max. Acc. (gal)   4.779
Last Correction   2026/01/15 07:14:13
Memo.             
[...]
   -6046    -5996    -5865    -5676    -5460    -5362    -5433    -5494 
   -5506    -5539    -5522    -5509    -5543    -5397    -5128    -5093 
   -5309    -5541    -5748    -6004    -6215    -6249    -6187    -6174 
   -6212    -6245    -6334    -6486    -6554    -6515    -6367    -6116 
   -5998    -6083    -6156    -6122    -6023    -5907    -5757    -5595 
   -5562    -5667    -5767    -5765    -5683    -5598    -5574    -5703 
   -5983    -6223    -6292    -6235    -6185    -6205    -6227    -6169 
   -6052    -5989    -5998    -5984    -5969    -6033    -6116    -6042 
   -5796    -5652    -5668    -5652    -5648    -5715    -5710    -5648 
   -5741    -5935    -5958    -5891    -5904    -5879    -5822    -5852 
   -5892    -5865    -5856    -5892    -5840    -5761    -5791    -5778 
   -5702    -5715    -5736    -5711    -5721    -5697    -5597    -5526 
   -5503    -5514    -5629    -5796    -5875    -5902    -5973    -5981 
   -5868    -5842    -5907    -5856    -5805    -5806    -5697    -5568 
   -5524    -5587    -5799    -5968    -5954    -5906    -5883    -5806 
   -5786    -5876    -5898    -5823    -5787    -5849    -5915    -5956 
   -6073    -6203    -6266    -6307    -6319    -6288    -6212    -6124 
   -6037    -5903    -5788    -5772    -5756    -5691    -5726    -5818 
   -5811    -5752    -5625    -5553    -5751    -6025    -6181    -6201 
   -6034    -5871    -5911    -6049    -6192    -6272    -6216    -6065 
   -5864    -5697    -5634    -5651    -5690    -5665    -5609    -5651 
   -5759    -5857    -5957    -5987    -5922    -5863    -5788    -5676 
   -5640    -5691    -5674    -5553    -5486    -5563    -5741    -5868 
   -5834    -5749    -5694    -5641    -5603    -5643    -5848    -6106 
   -6235    -6200    -5981    -5741    -5656    -5622    -5599    -5670 
   -5822    -5976    -6075    -6178    -6309    -6353    -6365    -6345 
   -6212    -6147    -6176    -6160    -6150    -6114    -6062    -6097 
   -6166    -6257    -6328    -6270    -6142    -6034    -5976    -6012 
   -6088    -6088    -6048    -5987    -5823    -5607    -5400    -5190 
   -5081    -5080    -5057    -4976    -4919    -4945    -5082    -5356 
   -5629    -5771    -5915    -6118    -6222    -6223    -6210    -6157 
   -6106    -6108    -6077    -5984    -5892    -5815    -5749    -5701 
   -5711    -5764    -5737    -5572    -5398    -5387    -5524    -5683 
   -5829    -5958    -6007    -5922    -5809    -5782    -5822    -5942 
   -6146    -6224    -6134    -6161    -6322    -6404    -6393    -6293 
   -6069    -5811    -5655    -5656    -5771    -5930    -6019    -5933 
   -5776    -5732    -5825    -5954    -5989    -5900    -5769    -5701 
   -5771    -5964    -6178    -6268    -6160    -6033    -5989    -5983 
   -6068    -6137    -6072    -6046    -6124    -6192    -6226    -6249 
   -6197    -6037    -5832    -5583    -5344    -5254    -5229    -5204 
   -5286    -5425    -5535    -5626    -5665    -5695    -5783    -5845 
   -5845    -5837    -5815    -5800    -5864    -5937    -5971    -6014 
   -6010    -5980    -6033    -6111    -6162    -6193    -6107    -5917 
   -5748    -5594    -5443    -5366    -5390    -5471    -5509    -5495 
   -5532    -5614    -5680    -5741    -5813    -5900    -6014    -6137 
   -6255    -6313    -6269    -6241    -6334    -6492    -6637    -6664 
   -6492    -6242    -6052    -5883    -5724    -5625    -5559    -5479 
   -5401    -5341    -5309    -5344    -5433    -5471    -5408    -5310 
   -5250    -5260    -5351    -5525    -5757    -5980    -6170    -6396 
   -6642    -6790    -6817    -6766    -6629    -6477    -6345    -6192 
   -6046    -5903    -5744    -5653    -5633    -5590    -5545    -5501 
   -5406    -5304    -5251    -5265    -5363    -5532    -5703    -5823 
   -5877    -5894    -5954    -6138    -6403    -6628    -6739    -6718 
   -6610    -6516    -6493    -6492    -6409    -6199    -5949    -5776 
   -5703    -5671    -5610    -5471    -5244    -5023    -4900    -4868 
   -4874    -4878    -4876    -4932    -5096    -5348    -5638    -5908 
   -6141    -6324    -6438    -6508    -6583    -6678    -6758    -6727 
   -6546    -6307    -6070    -5837    -5663    -5610    -5636    -5678 
   -5686    -5618    -5525    -5502    -5537    -5566    -5528    -5374 
   -5252    -5378    -5659    -5945    -6211    -6309    -6205    -6085 
   -6056    -6178    -6488    -6820    -6987    -6910    -6639    -6338 
   -6111    -5934    -5784    -5629    -5444    -5302    -5313    -5428 
   -5510    -5513    -5452    -5402    -5490    -5691    -5864    -5949 
   -5933    -5830    -5721    -5697    -5779    -5900    -5992    -6029 
   -5999    -5967    -5996    -6034    -6010    -5949    -5883    -5783 
   -5675    -5632    -5653    -5660    -5593    -5467    -5408    -5520 
   -5737    -5930    -6039    -6034    -5937    -5817    -5728    -5734 
   -5840    -5960    -6095    -6247    -6326    -6285    -6162    -5987 
   -5827    -5776    -5867    -6048    -6235    -6400    -6496    -6470 
   -6367    -6282    -6201    -6077    -5950    -5852    -5769    -5742 
   -5729    -5606    -5427    -5312    -5286    -5360    -5528    -5703 
   -5836    -5956    -6045    -6030    -5950    -5899    -5886    -5890 
   -5864    -5771    -5674    -5598    -5530    -5532    -5599    -5672 
   -5737    -5776    -5787    -5817    -5834    -5746    -5586    -5476 
   -5455    -5467    -5508    -5602    -5738    -5914    -6088    -6173 
   -6168    -6150    -6143    -6119    -6080    -6048    -6022    -6015 
   -6053    -6124    -6178    -6185    -6162    -6133    -6120    -6151 
   -6185    -6184    -6160    -6061    -5877    -5726    -5645    -5613 
   -5655    -5728    -5764    -5771    -5803    -5879    -5914    -5873 
   -5834    -5817    -5810    -5802    -5753    -5699    -5733    -5861 
   -6008    -6089    -6048    -5892    -5676    -5458    -5325    -5306 
   -5320    -5366    -5510    -5719    -5949    -6170    -6281    -6258 
   -6232    -6266    -6272    -6226    -6153    -6006    -5792    -5633 
   -5591    -5667    -5830    -5991    -6084    -6092    -6038    -5991 
   -5956    -5925    -5938    -5958    -5938    -5913    -5868    -5779 
   -5734    -5734    -5697    -5676    -5687    -5640    -5601    -5628 
   -5629    -5637    -5715    -5791    -5832    -5852    -5846    -5845 
   -5891    -5998    -6111    -6143    -6092    -6022    -5972    -5946 
   -5921    -5883    -5852    -5844    -5850    -5841    -5807    -5765 
   -5767    -5860    -6007    -6129    -6184    -6150    -6046    -5965 
   -5972    -6031    -6081    -6099    -6069    -6010    -5965    -5931 
   -5902    -5900    -5914    -5921    -5914    -5861    -5784    -5737 
   -5714    -5690    -5620    -5506    -5439    -5420    -5377    -5348 
   -5408    -5535    -5680    -5827    -5988    -6172    -6304    -6312 
   -6242    -6153    -6068    -6000    -5903    -5764    -5665    -5663 
   -5729    -5805    -5853    -5853    -5790    -5714    -5744    -5896 
   -6053    -6088    -5984    -5823    -5725    -5763    -5872    -5935 
   -5956    -5983    -6010    -6014    -5989    -5956    -5961    -5984 
   -5931    -5756    -5518    -5327    -5260    -5359    -5578    -5753 
   -5782    -5711    -5636    -5591    -5566    -5568    -5632    -5763 
   -5967    -6222    -6415    -6454    -6370    -6250    -6119    -5981 
   -5902    -5911    -5956    -5992    -5980    -5923    -5907    -5923 
   -5899    -5853    -5806    -5742    -5705    -5737    -5806    -5871 
   -5911    -5910    -5907    -5975    -6088    -6174    -6222    -6241 
   -6219    -6181    -6160    -6164    -6196    -6247    -6291    -6301 
   -6246    -6122    -5999    -5930    -5902    -5869    -5775    -5625 
   -5502    -5455    -5466    -5521    -5589    -5610    -5609    -5672 
   -5772    -5821    -5836    -5868    -5899    -5887    -5844    -5796 
   -5711    -5601    -5548    -5536    -5503    -5501    -5544    -5570 
   -5540    -5451    -5346    -5298    -5339    -5475    -5684    -5863 
   -5921    -5907    -5904    -5915    -5921    -5908    -5838    -5752 
   -5765    -5877    -5983    -6054    -6093    -6095    -6097    -6069 
   -5967    -5910    -5925    -5903    -5877    -5918    -5981    -6062 
   -6200    -6350    -6407    -6354    -6270    -6222    -6222    -6261 
   -6282    -6228    -6157    -6181    -6280    -6335    -6276    -6097 
   -5868    -5668    -5547    -5545    -5624    -5659    -5617    -5556 
   -5541    -5624    -5760    -5848    -5838    -5717    -5512    -5312 
   -5179    -5152    -5271    -5468    -5587    -5579    -5563    -5637 
   -5780    -5921    -6016    -6077    -6088    -6045    -6014    -6003 
   -5985    -5991    -5992    -5949    -5925    -5923    -5853    -5676 
   -5458    -5298    -5259    -5324    -5431    -5508    -5557    -5665 
   -5849    -6035    -6180    -6270    -6296    -6284    -6234    -6111 
   -5935    -5752    -5613    -5621    -5796    -6023    -6218    -6332 
   -6353    -6320    -6243    -6150    -6122    -6147    -6146    -6092 
   -5989    -5895    -5895    -5981    -6056    -6070    -6057    -6019 
   -5886    -5664    -5495    -5478    -5606    -5792    -5903    -5890 
   -5794    -5647    -5553    -5656    -5904    -6142    -6289    -6269 
   -6080    -5899    -5848    -5871    -5880    -5859    -5856    -5907 
   -6014    -6161    -6265    -6224    -6003    -5679    -5464    -5508 
   -5728    -5975    -6149    -6218    -6200    -6095    -5968    -5934 
   -5967    -5996    -6007    -5921    -5757    -5683    -5684    -5636 
   -5559    -5522    -5537    -5606    -5674    -5675    -5586    -5375 
   -5140    -5063    -5186    -5412    -5633    -5761    -5819    -5948 
   -6178    -6382    -6492    -6538    -6542    -6500    -6435    -6380 
   -6305    -6193    -6092    -6042    -6054    -6138    -6243    -6276 
   -6161    -5877    -5490    -5116    -4861    -4801    -4941    -5152 
   -5306    -5379    -5437    -5525    -5598    -5641    -5665    -5609 
   -5490    -5413    -5370    -5366    -5463    -5594    -5676    -5759 
   -5894    -6066    -6204    -6280    -6307    -6230    -6010    -5730 
   -5506    -5410    -5435    -5521    -5659    -5848    -6092    -6409 
   -6713    -6882    -6968    -7061    -7146    -7210    -7249    -7214 
   -7055    -6725    -6299    -5988    -5887    -5946    -6108    -6288 
   -6419    -6481    -6432    -6292    -6120    -5887    -5566    -5227 
   -4981    -4953    -5181    -5498    -5741    -5864    -5823    -5655 
   -5466    -5262    -5012    -4749    -4490    -4264    -4122    -4089 
   -4140    -4243    -4386    -4572    -4804    -5084    -5332    -5525 
   -5760    -6089    -6484    -6914    -7306    -7530    -7524    -7353 
   -7159    -7026    -6951    -6851    -6629    -6304    -5958    -5684 
   -5537    -5462    -5401    -5374    -5331    -5224    -5131    -5108 
   -5120    -5144    -5209    -5270    -5217    -5082    -4958    -4860 
   -4873    -5040    -5259    -5485    -5721    -5944    -6208    -6548 
   -6907    -7272    -7638    -7906    -7962    -7804    -7566    -7376 
   -7252    -7165    -7128    -7155    -7238    -7350    -7406    -7310 
   -7069    -6762    -6457    -6199    -6011    -5864    -5641    -5263 
   -4827    -4488    -4305    -4256    -4280    -4317    -4372    -4511 
   -4801    -5243    -5756    -6239    -6606    -6824    -6956    -7142 
   -7452    -7789    -8004    -8006    -7780    -7416    -7086    -6831 
   -6556    -6185    -5609    -4760    -3812    -3030    -2523    -2308 
   -2366    -2578    -2826    -3078    -3338    -3697    -4225    -4787 
   -5174    -5304    -5224    -5071    -5046    -5244    -5556    -5890 
   -6303    -6755    -7047    -7032    -6686    -6153    -5684    -5420 
   -5352    -5445    -5652    -5923    -6262    -6724    -7273    -7785 
   -8148    -8244    -7994    -7549    -7136    -6848    -6673    -6535 
   -6304    -5886    -5363    -4903    -4618    -4596    -4830    -5200 
   -5570    -5806    -5880    -5888    -5809    -5537    -5151    -4814 
   -4592    -4510    -4563    -4657    -4687    -4657    -4610    -4580 
   -4629    -4738    -4893    -5162    -5508    -5853    -6253    -6750 
   -7315    -7906    -8459    -8845    -8943    -8824    -8702    -8694 
   -8780    -8877    -8896    -8792    -8559    -8237    -7882    -7501 
   -7114    -6767    -6428    -6035    -5605    -5166    -4720    -4291 
   -3890    -3553    -3391    -3439    -3599    -3786    -3982    -4180 
   -4411    -4710    -5101    -5552    -5921    -6096    -6107    -6070 
   -6079    -6141    -6207    -6242    -6246    -6247    -6258    -6247 
   -6177    -6062    -5979    -6004    -6116    -6228    -6197    -5908 
   -5443    -4976    -4618    -4380    -4166    -3861    -3505    -3258 
   -3240    -3515    -4081    -4768    -5382    -5887    -6269    -6477 
   -6536    -6481    -6318    -6138    -6014    -5918    -5861    -5872 
   -5904    -5960    -6124    -6396    -6671    -6829    -6804    -6678 
   -6581    -6563    -6660    -6743    -6575    -6185    -5701    -5144 
   -4648    -4333    -4172    -4133    -4168    -4186    -4183    -4212 
   -4306    -4523    -4916    -5448    -5981    -6378    -6592    -6679 
   -6779    -7063    -7587    -8186    -8654    -8918    -8973    -8843 
   -8649    -8533    -8510    -8533    -8607    -8667    -8573    -8297 
   -7897    -7457    -7109    -6913    -6844    -6856    -6843    -6779 
   -6751    -6751    -6766    -6809    -6735    -6334    -5602    -4708 
   -3805    -2976    -2304    -1802    -1414    -1148    -1009     -909 
    -857     -957    -1240    -1696    -2272    -2833    -3333    -3866 
   -4492    -5229    -6104    -6987    -7619    -7896    -7935    -7820 
   -7546    -7184    -6868    -6674    -6606    -6671    -6891    -7202 
   -7457    -7582    -7580    -7469    -7325    -7271    -7348    -7443 
   -7427    -7288    -7022    -6625    -6180    -5771    -5460    -5275 
   -5169    -5109    -5170    -5378    -5634    -5795    -5724    -5417 
   -5078    -4907    -4984    -5323    -5792    -6157    -6281    -6168 
   -5900    -5607    -5414    -5382    -5506    -5680    -5741    -5591 
   -5223    -4684    -4137    -3813    -3851    -4222    -4827    -5547 
   -6238    -6791    -7187    -7460    -7639    -7715    -7658    -7504 
   -7354    -7337    -7496    -7689    -7701    -7420    -6924    -6416 
   -6054    -5833    -5701    -5632    -5566    -5451    -5287    -5123 
   -4959    -4756    -4602    -4653    -4827    -4930    -4869    -4617 
   -4282    -4109    -4212    -4526    -5011    -5620    -6197    -6609 
   -6860    -7013    -7163    -7427    -7773    -8050    -8221    -8291 
   -8176    -7851    -7402    -6960    -6662    -6578    -6658    -6755 
   -6690    -6369    -5856    -5240    -4608    -4058    -3570    -3091 
   -2710    -2512    -2459    -2504    -2597    -2706    -2893    -3229 
   -3682    -4214    -4835    -5459    -5914    -6131    -6180    -6174 
   -6187    -6228    -6328    -6525    -6790    -7017    -7078    -6943 
   -6723    -6523    -6381    -6367    -6531    -6748    -6847    -6810 
   -6712    -6660    -6782    -7072    -7411    -7700    -7921    -8113 
   -8270    -8309    -8222    -8124    -8017    -7773    -7335    -6751 
   -6108    -5563    -5185    -4924    -4738    -4564    -4348    -4168 
   -4174    -4403    -4781    -5184    -5475    -5583    -5471    -5121 
   -4692    -4455    -4467    -4629    -4880    -5089    -5184    -5340 
   -5699    -6160    -6588    -6890    -6983    -6891    -6741    -6648 
   -6669    -6770    -6832    -6762    -6585    -6369    -6095    -5722 
   -5262    -4769    -4336    -3997    -3785    -3743    -3767    -3724 
   -3682    -3800    -4166    -4792    -5551    -6222    -6671    -6925 
   -7110    -7331    -7572    -7726    -7700    -7496    -7203    -6895 
   -6581    -6257    -5900    -5514    -5159    -4860    -4611    -4442 
   -4310    -4136    -3970    -3928    -4027    -4206    -4445    -4757 
   -5143    -5572    -6016    -6454    -6856    -7221    -7574    -7913 
   -8214    -8419    -8460    -8376    -8210    -7952    -7700    -7564 
   -7511    -7443    -7195    -6662    -5985    -5368    -4891    -4550 
   -4314    -4144    -4031    -3996    -4050    -4162    -4311    -4509 
   -4750    -5032    -5373    -5794    -6280    -6701    -6924    -7038 
   -7211    -7415    -7557    -7612    -7533    -7339    -7176    -7145 
   -7163    -7067    -6835    -6486    -6035    -5636    -5436    -5382 
   -5410    -5456    -5393    -5171    -4870    -4583    -4349    -4151 
   -3964    -3802    -3699    -3669    -3658    -3611    -3547    -3596 
   -3982    -4797    -5833    -6778    -7393    -7605    -7533    -7348 
   -7144    -6948    -6764    -6652    -6709    -6910    -7090    -7110 
   -6943    -6612    -6201    -5795    -5398    -5039    -4796    -4666 
   -4631    -4723    -4876    -4973    -5039    -5189    -5456    -5802 
   -6160    -6430    -6583    -6700    -6859    -7047    -7117    -6924 
   -6523    -6019    -5466    -5011    -4819    -4889    -5136    -5466 
   -5768    -6026    -6330    -6674    -6916    -6997    -6976    -6913 
   -6917    -7022    -7044    -6824    -6407    -5904    -5393    -4922 
   -4538    -4301    -4210    -4213    -4309    -4499    -4765    -5124 
   -5551    -5945    -6299    -6663    -7025    -7398    -7785    -8066 
   -8127    -8029    -7904    -7797    -7635    -7345    -6975    -6604 
   -6255    -5981    -5776    -5512    -5184    -4912    -4681    -4448 
   -4257    -4064    -3786    -3493    -3273    -3142    -3191    -3485 
   -3888    -4263    -4633    -4976    -5239    -5529    -5944    -6378 
   -6721    -6983    -7215    -7429    -7593    -7673    -7658    -7578 
   -7453    -7258    -7002    -6693    -6320    -5922    -5567    -5290 
   -5109    -4974    -4768    -4473    -4214    -4094    -4125    -4287 
   -4515    -4720    -4895    -5053    -5175    -5293    -5479    -5729 
   -6015    -6345    -6693    -6982    -7180    -7304    -7339    -7265 
   -7190    -7223    -7304    -7326    -7233    -6988    -6671    -6438 
   -6319    -6230    -6138    -6091    -6075    -5975    -5721    -5378 
   -5070    -4909    -4932    -5074    -5225    -5293    -5285    -5335 
   -5502    -5688    -5796    -5805    -5763    -5756    -5792    -5836 
   -5871    -5880    -5864    -5836    -5759    -5641    -5586    -5630 
   -5688    -5710    -5710    -5717    -5745    -5790    -5915    -6160 
   -6396    -6511    -6482    -6261    -5891    -5571    -5431    -5427 
   -5529    -5753    -6060    -6450    -6944    -7419    -7688    -7651 
   -7350    -6978    -6737    -6685    -6732    -6717    -6521    -6110 
   -5506    -4899    -4569    -4565    -4746    -4968    -5070    -4989 
   -4814    -4626    -4503    -4530    -4695    -4923    -5138    -5320 
   -5520    -5763    -6041    -6323    -6555    -6743    -6862    -6843 
   -6729    -6586    -6412    -6226    -6011    -5729    -5420    -5144 
   -4935    -4795    -4680    -4584    -4569    -4652    -4777    -4955 
   -5243    -5583    -5827    -5888    -5802    -5664    -5582    -5644 
   -5827    -6037    -6203    -6273    -6272    -6323    -6482    -6718 
   -6970    -7098    -7064    -7002    -6988    -6997    -6943    -6720 
   -6299    -5769    -5266    -4935    -4868    -4995    -5181    -5339 
   -5408    -5420    -5489    -5688    -5977    -6242    -6393    -6477 
   -6600    -6777    -6943    -7044    -7076    -7022    -6860    -6627 
