Origin Time       2026/01/15 07:13:00
Lat.              42.7
Long.             145.4
Depth. (km)       30
Mag.              5.7
Station Code      HKD080
Station Lat.      43.5077
Station Long.     144.4485
Station Height(m) 140
Record Time       2026/01/15 07:13:36
Sampling Freq(Hz) 100Hz
Duration Time(s)  101
Dir.              U-D
Scale Factor      7845(gal)/8223790
Max. Acc. (gal)   3.742
Last Correction   2026/01/15 07:13:36
Memo.             
[...]
    7423     7568     7206     7427     8176     8193     7657     7719 
    8079     7993     7338     6138     5188     5277     5995     6914 
    7858     8133     7576     7249     7535     7483     7063     7133 
    7450     7327     6809     6316     6195     6559     7192     7437 
    7109     7125     7592     7834     8316     8849     8482     8087 
    8037     6891     5003     4398     5397     6646     7391     7654 
    7280     6612     6624     7254     7423     6702     5472     4703 
    5525     7356     8359     8256     8040     8086     8248     8284 
    7971     7249     6100     5297     5934     7214     7622     7342 
    6868     6261     6281     7256     8159     8264     8221     8546 
    8332     7211     6376     6108     5900     6060     6488     6801 
    7148     7244     7041     7129     7288     7006     6716     6862 
    7101     7138     6997     6751     6720     7074     7535     7661 
    7285     6878     6798     6848     6991     7280     7685     8438 
    9351     9602     8746     7277     6423     6775     7383     7365 
    6571     5151     4477     5564     7119     8008     8256     7628 
    6848     7195     7987     8110     7831     7577     7651     8168 
    8387     7847     7083     6385     5883     5992     6400     6656 
    6966     6982     6466     6295     6737     7344     8098     8683 
    8560     7969     7537     7302     6903     6669     6932     7061 
    6944     7148     7240     6917     6976     7245     6955     6561 
    6459     6358     6143     5742     5571     6131     6782     7038 
    7352     7754     8060     8332     8222     7485     6633     6224 
    6218     6295     6231     6030     6107     6872     7705     7581 
    7173     7582     7848     7354     7306     7642     7366     7129 
    7379     7182     6540     6218     6230     6563     7144     7337 
    7172     7344     7588     7447     7504     7751     7425     6886 
    6559     6077     5964     6642     7061     6802     6529     6471 
    6642     7263     8232     8676     7813     6574     6598     7568 
    7975     7597     6979     6377     6249     6883     7754     8152 
    8006     7917     8334     8681     8189     7261     6670     6529 
    6691     6781     6740     7195     7827     7774     7599     7827 
    7695     7149     7086     7399     7249     6600     6199     6473 
    6994     7237     6974     6000     4927     5085     6439     7618 
    8163     8483     8517     8294     8087     7605     6725     6197 
    6440     6878     7034     7150     7520     7819     7547     7028 
    6845     6978     7396     7975     7931     7025     6238     6250 
    6910     7813     8043     7130     6154     6084     6615     7156 
    7175     6470     5896     6118     6797     7678     8186     7847 
    7636     7998     7974     7357     6548     5602     4963     4988 
    5128     5301     6216     7720     8939     9486     9362     8656 
    7651     6909     6821     6984     6743     6273     6374     7037 
    7371     7146     6895     6914     7128     7400     7762     8028 
    7704     7084     7226     8127     8523     7939     6990     6239 
    6018     6137     6296     6880     7811     8316     8356     8271 
    8001     7423     6666     6328     6678     6759     6003     5617 
    6505     7504     7445     7002     7098     7519     7674     7353 
    6839     6424     6230     6504     6978     6786     6119     6197 
    7213     8374     9128     8856     7407     6154     6157     6559 
    6602     6691     6590     5772     5206     5841     6941     7523 
    7705     7970     8133     8110     8329     8401     7893     7550 
    7654     7457     6691     6069     6108     6266     6350     6983 
    7796     8182     8567     8868     8617     8071     7501     6891 
    6238     5734     5648     5910     6485     7238     7666     7797 
    7939     7919     7641     7225     6729     6178     5730     5825 
    6512     7362     8002     7978     7344     6737     6332     6247 
    6706     7157     6986     6380     5967     5971     6033     6401 
    7501     8386     8428     8405     8387     8010     7874     8259 
    8467     8005     7198     6739     6778     6987     7318     7672 
    7825     7960     8008     7537     6681     5979     5736     5956 
    6453     6826     6664     6220     6342     7057     7352     6960 
    6883     7474     7805     7458     7052     6955     7030     7123 
    7003     6663     6439     6567     7130     7874     8216     7825 
    6988     6399     6389     6683     6940     6940     6856     7291 
    8237     8777     8486     7958     7577     7318     7420     7526 
    6894     6134     6309     7187     7732     7346     6484     5988 
    6123     6687     7065     6790     6289     5980     5899     6108 
    6366     6485     6658     7048     7739     8429     8511     8104 
    7879     7981     8094     7803     6714     5495     5586     6879 
    7821     7816     7450     7249     7346     7616     7920     8127 
    7875     7334     7389     7909     7839     7258     6844     6457 
    6003     5724     5522     5682     6714     7997     8572     8452 
    7954     7298     6926     6899     6866     6628     6093     5711 
    6116     6787     6694     5842     5333     5907     6924     7624 
    8063     8179     7869     7631     7911     8465     8496     7763 
    7177     7152     7096     6903     6704     6335     6178     6760 
    7653     8094     8054     7767     7037     6054     5524     5439 
    5586     6096     6686     7299     8202     8897     8927     8540 
    7724     6544     5644     5130     4916     5420     6227     6615 
    7061     7758     8189     8698     9174     8665     7739     7422 
    7299     7057     6971     6929     6964     7431     8086     8299 
    8010     7511     7102     7199     7608     7605     7213     6785 
    6232     5977     6656     7623     8002     8095     8181     7946 
    7292     6292     5294     5040     5476     5807     6103     6802 
    7561     8436     9757    10362     9170     7267     6112     5868 
    6070     6289     6311     6358     6752     7317     7786     8202 
    8291     7955     7796     7682     6948     6003     5624     5942 
    6563     6916     7028     7298     7582     7754     7917     7631 
    6636     5944     6548     7595     7696     7076     6486     6127 
    6193     6486     6458     6049     5825     6508     7859     8634 
    8216     7326     6957     7167     7491     7742     7794     7580 
    7207     6886     6948     7176     7024     6809     6817     6646 
    6609     7176     7738     7971     8208     8114     7264     6276 
    5949     6089     6118     6241     7025     8114     8491     8033 
    7508     7192     6952     7015     7337     7107     6139     5576 
    6093     6928     7115     6609     6336     6964     7835     8090 
    7746     7159     6658     6493     6508     6286     5811     5663 
    6366     7658     8615     8623     7933     7167     6652     6426 
    6420     6493     6490     6480     6845     7958     9386    10006 
    9491     8440     7068     5732     5491     6358     7088     7431 
    7959     8337     8193     8001     8051     8047     7690     7132 
    6685     6308     5873     5451     5386     5910     6390     6151 
    5702     5894     6693     7533     8168     8403     7800     6901 
    7118     8262     8619     7797     7068     7269     7825     7978 
    7902     7813     7699     7830     7871     7167     6095     5590 
    6019     6974     7584     7121     5933     5448     6291     7561 
    8240     7963     7288     7132     7398     7487     7215     6521 
    5687     5404     5958     6798     7001     6551     6384     6845 
    7527     8033     8255     8356     8247     7740     7186     6876 
    6582     6440     7163     8467     8974     8403     7809     7655 
    7723     7913     7982     7647     6901     6131     6039     6606 
    6831     6394     6088     6259     6493     6527     6359     5946 
    5428     5329     5742     5965     5946     6235     6602     6890 
    7288     7101     6150     5850     6683     7511     7846     8085 
    8244     8135     7917     7878     7966     7969     7954     8110 
    8309     8221     7828     7497     7422     7300     6918     6617 
    6771     7098     7098     7130     7663     8062     7942     7978 
    8472     8993     9023     8206     6797     5574     5013     4972 
    4941     4635     4198     4037     4984     7028     8318     7823 
    6708     5879     5371     5516     6328     7164     7655     8005 
    8498     8827     8349     7456     7155     7358     7379     7322 
    7614     8047     8056     7591     7157     6937     6805     7074 
    7767     8194     8106     7736     7381     7655     8329     8190 
    7350     7013     7155     6930     6381     5992     5690     5621 
    6312     7253     7565     7379     7001     6613     6619     7040 
    7651     8067     7701     6899     6486     6470     6714     7184 
    7673     8297     9113     9740     9629     8332     6316     5051 
    5104     5478     5624     6118     7142     8256     9070     9148 
    8286     7076     6497     6924     7774     8290     8272     8016 
    8017     8185     7731     6646     5751     5225     4702     4274 
    4527     5475     6265     6685     7344     8122     8487     8556 
    8503     8105     7215     6168     5560     5467     5433     5364 
    5697     6658     7875     8943     9621     9495     8776     8685 
    9537     9921     8768     6833     5832     6363     7133     7103 
    6524     5649     5200     6054     7159     6933     5852     5269 
    5687     6822     7924     8433     8301     7504     6453     6261 
    6880     6770     5842     5397     5447     5688     6691     8255 
    9143     8937     8622     8991     9491     8996     7153     5070 
    4139     4572     5765     7134     8218     8815     9371    10096 
   10035     8773     7244     6119     5742     6143     6189     5229 
    4159     3978     4976     6419     7134     6814     5923     5335 
    6089     8149    10041    10548    10039     9451     8924     8047 
    6808     5659     4963     4995     5795     6785     7222     7141 
    7356     8193     9100     9579     9363     8587     7959     7821 
    7789     7265     6057     4909     4888     6166     7732     8293 
    7564     6434     6033     6652     7321     7036     6142     5768 
    6318     7194     7889     8349     8637     8947     9132     8553 
    7294     6358     6079     6031     6246     6633     6793     7028 
    7511     7674     7400     6895     6246     6184     7111     8121 
    8743     9181     8889     7743     6737     6497     6874     7277 
    7122     6497     5883     5667     5980     6585     7145     7393 
    7065     6459     6463     7219     7920     7939     7078     5729 
    5177     6154     7410     7607     7335     7371     7090     6069 
    5077     4758     5125     6340     8181     9481     9647     9105 
    7936     6158     4681     4336     4949     6003     7022     7420 
    7272     7557     8467     9028     9030     9047     9065     8704 
    7888     6961     6340     6116     6219     6304     6093     5883 
    5832     5771     5742     5821     6084     6606     7169     7688 
    8478     9256     9093     7834     6291     5213     4901     5440 
    6667     7804     8091     7987     8452     9255     9532     9135 
    8237     7118     6436     6273     6081     5899     6362     7539 
    8388     8078     7020     6064     5861     6384     6770     6574 
    6322     6366     6644     7364     8118     7734     6376     5530 
    5969     7296     8653     9207     8738     7973     7423     6798 
    6188     5709     4969     4392     4876     6408     8345     9971 
   10579    10006     9047     8275     7438     6725     6285     5574 
    4881     5143     6453     8120     9153     8900     7484     5638 
    4726     5540     6979     7542     7398     7437     7878     8638 
    9008     8106     6745     6362     6862     7248     7086     6562 
    5908     5582     6104     7099     7672     8046     9121    10293 
   10156     8650     6706     5429     5690     7099     8251     8433 
    7993     7407     7352     8160     8773     8349     7582     7165 
    6894     6411     5684     4992     4689     4873     5366     5994 
    6631     7396     8451     9300     9153     7982     6651     5510 
    4158     3370     3881     4468     4800     6031     7852     9109 
    9370     8600     7222     6002     5364     5348     6111     7403 
    8094     7813     7437     7315     7029     6577     6628     7608 
    8766     8968     8190     7203     6577     6702     7399     7932 
    7933     7434     6806     6802     7599     8365     8294     7383 
    6183     5269     4993     5602     6947     7947     7824     7333 
    7404     7947     8426     8413     7755     6758     6008     5815 
    6118     6816     7630     8102     8162     8016     7545     6984 
    7150     7874     8224     8005     7308     6255     5462     5225 
    5379     6065     7167     8125     8787     9196     9381     9489 
    9247     8278     7036     6111     5483     5101     5055     5386 
    5711     5529     5464     6110     6664     6704     6791     7191 
    8014     9548    11041    10844     8947     6941     5725     5632 
    6534     7403     7792     8104     8375     8491     8635     8718 
    8325     7514     6898     6909     7102     6625     5734     5427 
    5776     6104     6149     6276     6710     7360     8181     8650 
    8197     7331     6718     6475     6808     7570     7863     7156 
    5976     5266     5848     7844     9896    10501     9918     9057 
    8135     7056     5810     5170     5902     7136     7836     8077 
    7701     6669     5883     5529     5090     5012     5709     6760 
    7793     8359     8093     7460     6984     6349     5428     5190 
    6102     7025     6959     6566     6708     6662     5796     5115 
    5123     5398     6378     7834     8198     7375     6231     5152 
    5046     5980     6617     6821     7368     8158     8756     8710 
    7709     6127     4596     3987     4861     6355     7379     7848 
    8194     8868     9694     9684     8699     7858     7492     7204 
    7192     7165     6635     6473     7219     7987     8054     7237 
    5829     4672     4509     5771     7727     8588     7982     7076 
    6862     7503     8024     7751     7334     7160     7157     7445 
    7892     8428     8966     9196     9027     8452     7703     7180 
    7177     7507     7240     6620     6993     7877     7921     7245 
    6779     6894     7195     7587     8185     8201     7248     6562 
    7184     8252     8511     8249     7912     7148     6293     6034 
    6156     6115     5886     5794     6119     7048     8178     8456 
    8091     8611     9622     9023     6737     4888     4426     4438 
    4874     6286     7650     8016     7924     8000     8075     7641 
    7276     7962     8779     8733     8511     8303     7562     6636 
    6373     6551     6093     5367     5718     6974     7975     8237 
    7983     7376     6538     6008     6160     6718     7010     6740 
    6525     6909     7578     7902     7642     7040     6644     6929 
    7709     8465     8945     9050     8873     8559     8097     7419 
    6612     5999     5499     4896     4666     5034     5518     5764 
    5900     6330     6907     6961     6544     6569     7218     7319 
    6347     5497     5547     5734     5607     5745     6201     6343 
    6208     6075     5497     4417     3834     4507     5987     7229 
    7952     8679     9428     9734     9651     9591     9591     9292 
    8590     8074     8162     8163     7439     6473     5753     5273 
    5313     6120     7206     7958     8295     8316     8079     7762 
    7526     7352     7113     6960     7296     8044     8738     9242 
    9483     9381     9235     9240     9157     8594     7334     5868 
    4976     4642     4419     4402     4957     5852     6558     6901 
    6924     6993     7299     7258     6786     6558     6741     6887 
    6723     6787     7739     9059     9568     8955     8143     7956 
    8266     8710     8899     8212     6739     5370     4541     4139 
    4033     4064     4334     5066     6187     7457     8294     8382 
    8455     8827     8660     7943     7618     7672     7510     7024 
    6309     5810     5996     6590     7210     7766     7948     7569 
    7006     6651     6721     7349     7838     7196     6102     6269 
    7591     8186     7654     7457     7762     7354     6602     6848 
    7473     6984     5881     5584     6308     7479     8557     8961 
    8206     7183     7281     7458     6651     6428     7515     8490 
    8330     7593     7273     7271     7171     7082     7025     6891 
    6902     7361     7622     7006     6382     6470     6770     7048 
    7458     7881     7847     7020     6135     6122     6655     6775 
    6282     6092     6760     7426     7380     7353     7906     8195 
    7736     7483     7994     8303     7798     7310     7142     6717 
    6111     5867     5969     5778     5319     5483     6156     6427 
    6440     6731     7187     7703     8059     7852     7237     6666 
    6362     6178     5960     5913     6254     6984     7735     8004 
    7724     7300     7287     7678     7896     7885     7819     7344 
    6394     5351     4499     4139     4405     5080     5775     6351 
    7026     7740     8198     8565     9181     9796     9963     9760 
    9390     8908     8436     7882     7098     6312     6066     6571 
    7146     7044     6470     6057     5877     5805     6264     7246 
    7944     8078     7971     7942     8025     7815     7183     6531 
    6126     6177     6628     6652     5918     5616     6782     8769 
   10030     9944     9463     9177     8660     8101     7717     7249 
    6990     7105     7241     7348     7580     7773     7477     6858 
    6610     6716     6685     6366     6004     5999     6188     6139 
    6011     5968     6054     6718     8050     9466    10428    10474 
    9445     7951     6824     6313     5988     5549     5317     5640 
    6563     7609     8036     7952     8004     8266     8324     7921 
    7258     6697     6528     6804     7144     7275     7290     7250 
    7226     7298     7389     7350     7022     6361     5632     5050 
    4411     3785     3788     4498     5340     6053     6706     7308 
    7830     8058     7896     7738     7757     7717     7626     7503 
    7183     6652     6038     5548     5436     5675     6034     6403 
    6791     7210     7535     7653     7588     7290     6787     6358 
    6120     5992     6037     6424     6997     7256     7057     6708 
    6396     6197     6324     6789     7254     7597     7913     8005 
    7774     7638     7861     8370     9080     9603     9607     9310 
    9007     8838     8762     8517     8064     7624     7264     7001 
    6903     6841     6841     7118     7396     7368     7275     7222 
