Origin Time       2026/01/15 07:13:00
Lat.              42.7
Long.             145.4
Depth. (km)       30
Mag.              5.7
Station Code      HKD097
Station Lat.      42.6181
Station Long.     143.4210
Station Height(m) 33
Record Time       2026/01/15 07:13:44
Sampling Freq(Hz) 100Hz
Duration Time(s)  94
Dir.              E-W
Scale Factor      7845(gal)/8223790
Max. Acc. (gal)   7.225
Last Correction   2026/01/15 07:13:28
Memo.             
[...]
  -17420   -17668   -17994   -18300   -18508   -18582   -18540   -18422 
  -18256   -18069   -17896   -17756   -17643   -17550   -17494   -17496 
  -17555   -17653   -17772   -17901   -18018   -18107   -18148   -18137 
  -18080   -17982   -17836   -17662   -17500   -17361   -17226   -17089 
  -16991   -16989   -17134   -17408   -17732   -18019   -18241   -18393 
  -18463   -18462   -18424   -18373   -18322   -18270   -18210   -18152 
  -18106   -18057   -17988   -17882   -17749   -17621   -17525   -17474 
  -17466   -17481   -17481   -17440   -17362   -17280   -17236   -17263 
  -17382   -17581   -17810   -18000   -18099   -18090   -17995   -17874 
  -17783   -17749   -17763   -17793   -17803   -17778   -17730   -17680 
  -17640   -17608   -17578   -17559   -17558   -17582   -17644   -17737 
  -17855   -18000   -18166   -18319   -18412   -18420   -18358   -18231 
  -18036   -17776   -17470   -17172   -16960   -16889   -16958   -17138 
  -17390   -17683   -17984   -18257   -18474   -18609   -18625   -18524 
  -18355   -18185   -18071   -18030   -18017   -17948   -17797   -17589 
  -17390   -17288   -17308   -17423   -17583   -17733   -17837   -17905 
  -17934   -17918   -17847   -17721   -17578   -17470   -17442   -17509 
  -17640   -17752   -17766   -17660   -17490   -17343   -17302   -17389 
  -17563   -17778   -18000   -18222   -18419   -18563   -18634   -18611 
  -18477   -18254   -17987   -17712   -17463   -17255   -17100   -17022 
  -17030   -17113   -17258   -17443   -17655   -17883   -18115   -18343 
  -18549   -18698   -18754   -18679   -18478   -18172   -17787   -17375 
  -17010   -16764   -16708   -16850   -17150   -17529   -17875   -18076 
  -18108   -18049   -17983   -17944   -17932   -17915   -17867   -17805 
  -17759   -17752   -17803   -17905   -18007   -18037   -17960   -17817 
  -17698   -17645   -17639   -17633   -17602   -17560   -17563   -17647 
  -17802   -17983   -18114   -18148   -18085   -17961   -17828   -17706 
  -17587   -17487   -17451   -17479   -17539   -17605   -17655   -17694 
  -17745   -17807   -17864   -17890   -17863   -17788   -17697   -17616 
  -17568   -17572   -17626   -17705   -17761   -17774   -17774   -17760 
  -17718   -17658   -17567   -17469   -17450   -17566   -17791   -18036 
  -18169   -18111   -17884   -17581   -17285   -17066   -16972   -17024 
  -17209   -17478   -17766   -18018   -18206   -18314   -18337   -18266 
  -18117   -17945   -17820   -17766   -17770   -17793   -17807   -17825 
  -17868   -17936   -18022   -18125   -18230   -18312   -18346   -18300 
  -18175   -18023   -17895   -17794   -17697   -17560   -17359   -17124 
  -16962   -16961   -17124   -17383   -17660   -17911   -18104   -18220 
  -18280   -18279   -18212   -18134   -18107   -18135   -18183   -18212 
  -18202   -18123   -17971   -17778   -17591   -17456   -17412   -17446 
  -17490   -17470   -17365   -17235   -17150   -17146   -17239   -17402 
  -17586   -17768   -17929   -18049   -18148   -18238   -18316   -18370 
  -18389   -18341   -18195   -17969   -17716   -17497   -17354   -17280 
  -17232   -17180   -17123   -17084   -17065   -17049   -17049   -17122 
  -17305   -17582   -17909   -18256   -18584   -18833   -18955   -18959 
  -18864   -18665   -18399   -18145   -17961   -17902   -17960   -18058 
  -18119   -18115   -18027   -17836   -17558   -17259   -17032   -16941 
  -16995   -17184   -17455   -17736   -17961   -18067   -18010   -17824 
  -17577   -17332   -17146   -17061   -17080   -17197   -17402   -17662 
  -17944   -18220   -18469   -18667   -18789   -18802   -18677   -18423 
  -18103   -17774   -17435   -17084   -16744   -16455   -16281   -16275 
  -16445   -16761   -17182   -17663   -18131   -18526   -18806   -18951 
  -18981   -18933   -18806   -18600   -18351   -18110   -17905   -17747 
  -17606   -17451   -17280   -17120   -17016   -16985   -17034   -17173 
  -17377   -17605   -17855   -18125   -18374   -18570   -18698   -18721 
  -18616   -18404   -18164   -17972   -17863   -17817   -17783   -17734 
  -17707   -17740   -17826   -17926   -17986   -17953   -17814   -17594 
  -17339   -17113   -17010   -17086   -17331   -17668   -18015   -18319 
  -18520   -18578   -18500   -18314   -18096   -17940   -17849   -17780 
  -17686   -17521   -17293   -17070   -16926   -16900   -16980   -17118 
  -17297   -17516   -17763   -18023   -18260   -18430   -18508   -18485 
  -18368   -18199   -18049   -17936   -17828   -17709   -17560   -17383 
  -17231   -17131   -17065   -17027   -17027   -17089   -17248   -17510 
  -17837   -18179   -18499   -18750   -18864   -18806   -18582   -18241 
  -17841   -17459   -17181   -17051   -17076   -17242   -17501   -17798 
  -18106   -18391   -18603   -18717   -18744   -18700   -18563   -18319 
  -17963   -17523   -17091   -16758   -16579   -16591   -16765   -17023 
  -17290   -17527   -17737   -17938   -18123   -18260   -18300   -18229 
  -18076   -17871   -17663   -17524   -17497   -17591   -17766   -17934 
  -18034   -18021   -17847   -17527   -17136   -16788   -16571   -16524 
  -16665   -16962   -17348   -17787   -18234   -18644   -18991   -19244 
  -19368   -19350   -19210   -18955   -18592   -18169   -17741   -17369 
  -17103   -16951   -16891   -16906   -16978   -17059   -17105   -17124 
  -17142   -17184   -17281   -17448   -17682   -17965   -18249   -18484 
  -18659   -18767   -18798   -18752   -18630   -18472   -18324   -18172 
  -18011   -17836   -17620   -17369   -17118   -16938   -16920   -17077 
  -17367   -17706   -17996   -18177   -18222   -18133   -17979   -17853 
  -17811   -17847   -17892   -17863   -17720   -17497   -17273   -17116 
  -17072   -17170   -17385   -17655   -17953   -18249   -18484   -18619 
  -18638   -18547   -18374   -18150   -17887   -17597   -17334   -17173 
  -17143   -17205   -17293   -17356   -17417   -17527   -17689   -17853 
  -17972   -18007   -17940   -17798   -17656   -17578   -17556   -17558 
  -17581   -17632   -17736   -17944   -18252   -18573   -18824   -18941 
  -18866   -18598   -18219   -17802   -17389   -17018   -16710   -16505 
  -16443   -16519   -16718   -17019   -17388   -17793   -18172   -18432 
  -18520   -18416   -18164   -17860   -17598   -17462   -17508   -17741 
  -18091   -18430   -18646   -18686   -18586   -18424   -18235   -18030 
  -17820   -17606   -17408   -17269   -17231   -17281   -17383   -17512 
  -17656   -17802   -17934   -18013   -17990   -17871   -17716   -17595 
  -17563   -17624   -17745   -17899   -18058   -18204   -18326   -18397 
  -18393   -18307   -18162   -17995   -17820   -17652   -17502   -17381 
  -17262   -17124   -17005   -16934   -16914   -16950   -17027   -17131 
  -17290   -17528   -17842   -18212   -18589   -18908   -19097   -19103 
  -18940   -18634   -18202   -17712   -17271   -16946   -16749   -16676 
  -16727   -16889   -17142   -17410   -17608   -17720   -17763   -17771 
  -17790   -17814   -17815   -17790   -17770   -17751   -17699   -17644 
  -17622   -17616   -17624   -17659   -17717   -17797   -17905   -18023 
  -18133   -18227   -18319   -18423   -18551   -18690   -18787   -18769 
  -18601   -18343   -18084   -17852   -17649   -17454   -17238   -17034 
  -16892   -16807   -16767   -16783   -16864   -17031   -17285   -17590 
  -17898   -18165   -18374   -18526   -18611   -18643   -18639   -18585 
  -18472   -18281   -18013   -17714   -17452   -17242   -17062   -16895 
  -16745   -16653   -16661   -16796   -17039   -17339   -17670   -18010 
  -18310   -18538   -18685   -18731   -18667   -18517   -18299   -18026 
  -17734   -17460   -17247   -17105   -17008   -16941   -16919   -16951 
  -17073   -17328   -17697   -18100   -18476   -18773   -18949   -18985 
  -18862   -18573   -18169   -17733   -17340   -17045   -16870   -16826 
  -16877   -16957   -17058   -17192   -17346   -17524   -17734   -17963 
  -18173   -18319   -18374   -18353   -18299   -18258   -18212   -18107 
  -17963   -17837   -17767   -17757   -17788   -17845   -17945   -18106 
  -18296   -18451   -18516   -18468   -18303   -18048   -17751   -17451 
  -17190   -17001   -16891   -16837   -16810   -16807   -16864   -17007 
  -17253   -17590   -17973   -18320   -18558   -18646   -18593   -18436 
  -18235   -18061   -17955   -17882   -17790   -17662   -17514   -17388 
  -17331   -17374   -17491   -17653   -17859   -18067   -18222   -18310 
  -18337   -18316   -18289   -18279   -18265   -18215   -18099   -17933 
  -17748   -17552   -17375   -17267   -17243   -17313   -17467   -17652 
  -17829   -18006   -18189   -18357   -18474   -18499   -18415   -18247 
  -18023   -17774   -17520   -17259   -16996   -16760   -16575   -16475 
  -16501   -16667   -16924   -17240   -17614   -18022   -18450   -18886 
  -19288   -19589   -19730   -19656   -19357   -18893   -18345   -17782 
  -17262   -16839   -16553   -16424   -16472   -16672   -16945   -17232 
  -17501   -17737   -17965   -18199   -18418   -18577   -18620   -18522 
  -18266   -17869   -17420   -17027   -16765   -16683   -16798   -17080 
  -17463   -17875   -18230   -18459   -18562   -18584   -18562   -18497 
  -18365   -18164   -17917   -17703   -17608   -17639   -17736   -17851 
  -17952   -17973   -17867   -17647   -17373   -17161   -17084   -17132 
  -17262   -17412   -17558   -17706   -17852   -17984   -18084   -18141 
  -18156   -18154   -18156   -18161   -18152   -18077   -17909   -17667 
  -17406   -17208   -17154   -17282   -17532   -17801   -18018   -18145 
  -18198   -18222   -18222   -18144   -17932   -17605   -17274   -17047 
  -16974   -17030   -17140   -17248   -17323   -17375   -17460   -17613 
  -17856   -18162   -18458   -18690   -18824   -18867   -18877   -18875 
  -18810   -18647   -18373   -17975   -17508   -17099   -16822   -16691 
  -16708   -16834   -17022   -17270   -17562   -17828   -18011   -18091 
  -18096   -18106   -18164   -18262   -18364   -18416   -18388   -18308 
  -18225   -18153   -18118   -18127   -18122   -18025   -17802   -17500 
  -17211   -17010   -16924   -16947   -17035   -17132   -17194   -17223 
  -17246   -17297   -17397   -17564   -17802   -18102   -18418   -18697 
  -18909   -19029   -19040   -18936   -18693   -18300   -17810   -17321 
  -16922   -16657   -16525   -16479   -16476   -16546   -16730   -17026 
  -17406   -17817   -18181   -18416   -18466   -18337   -18061   -17709 
  -17382   -17155   -17046   -17050   -17158   -17336   -17559   -17818 
  -18090   -18343   -18535   -18623   -18603   -18500   -18339   -18161 
  -17991   -17837   -17736   -17725   -17787   -17891   -17991   -18031 
  -17999   -17929   -17887   -17938   -18088   -18277   -18428   -18495 
  -18455   -18304   -18050   -17730   -17398   -17116   -16919   -16788 
  -16694   -16654   -16748   -17054   -17532   -18033   -18441   -18709 
  -18843   -18886   -18850   -18713   -18466   -18108   -17680   -17227 
  -16812   -16532   -16425   -16498   -16741   -17073   -17405   -17702 
  -17926   -18050   -18098   -18090   -18050   -18042   -18102   -18233 
  -18414   -18586   -18686   -18642   -18396   -17967   -17436   -16902 
  -16444   -16131   -15998   -16046   -16276   -16675   -17193   -17763 
  -18322   -18813   -19188   -19388   -19381   -19159   -18743   -18243 
  -17833   -17621   -17601   -17693   -17797   -17855   -17845   -17747 
  -17570   -17365   -17182   -17092   -17138   -17278   -17456   -17644 
  -17832   -18041   -18285   -18495   -18576   -18465   -18115   -17566 
  -16958   -16447   -16190   -16285   -16688   -17267   -17865   -18369 
  -18712   -18874   -18870   -18721   -18441   -18063   -17660   -17325 
  -17143   -17165   -17363   -17662   -17960   -18169   -18245   -18180 
  -18010   -17760   -17435   -17055   -16671   -16349   -16170   -16139 
  -16247   -16519   -16957   -17525   -18149   -18746   -19241   -19550 
  -19653   -19577   -19310   -18871   -18366   -17890   -17454   -17053 
  -16686   -16380   -16263   -16461   -17000   -17779   -18627   -19371 
  -19867   -20031   -19858   -19413   -18825   -18252   -17810   -17504 
  -17227   -16915   -16595   -16326   -16198   -16276   -16560   -17049 
  -17716   -18459   -19121   -19531   -19608   -19375   -18924   -18380 
  -17811   -17203   -16540   -15876   -15263   -14735   -14407   -14399 
  -14762   -15488   -16456   -17433   -18225   -18758   -19044   -19120 
  -19024   -18821   -18581   -18341   -18107   -17882   -17680   -17535 
  -17483   -17570   -17775   -18073   -18465   -18904   -19310   -19615 
  -19753   -19639   -19229   -18565   -17772   -16985   -16294   -15735 
  -15310   -15030   -14913   -14936   -15072   -15329   -15750   -16308 
  -16884   -17381   -17760   -18067   -18419   -18905   -19469   -19975 
  -20312   -20416   -20329   -20158   -19953   -19720   -19453   -19130 
  -18756   -18357   -17990   -17695   -17478   -17347   -17265   -17162 
  -16992   -16804   -16717   -16804   -17105   -17589   -18191   -18905 
  -19708   -20476   -21026   -21176   -20830   -20031   -18917   -17699 
  -16596   -15755   -15291   -15291   -15726   -16475   -17373   -18238 
  -18971   -19538   -19924   -20063   -19854   -19309   -18553   -17713 
  -16946   -16402   -16101   -16033   -16186   -16465   -16803   -17189 
  -17647   -18269   -19053   -19878   -20602   -21026   -20999   -20571 
  -19921   -19271   -18787   -18538   -18472   -18455   -18412   -18330 
  -18207   -18142   -18250   -18562   -19002   -19396   -19525   -19260 
  -18601   -17594   -16362   -15098   -13957   -13082   -12602   -12541 
  -12837   -13405   -14172   -15094   -16156   -17315   -18461   -19491 
  -20344   -20930   -21111   -20754   -19807   -18361   -16621   -14798 
  -13070   -11607   -10578   -10208   -10660   -11920   -13871   -16306 
  -18914   -21344   -23267   -24491   -24972   -24740   -23926   -22711 
  -21265   -19755   -18319   -17072   -16089   -15466   -15322   -15601 
  -16206   -17047   -17929   -18663   -19097   -19156   -18943   -18539 
  -17995   -17356   -16528   -15429   -14210   -13032   -12047   -11479 
  -11385   -11699   -12415   -13462   -14700   -16038   -17325   -18472 
  -19535   -20525   -21405   -22200   -22879   -23394   -23768   -23982 
  -24027   -23949   -23664   -23049   -22117   -20915   -19569   -18299 
  -17286   -16668   -16507   -16727   -17184   -17687   -18084   -18333 
  -18439   -18409   -18193   -17722   -17008   -16093   -15064   -14102 
  -13336   -12829   -12696   -13043   -13836   -14976   -16349   -17774 
  -19021   -19935   -20484   -20695   -20607   -20270   -19696   -18877 
  -17936   -17116   -16646   -16681   -17250   -18216   -19360   -20475 
  -21363   -21884   -21994   -21678   -20983   -19980   -18742   -17428 
  -16231   -15334   -14832   -14690   -14831   -15125   -15429   -15712 
  -16005   -16343   -16804   -17404   -18064   -18661   -19056   -19159 
  -18912   -18283   -17317   -16152   -15006   -14089   -13563   -13494 
  -13907   -14835   -16185   -17776   -19419   -20860   -21870   -22320 
  -22176   -21523   -20541   -19479   -18558   -17879   -17435   -17151 
  -16868   -16459   -15947   -15411   -14976   -14832   -15071   -15646 
  -16421   -17190   -17818   -18335   -18916   -19718   -20745   -21820 
  -22685   -23151   -23109   -22538   -21494   -20067   -18428   -16777 
  -15229   -13832   -12573   -11472   -10678   -10408   -10827   -11950 
  -13630   -15608   -17609   -19386   -20764   -21671   -22134   -22252 
  -22091   -21628   -20849   -19801   -18584   -17319   -16143   -15257 
  -14778   -14661   -14889   -15368   -15884   -16351   -16740   -17058 
  -17431   -17915   -18485   -19074   -19585   -19970   -20245   -20421 
  -20422   -20213   -19851   -19367   -18809   -18252   -17718   -17213 
  -16765   -16390   -16070   -15851   -15854   -16158   -16796   -17702 
  -18697   -19570   -20175   -20475   -20478   -20164   -19522   -18582 
  -17439   -16220   -15072   -14172   -13645   -13517   -13763   -14330 
  -15137   -16110   -17134   -18040   -18689   -19080   -19342   -19638 
  -20094   -20721   -21342   -21784   -21980   -21848   -21416   -20844 
  -20232   -19688   -19295   -19041   -18898   -18762   -18496   -18088 
  -17567   -16958   -16352   -15890   -15685   -15799   -16229   -16829 
  -17366   -17668   -17706   -17598   -17479   -17421   -17456   -17587 
  -17830   -18185   -18593   -18964   -19225   -19372   -19461   -19539 
  -19597   -19521   -19191   -18567   -17663   -16559   -15398   -14382 
  -13691   -13424   -13640   -14365   -15541   -17000   -18503   -19845 
  -20889   -21578   -21868   -21675   -20956   -19766   -18202   -16407 
  -14613   -13024   -11851   -11317   -11495   -12325   -13672   -15315 
  -17020   -18570   -19774   -20534   -20808   -20595   -19973   -19083 
  -18091   -17162   -16436   -15959   -15708   -15641   -15707   -15905 
  -16229   -16656   -17215   -17867   -18485   -18979   -19311   -19450 
  -19372   -19037   -18412   -17547   -16588   -15716   -15149   -15070 
  -15464   -16241   -17305   -18503   -19692   -20748   -21563   -22073 
  -22260   -22119   -21637   -20837   -19799   -18709   -17774   -17080 
  -16691   -16636   -16804   -17100   -17447   -17714   -17788   -17622 
  -17250   -16731   -16146   -15638   -15354   -15394   -15774   -16393 
  -17062   -17616   -17957   -18069   -18021   -17948   -17976   -18156 
  -18482   -18941   -19450   -19861   -20054   -19966   -19561   -18889 
  -18114   -17458   -17053   -16934   -17120   -17582   -18238   -18998 
  -19766   -20464   -20983   -21224   -21228   -21006   -20541   -19958 
  -19332   -18694   -18127   -17648   -17277   -17074   -17035   -17134 
  -17320   -17437   -17302   -16879   -16248   -15479   -14665   -13942 
  -13385   -13077   -13150   -13613   -14386   -15403   -16545   -17732 
  -18883   -19789   -20297   -20370   -19993   -19311   -18603   -18067 
  -17797   -17761   -17902   -18210   -18634   -19165   -19791   -20339 
  -20641   -20567   -20000   -18940   -17558   -16141   -14944   -14131 
  -13764   -13756   -13956   -14215   -14436   -14634   -14867   -15176 
  -15606   -16114   -16603   -17031   -17386   -17629   -17739   -17732 
  -17652   -17574   -17550   -17647   -17923   -18327   -18766   -19148 
  -19353   -19354   -19207   -19036   -18990   -19110   -19357   -19620 
  -19728   -19607   -19311   -18910   -18495   -18153   -17902   -17697 
  -17498   -17278   -17096   -17019   -17051   -17215   -17514   -17915 
  -18422   -18974   -19469   -19840   -20029   -20027   -19850   -19531 
  -19117   -18659   -18233   -17882   -17636   -17545   -17635   -17919 
  -18319   -18694   -18963   -19062   -18998   -18840   -18589   -18229 
  -17778   -17244   -16661   -16132   -15739   -15523   -15498   -15642 
  -15924   -16303   -16680   -16939   -16997   -16842   -16545   -16158 
  -15735   -15412   -15356   -15666   -16380   -17448   -18704   -19954 
  -21045   -21837   -22245   -22252   -21882   -21208   -20378   -19534 
  -18739   -18030   -17424   -16937   -16636   -16575   -16726   -17012 
  -17329   -17608   -17824   -17967   -18000   -17883   -17595   -17145 
  -16621   -16168   -15853   -15709   -15770   -15981   -16255   -16538 
  -16785   -16974   -17140   -17313   -17512   -17757   -18053   -18369 
  -18638   -18798   -18820   -18696   -18473   -18239   -18037   -17867 
  -17730   -17595   -17452   -17335   -17253   -17232   -17271   -17325 
  -17406   -17563   -17770   -17975   -18161   -18308   -18431   -18588 
  -18766   -18916   -19018   -19062   -19043   -18967   -18802   -18499 
  -18038   -17451   -16834   -16347   -16110   -16160   -16453   -16911 
