Origin Time       2026/01/15 07:13:00
Lat.              42.7
Long.             145.4
Depth. (km)       30
Mag.              5.7
Station Code      HKD087
Station Lat.      43.1502
Station Long.     143.8916
Station Height(m) 170
Record Time       2026/01/15 07:13:52
Sampling Freq(Hz) 100Hz
Duration Time(s)  60
Dir.              E-W
Scale Factor      7845(gal)/8223790
Max. Acc. (gal)   2.113
Last Correction   2026/01/15 07:13:53
Memo.             
[...]
    2122     2041     2108     2222     2272     2226     2115     2050 
    2107     2211     2251     2207     2137     2096     2100     2127 
    2133     2062     1933     1846     1900     2080     2239     2272 
    2223     2189     2239     2357     2424     2338     2134     1946 
    1871     1904     1972     2038     2122     2161     2100     2092 
    2243     2376     2351     2293     2311     2323     2243     2150 
    2178     2299     2331     2251     2219     2242     2178     2045 
    1989     2029     2070     2079     2114     2208     2234     2114 
    2008     2035     2100     2130     2145     2180     2274     2386 
    2381     2215     2031     1981     2052     2107     2081     2037 
    2010     1975     2023     2208     2362     2371     2324     2297 
    2305     2317     2268     2187     2146     2162     2255     2394 
    2428     2290     2099     1971     1939     2007     2120     2230 
    2324     2384     2412     2448     2415     2224     2043     2042 
    2072     1995     1876     1757     1709     1879     2197     2397 
    2435     2479     2508     2366     2110     1908     1813     1842 
    2035     2281     2400     2394     2380     2384     2380     2363 
    2305     2139     1890     1733     1818     2054     2234     2259 
    2197     2166     2203     2272     2324     2305     2223     2116 
    2006     1950     2003     2076     2079     2066     2077     2074 
    2095     2157     2216     2282     2326     2277     2219     2262 
    2347     2350     2224     2038     1923     1948     2056     2169 
    2231     2224     2211     2220     2208     2185     2185     2189 
    2192     2226     2311     2420     2465     2404     2297     2243 
    2265     2289     2238     2087     1898     1776     1786     1910 
    2047     2091     2049     2006     2033     2097     2104     2053 
    2026     2064     2181     2350     2465     2465     2397     2323 
    2257     2236     2272     2296     2280     2262     2234     2173 
    2091     2012     2010     2118     2258     2317     2258     2160 
    2133     2185     2223     2199     2147     2092     2058     2111 
    2216     2228     2153     2134     2168     2166     2145     2137 
    2147     2187     2201     2151     2092     2062     2076     2164 
    2272     2288     2214     2146     2133     2143     2149     2162 
    2154     2091     2045     2092     2214     2346     2415     2388 
    2335     2319     2299     2259     2255     2277     2278     2250 
    2209     2182     2172     2146     2089     2045     2033     2012 
    1977     1981     2041     2103     2139     2165     2192     2199 
    2165     2114     2072     2058     2124     2243     2313     2332 
    2346     2305     2204     2155     2200     2234     2180     2084 
    2027     2029     2061     2115     2182     2222     2188     2087 
    2007     2039     2172     2292     2311     2230     2096     2004 
    2029     2100     2128     2146     2211     2289     2315     2278 
    2228     2204     2222     2278     2324     2327     2296     2219 
    2107     2042     2073     2172     2268     2305     2273     2204 
    2130     2085     2103     2151     2161     2154     2170     2160 
    2104     2084     2155     2290     2374     2297     2107     1958 
    1930     1969     2025     2101     2160     2110     1973     1908 
    1964     2050     2118     2155     2146     2131     2192     2305 
    2357     2330     2330     2357     2313     2205     2122     2103 
    2111     2137     2204     2268     2259     2203     2128     2062 
    2062     2119     2149     2149     2169     2189     2185     2203 
    2274     2331     2305     2230     2164     2147     2215     2286 
    2231     2085     1985     1969     2002     2041     2042     2037 
    2101     2192     2227     2220     2219     2236     2262     2251 
    2177     2096     2074     2107     2182     2270     2312     2286 
    2212     2137     2114     2155     2203     2189     2131     2103 
    2115     2101     2074     2092     2145     2208     2282     2323 
    2280     2168     2070     2042     2060     2119     2243     2367 
    2404     2347     2258     2205     2204     2211     2214     2227 
    2238     2243     2278     2319     2284     2184     2133     2177 
    2261     2324     2334     2270     2160     2057     2019     2057 
    2122     2134     2091     2034     2008     2057     2131     2122 
    2049     2029     2092     2180     2216     2203     2214     2282 
    2359     2366     2292     2211     2155     2061     1927     1838 
    1821     1880     2020     2155     2185     2154     2168     2242 
    2346     2425     2425     2354     2270     2208     2180     2192 
    2227     2226     2165     2108     2107     2126     2122     2101 
    2083     2076     2087     2092     2066     2029     2022     2042 
    2101     2242     2447     2617     2656     2562     2409     2258 
    2127     2041     2033     2089     2146     2161     2146     2138 
    2166     2228     2268     2239     2192     2173     2150     2089 
    2057     2104     2158     2147     2083     2004     1949     1934 
    1966     2026     2073     2101     2115     2097     2084     2157 
    2296     2389     2371     2300     2274     2290     2278     2246 
    2230     2223     2214     2199     2170     2127     2096     2106 
    2120     2126     2154     2188     2187     2174     2209     2277 
    2288     2222     2141     2099     2130     2250     2407     2502 
    2471     2313     2096     1907     1796     1775     1836     1938 
    2016     2039     2045     2096     2193     2281     2304     2249 
    2154     2100     2126     2174     2191     2180     2180     2191 
    2199     2205     2216     2230     2265     2324     2369     2357 
    2295     2231     2170     2087     1996     1934     1926     1968 
    2022     2088     2188     2284     2334     2347     2335     2309 
    2285     2223     2099     1971     1904     1925     2037     2197 
    2331     2396     2378     2282     2165     2092     2058     2023 
    2004     2023     2065     2114     2160     2191     2211     2236 
    2266     2301     2370     2423     2363     2199     2052     2030 
    2126     2245     2297     2289     2284     2278     2268     2286 
    2315     2281     2176     2049     1984     2025     2111     2150 
    2139     2110     2061     2006     1991     2019     2038     2016 
    1987     2007     2097     2216     2295     2317     2312     2266 
    2161     2039     1977     1996     2049     2079     2116     2216 
    2342     2424     2451     2420     2307     2128     1979     1939 
    1992     2091     2216     2331     2378     2346     2262     2160 
    2080     2074     2139     2184     2164     2138     2164     2218 
    2269     2331     2407     2447     2404     2277     2118     1992 
    1931     1944     2011     2077     2074     2006     1926     1907 
    1966     2050     2103     2118     2126     2153     2192     2200 
    2165     2130     2139     2197     2280     2365     2403     2355 
    2253     2166     2122     2108     2116     2134     2169     2232 
    2315     2389     2432     2419     2342     2246     2196     2205 
    2230     2232     2215     2189     2161     2155     2201     2263 
    2274     2242     2207     2161     2074     1953     1841     1817 
    1907     2057     2189     2250     2222     2139     2058     2027 
    2060     2092     2056     1992     1957     1960     2014     2149 
    2335     2469     2475     2409     2354     2331     2334     2339 
    2309     2235     2146     2093     2110     2166     2224     2259 
    2274     2258     2181     2073     2039     2115     2223     2286 
    2261     2145     2025     2000     2072     2158     2181     2108 
    1985     1935     2037     2230     2397     2467     2439     2365 
    2299     2255     2236     2226     2191     2131     2070     2031 
    2065     2189     2339     2444     2475     2439     2376     2323 
    2276     2239     2212     2160     2099     2104     2199     2319 
    2380     2323     2162     1975     1857     1875     1999     2122 
    2164     2118     2056     2034     2035     2023     1991     1952 
    1917     1898     1933     2074     2296     2482     2531     2440 
    2297     2182     2127     2122     2127     2108     2097     2153 
    2297     2481     2592     2546     2382     2207     2080     2007 
    2006     2074     2155     2201     2216     2201     2150     2089 
    2058     2072     2099     2093     2050     1996     1934     1887 
    1910     2007     2128     2215     2227     2155     2052     1991 
    2016     2128     2286     2382     2330     2170     2020     1957 
    2000     2104     2231     2347     2400     2420     2459     2475 
    2405     2278     2170     2142     2207     2313     2361     2304 
    2173     2025     1914     1873     1883     1934     2053     2227 
    2393     2490     2469     2331     2143     1983     1888     1860 
    1877     1926     1988     2035     2038     2027     2099     2266 
    2416     2462     2438     2389     2308     2197     2089     2002 
    1952     1976     2061     2145     2187     2203     2216     2223 
    2205     2170     2173     2226     2274     2277     2249     2209 
    2155     2092     2087     2176     2269     2277     2238     2223 
    2215     2161     2091     2066     2079     2072     2052     2073 
    2137     2176     2143     2072     2038     2073     2157     2245 
    2299     2295     2215     2068     1935     1917     2027     2231 
    2431     2484     2346     2119     1938     1881     1952     2107 
    2290     2431     2489     2496     2506     2524     2546     2550 
    2467     2284     2091     1965     1894     1819     1748     1732 
    1777     1836     1885     1956     2045     2100     2128     2188 
    2281     2349     2362     2319     2203     2049     1953     1944 
    1977     2033     2120     2284     2536     2779     2871     2758 
    2485     2151     1877     1729     1696     1753     1857     1962 
    2093     2330     2650     2897     2949     2839     2671     2516 
    2408     2369     2373     2336     2203     1988     1775     1652 
    1651     1761     1957     2143     2223     2180     2061     1931 
    1834     1755     1661     1582     1570     1692     1949     2222 
    2366     2319     2128     1939     1881     1961     2088     2184 
    2243     2296     2357     2409     2403     2295     2108     1915 
    1802     1858     2095     2408     2667     2772     2685     2500 
    2390     2390     2404     2384     2328     2255     2220     2257 
    2349     2482     2578     2502     2262     1981     1767     1710 
    1853     2111     2357     2524     2596     2578     2484     2304 
    2062     1852     1759     1802     1960     2203     2462     2632 
    2651     2543     2369     2174     2022     1953     1934     1911 
    1872     1821     1769     1744     1783     1891     2023     2149 
    2261     2338     2371     2381     2382     2377     2350     2293 
    2189     2039     1904     1838     1833     1860     1904     1956 
    2043     2184     2303     2342     2301     2200     2107     2119 
    2242     2363     2339     2118     1783     1509     1414     1499 
    1723     2056     2409     2640     2691     2648     2596     2531 
    2448     2384     2340     2281     2209     2162     2124     2052 
    1985     1998     2077     2166     2230     2266     2276     2277 
    2300     2358     2419     2443     2417     2316     2101     1833 
    1634     1560     1576     1660     1786     1906     2014     2131 
    2261     2389     2486     2512     2443     2295     2146     2093 
    2145     2222     2254     2241     2234     2282     2362     2404 
    2378     2308     2224     2180     2209     2293     2389     2450 
    2408     2278     2160     2107     2081     2049     2010     1962 
    1923     1954     2088     2276     2447     2554     2577     2486 
    2249     1933     1671     1510     1456     1516     1630     1728 
    1796     1868     1965     2034     2022     1975     1961     2007 
    2119     2234     2211     1998     1736     1622     1714     1977 
    2323     2589     2671     2604     2469     2344     2272     2188 
    2002     1745     1517     1379     1401     1620     1962     2324 
    2631     2805     2791     2609     2369     2199     2149     2189 
    2265     2330     2351     2320     2311     2423     2605     2731 
    2789     2837     2855     2770     2550     2219     1871     1641 
    1622     1815     2165     2578     2870     2840     2462     1922 
    1445     1179     1150     1256     1366     1453     1638     2007 
    2486     2909     3144     3145     2975     2790     2716     2741 
    2775     2735     2631     2563     2612     2736     2813     2708 
    2371     1925     1552     1385     1491     1837     2245     2520 
    2583     2452     2243     2099     2035     1965     1881     1863 
    1935     2089     2303     2490     2501     2278     1910     1563 
    1416     1578     2012     2581     3133     3532     3685     3599 
    3334     2944     2470     1984     1595     1381     1351     1512 
    1861     2293     2640     2809     2798     2587     2149     1560 
     962      445       71      -45      172      697     1398     2103 
    2685     3083     3234     3106     2826     2621     2628     2802 
    2983     3022     2848     2490     2111     1890     1867     1957 
    2061     2104     2037     1822     1495     1169      955      959 
    1204     1548     1825     2020     2220     2486     2830     3225 
    3605     3893     3966     3735     3249     2641     2057     1675 
    1610     1823     2173     2478     2602     2535     2308     1934 
    1501     1163     1004     1075     1410     1883     2242     2358 
    2280     2111     1930     1784     1745     1906     2281     2782 
    3280     3655     3785     3545     2933     2110     1320      797 
     630      751     1046     1394     1749     2165     2608     2921 
    2991     2808     2432     2029     1802     1854     2142     2554 
    2940     3152     3123     2891     2567     2280     2084     1976 
    1923     1811     1520     1098      760      719     1028     1529 
    2034     2471     2821     3018     3033     2929     2774     2612 
    2477     2335     2123     1885     1768     1887     2241     2667 
    2938     2934     2677     2262     1849     1584     1498     1478 
    1399     1246     1120     1189     1584     2288     3060     3561 
    3580     3226     2813     2525     2358     2262     2153     1956 
    1713     1524     1449     1539     1853     2313     2655     2658 
    2312     1798     1386     1314     1657     2288     2929     3310 
    3310     2975     2470     1980     1641     1512     1547     1664 
    1852     2133     2440     2674     2740     2567     2160     1630 
    1139      835      803     1034     1483     2072     2633     2953 
    2898     2519     2007     1630     1606     1860     2096     2141 
    2014     1771     1509     1393     1529     1841     2151     2334 
    2362     2235     1987     1728     1584     1642     1925     2373 
    2853     3257     3546     3685     3639     3454     3191     2884 
    2579     2327     2160     2042     1879     1610     1291     1071 
    1071     1270     1545     1826     2124     2427     2662     2786 
    2825     2799     2710     2559     2334     2092     2015     2212 
    2544     2772     2783     2593     2276     1933     1653     1418 
    1205     1127     1324     1802     2423     2991     3368     3501 
    3442     3331     3285     3300     3275     3075     2604     1929 
    1283      882      783      882     1055     1231     1395     1514 
    1533     1460     1360     1309     1333     1383     1393     1377 
    1460     1723     2079     2400     2632     2737     2717     2664 
    2660     2693     2691     2609     2490     2459     2587     2809 
    2960     2891     2621     2342     2207     2227     2340     2492 
    2609     2609     2470     2228     1961     1782     1772     1877 
    1995     2127     2334     2567     2674     2563     2234     1713 
    1092      589      437      710     1296     1993     2601     2978 
    3067     2928     2710     2509     2320     2162     2116     2208 
    2366     2520     2646     2729     2767     2739     2586     2289 
    1944     1640     1393     1235     1266     1539     2015     2577 
    2983     3002     2633     2115     1709     1570     1715     2052 
    2443     2768     2948     2961     2801     2455     1972     1462 
    1027      745      683      864     1255     1814     2432     2936 
    3208     3271     3233     3206     3218     3196     3048     2739 
    2331     1981     1876     2110     2589     3044     3222     3067 
    2666     2143     1613     1166      891      882     1170     1610 
    1949     2008     1777     1390     1081     1063     1359     1788 
    2133     2308     2392     2477     2529     2428     2101     1614 
    1150      923     1034     1379     1732     1914     1979     2146 
    2519     2965     3271     3333     3248     3186     3206     3276 
    3380     3464     3403     3169     2906     2732     2620     2462 
    2219     2004     1942     1971     1923     1761     1579     1455 
    1379     1300     1190     1116     1174     1377     1610     1691 
    1556     1383     1420     1710     2087     2381     2551     2594 
    2493     2299     2103     1973     1923     1935     2035     2282 
    2670     3042     3215     3138     2918     2704     2540     2365 
    2150     1939     1782     1738     1871     2110     2285     2315 
    2253     2189     2141     2045     1907     1838     1887     1972 
    2037     2135     2319     2523     2631     2602     2497     2397 
    2326     2247     2157     2095     2066     2046     2019     1956 
    1842     1757     1840     2126     2492     2779     2929     2963 
    2905     2756     2525     2270     2031     1809     1633     1552 
    1549     1579     1625     1667     1698     1809     2104     2512 
    2803     2853     2763     2702     2772     2986     3241     3384 
    3329     3121     2864     2602     2280     1845     1350      893 
     571      442      490      654      926     1302     1744     2160 
    2457     2632     2759     2863     2903     2879     2813     2706 
    2604     2624     2849     3203     3465     3396     2980     2470 
    2115     1975     1993     2101     2234     2346     2412     2380 
    2205     1930     1626     1341     1109      976      996     1197 
    1541     1904     2158     2288     2340     2311     2182     1961 
    1669     1398     1305     1498     1864     2124     2143     2035 
    1946     1910     1879     1802     1667     1525     1479     1610 
    1904     2317     2818     3331     3734     3916     3835     3545 
    3188     2889     2666     2497     2388     2316     2257     2232 
    2227     2170     2039     1852     1622     1371     1166     1119 
