Origin Time       2026/01/15 07:13:00
Lat.              42.7
Long.             145.4
Depth. (km)       30
Mag.              5.7
Station Code      HKD066
Station Lat.      43.6619
Station Long.     145.1307
Station Height(m) 3
Record Time       2026/01/15 07:13:35
Sampling Freq(Hz) 100Hz
Duration Time(s)  132
Dir.              U-D
Scale Factor      7845(gal)/8223790
Max. Acc. (gal)   4.650
Last Correction   2026/01/15 07:13:35
Memo.             
[...]
     580      734     1171     1773     2265     2560     2550     2087 
    1394      880      591      341      153      244      769     1682 
    2647     3180     3122     2794     2448     1992     1502     1274 
    1269     1286     1409     1690     1885     1849     1674     1468 
    1367     1509     1742     1811     1775     1879     2143     2332 
    2263     1980     1595     1256     1162     1426     2019     2673 
    2870     2398     1678     1181      949      870      896     1004 
    1290     1701     1813     1510     1324     1529     1826     2087 
    2385     2471     2077     1452     1019      901     1185     1912 
    2647     2932     2809     2299     1467      897      893      953 
     762      631      716      880     1174     1664     2124     2380 
    2452     2322     2037     1853     1898     1939     1710     1271 
     846      618      853     1571     2319     2821     3136     3034 
    2191      913      -91     -422      -52      822     1827     2600 
    3041     3281     3395     3280     2841     2178     1559     1081 
     575      156      275      959     1723     2228     2536     2771 
    2809     2452     1709      915      567      776     1163     1458 
    1698     1935     2141     2214     2084     1907     1853     1799 
    1618     1521     1787     2274     2515     2268     1667      913 
     237      -75      124      810     1730     2311     2074     1277 
     676      699     1197     1854     2398     2577     2262     1575 
     918      807     1390     2124     2295     1827     1210      966 
    1305     1848     1952     1555     1185     1162     1275     1278 
    1237     1297     1505     1830     2116     2281     2506     2914 
    3319     3403     2914     1941     1078      901     1310     1845 
    2290     2640     2817     2674     2161     1470      957      814 
     930     1135     1383     1614     1679     1536     1343     1279 
    1371     1528     1798     2286     2739     2820     2643     2408 
    2069     1624     1196      939      993     1204     1217     1013 
     919     1129     1584     2139     2590     2716     2403     1760 
    1090      696      679      959     1368     1728     1942     2007 
    1985     1975     1949     1730     1343     1134     1242     1393 
    1348     1127      907      936     1281     1688     1956     2057 
    1998     1912     2065     2501     2952     3221     3294     3082 
    2512     1850     1374      920      379       82      255      749 
    1478     2347     2879     2691     2006     1331     1053     1221 
    1498     1610     1691     1854     1815     1399     1007     1156 
    1791     2400     2668     2675     2533     2232     1833     1441 
    1086      845      886     1173     1366     1248     1024     1036 
    1358     1771     1958     1836     1732     1923     2151     2019 
    1598     1313     1394     1672     1927     2195     2540     2787 
    2720     2257     1421      548       93      103      454     1162 
    1976     2455     2548     2386     2050     1865     2205     2897 
    3262     2782     1614      403     -276     -290       67      477 
     919     1425     1865     2087     2077     1954     1827     1707 
    1644     1804     2135     2288     2160     1980     1842     1661 
    1426     1166      959     1040     1466     1919     2220     2413 
    2344     1873     1252      803      619      693      930     1169 
    1414     1733     1993     2027     1908     1833     1958     2316 
    2648     2635     2281     1885     1796     1998     2057     1829 
    1615     1509     1435     1505     1648     1517     1156     1077 
    1483     1992     2251     2315     2328     2261     2019     1664 
    1363     1173     1063     1105     1368     1791     2261     2579 
    2504     2087     1625     1239      913      691      535      476 
     805     1547     2169     2358     2265     1975     1618     1483 
    1491     1360     1242     1414     1740     1949     1965     1757 
    1321      873      754     1075     1602     1973     1987     1772 
    1540     1306     1158     1351     1823     2230     2458     2508 
    2292     1906     1611     1547     1810     2428     3061     3295 
    3119     2689     2043     1297      673      282      125      211 
     538     1073     1709     2195     2351     2230     1896     1453 
    1243     1613     2550     3581     4098     3890     3154     2106 
     945       51     -183      222      812     1291     1804     2327 
    2409     1842      980      307       12       58      475     1151 
    1756     2226     2731     3133     3132     2613     1657      638 
     172      500     1169     1684     2039     2290     2241     1912 
    1633     1499     1420     1420     1425     1302     1317     1723 
    2187     2401     2516     2627     2689     2736     2689     2358 
    1764     1235     1061     1186     1386     1464     1329     1138 
    1148     1383     1602     1586     1444     1456     1536     1391 
    1065      774      588      519      652     1017     1470     1784 
    1872     1814     1707     1637     1788     2134     2224     1798 
    1223      936      916      972     1125     1439     1838     2185 
    2359     2385     2397     2384     2209     1883     1525     1274 
    1348     1819     2299     2342     2041     1703     1399     1235 
    1394     1715     1885     1888     1888     1941     2041     2220 
    2401     2408     2203     1829     1405     1290     1621     1989 
    2123     2230     2452     2629     2570     2211     1705     1483 
    1787     2209     2259     2052     1927     1938     2034     2203 
    2265     2064     1733     1513     1528     1761     2027     2091 
    1867     1455     1119     1112     1428     1827     2061     1987 
    1567      818     -122     -893    -1131     -839     -207      652 
    1529     2089     2135     1795     1459     1422     1529     1502 
    1458     1621     1903     2118     2103     1696     1120      795 
     720      788     1243     2189     3091     3230     2488     1298 
     126     -618     -631       93     1371     2822     3800     3885 
    3312     2575     2012     1871     2199     2637     2762     2628 
    2548     2543     2467     2303     2000     1560     1240     1235 
    1395     1514     1540     1512     1475     1406     1250     1074 
    1053     1190     1314     1386     1435     1291      955      819 
    1047     1340     1541     1776     1950     1748     1147      642 
     812     1606     2293     2344     1969     1688     1798     2241 
    2682     2694     2122     1279      653      537      884     1278 
    1374     1426     1996     3123     4144     4368     3699     2475 
    1252      712     1178     2224     3078     3246     2768     2020 
    1402     1190     1348     1544     1637     1719     1752     1714 
    1730     1796     1814     1741     1521     1136      778      627 
     596      631      880     1277     1489     1317      815      279 
     170      764     1858     2889     3345     2988     1912      770 
     384      915     1892     2721     2982     2655     2091     1656 
    1518     1584     1507     1066      542      413      896     1884 
    2781     2751     1678      298     -499     -128     1275     2717 
    3292     2995     2290     1501      918      839     1244     1848 
    2394     2713     2747     2546     2139     1544      967      893 
    1610     2666     3335     3424     3145     2621     1929     1304 
     976      839      569      175      -59      -29      336     1115 
    1976     2466     2594     2570     2412     2116     1637      830 
     -99     -492       83     1445     2999     3935     3576     1988 
      99    -1027     -801      711     2705     4108     4440     4032 
    3439     2812     2006     1166      708      784     1112     1332 
    1483     1838     2347     2567     2088     1044      253      394 
    1233     1993     2197     2070     2141     2571     3126     3489 
    3397     2797     1912     1059      503      406      827     1655 
    2556     3130     3102     2500     1779     1610     2296     3438 
    4047     3265     1328     -588    -1588    -1621    -1023       27 
    1537     3121     3773     2822      901     -654    -1104     -598 
     302     1175     2039     3003     3869     4297     4083     3364 
    2559     1890     1202      384     -430     -886     -623      351 
    1663     2837     3537     3802     3744     3186     2334     1934 
    2104     2168     1773     1183      761      697      920     1189 
    1476     1840     2006     1728     1399     1501     1725     1377 
     456     -168      388     2062     3746     4291     3443     1845 
     348     -699    -1393    -1595     -845      951     3146     4878 
    5679     5532     4689     3555     2520     1869     1609     1352 
     706     -330    -1347    -1669     -839      738     2002     2262 
    1696     1012      997     1993     3439     4287     4070     3356 
    2995     3083     3003     2327     1204      -56    -1150    -1607 
   -1146      -18     1300     2407     3029     3211     3171     2825 
    1935      784       67      164     1009     2231     3138     3084 
    2038      695       31      557     1779     2651     2614     1819 
     703     -124     -314     -205      -41      386     1039     1783 
    2671     3438     3577     2995     2039     1144      859     1599 
    2847     3478     3146     2432     1845     1502     1453     1683 
    2073     2521     2770     2430     1418       67    -1092    -1458 
    -731      702     2103     2943     2964     2141      805     -382 
    -761     -124     1032     2011     2600     2961     3273     3753 
    4303     4147     2752      973       98      319     1134     2137 
    2787     2756     2339     1848     1455     1571     2245     2664 
    2265     1553     1101      826      508       44     -552     -842 
    -147     1566     3430     4517     4608     4109     3423     2551 
    1568      926      766      811     1070     1868     3148     4143 
    3996     2774     1476     1015     1452     1999     1679      298 
   -1321    -2141    -1848     -872      264     1148     1420     1154 
     958     1352     2290     3221     3496     3006     2258     1746 
    1719     2376     3453     3998     3283     1621      -56    -1082 
   -1266     -643      688     2535     4383     5435     5112     3365 
     827    -1139    -1336      160     2168     3568     4005     3624 
    2606     1128     -437    -1482    -1559     -696      868     2674 
    3913     4143     3775     3346     2909     2304     1606     1235 
    1557     2428     3261     3445     2801     1798     1078      872 
    1086     1529     1929     2045     1702      777     -418    -1134 
    -961     -230      517     1026     1393     1767     1953     1575 
     764      282      685     1763     3025     4117     4645     4410 
    3782     3177     2489     1530      565      -17     -153       14 
     355      675      745      580      452      480      622     1007 
    1652     2317     2933     3505     3782     3613     3231     2932 
    2897     3229     3731     3874     3395     2644     2177     2243 
    2548     2493     1749      421    -1152    -2309    -2211     -664 
    1561     3447     4406     4344     3620     2721     1794      889 
     309      210      499     1165     2007     2565     2767     2822 
    2494     1371     -319    -1672    -1877     -878      734     2282 
    3257     3337     2504     1081     -363    -1092     -612      791 
    2207     2976     3316     3607     3573     2906     2029     1626 
    1939     2605     2970     2652     1773      766      128      108 
     564     1192     1784     2281     2662     2871     2839     2519 
    2053     1709     1566     1660     2112     2695     2808     2245 
    1467     1003      988     1293     1707     1903     1599      851 
      60     -372     -432     -373     -311     -179      117      696 
    1603     2706     3730     4352     4298     3523     2305      935 
    -486    -1752    -2504    -2610    -2273    -1786    -1200     -222 
    1445     3632     5584     6498     6196     5193     4248     3888 
    4156     4795     5445     5598     4935     3754     2566     1687 
    1313     1385     1371      810      -60     -658     -729     -371 
     193      753     1239     1651     1884     1814     1541     1445 
    1809     2423     2691     2222     1148      -71     -920    -1101 
    -735      -83      685     1298     1509     1510     1680     2022 
    2344     2660     2983     3204     3404     3696     3819     3424 
    2563     1433       89    -1190    -1709     -915     1038     3343 
    5049     5532     4780     3446     2377     1906     1763     1568 
    1165      616       70     -303     -162      807     2257     3173 
    2891     1718      441     -232      152     1468     2957     3780 
    3534     2454     1231      483      368      650     1031     1278 
    1202      832      527      700     1378     2100     2369     2126 
    1629     1112      710      568      818     1417     2204     2933 
    3150     2604     1599      581     -218     -684     -784     -666 
    -515     -230      472     1579     2720     3593     4095     4176 
    3836     3204     2512     2127     2536     3844     5454     6547 
    6538     5216     3069     1027     -334     -905     -760     -117 
     734     1474     1787     1611     1115      438     -271     -743 
    -734     -264      468     1282     1977     2322     2191     1674 
    1174     1124     1422     1686     1962     2500     3090     3307 
    3038     2467     1869     1389      969      612      449      491 
     596      670      774     1020     1372     1701     1976     2231 
    2388     2328     2174     2228     2543     2864     3032     3159 
    3388     3736     4121     4290     3929     3063     2053     1201 
     652      506      787     1305     1655     1503      970      670 
    1186     2353     3389     3780     3645     3310     2932     2477 
    1788      853       13     -333     -132      369      872     1128 
    1017      637      238      -72     -422     -823     -984     -649 
     113     1004     1722     2112     2218     2251     2393     2547 
    2548     2439     2253     1879     1297      700      364      380 
     553      675      731      804     1012     1521     2346     3248 
    3897     4054     3685     2972     2232     1831     1938     2370 
    2785     2936     2785     2506     2246     1907     1333      622 
      24     -328     -297      422     1849     3411     4423     4542 
    3834     2774     1930     1455     1119      753      426      249 
     211      317      604     1053     1605     2158     2502     2466 
    2060     1464      957      808     1077     1574     2142     2733 
    3138     3099     2624     1922     1231      718      375      167 
     168      452      981     1561     1918     2020     2151     2516 
    3086     3650     3839     3469     2756     1939     1107      364 
    -230     -676     -788     -334      531     1391     2029     2412 
    2447     2089     1561     1275     1502     2124     2816     3339 
    3645     3788     3744     3422     2882     2326     1813     1250 
     646       95     -373     -726     -946    -1124    -1275    -1202 
    -731       56      942     1810     2602     3132     3222     2906 
    2390     1960     1800     1825     1792     1638     1601     1935 
    2550     2984     2857     2284     1688     1317     1098      886 
     603      257      -32     -151      -40      361      990     1543 
    1767     1742     1768     2062     2654     3446     4180     4483 
    4167     3383     2448     1638     1116      969     1135     1344 
    1366     1125      637       66     -326     -322      130      796 
    1298     1524     1649     1857     2201     2650     3161     3681 
    4004     3886     3418     3005     2905     3025     3168     3148 
    2783     2065     1197      418      -90     -167      222      868 
    1475     1962     2365     2593     2515     2192     1837     1594 
    1514     1599     1791     1996     2114     2034     1725     1300 
     908      599      351      182      153      303      606     1003 
    1437     1833     2115     2361     2762     3326     3792     3921 
    3645     2979     2166     1636     1580     1796     1953     1884 
    1695     1626     1806     2147     2466     2628     2535     2053 
    1182      248     -363     -510     -261      175      511      608 
     589      649      828     1024     1148     1139      945      673 
     608      958     1640     2349     2852     3079     2949     2396 
    1591      893      581      750     1296     1821     1933     1691 
    1416     1298     1387     1611     1837     2025     2205     2350 
    2443     2577     2799     2947     2778     2242     1516      936 
     827     1240     2035     3084     4167     4908     5098     4797 
    4068     2951     1706      650     -117     -638     -935     -986 
    -774     -369       87      531      981     1441     1885     2200 
    2196     1845     1404     1138     1032      976     1073     1470 
    2012     2409     2558     2473     2155     1676     1202      868 
     637      398      187      206      553     1100     1675     2215 
    2681     2986     3064     2960     2864     2907     2921     2590 
    1806      747     -197     -588     -295      392     1129     1836 
    2509     3005     3195     3107     2852     2614     2536     2497 
    2317     2137     2250     2670     3064     3140     2894     2529 
    2230     1979     1607     1109      715      562      565      599 
     657      873     1367     2033     2542     2655     2461     2174 
    1821     1368      963      774      783      810      742      627 
     587      697      934     1182     1341     1374     1323     1310 
    1466     1771     2092     2361     2625     2949     3345     3784 
    4186     4374     4180     3537     2447     1143       89     -382 
    -230      378     1117     1625     1741     1518     1132      824 
     769      982     1420     1918     2124     1890     1575     1578 
    1821     1912     1579      881      218        9      326      974 
    1786     2589     3100     3063     2505     1760     1196     1003 
    1147     1440     1715     1929     2030     1933     1633     1212 
     842      754     1040     1480     1768     1869     1976     2195 
    2470     2743     3011     3226     3261     3045     2658     2258 
    1953     1740     1582     1468     1401     1401     1456     1486 
    1444     1370     1278     1147     1023     1035     1212     1421 
    1516     1467     1356     1291     1362     1543     1699     1759 
    1775     1757     1606     1250      789      445      330      384 
     535      761     1089     1559     2004     2066     1598      843 
     206      -39      152      571      909     1092     1302     1687 
    2173     2575     2774     2735     2493     2164     1858     1630 
