Origin Time       2026/01/15 07:13:00
Lat.              42.7
Long.             145.4
Depth. (km)       30
Mag.              5.7
Station Code      HKD076
Station Lat.      43.0509
Station Long.     144.8498
Station Height(m) 2
Record Time       2026/01/15 07:13:27
Sampling Freq(Hz) 100Hz
Duration Time(s)  110
Dir.              N-S
Scale Factor      7845(gal)/8223790
Max. Acc. (gal)   7.347
Last Correction   2026/01/15 07:13:27
Memo.             
[...]
   -5680    -5682    -5679    -5679    -5680    -5680    -5684    -5684 
   -5679    -5682    -5684    -5678    -5678    -5678    -5671    -5675 
   -5683    -5680    -5684    -5687    -5680    -5686    -5692    -5684 
   -5684    -5687    -5683    -5686    -5688    -5678    -5680    -5690 
   -5688    -5688    -5692    -5690    -5687    -5684    -5682    -5691 
   -5698    -5692    -5694    -5698    -5691    -5692    -5699    -5695 
   -5694    -5701    -5703    -5703    -5703    -5701    -5698    -5699 
   -5698    -5699    -5703    -5699    -5698    -5703    -5702    -5701 
   -5698    -5692    -5691    -5692    -5691    -5688    -5690    -5688 
   -5688    -5691    -5690    -5690    -5698    -5692    -5684    -5688 
   -5683    -5678    -5684    -5683    -5678    -5679    -5678    -5678 
   -5678    -5670    -5670    -5678    -5674    -5672    -5680    -5675 
   -5667    -5671    -5671    -5668    -5667    -5667    -5670    -5674 
   -5674    -5676    -5684    -5688    -5687    -5684    -5680    -5682 
   -5684    -5683    -5683    -5688    -5688    -5688    -5691    -5690 
   -5687    -5688    -5688    -5687    -5691    -5694    -5688    -5688 
   -5692    -5694    -5695    -5695    -5692    -5694    -5695    -5692 
   -5694    -5697    -5697    -5698    -5695    -5690    -5690    -5691 
   -5688    -5688    -5694    -5695    -5694    -5690    -5690    -5695 
   -5692    -5688    -5695    -5698    -5692    -5691    -5692    -5690 
   -5691    -5697    -5694    -5691    -5688    -5687    -5691    -5690 
   -5687    -5692    -5694    -5692    -5698    -5698    -5694    -5695 
   -5695    -5692    -5692    -5694    -5694    -5691    -5687    -5688 
   -5697    -5694    -5684    -5687    -5686    -5678    -5679    -5682 
   -5682    -5679    -5676    -5682    -5686    -5682    -5682    -5686 
   -5686    -5686    -5684    -5683    -5684    -5686    -5680    -5676 
   -5680    -5683    -5683    -5683    -5682    -5683    -5683    -5683 
   -5679    -5674    -5671    -5671    -5675    -5679    -5680    -5682 
   -5684    -5680    -5680    -5686    -5686    -5682    -5678    -5678 
   -5687    -5687    -5682    -5686    -5687    -5682    -5683    -5690 
   -5687    -5684    -5684    -5679    -5679    -5683    -5683    -5687 
   -5690    -5684    -5688    -5691    -5688    -5691    -5695    -5695 
   -5698    -5698    -5694    -5694    -5695    -5694    -5698    -5702 
   -5697    -5697    -5699    -5695    -5697    -5701    -5699    -5698 
   -5699    -5701    -5703    -5703    -5701    -5701    -5703    -5701 
   -5702    -5703    -5698    -5698    -5699    -5694    -5695    -5699 
   -5695    -5691    -5691    -5691    -5691    -5691    -5690    -5690 
   -5691    -5690    -5692    -5697    -5687    -5683    -5688    -5686 
   -5684    -5690    -5688    -5683    -5682    -5675    -5676    -5679 
   -5670    -5667    -5675    -5672    -5670    -5680    -5680    -5676 
   -5682    -5680    -5676    -5679    -5679    -5679    -5686    -5683 
   -5679    -5680    -5674    -5670    -5676    -5676    -5678    -5682 
   -5678    -5678    -5684    -5680    -5682    -5690    -5688    -5682 
   -5682    -5682    -5682    -5684    -5680    -5678    -5684    -5683 
   -5676    -5683    -5691    -5686    -5682    -5686    -5688    -5686 
   -5683    -5686    -5695    -5694    -5687    -5688    -5690    -5687 
   -5690    -5692    -5692    -5697    -5694    -5687    -5695    -5699 
   -5687    -5691    -5701    -5694    -5691    -5694    -5691    -5694 
   -5695    -5686    -5688    -5694    -5687    -5688    -5695    -5695 
   -5695    -5694    -5691    -5697    -5695    -5688    -5692    -5695 
   -5690    -5691    -5698    -5701    -5697    -5691    -5687    -5690 
   -5694    -5691    -5688    -5684    -5680    -5684    -5686    -5683 
   -5687    -5690    -5684    -5686    -5688    -5688    -5687    -5687 
   -5683    -5680    -5682    -5683    -5684    -5686    -5683    -5684 
   -5691    -5687    -5683    -5687    -5688    -5686    -5687    -5687 
   -5686    -5684    -5680    -5684    -5688    -5682    -5686    -5697 
   -5695    -5695    -5698    -5694    -5692    -5694    -5687    -5687 
   -5690    -5688    -5690    -5687    -5682    -5678    -5675    -5671 
   -5670    -5670    -5668    -5671    -5676    -5679    -5679    -5680 
   -5683    -5687    -5683    -5680    -5687    -5694    -5695    -5694 
   -5698    -5699    -5692    -5690    -5690    -5688    -5690    -5688 
   -5687    -5688    -5688    -5687    -5682    -5668    -5661    -5664 
   -5667    -5680    -5706    -5710    -5680    -5653    -5651    -5679 
   -5718    -5725    -5703    -5691    -5709    -5749    -5775    -5753 
   -5719    -5738    -5776    -5732    -5595    -5478    -5478    -5616 
   -5821    -5958    -6003    -6056    -6138    -6173    -6083    -5894 
   -5787    -5886    -6091    -6160    -5908    -5539    -5471    -5784 
   -6166    -6293    -6114    -5877    -5823    -5907    -5819    -5358 
   -4858    -4804    -5202    -5678    -5844    -5674    -5572    -5807 
   -6237    -6556    -6524    -6199    -5822    -5533    -5413    -5379 
   -5283    -5277    -5460    -5629    -5768    -6088    -6589    -6939 
   -6813    -6239    -5589    -5336    -5555    -5790    -5729    -5466 
   -5277    -5495    -5960    -6045    -5684    -5495    -5946    -6770 
   -7187    -6817    -5944    -4995    -4352    -4143    -4114    -4054 
   -4048    -4334    -4912    -5328    -5256    -5027    -5115    -5503 
   -5730    -5424    -4746    -4202    -4245    -4877    -5355    -5100 
   -4703    -4969    -5667    -6045    -5761    -5117    -4882    -5562 
   -6635    -7013    -6372    -5481    -5125    -5394    -5822    -5903 
   -5819    -6253    -7172    -7604    -6914    -5614    -4646    -4486 
   -5032    -5710    -5940    -5848    -5844    -5756    -5332    -4941 
   -5115    -5896    -6664    -6606    -5643    -4630    -4468    -5147 
   -5919    -6196    -5884    -5336    -5246    -5906    -6687    -6934 
   -6755    -6532    -6404    -6409    -6508    -6469    -6264    -6215 
   -6370    -6417    -6226    -5887    -5652    -5876    -6531    -7115 
   -7281    -7137    -6876    -6551    -6265    -6091    -5860    -5495 
   -5216    -5147    -5225    -5393    -5537    -5528    -5495    -5765 
   -6285    -6547    -6320    -5751    -4997    -4523    -4738    -5159 
   -5140    -4819    -4549    -4394    -4391    -4639    -5127    -5672 
   -6034    -6043    -5729    -5366    -5182    -5074    -4936    -4896 
   -5022    -5313    -5734    -6002    -5867    -5512    -5256    -5159 
   -5173    -5336    -5566    -5609    -5427    -5216    -5017    -4783 
   -4662    -4808    -5077    -5229    -5329    -5587    -5894    -5957 
   -5674    -5119    -4545    -4365    -4688    -5125    -5300    -5258 
   -5279    -5451    -5597    -5637    -5782    -6238    -6817    -7037 
   -6685    -6066    -5661    -5699    -6069    -6547    -6932    -7015 
   -6797    -6539    -6484    -6706    -7095    -7449    -7678    -7720 
   -7504    -7051    -6431    -5761    -5157    -4727    -4730    -5170 
   -5590    -5788    -5938    -5961    -5703    -5421    -5509    -5941 
   -6282    -6291    -6143    -5953    -5625    -5224    -4945    -4846 
   -4950    -5348    -6011    -6689    -7036    -6960    -6739    -6527 
   -6158    -5667    -5402    -5489    -5714    -5849    -5761    -5441 
   -5046    -4795    -4878    -5332    -5880    -6242    -6365    -6172 
   -5702    -5221    -4834    -4546    -4386    -4268    -4186    -4183 
   -4160    -4131    -4220    -4378    -4515    -4603    -4712    -5030 
   -5516    -5811    -5726    -5429    -5190    -5165    -5347    -5590 
   -5686    -5570    -5418    -5471    -5768    -6069    -6139    -6069 
   -6095    -6293    -6546    -6683    -6582    -6189    -5663    -5432 
   -5707    -6178    -6507    -6590    -6369    -5888    -5382    -5039 
   -4949    -5171    -5606    -5941    -5921    -5601    -5201    -4887 
   -4806    -5032    -5356    -5510    -5589    -5865    -6250    -6420 
   -6363    -6327    -6481    -6818    -7167    -7308    -7187    -6906 
   -6620    -6508    -6625    -6766    -6736    -6554    -6293    -6072 
   -6010    -6045    -6124    -6330    -6608    -6752    -6593    -6110 
   -5489    -4972    -4708    -4753    -4943    -5030    -5066    -5217 
   -5362    -5350    -5243    -5098    -4930    -4806    -4787    -4893 
   -4989    -4916    -4776    -4781    -4888    -4854    -4618    -4437 
   -4579    -4942    -5217    -5286    -5278    -5379    -5629    -5821 
   -5837    -5894    -6157    -6519    -6728    -6528    -5999    -5605 
   -5595    -5799    -6021    -6141    -6069    -5895    -5794    -5764 
   -5710    -5699    -5872    -6162    -6324    -6164    -5702    -5150 
   -4689    -4361    -4135    -3991    -4036    -4330    -4695    -4959 
   -5108    -5161    -5211    -5339    -5570    -5841    -5953    -5844 
   -5728    -5806    -6039    -6254    -6448    -6697    -6924    -7160 
   -7526    -7909    -8154    -8197    -7963    -7533    -7087    -6704 
   -6438    -6253    -5996    -5587    -5092    -4757    -4785    -5027 
   -5224    -5350    -5408    -5343    -5179    -4970    -4787    -4749 
   -4816    -4838    -4855    -4932    -4945    -4843    -4766    -4833 
   -5059    -5389    -5759    -6099    -6237    -6166    -6093    -6138 
   -6330    -6555    -6583    -6453    -6343    -6345    -6562    -6868 
   -6916    -6629    -6212    -5807    -5493    -5328    -5337    -5455 
   -5533    -5502    -5389    -5244    -5104    -4954    -4870    -5004 
   -5279    -5418    -5267    -4924    -4598    -4438    -4473    -4594 
   -4673    -4765    -4961    -5165    -5274    -5309    -5286    -5282 
   -5441    -5767    -6134    -6417    -6505    -6331    -6021    -5813 
   -5738    -5725    -5890    -6261    -6609    -6843    -7057    -7171 
   -7071    -6832    -6586    -6405    -6278    -6201    -6195    -6143 
   -5991    -5857    -5805    -5811    -5813    -5724    -5629    -5663 
   -5707    -5562    -5281    -5121    -5174    -5279    -5312    -5289 
   -5316    -5466    -5605    -5551    -5377    -5350    -5597    -6025 
   -6477    -6767    -6724    -6432    -6195    -6164    -6199    -6119 
   -6016    -6060    -6091    -5898    -5630    -5493    -5533    -5778 
   -6060    -6073    -5815    -5530    -5317    -5101    -4830    -4565 
   -4457    -4592    -4868    -5019    -4908    -4746    -4793    -5035 
   -5320    -5568    -5741    -5724    -5429    -4981    -4666    -4631 
   -4770    -4939    -5151    -5386    -5489    -5414    -5313    -5317 
   -5417    -5533    -5649    -5733    -5668    -5486    -5424    -5625 
   -5956    -6232    -6440    -6601    -6658    -6570    -6384    -6142 
   -5895    -5706    -5543    -5387    -5346    -5494    -5765    -5996 
   -6049    -5930    -5848    -6021    -6336    -6400    -6123    -5830 
   -5705    -5678    -5668    -5671    -5817    -6137    -6388    -6408 
   -6277    -6156    -6138    -6108    -5907    -5655    -5503    -5444 
   -5490    -5571    -5553    -5529    -5684    -6037    -6465    -6781 
   -6798    -6478    -5952    -5451    -5167    -5085    -5071    -5127 
   -5306    -5543    -5741    -5876    -5930    -5945    -5987    -6037 
   -6062    -6038    -5861    -5567    -5351    -5238    -5065    -4814 
   -4745    -5062    -5552    -5949    -6266    -6459    -6411    -6185 
   -5883    -5610    -5571    -5741    -5800    -5626    -5379    -5140 
   -4887    -4692    -4581    -4437    -4255    -4245    -4553    -5019 
   -5346    -5408    -5290    -5194    -5287    -5485    -5610    -5730 
   -5934    -6083    -6002    -5691    -5294    -4978    -4843    -4884 
   -5027    -5201    -5321    -5308    -5306    -5494    -5710    -5744 
   -5645    -5537    -5506    -5491    -5304    -4997    -4904    -5171 
   -5613    -5989    -6180    -6110    -5779    -5401    -5224    -5221 
   -5243    -5223    -5136    -5012    -4938    -4934    -4934    -4959 
   -5109    -5273    -5148    -4633    -3954    -3449    -3404    -3919 
   -4765    -5533    -5944    -6027    -5999    -5950    -5813    -5605 
   -5476    -5485    -5447    -5154    -4692    -4383    -4378    -4517 
   -4565    -4430    -4230    -4209    -4517    -5174    -6119    -7052 
   -7516    -7435    -7069    -6600    -6203    -6062    -6210    -6617 
   -7138    -7465    -7416    -7038    -6451    -5792    -5327    -5305 
   -5633    -6016    -6332    -6552    -6635    -6652    -6764    -6963 
   -6987    -6681    -6416    -6754    -7743    -8873    -9551    -9552 
   -9127    -8683    -8448    -8448    -8569    -8595    -8367    -7950 
   -7427    -6724    -6002    -5821    -6390    -7245    -7958    -8407 
   -8515    -8351    -8117    -7943    -7942    -8139    -8340    -8330 
   -8110    -7646    -6697    -5262    -3844    -3026    -3202    -4572 
   -6902    -9431   -11226   -11747   -11140    -9930    -8617    -7400 
   -6151    -4766    -3379    -2161    -1325    -1117    -1404    -1632 
   -1514    -1227     -936     -886    -1584    -3175    -5015    -6226 
   -6428    -5827    -4815    -3719    -2745    -1966    -1497    -1494 
   -1833    -2126    -2147    -1938    -1548     -943     -207      321 
     437      342      140     -542    -1981    -3807    -5355    -6322 
   -6959    -7570    -8008    -7885    -7122    -6061    -5169    -4779 
   -4880    -5007    -4648    -3771    -2748    -2014    -1952    -2767 
   -4143    -5368    -6049    -6266    -6265    -6358    -6637    -6840 
   -6690    -6058    -5004    -3855    -2949    -2430    -2324    -2686 
   -3813    -5995    -8899   -11573   -13124   -13389   -12962   -12505 
  -12187   -11778   -11113   -10405    -9988    -9898    -9879    -9779 
   -9850   -10301   -10921   -11526   -12035   -12198   -11763   -10617 
   -8984    -7452    -6354    -5676    -5655    -6556    -8101    -9652 
  -10550   -10390    -9316    -7739    -5934    -4101    -2428    -1123 
    -454     -490     -855    -1116    -1181    -1162    -1198    -1395 
   -1707    -2041    -2417    -2830    -3191    -3424    -3526    -3607 
   -3685    -3659    -3655    -4012    -4911    -6154    -7307    -8131 
   -8646    -8760    -8384    -7641    -6563    -5169    -3839    -3068 
   -3073    -3699    -4414    -4749    -4707    -4560    -4581    -4880 
   -5204    -5267    -5152    -4996    -4842    -4793    -4723    -4347 
   -3844    -3676    -3823    -3882    -3653    -3125    -2239    -1151 
    -450     -621    -1462    -2308    -2705    -2700    -2521    -2343 
   -2359    -2762    -3645    -4916    -6255    -7442    -8611    -9841 
  -10747   -10855   -10193    -9240    -8554    -8480    -9001    -9834 
  -10490   -10507    -9926    -9189    -8545    -7989    -7510    -7238 
   -7292    -7557    -7816    -7986    -8020    -7797    -7273    -6602 
   -5950    -5317    -4684    -4224    -4074    -3981    -3643    -3249 
   -3238    -3767    -4681    -5678    -6451    -6891    -7074    -7068 
   -6878    -6389    -5599    -4874    -4540    -4472    -4540    -4882 
   -5497    -6218    -7057    -8068    -9030    -9672    -9946    -9909 
   -9607    -9082    -8448    -7924    -7609    -7398    -7211    -7001 
   -6629    -5956    -4904    -3634    -2565    -1939    -1657    -1624 
   -1852    -2218    -2562    -2929    -3414    -3943    -4315    -4425 
   -4482    -4757    -5113    -5267    -5323    -5486    -5632    -5590 
   -5414    -5177    -4892    -4734    -4907    -5323    -5732    -6019 
   -6238    -6517    -6820    -6947    -6826    -6581    -6367    -6265 
   -6340    -6631    -6841    -6588    -5944    -5296    -4850    -4618 
   -4567    -4561    -4402    -4126    -3928    -3809    -3743    -3762 
   -3744    -3632    -3578    -3681    -3974    -4523    -5273    -6087 
   -6795    -7102    -6843    -6203    -5497    -5074    -5188    -5745 
   -6430    -6883    -6793    -6137    -5313    -4837    -4845    -5005 
   -4945    -4608    -4128    -3596    -3079    -2748    -2837    -3360 
   -4041    -4730    -5620    -6876    -8370    -9857   -11082   -11719 
  -11524   -10629    -9499    -8434    -7335    -6119    -5038    -4326 
   -3886    -3550    -3342    -3379    -3767    -4610    -5907    -7384 
   -8506    -8860    -8658    -8473    -8437    -8334    -8255    -8522 
   -9144    -9652    -9552    -8870    -7959    -7024    -6165    -5526 
   -5115    -4716    -4201    -3709    -3426    -3375    -3458    -3599 
   -3793    -4041    -4337    -4668    -4999    -5381    -5841    -6192 
   -6187    -5819    -5346    -5101    -5209    -5433    -5467    -5273 
   -5030    -4899    -4885    -4838    -4611    -4195    -3763    -3531 
   -3493    -3419    -3215    -3064    -3180    -3665    -4429    -5224 
   -5923    -6586    -7184    -7614    -7820    -7719    -7318    -6917 
   -6839    -7049    -7177    -6831    -5952    -4942    -4260    -3904 
   -3555    -3030    -2362    -1715    -1263    -1085    -1219    -1607 
   -2018    -2234    -2250    -2292    -2519    -2814    -3087    -3388 
   -3638    -3734    -3770    -3896    -4272    -5034    -6131    -7360 
   -8487    -9333    -9846   -10189   -10581   -11049   -11388   -11323 
  -10785   -10029    -9316    -8669    -8036    -7462    -7053    -6912 
   -6983    -7002    -6777    -6409    -6141    -6003    -5687    -4954 
   -4124    -3807    -4233    -5034    -5643    -5799    -5633    -5401 
   -5327    -5597    -6264    -7103    -7789    -8147    -8141    -7865 
   -7550    -7429    -7630    -8098    -8606    -8964    -9019    -8766 
   -8553    -8567    -8502    -8125    -7631    -7404    -7572    -7801 
   -7747    -7361    -6714    -5999    -5378    -4762    -4194    -4033 
   -4473    -5246    -5868    -6077    -5930    -5725    -5746    -5904 
   -5841    -5351    -4590    -3952    -3707    -3813    -4005    -4008 
   -3761    -3402    -3073    -2828    -2650    -2605    -2797    -3218 
   -3759    -4233    -4491    -4530    -4401    -4195    -4010    -3825 
   -3607    -3450    -3519    -3831    -4218    -4546    -4788    -4881 
   -4757    -4456    -4032    -3512    -3053    -2994    -3570    -4560 
   -5466    -5949    -5992    -5811    -5665    -5729    -6015    -6389 
   -6783    -7252    -7717    -7927    -7701    -7064    -6165    -5227 
   -4446    -3865    -3389    -2938    -2552    -2409    -2598    -2893 
   -2934    -2533    -1873    -1478    -1736    -2592    -3715    -4741 
   -5564    -6347    -7130    -7778    -8236    -8523    -8660    -8721 
   -8897    -9315    -9850   -10276   -10520   -10660   -10721   -10623 
  -10351   -10012    -9713    -9451    -9175    -8872    -8569    -8191 
   -7612    -7010    -6704    -6646    -6516    -6133    -5586    -5193 
   -5248    -5698    -6184    -6477    -6616    -6632    -6426    -5976 
   -5483    -5192    -5162    -5254    -5290    -5201    -5044    -4945 
   -4943    -4997    -5166    -5541    -5979    -6143    -5892    -5454 
   -5136    -5027    -5004    -4889    -4684    -4587    -4698    -4922 
   -5100    -5108    -4955    -4792    -4708    -4654    -4606    -4683 
   -4961    -5252    -5255    -4915    -4479    -4171    -4024    -4004 
   -4097    -4315    -4658    -4932    -4846    -4414    -3929    -3608 
   -3497    -3491    -3446    -3364    -3345    -3516    -3906    -4275 
   -4324    -4032    -3616    -3343    -3366    -3682    -4212    -4800 
   -5259    -5524    -5663    -5768    -5930    -6231    -6666    -7075 
   -7195    -6897    -6378    -6008    -6003    -6350    -6913    -7469 
