Origin Time       2026/01/15 07:13:00
Lat.              42.7
Long.             145.4
Depth. (km)       30
Mag.              5.7
Station Code      HKD078
Station Lat.      43.1488
Station Long.     144.4976
Station Height(m) 25
Record Time       2026/01/15 07:13:31
Sampling Freq(Hz) 100Hz
Duration Time(s)  107
Dir.              N-S
Scale Factor      7845(gal)/8223790
Max. Acc. (gal)   12.996
Last Correction   2026/01/15 07:13:31
Memo.             
[...]
    4002     3314     2732     2323     2380     3127     3858     3762 
    3256     3265     4012     5266     6300     6050     4658     3315 
    2685     2814     3564     4351     4482     4004     3572     3430 
    3226     2972     3105     3285     3068     3215     4068     4787 
    5278     5713     5223     3678     2322     1944     2482     3423 
    3809     3435     3191     3512     4189     5115     5737     5247 
    3996     3165     3133     3410     3673     3811     3514     2938 
    3001     3755     4090     3623     2891     2346     2293     2667 
    3129     3635     4059     4136     4062     4010     3890     3920 
    4072     4017     4044     4144     3812     3654     4392     5374 
    5826     5852     5593     4753     3581     2878     2610     2281 
    2080     2431     3194     3645     3557     3458     3245     2694 
    2583     3100     3379     3289     3368     3636     3909     4090 
    4079     3931     3605     3130     3036     3510     4122     4680 
    5078     5139     5039     4954     4815     4665     4567     4341 
    3801     3221     3119     3388     3298     2556     1768     1671 
    2378     3391     4008     3996     3788     3740     3805     3874 
    3781     3592     3653     3798     3819     4060     4388     4298 
    4180     4507     4691     4288     3794     3619     3595     3338 
    2928     3011     3632     4148     4472     4704     4480     3869 
    3441     3258     3204     3495     3952     4037     3815     3677 
    3658     3739     3956     4218     4375     4143     3397     2671 
    2635     3245     3836     3969     3898     3851     3653     3553 
    3819     3898     3554     3450     3816     4153     4290     4232 
    3728     3206     3613     4773     5540     5321     4430     3584 
    3338     3495     3315     2848     2921     3416     3427     3045 
    3078     3524     3817     3804     3716     3626     3327     2986 
    3065     3215     2914     2685     3117     4005     4816     5157 
    4928     4239     3450     3061     3053     3010     2925     3037 
    3354     3991     4950     5522     5265     4766     4467     4175 
    3985     4129     4446     4731     4864     4765     4615     4423 
    4056     3686     3240     2693     2521     2690     2732     2643 
    2658     2874     3154     3381     3537     3422     3144     3080 
    2937     2266     1597     1860     3036     4225     4978     5448 
    5490     5094     4922     5302     5717     5591     4920     4194 
    3928     4056     4025     3738     3586     3538     3391     3407 
    3634     3711     3531     3165     2651     2189     2126     2489 
    2791     2851     3029     3211     3176     3434     4085     4583 
    4955     5433     5713     5494     4828     4027     3466     3341 
    3790     4635     5004     4563     4132     4062     3873     3612 
    3481     3088     2540     2455     2724     3038     3414     3582 
    3443     3204     3015     3338     4189     4631     4499     4641 
    5053     4990     4554     4252     3983     3549     3024     2552 
    2384     2517     2748     3138     3510     3541     3618     3960 
    4117     4114     4052     3685     3456     3681     3747     3665 
    3947     4421     4808     5103     5301     5439     5294     4590 
    3780     3551     3736     3828     3879     4129     4399     4313 
    3732     2918     2277     2033     2150     2415     2608     2620 
    2436     2320     2610     3100     3335     3349     3388     3530 
    3875     4442     4973     5266     5304     5067     4692     4384 
    4120     3754     3258     3048     3634     4502     4793     4776 
    4866     4665     4241     4284     4594     4360     3618     2937 
    2554     2465     2513     2500     2583     2798     2652     2189 
    2062     2246     2382     2708     3470     4305     4625     4590 
    4797     4978     4603     4066     4021     4395     4533     4364 
    4591     5211     5410     4924     4187     3800     3989     4345 
    4548     4477     3831     2986     2763     2980     2976     2762 
    2837     3408     3915     3774     3281     2975     2979     3168 
    3268     3164     3100     3141     3227     3624     4207     4311 
    3873     3535     3645     3986     4345     4521     4222     3699 
    3607     4033     4353     4086     3819     4307     5081     5510 
    5628     5286     4519     3951     3757     3676     3784     3897 
    3574     3132     3041     3280     3743     3915     3292     2428 
    2196     2686     3335     3669     3582     3208     2968     3183 
    3495     3519     3462     3411     3168     3021     3389     3877 
    3831     3553     3763     4306     4730     5150     5444     5228 
    4909     5065     5424     5497     5051     3950     2635     2150 
    2725     3379     3680     4155     4614     4193     2982     1918 
    1449     1444     1811     2367     2546     2214     2191     2974 
    3929     4433     4673     5016     5431     5655     5418     4830 
    4433     4455     4685     4947     5042     4968     4955     4858 
    4410     3721     3056     2668     2428     1899     1302     1275 
    1771     2192     2317     2532     3017     3569     4179     4664 
    4553     4062     3886     4318     5200     5922     6029     5841 
    5572     5098     4595     4178     3836     3620     3261     2705 
    2370     2207     1929     1837     2124     2278     2074     2081 
    2644     3430     3969     3936     3352     2637     2332     2809 
    3712     4067     3821     3936     4675     5436     5819     5887 
    5711     5167     4444     3974     3767     3813     4148     4307 
    4132     4162     4634     5252     5629     5373     4347     2884 
    1439      405      221      839     1607     2286     3067     3666 
    3809     3901     4248     4598     4714     4484     3910     3534 
    3875     4506     4823     5051     5567     6224     6613     6338 
    5452     4479     3624     2934     2693     2736     2500     1914 
    1506     1759     2376     2608     2493     2658     3055     3244 
    3543     4374     5161     5568     6192     6912     6948     6424 
    5857     5283     4684     4056     3299     2515     1790     1183 
    1143     1722     2185     2322     2520     2593     2374     2459 
    3046     3503     3516     3650     4569     5914     6623     6381 
    5535     4399     3657     3703     3932     3994     4143     4401 
    4577     4521     4298     4095     3820     3512     3569     3925 
    3973     3462     2847     2567     2458     2262     2232     2670 
    3233     3393     3388     3746     4301     4842     5578     6237 
    6293     5907     5529     5205     4753     4126     3430     2895 
    2754     2987     3551     4403     5038     4857     4158     3781 
    3842     3855     3796     3954     4322     4596     4730     5151 
    5822     6069     5865     5744     5454     4448     3331     3059 
    3418     3925     4811     6107     7096     7040     6053     4718 
    3229     2030     1683     1634     1242      870      859     1074 
    1309     1425     1509     1618     1574     1506     1926     3061 
    4390     5136     5471     6304     7731     8822     8847     7873 
    6521     5386     4600     3885     2756     1227       48     -531 
   -1086    -1671    -1714     -946      579     2371     3443     3403 
    2843     2304     2072     2505     3505     4472     5125     5356 
    5111     5109     6031     7242     7784     7528     6767     5792 
    4905     4310     3974     3407     2116      621     -157     -346 
    -689    -1379    -2027    -2268    -2305    -2511    -2489    -1418 
    1112     4745     7912     8714     7149     5378     5567     7839 
   10239    10987    10042     8275     6727     6270     6728     6963 
    6002     3763     1139    -1026    -2818    -4361    -5224    -5270 
   -4769    -3709    -2002      129     2474     4926     7106     8563 
    9305     9953    11145    12414    12464    10922     8827     7211 
    6166     5464     4999     4403     3138     1043    -1582    -4055 
   -5483    -5327    -3788    -1555      697     2435     3028     2336 
    1514     1942     3508     5069     6100     6997     8363    10187 
   11673    12193    11476     9043     5305     2355     1867     3171 
    4719     5989     6625     5549     2539     -618    -2065    -2259 
   -2648    -3184    -3244    -3033    -2668    -1674        6     1483 
    2450     3950     6394     8860    10789    12449    13694    13759 
   12762    11866    11472    10841     9335     6822     3619      707 
   -1092    -2208    -3350    -4261    -4537    -4328    -3780    -2940 
   -1942     -580     1752     5020     8050     9730     9859     8671 
    6733     5015     4175     4064     4321     4992     6243     7831 
    9003     9170     8415     7072     5445     4027     3194     2833 
    2710     2678     2365     1325     -301    -1594    -1845    -1429 
   -1074     -877     -634     -361       95     1185     3036     5568 
    8469    10400    10328     9417     9148     9193     8746     8031 
    7574     7113     5962     4032     1794     -157    -1054     -449 
     880     1746     1948     1925     1840     1584     1057      444 
     368     1169     2282     2967     3176     3298     3708     4602 
    5798     7099     8704    10724    12455    12883    12090    11044 
   10138     9057     7261     4349      842    -2153    -4156    -4984 
   -4310    -2469     -623      268      162     -427     -765     -301 
     531     1109     1883     3577     6157     8887    10620    10700 
    9729     8787     8226     7520     5921     3352      743     -345 
    1390     5290     8503     9005     7383     5228     3443     1887 
     194    -1256    -1950    -2026    -1630     -421     1926     5054 
    7782     9161     9258     8598     8085     8629     9526     9157 
    7514     5765     4378     3360     2968     3311     4091     4973 
    5603     5378     3948     1807     -240    -1989    -3690    -5043 
   -5012    -3214     -683     1426     2774     3345     3424     3547 
    3901     4820     7125    10427    12494    11866     9837     8575 
    8560     8797     8217     6467     4090     2010      658     -513 
   -2052    -3380    -3670    -2995    -1773     -274     1069     2060 
    3287     5076     6718     7674     8213     8654     9127     9491 
    9062     7380     5158     3559     2870     2462     1548     -136 
   -2011    -3233    -3431    -2932    -2381    -1640       -1     2257 
    4066     4978     5572     6752     8602    10180    10601     9679 
    7744     5472     3630     2662     2413     2430     2810     4018 
    5764     7044     7136     6097     4467     2862     1807     1410 
    1323      977      -13    -1150    -1462     -978     -747    -1286 
   -1786    -1031     1001     3110     4530     5557     6736     8359 
   10162    11111    10567     9437     8964     9119     8870     7383 
    5011     2747      746    -1140    -2165    -1705     -303     1093 
    2038     2735     3489     3878     3307     2317     2165     3312 
    5034     6056     5601     4090     2581     1459       48    -1946 
   -3273    -2883    -1390      508     2853     5314     7168     8154 
    8417     8025     7149     6419     6284     6195     5464     4468 
    4041     4268     4383     3631     1983       41    -1561    -2363 
   -2096    -1070      156     1417     2643     3802     4981     5888 
    6270     6659     7699     9171    10368    10879    10720    10296 
   10066     9969     9706     9030     7414     4588     1196    -1765 
   -3329    -3026    -1760     -702      175     1081     1459      989 
     140     -864    -2361    -4089    -5057    -4610    -2783     -144 
    2710     5665     8806    12104    15165    16819    16116    13653 
   10727     8005     5671     4000     3473     4028     4511     4195 
    3762     3638     3172     2046      583    -1040    -2394    -2685 
   -2019    -1242     -513      525     1980     3731     5246     6118 
    6841     7708     8110     7539     6147     5004     5250     6307 
    6783     6399     5449     4341     3825     3975     4075     3979 
    3978     4185     4768     5304     4833     3574     2762     2839 
    3217     3302     2878     1961      970      534      783     1210 
    1304     1147     1213     1791     2745     3630     4110     4295 
    4418     4515     4764     5341     5917     6241     6400     6134 
    5108     3586     2400     2467     3736     4911     4864     3312 
     693    -1399    -1435       58     1360     1683     1602     2131 
    3584     5485     7418     9116    10083    10223    10355    10871 
   10687     8808     5742     2528     -137    -1464     -842     1011 
    2296     1750     -417    -2732    -3451    -2015      510     2770 
    4513     6164     7665     8444     8206     7339     6462     5738 
    5121     5065     6019     7468     8401     8399     7811     7103 
    6473     5749     4398     2263       72    -1302    -1522     -739 
     627     2072     3175     3848     4122     3874     3294     2932 
    2860     2671     2538     3410     5638     8262    10073    10724 
   10625    10100     8835     6259     2258    -2419    -6340    -8449 
   -8750    -7911    -6832    -6019    -5142    -3952    -2710    -1190 
    1256     4477     7663    10567    13440    15885    17150    17381 
   17096    15967    13667    10890     8604     7230     6384     5159 
    3210     1138     -490    -1772    -2835    -3510    -4087    -5189 
   -6509    -6906    -5940    -4423    -3395    -3148    -3141    -2716 
   -1845     -762      916     3816     7597    11144    13807    15280 
   15129    13725    12316    11542    11125    10764    10206     8846 
    6353     3620     2101     1964     1934      984     -787    -2520 
   -3350    -3227    -2770    -2274    -1354      472     3068     5710 
    7711     8706     8695     8031     7140     6088     4680     3144 
    2164     2006     2398     3140     4010     4540     4409     3771 
    2951     2047     1437     2062     4072     6191     7379     7663 
    7246     6212     4671     2766     1112      299      -27     -491 
   -1155    -1745    -1783     -953      533     2409     4514     6517 
    8125     9290    10095    10594    10778    10705    10349     9394 
    7844     6322     5093     3682     1925      307     -734    -1090 
    -913     -758    -1190    -2026    -2652    -2878    -2677    -1524 
     965     4040     6554     8444    10238    11699    12158    11533 
   10273     8772     7156     5580     4252     3100     2139     1742 
    1953     2463     3233     4186     4792     4654     4023     3165 
    1996      862      306       29     -607    -1645    -2632    -3045 
   -2515    -1000     1151     3353     5089     6245     6993     7464 
    7866     8340     8586     8465     8422     8594     8498     7824 
    6600     5096     3850     3037     2269     1318      355     -310 
    -399       63     1035     2776     4961     6465     6759     6264 
    5273     3959     3049     3231     4174     4873     4780     4268 
    3858     3442     2795     2043     1185      222     -240      287 
    1297     2016     2378     2741     3161     3464     3939     5127 
    6733     7705     7516     6878     6725     6903     6779     6355 
    5744     4766     3605     2895     2963     3429     3809     3986 
    3659     2427      810       -4      318     1120     1944     2721 
    3260     3542     3935     4446     4688     4776     5252     6231 
    7272     7958     8172     7657     6099     4112     2732     2008 
    1512     1185      950      762      708      433     -558    -1922 
   -2727    -2459    -1375      -58     1335     3019     4858     6451 
    7551     8040     8156     8437     8746     8318     6983     5285 
    3667     2378     1578     1178     1038     1239     1946     3136 
    4272     4622     4209     3743     3559     3500     3473     3499 
    3576     3782     3991     3751     3021     2397     2343     2762 
    3304     3973     4926     5733     5819     5339     4733     3981 
    3002     2396     2762     3685     4517     5402     6361     6640 
    6092     5591     5548     5670     5958     6385     6377     5629 
    4545     3601     3109     3237     3696     4162     4753     5439 
    5879     5783     5074     4070     3140     2145      882     -384 
   -1358    -1921    -1842    -1067      -24      954     1939     2845 
    3229     2967     2627     2955     4187     5852     7214     7921 
    8094     8106     8374     8874     9030     8446     7341     6166 
    5267     4684     3996     2747     1274      342     -133     -895 
   -1911    -2390    -2118    -1540     -765      372     1688     2776 
    3385     3589     3673     3762     3811     3883     4263     5111 
    6135     6891     7312     7568     7763     7990     8244     8334 
    7983     7088     5900     4642     3132     1412      255      218 
     826     1370     1701     1784     1452      996     1111     1964 
    2976     3577     3732     3765     3963     4303     4480     4295 
    3997     3985     4310     4687     4946     5216     5517     5664 
    5599     5333     5024     5151     5822     6355     6220     5566 
    4599     3424     2407     1798     1286      579       48      252 
    1071     1863     2425     3191     4286     5225     5709     5846 
    5822     5942     6366     6864     7291     7707     7924     7749 
    7427     7223     7080     6894     6330     4950     3041     1287 
     -51     -795     -876     -859    -1204    -1609    -1665    -1313 
    -679       32      635     1023     1237     1444     1676     1921 
    2340     3084     4021     4820     5294     5547     5624     5448 
    5085     4618     4212     4218     4741     5553     6399     7051 
    7321     7088     6521     5996     5383     4352     3487     3636 
    4469     4965     4754     4056     2937     1494      267     -283 
    -252      274     1522     3380     5260     6758     7767     8197 
    8132     7915     7619     7018     6076     4819     3343     2123 
    1544     1665     2458     3423     3804     3505     2806     1665 
     230     -845    -1162     -994     -710     -247      529     1387 
    2074     2733     3496     4163     4668     5082     5108     4622 
    4132     3947     3939     4302     5175     5921     5971     5719 
    5791     6120     6255     5917     4862     2953      733     -850 
   -1541    -1764    -1611     -959     -140      646     1890     3916 
    6103     7596     8205     8083     7423     6859     7064     7920 
    8802     9366     9626     9547     8930     7744     6046     3839 
    1543     -109     -850     -926     -626     -255     -102     -164 
     -95      380     1147     2033     3049     4081     4931     5655 
    6258     6511     6490     6762     7609     8494     8718     8263 
    7487     6662     6046     5626     5032     4209     3530     3068 
    2477     1571      506     -450    -1062    -1151     -730       21 
     992     2215     3658     5059     5930     5992     5463     4714 
