Origin Time       2026/01/15 07:13:00
Lat.              42.7
Long.             145.4
Depth. (km)       30
Mag.              5.7
Station Code      HKD097
Station Lat.      42.6181
Station Long.     143.4210
Station Height(m) 33
Record Time       2026/01/15 07:13:44
Sampling Freq(Hz) 100Hz
Duration Time(s)  94
Dir.              U-D
Scale Factor      7845(gal)/8223790
Max. Acc. (gal)   1.453
Last Correction   2026/01/15 07:13:28
Memo.             
[...]
   -3350    -3381    -3412    -3415    -3391    -3366    -3370    -3385 
   -3376    -3334    -3265    -3208    -3194    -3176    -3126    -3100 
   -3141    -3223    -3289    -3330    -3418    -3545    -3601    -3595 
   -3611    -3661    -3713    -3735    -3727    -3690    -3622    -3559 
   -3508    -3418    -3302    -3203    -3130    -3102    -3142    -3214 
   -3215    -3130    -3061    -3056    -3059    -3040    -3034    -3084 
   -3177    -3292    -3420    -3518    -3541    -3480    -3339    -3222 
   -3257    -3410    -3537    -3580    -3562    -3493    -3362    -3237 
   -3183    -3136    -3049    -2960    -2867    -2790    -2805    -2901 
   -3009    -3102    -3175    -3256    -3381    -3524    -3626    -3655 
   -3584    -3429    -3319    -3319    -3333    -3304    -3242    -3195 
   -3237    -3338    -3419    -3549    -3701    -3701    -3580    -3474 
   -3361    -3233    -3150    -3125    -3186    -3321    -3423    -3456 
   -3447    -3427    -3402    -3333    -3241    -3218    -3267    -3330 
   -3362    -3366    -3402    -3443    -3395    -3277    -3167    -3103 
   -3130    -3218    -3250    -3208    -3194    -3199    -3145    -3115 
   -3213    -3304    -3289    -3256    -3260    -3300    -3391    -3487 
   -3543    -3565    -3545    -3492    -3431    -3366    -3287    -3221 
   -3238    -3337    -3439    -3501    -3515    -3485    -3438    -3391 
   -3364    -3342    -3291    -3252    -3264    -3276    -3273    -3307 
   -3331    -3273    -3181    -3157    -3227    -3311    -3339    -3337 
   -3353    -3360    -3306    -3260    -3285    -3294    -3223    -3145 
   -3109    -3122    -3153    -3121    -3044    -3032    -3096    -3175 
   -3217    -3227    -3241    -3222    -3141    -3069    -3041    -3042 
   -3073    -3106    -3076    -3011    -3019    -3096    -3171    -3303 
   -3500    -3601    -3531    -3420    -3426    -3541    -3584    -3515 
   -3491    -3503    -3462    -3481    -3580    -3595    -3557    -3557 
   -3478    -3294    -3175    -3164    -3186    -3231    -3284    -3292 
   -3277    -3330    -3426    -3441    -3372    -3346    -3379    -3404 
   -3441    -3489    -3493    -3460    -3373    -3225    -3117    -3083 
   -3036    -3001    -3048    -3098    -3083    -3105    -3188    -3233 
   -3292    -3431    -3520    -3547    -3627    -3670    -3592    -3496 
   -3430    -3375    -3372    -3426    -3466    -3469    -3456    -3420 
   -3346    -3275    -3268    -3307    -3334    -3339    -3339    -3312 
   -3248    -3164    -3073    -3014    -3049    -3118    -3123    -3111 
   -3119    -3105    -3117    -3188    -3213    -3202    -3284    -3412 
   -3460    -3478    -3546    -3559    -3461    -3418    -3504    -3557 
   -3526    -3483    -3389    -3288    -3315    -3433    -3510    -3489 
   -3391    -3275    -3171    -3119    -3163    -3237    -3326    -3470 
   -3543    -3469    -3410    -3423    -3424    -3460    -3578    -3642 
   -3573    -3514    -3510    -3453    -3348    -3240    -3096    -3007 
   -3042    -3060    -3017    -3019    -3029    -3049    -3195    -3380 
   -3476    -3527    -3530    -3477    -3460    -3488    -3520    -3564 
   -3549    -3414    -3200    -2967    -2803    -2741    -2693    -2698 
   -2853    -2979    -2955    -3001    -3141    -3180    -3194    -3287 
   -3323    -3289    -3370    -3543    -3607    -3549    -3493    -3392 
   -3215    -3126    -3164    -3176    -3161    -3213    -3258    -3253 
   -3287    -3350    -3376    -3376    -3310    -3204    -3222    -3303 
   -3275    -3234    -3308    -3373    -3369    -3454    -3620    -3726 
   -3785    -3796    -3674    -3539    -3480    -3376    -3223    -3134 
   -3088    -3091    -3154    -3148    -3106    -3181    -3237    -3172 
   -3177    -3249    -3245    -3258    -3360    -3450    -3497    -3542 
   -3580    -3584    -3558    -3538    -3535    -3541    -3558    -3553 
   -3487    -3420    -3388    -3349    -3299    -3211    -3075    -3013 
   -3068    -3117    -3114    -3107    -3098    -3113    -3164    -3184 
   -3191    -3246    -3319    -3387    -3470    -3558    -3638    -3693 
   -3661    -3549    -3480    -3473    -3408    -3300    -3238    -3184 
   -3150    -3198    -3221    -3150    -3099    -3099    -3095    -3110 
   -3183    -3262    -3291    -3338    -3458    -3564    -3636    -3681 
   -3595    -3433    -3360    -3331    -3250    -3146    -3053    -3006 
   -3001    -2970    -2941    -2988    -3105    -3231    -3280    -3238 
   -3215    -3217    -3171    -3144    -3172    -3206    -3235    -3222 
   -3172    -3215    -3289    -3213    -3137    -3265    -3414    -3457 
   -3545    -3630    -3562    -3481    -3542    -3630    -3611    -3545 
   -3510    -3449    -3357    -3342    -3358    -3308    -3258    -3222 
   -3130    -3071    -3111    -3163    -3196    -3199    -3110    -3055 
   -3181    -3349    -3433    -3534    -3651    -3670    -3640    -3607 
   -3516    -3438    -3407    -3326    -3237    -3227    -3253    -3284 
   -3296    -3250    -3194    -3198    -3269    -3369    -3435    -3480 
   -3539    -3554    -3501    -3442    -3400    -3380    -3396    -3392 
   -3343    -3356    -3438    -3429    -3323    -3294    -3312    -3249 
   -3187    -3190    -3127    -2991    -2934    -2972    -3003    -3029 
   -3125    -3241    -3252    -3230    -3291    -3342    -3348    -3400 
   -3462    -3496    -3534    -3504    -3443    -3527    -3658    -3615 
   -3484    -3418    -3337    -3181    -3048    -3001    -2997    -3015 
   -3107    -3222    -3222    -3148    -3138    -3114    -2999    -2970 
   -3075    -3196    -3343    -3495    -3593    -3707    -3771    -3663 
   -3553    -3578    -3578    -3487    -3407    -3341    -3291    -3292 
   -3277    -3196    -3167    -3258    -3296    -3208    -3173    -3179 
   -3103    -3078    -3119    -3103    -3126    -3248    -3349    -3404 
   -3416    -3388    -3385    -3370    -3295    -3261    -3285    -3285 
   -3280    -3304    -3361    -3453    -3474    -3404    -3383    -3381 
   -3326    -3312    -3350    -3338    -3308    -3304    -3294    -3306 
   -3352    -3379    -3366    -3318    -3289    -3304    -3285    -3279 
   -3354    -3427    -3445    -3449    -3460    -3485    -3493    -3483 
   -3518    -3531    -3447    -3368    -3337    -3287    -3253    -3264 
   -3254    -3219    -3210    -3210    -3181    -3148    -3161    -3208 
   -3254    -3321    -3375    -3327    -3249    -3235    -3207    -3164 
   -3233    -3327    -3327    -3315    -3343    -3362    -3366    -3338 
   -3240    -3136    -3144    -3213    -3186    -3094    -3053    -3036 
   -3056    -3188    -3380    -3526    -3570    -3549    -3546    -3537 
   -3477    -3451    -3503    -3555    -3546    -3478    -3441    -3488 
   -3522    -3450    -3333    -3268    -3256    -3241    -3230    -3261 
   -3303    -3288    -3208    -3138    -3123    -3121    -3149    -3258 
   -3368    -3395    -3362    -3311    -3275    -3260    -3245    -3230 
   -3206    -3181    -3199    -3258    -3330    -3379    -3365    -3323 
   -3338    -3393    -3388    -3321    -3295    -3294    -3237    -3203 
   -3264    -3339    -3406    -3457    -3427    -3353    -3333    -3375 
   -3434    -3462    -3470    -3492    -3476    -3400    -3357    -3361 
   -3331    -3277    -3272    -3314    -3349    -3373    -3391    -3349 
   -3233    -3163    -3190    -3234    -3288    -3379    -3435    -3433 
   -3423    -3406    -3375    -3360    -3316    -3234    -3235    -3285 
   -3204    -3076    -3100    -3187    -3200    -3198    -3214    -3191 
   -3122    -3038    -2957    -2929    -2983    -3045    -3084    -3138 
   -3186    -3261    -3445    -3584    -3523    -3443    -3499    -3572 
   -3554    -3454    -3342    -3268    -3222    -3231    -3303    -3345 
   -3369    -3449    -3511    -3516    -3541    -3547    -3478    -3372 
   -3275    -3260    -3348    -3418    -3360    -3194    -3042    -3034 
   -3172    -3360    -3508    -3553    -3485    -3388    -3308    -3231 
   -3221    -3321    -3427    -3465    -3461    -3430    -3391    -3335 
   -3242    -3150    -3053    -2930    -2867    -2906    -3033    -3222 
   -3364    -3408    -3408    -3337    -3238    -3267    -3353    -3346 
   -3331    -3392    -3411    -3338    -3300    -3348    -3357    -3275 
   -3245    -3322    -3376    -3395    -3454    -3495    -3474    -3451 
   -3430    -3389    -3361    -3370    -3438    -3562    -3647    -3620 
   -3543    -3493    -3431    -3306    -3169    -3122    -3157    -3190 
   -3198    -3180    -3132    -3152    -3294    -3412    -3450    -3478 
   -3469    -3406    -3348    -3311    -3312    -3357    -3375    -3357 
   -3366    -3350    -3249    -3180    -3202    -3203    -3175    -3181 
   -3153    -3052    -2955    -2920    -2986    -3125    -3231    -3296 
   -3389    -3469    -3451    -3399    -3376    -3318    -3248    -3308 
   -3392    -3307    -3192    -3184    -3161    -3103    -3119    -3153 
   -3110    -3049    -3079    -3169    -3208    -3268    -3419    -3480 
   -3399    -3396    -3527    -3638    -3654    -3600    -3488    -3345 
   -3250    -3221    -3164    -3067    -3063    -3145    -3146    -3086 
   -3121    -3199    -3223    -3244    -3295    -3341    -3335    -3279 
   -3265    -3338    -3414    -3434    -3410    -3373    -3352    -3369 
   -3404    -3364    -3219    -3150    -3261    -3385    -3391    -3385 
   -3469    -3537    -3495    -3419    -3353    -3280    -3218    -3188 
   -3241    -3399    -3520    -3508    -3423    -3329    -3289    -3294 
   -3253    -3208    -3196    -3168    -3186    -3280    -3350    -3368 
   -3369    -3389    -3431    -3415    -3335    -3268    -3206    -3165 
   -3171    -3190    -3241    -3299    -3284    -3234    -3190    -3121 
   -3067    -3079    -3146    -3269    -3400    -3449    -3470    -3508 
   -3408    -3202    -3099    -3052    -2988    -3048    -3200    -3294 
   -3389    -3547    -3680    -3720    -3655    -3566    -3566    -3578 
   -3505    -3441    -3478    -3515    -3469    -3470    -3584    -3638 
   -3600    -3599    -3597    -3547    -3504    -3451    -3356    -3227 
   -3069    -2991    -3076    -3196    -3246    -3279    -3265    -3149 
   -3045    -2975    -2864    -2837    -2945    -2984    -2928    -2910 
   -2913    -2937    -3046    -3144    -3161    -3210    -3303    -3302 
   -3161    -3014    -2983    -3038    -3113    -3230    -3389    -3481 
   -3435    -3315    -3252    -3267    -3226    -3141    -3208    -3389 
   -3505    -3649    -3858    -3909    -3778    -3638    -3522    -3427 
   -3406    -3468    -3545    -3577    -3604    -3649    -3627    -3549 
   -3493    -3419    -3311    -3265    -3300    -3334    -3356    -3411 
   -3493    -3501    -3381    -3268    -3244    -3198    -3153    -3215 
   -3323    -3364    -3319    -3298    -3379    -3427    -3345    -3300 
   -3379    -3446    -3449    -3473    -3488    -3379    -3250    -3310 
   -3492    -3569    -3539    -3562    -3616    -3527    -3327    -3235 
   -3250    -3163    -3025    -3017    -3029    -3028    -3145    -3271 
   -3314    -3356    -3315    -3181    -3146    -3227    -3334    -3435 
   -3491    -3505    -3524    -3514    -3454    -3333    -3106    -2889 
   -2857    -2936    -2990    -3091    -3219    -3253    -3284    -3391 
   -3461    -3530    -3711    -3886    -3890    -3732    -3557    -3489 
   -3473    -3453    -3488    -3477    -3337    -3226    -3176    -3133 
   -3172    -3218    -3187    -3237    -3377    -3403    -3357    -3376 
   -3360    -3226    -3069    -2967    -2959    -3021    -3090    -3177 
   -3261    -3265    -3195    -3042    -2829    -2700    -2704    -2728 
   -2752    -2859    -3024    -3130    -3150    -3169    -3219    -3226 
   -3146    -3017    -2895    -2872    -3007    -3181    -3314    -3478 
   -3578    -3511    -3487    -3569    -3599    -3612    -3685    -3734 
   -3742    -3758    -3724    -3636    -3622    -3658    -3685    -3788 
   -3910    -3921    -3856    -3709    -3451    -3225    -3125    -3076 
   -2967    -2803    -2736    -2809    -2916    -3013    -3094    -3184 
   -3333    -3456    -3458    -3438    -3514    -3597    -3562    -3474 
   -3445    -3397    -3285    -3179    -3042    -2868    -2770    -2768 
   -2809    -2875    -2956    -3063    -3194    -3304    -3392    -3493 
   -3638    -3834    -4051    -4201    -4189    -4066    -3912    -3694 
   -3481    -3379    -3281    -3160    -3132    -3094    -2967    -2901 
   -2933    -3015    -3159    -3231    -3142    -3060    -3032    -2893 
   -2697    -2629    -2650    -2629    -2569    -2524    -2540    -2654 
   -2805    -2898    -2986    -3140    -3308    -3438    -3524    -3596 
   -3705    -3883    -4124    -4360    -4511    -4554    -4441    -4236 
   -4106    -4006    -3875    -3842    -3848    -3732    -3555    -3407 
   -3318    -3349    -3426    -3414    -3383    -3427    -3456    -3429 
   -3400    -3335    -3261    -3234    -3213    -3198    -3217    -3176 
   -3040    -2926    -2871    -2816    -2870    -3122    -3422    -3642 
   -3780    -3804    -3692    -3489    -3246    -2979    -2718    -2475 
   -2200    -1945    -1904    -2091    -2324    -2556    -2839    -3144 
   -3400    -3523    -3522    -3510    -3527    -3535    -3561    -3632 
   -3677    -3684    -3747    -3773    -3634    -3514    -3541    -3596 
   -3717    -3944    -4099    -4151    -4105    -3875    -3643    -3564 
   -3472    -3331    -3218    -3110    -3042    -3025    -3013    -3071 
   -3153    -3114    -3036    -2978    -2824    -2613    -2452    -2293 
   -2150    -2091    -2045    -1969    -1993    -2191    -2457    -2755 
   -3179    -3677    -4105    -4488    -4784    -4834    -4747    -4731 
   -4725    -4568    -4271    -3959    -3705    -3487    -3269    -3049 
   -2839    -2704    -2712    -2762    -2758    -2791    -2860    -2889 
   -2951    -3053    -3127    -3269    -3520    -3716    -3798    -3898 
   -4012    -4009    -3905    -3761    -3516    -3210    -2955    -2747 
   -2604    -2539    -2489    -2467    -2548    -2710    -2876    -3087 
   -3422    -3754    -3936    -4085    -4306    -4504    -4608    -4637 
   -4631    -4594    -4459    -4251    -4033    -3753    -3441    -3246 
   -3179    -3175    -3130    -2960    -2755    -2543    -2274    -2066 
   -2015    -2080    -2191    -2266    -2319    -2403    -2551    -2875 
   -3311    -3665    -3975    -4241    -4284    -4141    -3944    -3688 
   -3458    -3379    -3349    -3302    -3356    -3445    -3406    -3338 
   -3284    -3090    -2872    -2814    -2741    -2548    -2457    -2520 
   -2575    -2593    -2641    -2732    -2794    -2768    -2814    -3060 
   -3319    -3507    -3813    -4197    -4460    -4650    -4796    -4779 
   -4573    -4247    -3882    -3615    -3491    -3420    -3342    -3285 
   -3245    -3111    -2878    -2682    -2542    -2443    -2484    -2610 
   -2677    -2739    -2841    -2933    -3028    -3129    -3218    -3292 
   -3260    -3156    -3148    -3187    -3137    -3099    -3156    -3208 
   -3221    -3222    -3221    -3283    -3412    -3553    -3785    -4090 
   -4230    -4225    -4240    -4178    -4035    -3970    -3928    -3835 
   -3730    -3616    -3585    -3703    -3816    -3815    -3721    -3561 
   -3353    -3138    -2956    -2816    -2733    -2727    -2741    -2736 
   -2701    -2579    -2404    -2303    -2312    -2450    -2764    -3199 
   -3622    -3943    -4126    -4175    -4144    -4044    -3786    -3446 
   -3242    -3159    -3064    -2997    -2991    -2987    -3018    -3079 
   -3096    -3145    -3244    -3321    -3453    -3604    -3605    -3491 
   -3379    -3233    -3005    -2818    -2798    -2814    -2768    -2775 
   -2855    -2956    -3110    -3280    -3441    -3677    -3967    -4170 
   -4286    -4406    -4496    -4467    -4325    -4099    -3820    -3574 
   -3418    -3319    -3258    -3258    -3299    -3349    -3420    -3483 
   -3393    -3109    -2799    -2597    -2463    -2398    -2461    -2632 
   -2818    -2925    -2952    -2979    -3010    -3005    -3017    -3083 
   -3180    -3302    -3404    -3437    -3435    -3426    -3412    -3414 
   -3410    -3375    -3283    -3118    -2945    -2805    -2732    -2803 
   -2921    -2986    -3078    -3150    -3187    -3321    -3442    -3420 
   -3445    -3542    -3537    -3524    -3630    -3716    -3712    -3700 
   -3736    -3798    -3771    -3607    -3392    -3149    -2889    -2763 
   -2806    -2862    -2895    -2930    -2959    -3040    -3127    -3130 
   -3140    -3198    -3218    -3217    -3223    -3227    -3249    -3275 
   -3330    -3468    -3655    -3890    -4153    -4307    -4282    -4158 
   -3973    -3788    -3699    -3651    -3600    -3586    -3531    -3418 
   -3373    -3388    -3383    -3426    -3611    -3836    -3919    -3856 
   -3719    -3519    -3308    -3107    -2903    -2760    -2663    -2535 
   -2432    -2485    -2718    -2994    -3198    -3403    -3638    -3797 
   -3921    -4062    -4140    -4234    -4396    -4433    -4332    -4260 
   -4202    -4089    -3932    -3692    -3337    -3002    -2793    -2624 
   -2467    -2436    -2519    -2620    -2704    -2751    -2790    -2864 
   -2920    -2938    -2971    -3042    -3153    -3262    -3343    -3368 
   -3291    -3207    -3196    -3156    -3083    -3109    -3171    -3122 
   -3017    -2934    -2802    -2627    -2525    -2462    -2408    -2419 
   -2439    -2458    -2577    -2733    -2870    -3052    -3265    -3453 
   -3562    -3569    -3626    -3808    -3948    -4028    -4185    -4353 
   -4438    -4433    -4298    -4075    -3906    -3804    -3690    -3580 
   -3511    -3415    -3227    -3003    -2801    -2629    -2520    -2440 
   -2342    -2278    -2296    -2357    -2448    -2582    -2704    -2797 
   -2938    -3111    -3230    -3325    -3469    -3647    -3780    -3819 
   -3816    -3823    -3838    -3892    -3989    -4040    -4027    -4028 
   -4050    -4014    -3897    -3763    -3686    -3627    -3535    -3439 
   -3407    -3484    -3589    -3601    -3557    -3523    -3449    -3333 
   -3221    -3086    -2945    -2847    -2779    -2744    -2805    -2953 
   -3088    -3177    -3275    -3337    -3292    -3190    -3125    -3117 
   -3118    -3154    -3268    -3345    -3337    -3370    -3416    -3345 
   -3217    -3111    -3009    -2959    -2990    -3056    -3137    -3257 
   -3406    -3524    -3591    -3619    -3596    -3592    -3717    -3885 
   -3960    -3991    -4017    -4005    -4040    -4149    -4203    -4156 
   -4033    -3862    -3708    -3551    -3334    -3142    -3034    -2910 
   -2781    -2702    -2597    -2486    -2489    -2546    -2594    -2704 
   -2863    -3011    -3186    -3402    -3561    -3577    -3516    -3443 
   -3268    -3018    -2880    -2852    -2840    -2882    -2968    -2994 
   -2980    -3024    -3051    -3011    -3038    -3105    -3036    -2926 
   -2920    -2926    -2947    -3086    -3242    -3294    -3311    -3349 
   -3331    -3249    -3187    -3187    -3249    -3348    -3454    -3576 
   -3670    -3677    -3607    -3443    -3194    -2972    -2847    -2776 
   -2771    -2898    -3130    -3350    -3518    -3704    -3870    -3939 
   -4016    -4131    -4185    -4245    -4353    -4348    -4205    -4058 
   -3892    -3661    -3470    -3349    -3168    -2913    -2708    -2527 
   -2326    -2199    -2150    -2104    -2123    -2212    -2290    -2409 
   -2587    -2735    -2847    -2924    -2932    -2976    -3123    -3262 
   -3370    -3510    -3611    -3634    -3697    -3802    -3862    -3917 
   -4001    -4077    -4155    -4233    -4313    -4357    -4284    -4136 
