Origin Time       2026/01/15 07:13:00
Lat.              42.7
Long.             145.4
Depth. (km)       30
Mag.              5.7
Station Code      HKD069
Station Lat.      43.3941
Station Long.     145.1168
Station Height(m) 25
Record Time       2026/01/15 07:13:40
Sampling Freq(Hz) 100Hz
Duration Time(s)  115
Dir.              U-D
Scale Factor      7845(gal)/8223790
Max. Acc. (gal)   4.873
Last Correction   2026/01/15 07:13:40
Memo.             
[...]
    2232     2245     2246     2232     2230     2235     2231     2227 
    2226     2226     2231     2230     2227     2236     2232     2222 
    2227     2232     2227     2226     2230     2231     2235     2242 
    2238     2235     2239     2236     2232     2235     2238     2232 
    2228     2231     2230     2227     2230     2239     2242     2232 
    2223     2222     2224     2223     2224     2238     2246     2238 
    2227     2226     2230     2230     2227     2234     2245     2243 
    2238     2245     2243     2223     2219     2228     2224     2216 
    2224     2230     2232     2235     2239     2245     2245     2236 
    2226     2220     2222     2228     2236     2235     2231     2234 
    2230     2219     2219     2235     2242     2236     2232     2228 
    2224     2226     2236     2242     2232     2224     2230     2235 
    2231     2228     2230     2231     2228     2231     2236     2234 
    2228     2234     2238     2231     2226     2234     2239     2230 
    2226     2230     2231     2230     2224     2222     2226     2224 
    2227     2236     2238     2236     2238     2234     2226     2222 
    2226     2230     2228     2232     2236     2236     2236     2235 
    2231     2230     2226     2220     2219     2226     2230     2224 
    2223     2226     2228     2231     2230     2232     2239     2234 
    2223     2226     2231     2227     2224     2226     2230     2232 
    2228     2227     2231     2234     2236     2241     2242     2236 
    2234     2231     2228     2226     2222     2222     2230     2232 
    2230     2231     2234     2234     2234     2235     2241     2236 
    2228     2223     2220     2220     2222     2224     2235     2242 
    2236     2234     2236     2235     2228     2227     2232     2239 
    2236     2228     2228     2232     2230     2232     2247     2242 
    2227     2232     2238     2230     2227     2231     2227     2218 
    2214     2203     2182     2169     2162     2168     2170     2133 
    2053     1962     1910     1941     2049     2146     2165     2115 
    2062     2070     2134     2192     2199     2160     2101     2061 
    2134     2343     2502     2442     2265     2160     2095     1966 
    1837     1821     1933     2131     2339     2432     2338     2172 
    2119     2155     2111     2007     2039     2142     2095     2003 
    2018     1923     1722     1873     2370     2520     2068     1645 
    1861     2509     2803     2332     1632     1507     2146     3018 
    3365     2936     2331     2339     2979     3453     3159     2389 
    1899     2070     2667     3175     3121     2516     1987     1912 
    2053     2299     2529     2336     2037     2444     3156     2937 
    1769      924     1264     2427     3298     2984     2012     1984 
    3146     3707     2624     1250     1109     1822     2215     1925 
    1528     1807     2617     2959     2479     1885     1930     2583 
    3087     2849     2295     2227     2469     2412     2315     2540 
    2686     2416     2099     2312     2948     3283     3103     2837 
    2683     2443     1934     1289     1156     2127     3161     2357 
     386      -29     1767     3896     4325     2552      252     -310 
    1055     2639     3229     2667     1231       41      213     1356 
    2515     3208     3141     2619     2498     2789     2635     2057 
    2110     2878     3122     2515     2262     3102     4014     3466 
    1826     1107     1944     2763     2276     1173      853     1653 
    2872     3523     3103     2130     1382     1111     1190     1475 
    2137     3161     3601     2709     1474     1387     2295     2980 
    2704     1570      720     1302     2452     2459     1825     2079 
    2748     2555     1788     1656     2544     3446     3086     1698 
     942     1644     2751     3102     2887     2600     2250     2309 
    3075     3219     1833      642     1290     2673     3256     3144 
    2968     3024     3021     2357     1489     1633     2485     2548 
    2010     2397     3578     3944     2845     1124      109      456 
    1440     1818     1507     1391     1798     2490     3033     2517 
     900      139     1721     4031     4325     2639     1634     2450 
    3257     2924     2776     3229     2693     1285     1298     2917 
    3647     2704     2056     2636     3038     2533     2178     2304 
    1992     1227      899     1065     1134     1247     1991     3133 
    3620     2793     1352      619      693      735      742     1102 
    1614     2087     2493     2608     2338     2072     2281     2716 
    2485     1316      409     1028     2358     2700     2141     1761 
    1842     2247     2596     2378     2018     2222     2546     2531 
    2805     3339     2971     1838     1482     2281     3283     3824 
    3807     3464     3231     3129     2704     1888     1170      958 
    1487     2656     3447     2812     1507     1340     2515     3534 
    3375     2312     1102      400      502     1140     1868     2203 
    1664      870     1510     3600     4955     4419     2975     1698 
     940     1258     2911     4303     3435     1256      954     3132 
    4591     3438     1902     2127     2941     2882     2754     3231 
    3353     2574     1782     1965     2863     3299     2911     2301 
    1904     1773     1647     1217      676      573     1224     2330 
    3069     2623     1081      220     1652     3586     3030      801 
     129     1688     3343     3562     2409      708       49     1183 
    2790     3672     3681     2687     1271      866     1647     2554 
    3229     3414     2542     1323     1144     2127     3366     3901 
    3177     1803     1102     1291     1783     2683     4010     4787 
    4401     3230     1574      244      633     2181     2835     2232 
    1440      900      815     1756     3272     3797     2963     1815 
    1024      831     1622     3252     4210     2793        1     -908 
     943     2980     3283     2538     1939     2066     3067     3905 
    3199     1413      268      822     2906     4942     5088     3605 
    2231     1691     1753     1949     1741     1574     2290     3132 
    2944     2320     2219     2425     2440     2077     1456     1337 
    2203     3134     3138     2408     1547     1210     1780     2374 
    1804      591      345     1405     2643     3179     2998     2405 
    1922     2265     3424     3994     2809     1005      737     2035 
    2890     2508     2223     2700     2992     2727     2566     2736 
    2772     2515     2359     2554     2893     2682     1645      855 
    1171     2116     3038     3497     3094     2403     2517     2868 
    2147     1011      905     1579     1755     1258     1073     1521 
    1876     1795     1837     2451     2952     2293      837      375 
    1769     3088     2022     -264     -653     1512     4056     4517 
    2322       85     1197     4469     4982     1926      -86     1202 
    2851     2469     1651     2619     4320     3762      913     -587 
    1279     4205     5346     4291     2122      703     1381     2668 
    2299     1050     1155     2446     2952     2176     1736     2889 
    4337     3901     2172     1749     3110     3959     2770     1085 
    1175     2651     3330     2714     2290     2731     3229     3052 
    1957      606      673     2353     3377     2470     1414     2041 
    3245     2835     1035      279     1579     3006     2820     1764 
    1304     1883     2824     3003     2475     2448     2805     2192 
     922      558     1453     2982     4205     4106     2991     2296 
    2401     2376     1827     1323     1286     1749     2492     2965 
    2868     2493     2095     1566     1062     1219     2010     2401 
    2049     1917     2554     3186     2852     1782     1063     1085 
    1386     1892     2789     3520     3545     3165     2504     1452 
     847     1548     2884     3429     2633     1301      899     2027 
    3456     3545     2474     1880     2479     3203     2771     1513 
     994     1768     2644     2540     1898     1806     2313     2558 
    2184     1521     1181     1804     3059     3599     3098     2918 
    3603     3804     2821     1651     1032      700      567     1061 
    1945     2216     1830     1715     2022     2249     2450     2741 
    2569     1672      855     1040     2160     3231     3601     3670 
    3607     2643     1043      675     2158     3613     3240     1714 
    1158     2220     3283     2891     1867     1628     1728     1210 
     872     1678     2586     2423     1971     2079     2280     2482 
    2952     2758     1526     1236     3034     4715     3998     1872 
     957     1983     3034     2577     1948     2840     3942     3190 
    1582     1368     2469     3237     2841     1733     1053     1610 
    2940     3678     3063     2016     2083     3114     3339     2212 
    1383     1822     2488     2620     2593     2420     1648      653 
     479     1456     2875     3728     3485     2528     1547      876 
     935     1980     3071     2991     2112     1672     1757     1826 
    2165     2920     2959     1433     -558    -1192      101     2247 
    3397     2883     2164     2405     2729     2322     1881     1845 
    1721     1629     1960     2457     3115     3780     3464     2003 
     648      553     1759     3133     3230     2008     1151     1842 
    3176     3724     3468     3136     2921     2685     2457     2326 
    2253     2038     1590     1351     1884     2721     2868     2361 
    1749     1227     1254     2224     3377     3554     2727     1977 
    2101     2620     2496     1841     1584     1475      978     1208 
    2785     3881     3214     1906     1059      797     1202     1813 
    1927     1879     2228     2606     2604     2482     2421     2415 
    2633     2895     2837     2523     2209     2315     3136     4050 
    4036     3029     1887     1420     1989     3105     3447     2431 
    1225     1197     2097     2803     2849     2425     1942     1800 
    1858     1773     1821     2169     2304     2087     1926     1852 
    1902     2257     2254     1372      565      569      885     1371 
    2255     2798     2385     1933     2270     2789     2963     2902 
    2393     1462     1008     1603     2623     3109     3079     3337 
    3789     3126     1088     -328      457     2232     3159     3048 
    2551     2436     3041     3480     2856     1815     1483     1857 
    2501     3241     3464     2716     1498      765     1283     2493 
    2728     1802     1208     1422     1811     2473     3348     3261 
    2003     1129     1598     2558     2841     2388     1984     2062 
    2214     2110     2110     2501     2890     2799     2424     2288 
    2474     2713     2786     2392     1590     1395     2419     3592 
    3481     2042      747      934     1929     2170     1815     2008 
    2597     2844     2772     2347     1525     1312     2049     2076 
     668     -372      465     2586     4432     4769     3505     1794 
     702      361      741     1755     2781     3415     3883     4147 
    3823     2960     2065     1682     1976     2361     2073     1406 
    1401     2204     2898     2870     2324     1694     1416     1846 
    2430     2119     1298     1273     2012     2501     2490     2276 
    1954     1942     2619     3292     3294     2983     2508     1414 
     247      700     2685     3707     2828     1686     1248      976 
     791     1394     2644     3474     3250     2327     1864     2516 
    3150     2268      290     -638      745     2860     3291     2234 
    1719     2583     4067     4884     4122     2628     2380     3303 
    3373     2303     1717     2292     3127     3123     2273     1823 
    2616     3628     3149     1289      -10      464     2166     4004 
    5115     4963     3609     1842      662      537     1108     1699 
    2282     3034     3372     3015     2764     2980     3019     2887 
    3219     3366     2239      657      392     1765     3504     4104 
    3152     1794     1302     1474     1803     2880     4611     5242 
    3847     1599       51        5     1302     2578     2519     1614 
    1634     3024     3987     3362     2492     2614     2816     2158 
    1351     1032      945     1120     1568     1431      440      -76 
     788     2165     2976     3312     3541     3295     2247      866 
    -105     -257      166      720     1474     2290     2674     2975 
    3782     4367     3730     2517     1895     1537      780      206 
     595     1726     2587     2614     2457     2668     2998     3323 
    3460     2856     1699      931     1004     2049     4052     5640 
    5247     3306      940    -1186    -1821      -99     2486     3777 
    3769     3635     3555     3369     3530     4194     4599     4045 
    2829     1551      371     -448     -280     1108     2925     3767 
    2947     1270      113      147     1448     3636     5305     5035 
    3172     1059     -561    -1309     -756     1048     3319     4868 
    4918     4180     3967     3908     2898     1626     1433     2184 
    2701     2062      568     -480     -380      492     1879     3580 
    4445     3731     2505     1898     1942     2297     2265     1410 
     588      714     1190      783     -483     -876     1301     5174 
    7339     5895     2901      966      216      226     1432     3445 
    4630     4158     2852     1776     1282     1042      561      415 
    1734     3956     5159     4737     3740     2941     2336     1860 
    1472     1247     1200      984      621      650     1061     1556 
    2334     3484     4588     4982     4089     2232      669      457 
    1745     3589     4384     3569     2577     2774     3442     2937 
    1011     -456      388     2602     3792     3589     3213     2964 
    2489     1858     1459     2133     4167     5775     5285     3541 
    2097     1470     1502     1636     1598     1756     1925     1493 
     878      810      953      692      -54     -967    -1000      903 
    3809     5157     3838     1447      -54     -472     -342      842 
    3433     5729     5671     3512     1151     -114     -336       28 
    1094     2930     4622     5306     5093     4078     2419     1337 
    1528     1965     2064     2381     2721     2398     1902     1968 
    2104     1811     1867     2776     3446     2933     1881     1048 
     307      -97      504     1414     1097       37      241     1998 
    3674     3874     2431      402     -514      352     1811     2539 
    2558     2412     2587     3391     4174     3816     2490     1733 
    2612     4666     6448     6498     4727     3018     2943     3615 
    3342     2174     1539     2026     2886     3526     3831     3330 
    2027     1089     1009      575     -830    -1598     -349     1890 
    3534     4271     4152     3087     1641      680      511     1296 
    3080     4941     5487     4368     2320      287     -778     -220 
    1479     3118     4025     3948     2836     1553     1262     1757 
    2022     2103     2673     3362     3207     2030      542     -367 
    -379      302     1591     3091     3542     2178      109     -789 
     102     1894     3308     3659     3287     2871     2347     1431 
     747     1090     2127     2922     3260     3703     4502     4927 
    4087     2504     1749     2259     2953     2795     1575       99 
    -166     1174     2843     3716     3798     3422     2774     1969 
    1289     1260     1973     2720     3069     3395     3728     3342 
    1811     -197    -1181      139     3429     6318     6498     4237 
    1587     -137     -716        1     1787     3524     4550     5285 
    5726     4950     2689      175    -1235    -1135      311     2397 
    3813     3551     1845       12     -638      112     1533     2992 
    4182     4722     4429     3510     2231     1233     1378     2227 
    2359     1630     1186     1591     2262     2367     1715     1028 
    1340     2644     3690     3399     1895      463      417     1486 
    2296     2362     2377     2801     3098     2633     1792     1632 
    2371     2898     2583     2215     2169     1864     1371     1347 
    1929     2824     3667     4097     3948     3275     2111      693 
    -136      486     2407     4360     4800     3060      101    -2083 
   -2137     -259     2281     4171     5136     5722     5576     3639 
     718     -554      864     3148     4322     4221     3181     1260 
    -650    -1273     -379     1331     3029     4163     4521     4288 
    3875     3157     1734      167     -148     1533     4261     5830 
    4839     2462     1198     1686     2191     1543      792     1161 
    1903     1772     1192     1259     1857     2296     2830     3994 
    5297     5895     5683     4962     3784     2230     1094     1174 
    1772     1564      780      787     1759     2511     2543     2317 
    1918     1267      783      818     1170     1331     1119     1053 
    1702     2716     3140     2654     1736      949      772     1231 
    1466      845      117      604     2571     4629     5158     4368 
    3809     3781     3164     1726      283     -495      -59     1597 
    3553     5054     5884     5632     4083     2096      685        9 
     211     1602     3395     4079     3119     1399      395      899 
    2330     3492     3701     3138     2562     2486     2539     2118 
    1458     1183     1178     1042     1142     2043     3522     4950 
    5873     5788     4518     2647      719    -1024    -1752     -514 
    2124     4175     4043     2118      633     1105     2218     2076 
    1317     1595     2609     2903     2309     1938     2388     2907 
    2511     1549     1320     2137     2899     2660     1709      992 
     908      897      511      405     1513     3651     5310     5143 
    3711     2779     2801     2533     1368      334      371     1264 
    2280     2700     2286     1582     1267     1343     1418     1479 
    1729     2112     2465     2666     2593     2405     2554     3100 
    3545     3557     3315     3086     2887     2797     2933     2990 
    2667     2239     1904     1524     1347     1875     2837     3403 
    3163     2303     1393      919      724      449      319      970 
    2380     3626     4004     3601     2864     2095     1205      218 
     -21     1383     3771     5055     3958     1574      156      691 
    2223     3338     3564     3234     2789     2430     2161     2137 
    2567     3198     3295     2435     1124      244      207      943 
    2069     2870     2732     1946     1370     1344     1749     2358 
    2790     3011     3426     4083     4461     4056     2926     1705 
    1055     1061     1298     1394     1236      896      672      858 
    1290     1525     1553     1910     2832     3630     3465     2446 
    1321      629      538     1055     2104     3415     4390     4617 
    4519     4677     4845     4542     3852     3137     2575     2095 
    1587     1266     1640     2741     3601     3203     1783      432 
    -180      -79      554     1462     2147     2381     2382     2184 
