Origin Time       2026/01/15 07:13:00
Lat.              42.7
Long.             145.4
Depth. (km)       30
Mag.              5.7
Station Code      HKD091
Station Lat.      42.8088
Station Long.     143.6590
Station Height(m) 16
Record Time       2026/01/15 07:13:58
Sampling Freq(Hz) 100Hz
Duration Time(s)  84
Dir.              N-S
Scale Factor      7845(gal)/8223790
Max. Acc. (gal)   4.545
Last Correction   2026/01/15 07:13:59
Memo.             
[...]
    2494     2542     2596     2640     2673     2694     2682     2624 
    2536     2434     2331     2241     2166     2111     2089     2106 
    2134     2153     2170     2197     2215     2203     2162     2107 
    2061     2047     2080     2139     2182     2189     2169     2119 
    2046     1975     1933     1934     1966     2002     2043     2108 
    2223     2392     2560     2667     2673     2571     2398     2208 
    2023     1845     1669     1510     1386     1312     1293     1317 
    1359     1393     1401     1382     1356     1362     1421     1528 
    1668     1831     1996     2141     2258     2355     2434     2496 
    2542     2558     2532     2473     2413     2389     2404     2450 
    2525     2624     2727     2820     2882     2901     2891     2875 
    2872     2893     2928     2952     2940     2893     2837     2790 
    2752     2709     2635     2527     2408     2309     2247     2208 
    2172     2123     2069     2022     1996     1992     1996     1985 
    1934     1841     1736     1645     1567     1498     1437     1383 
    1337     1300     1271     1274     1320     1383     1437     1471 
    1501     1553     1647     1767     1883     1964     2012     2074 
    2173     2303     2430     2511     2548     2581     2633     2691 
    2722     2705     2663     2637     2654     2732     2876     3056 
    3226     3349     3387     3314     3156     2970     2812     2713 
    2663     2643     2639     2639     2643     2623     2542     2435 
    2346     2196     1934     1682     1510     1375     1283     1240 
    1186     1082      927      770      654      545      459      487 
     602      751      947     1136     1290     1480     1707     1923 
    2142     2357     2527     2624     2654     2664     2722     2836 
    2965     3087     3198     3283     3316     3330     3360     3372 
    3345     3338     3375     3400     3384     3350     3326     3289 
    3215     3113     2961     2735     2501     2324     2192     2100 
    2069     2056     1988     1868     1752     1663     1583     1498 
    1404     1297     1188     1096     1015      938      876      826 
     778      745      745      791      901     1094     1347     1621 
    1885     2091     2203     2249     2286     2334     2376     2436 
    2543     2687     2857     3033     3163     3198     3127     2970 
    2767     2585     2470     2420     2390     2340     2261     2165 
    2092     2056     2043     2054     2114     2235     2384     2506 
    2581     2602     2575     2517     2439     2334     2193     2037 
    1896     1799     1760     1775     1813     1834     1819     1780 
    1722     1652     1601     1590     1630     1721     1838     1962 
    2099     2239     2340     2382     2386     2351     2259     2118 
    1958     1806     1683     1602     1575     1618     1740     1930 
    2161     2381     2569     2751     2947     3132     3271     3333 
    3308     3234     3150     3060     2943     2783     2579     2334 
    2106     1966     1941     1989     2053     2077     2046     1984 
    1929     1892     1861     1829     1815     1845     1933     2074 
    2238     2374     2462     2515     2538     2527     2492     2434 
    2361     2293     2235     2164     2065     1957     1833     1684 
    1532     1412     1350     1377     1510     1722     1953     2147 
    2295     2415     2511     2565     2558     2509     2465     2450 
    2462     2502     2569     2647     2722     2787     2809     2754 
    2616     2416     2182     1946     1753     1640     1610     1637 
    1683     1703     1679     1638     1620     1641     1686     1728 
    1753     1775     1822     1919     2049     2178     2285     2353 
    2359     2296     2188     2087     2038     2081     2209     2378 
    2547     2682     2763     2798     2809     2805     2785     2740 
    2679     2628     2610     2639     2708     2805     2903     2951 
    2899     2752     2547     2315     2077     1864     1694     1564 
    1483     1464     1506     1595     1717     1831     1892     1898 
    1892     1906     1937     1966     1964     1926     1873     1819 
    1772     1730     1707     1714     1738     1775     1799     1773 
    1694     1574     1448     1368     1374     1440     1506     1526 
    1491     1426     1372     1372     1441     1563     1736     1976 
    2255     2527     2760     2930     3040     3127     3229     3346 
    3480     3608     3688     3705     3659     3566     3465     3387 
    3345     3339     3345     3329     3265     3140     2978     2826 
    2713     2643     2601     2556     2497     2439     2401     2393 
    2384     2319     2178     1983     1756     1533     1360     1266 
    1220     1174     1096      972      796      569      324      102 
     -72     -180     -197     -105       87      342      607      854 
    1096     1354     1621     1877     2107     2293     2438     2570 
    2701     2825     2963     3134     3330     3516     3657     3743 
    3801     3863     3927     3975     3991     3963     3882     3754 
    3603     3453     3307     3137     2899     2586     2241     1926 
    1703     1591     1557     1560     1582     1611     1647     1688 
    1706     1679     1637     1614     1625     1665     1718     1759 
    1784     1815     1865     1931     1980     1969     1888     1768 
    1668     1634     1661     1714     1741     1687     1555     1404 
    1312     1332     1443     1584     1710     1827     1975     2182 
    2451     2732     2934     3026     3051     3036     2999     2970 
    2957     2963     2995     3064     3167     3277     3346     3342 
    3256     3090     2864     2628     2421     2272     2197     2149 
    2019     1809     1637     1579     1575     1590     1695     1877 
    2035     2116     2106     2025     1899     1713     1518     1402 
    1354     1351     1404     1501     1636     1811     1995     2157 
    2286     2362     2376     2358     2367     2425     2500     2562 
    2597     2592     2567     2556     2583     2651     2760     2911 
    3001     2937     2928     3183     3260     2775     2308     2026 
    1571     1485     1804     1645     1066      826     1175     1530 
    1510     1661     2087     2351     2531     2731     2855     2882 
    2824     2745     2641     2467     2282     2066     1788     1567 
    1448     1409     1507     1694     1857     2083     2389     2579 
    2609     2593     2479     2234     2008     1830     1637     1468 
    1325     1169     1034      957      957     1077     1320     1614 
    1922     2250     2555     2766     2862     2864     2783     2663 
    2554     2465     2415     2452     2590     2768     2920     3005 
    2984     2868     2720     2581     2447     2326     2242     2218 
    2253     2370     2597     2929     3337     3781     4176     4429 
    4513     4450     4263     3966     3568     3079     2543     2004 
    1490     1028      626      259      -67     -307     -409     -414 
    -464     -510     -288      152      473      669      928     1185 
    1310     1324     1296     1197     1013      851      743      594 
     390      217      110       66      122      313      633     1081 
    1634     2239     2857     3468     4048     4583     5086     5564 
    5964     6218     6301     6222     6003     5683     5296     4892 
    4526     4233     4000     3750     3443     3118     2806     2516 
    2257     2018     1767     1487     1183      899      693      576 
     508      475      463      450      419      379      355      357 
     406      542      765     1023     1310     1645     1969     2241 
    2494     2735     2934     3113     3262     3314     3208     2967 
    2664     2342     2014     1710     1441     1208     1035      940 
     899      880      884      931     1021     1152     1316     1490 
    1653     1819     2030     2332     2772     3354     4023     4685 
    5252     5663     5896     5960     5863     5601     5139     4464 
    3734     3210     2934     2698     2420     2172     1956     1746 
    1572     1483     1480     1474     1399     1286     1165     1048 
     950      877      832      822      873     1024     1263     1518 
    1713     1829     1898     1981     2101     2216     2257     2191 
    2029     1804     1586     1432     1341     1289     1274     1306 
    1377     1470     1575     1698     1865     2093     2339     2556 
    2737     2870     2922     2879     2743     2523     2235     1927 
    1637     1393     1240     1213     1313     1505     1702     1837 
    1884     1857     1792     1710     1630     1588     1601     1659 
    1764     1931     2149     2400     2682     2984     3267     3483 
    3607     3634     3595     3550     3528     3520     3500     3449 
    3350     3179     2925     2651     2431     2296     2257     2289 
    2334     2339     2286     2187     2057     1911     1765     1617 
    1475     1383     1360     1390     1444     1507     1591     1713 
    1845     1954     2037     2096     2126     2124     2091     2010 
    1877     1707     1513     1314     1143     1043     1043     1121 
    1225     1301     1329     1337     1368     1444     1561     1709 
    1877     2083     2354     2728     3190     3693     4183     4595 
    4864     4955     4899     4746     4525     4234     3867     3434 
    2972     2528     2120     1742     1408     1156     1008      967 
    1030     1179     1394     1657     1930     2164     2316     2377 
    2367     2308     2209     2093     1981     1898     1887     1979 
    2168     2425     2708     2957     3140     3244     3261     3192 
    3059     2894     2743     2639     2593     2590     2586     2550 
    2492     2432     2388     2359     2347     2342     2335     2319 
    2259     2123     1922     1690     1455     1232     1015      791 
     561      352      194      114       98      135      245      457 
     750     1077     1394     1683     1933     2133     2282     2401 
    2500     2594     2701     2821     2929     2999     3018     2987 
    2926     2852     2791     2759     2748     2756     2776     2783 
    2767     2737     2694     2651     2619     2587     2536     2439 
    2292     2131     2016     1966     1961     1965     1949     1877 
    1718     1464     1151      835      565      371      264      247 
     336      554      893     1314     1772     2200     2528     2731 
    2821     2840     2841     2859     2903     2967     3040     3122 
    3219     3302     3334     3304     3211     3075     2934     2816 
    2741     2731     2766     2817     2856     2828     2693     2455 
    2157     1852     1583     1364     1179     1007      842      700 
     604      584      656      788      932     1051     1125     1155 
    1162     1175     1198     1221     1244     1273     1296     1323 
    1382     1495     1674     1937     2281     2671     3073     3454 
    3763     3937     3958     3873     3763     3689     3658     3657 
    3662     3654     3640     3642     3655     3655     3608     3499 
    3337     3134     2924     2733     2569     2424     2299     2203 
    2149     2147     2199     2293     2417     2543     2623     2636 
    2592     2501     2354     2131     1815     1421     1004      627 
     330      145       81      103      166      233      292      365 
     511      784     1179     1647     2095     2447     2695     2859 
    2943     2955     2914     2845     2774     2714     2693     2718 
    2770     2826     2898     2987     3075     3154     3230     3298 
    3350     3392     3415     3404     3333     3163     2870     2477 
    2035     1587     1147      724      349       60     -117     -198 
    -199     -143      -36      128      352      616      904     1173 
    1390     1575     1752     1933     2135     2353     2558     2724 
    2837     2897     2920     2933     2964     3036     3159     3343 
    3576     3798     3964     4072     4139     4175     4191     4193 
    4183     4144     4060     3933     3765     3550     3291     2991 
    2647     2262     1868     1505     1201      981      853      789 
     747      697      629      541      430      321      241      193 
     179      217      287      386      541      762     1032     1312 
    1549     1734     1941     2220     2524     2830     3150     3435 
    3651     3792     3871     3906     3883     3801     3669     3485 
    3276     3088     2968     2936     2995     3136     3338     3555 
    3719     3781     3754     3686     3611     3539     3472     3379 
    3245     3095     2949     2803     2641     2438     2184     1895 
    1584     1247      866      442       16     -363     -646     -816 
    -923     -997     -992     -907     -791     -629     -399     -122 
     201      554      905     1266     1637     1929     2092     2176 
    2200     2193     2230     2351     2548     2791     3091     3464 
    3882     4306     4695     5022     5289     5524     5721     5836 
    5848     5763     5576     5290     4931     4557     4228     3967 
    3743     3538     3369     3237     3095     2916     2660     2278 
    1768     1177      561      -20     -514     -889    -1125    -1242 
   -1323    -1447    -1574    -1686    -1884    -2115    -2281    -2451 
   -2586    -2577    -2420    -2137    -1798    -1436    -1020     -592 
    -162      271      675     1092     1536     1971     2421     2928 
    3478     4035     4563     5032     5432     5765     6026     6205 
    6326     6421     6517     6628     6747     6818     6808     6710 
    6493     6176     5853     5601     5418     5260     5082     4822 
    4433     3943     3412     2880     2332     1779     1251      753 
     282     -155     -552     -885    -1129    -1271    -1300    -1219 
   -1043     -788     -475     -141      190      550      957     1374 
    1772     2139     2447     2663     2779     2810     2767     2690 
    2639     2643     2701     2793     2886     2951     2975     2951 
    2884     2781     2663     2573     2539     2578     2673     2775 
    2853     2886     2848     2739     2582     2404     2234     2122 
    2085     2084     2072     2031     1962     1885     1841     1869 
    1976     2130     2276     2373     2405     2389     2358     2343 
    2350     2373     2405     2435     2454     2462     2450     2394 
    2278     2089     1836     1560     1301     1065      861      710 
     633      625      643      648      622      560      487      453 
     480      568      703      849      969     1082     1233     1431 
    1648     1867     2088     2324     2581     2833     3063     3275 
    3480     3661     3802     3882     3867     3743     3530     3262 
    2978     2713     2516     2408     2343     2274     2192     2096 
    1996     1912     1852     1795     1723     1649     1602     1583 
    1590     1620     1675     1765     1914     2115     2331     2515 
    2631     2674     2670     2658     2697     2825     3026     3254 
    3466     3631     3736     3777     3730     3577     3330     3006 
    2631     2239     1887     1618     1440     1323     1225     1119 
    1000      885      788      729      719      738      765      804 
     853      912      997     1096     1196     1308     1444     1599 
    1773     1968     2174     2381     2583     2771     2929     3057 
    3160     3222     3227     3187     3132     3076     3011     2933 
    2870     2855     2905     3003     3103     3164     3186     3180 
    3146     3082     3005     2943     2889     2828     2756     2674 
    2583     2489     2397     2307     2218     2137     2066     2016 
    1996     2016     2074     2164     2263     2353     2424     2479 
    2516     2536     2538     2513     2455     2355     2208     2020 
    1818     1637     1494     1398     1366     1390     1433     1455 
    1448     1422     1398     1402     1453     1551     1687     1864 
    2076     2304     2502     2612     2605     2492     2282     2014 
    1744     1521     1364     1274     1242     1242     1225     1167 
    1089     1008      918      819      741      730      807      961 
    1167     1386     1591     1788     1971     2116     2241     2388 
    2567     2764     2953     3088     3145     3144     3095     2986 
    2813     2608     2417     2288     2243     2289     2394     2523 
    2659     2793     2910     3015     3110     3171     3184     3160 
    3117     3060     2992     2920     2843     2763     2675     2582 
    2490     2404     2334     2300     2315     2371     2450     2551 
    2666     2763     2833     2889     2922     2930     2921     2906 
    2893     2867     2803     2702     2571     2420     2247     2054 
    1827     1575     1340     1163     1058     1034     1081     1152 
    1217     1274     1324     1372     1429     1497     1570     1642 
    1691     1715     1733     1736     1705     1648     1570     1464 
    1355     1281     1248     1255     1297     1352     1406     1459 
    1512     1571     1655     1782     1939     2106     2261     2403 
    2535     2670     2817     2972     3123     3262     3392     3515 
    3627     3730     3817     3889     3935     3927     3865     3778 
    3654     3453     3179     2863     2540     2235     1966     1744 
    1552     1367     1183     1017      885      812      805      855 
     935     1021     1097     1143     1147     1125     1102     1088 
    1081     1093     1128     1196     1316     1479     1659     1836 
    1992     2118     2226     2354     2516     2705     2914     3137 
    3352     3534     3672     3759     3800     3816     3835     3861 
    3886     3893     3856     3757     3601     3429     3289     3208 
    3161     3109     3018     2887     2732     2567     2408     2254 
    2089     1894     1649     1350      993      600      213     -121 
    -367     -506     -565     -580     -548     -456     -326     -176 
      -1      197      402      606      812     1026     1244     1466 
    1679     1877     2065     2245     2415     2577     2736     2890 
    3029     3156     3285     3418     3555     3726     3952     4243 
    4588     4955     5290     5543     5687     5718     5641     5468 
    5242     4995     4718     4386     3998     3580     3137     2677 
    2207     1752     1331      965      658      413      207       29 
    -105     -183     -213     -197     -136      -51       31       99 
     148      180      217      271      338      405      460      499 
     523      542      560      592      670      810     1019     1306 
    1668     2092     2556     3026     3473     3867     4189     4437 
    4637     4793     4904     4958     4958     4911     4833     4731 
    4606     4457     4301     4158     4017     3863     3696     3501 
    3249     2918     2523     2101     1692     1323     1020      789 
     603      433      282      163       87       52       41       49 
      90      174      306      484      693      919     1154     1379 
    1583     1768     1934     2080     2212     2335     2459     2594 
