Origin Time       2026/01/15 07:13:00
Lat.              42.7
Long.             145.4
Depth. (km)       30
Mag.              5.7
Station Code      HKD090
Station Lat.      43.1213
Station Long.     143.6183
Station Height(m) 65
Record Time       2026/01/15 07:13:59
Sampling Freq(Hz) 100Hz
Duration Time(s)  62
Dir.              U-D
Scale Factor      7845(gal)/8223790
Max. Acc. (gal)   1.019
Last Correction   2026/01/15 07:13:59
Memo.             
[...]
   12009    11993    11863    11684    11533    11518    11664    11832 
   11886    11812    11670    11564    11595    11754    11920    11982 
   11929    11826    11719    11653    11682    11815    11971    12064 
   12079    12017    11904    11832    11857    11927    11978    11981 
   11939    11869    11772    11684    11688    11807    11974    12079 
   12037    11855    11670    11620    11719    11875    11956    11925 
   11897    11940    11977    11924    11792    11672    11686    11862 
   12102    12290    12339    12210    11978    11755    11596    11503 
   11475    11556    11769    11978    11979    11801    11668    11703 
   11853    11986    12047    12071    12091    12081    12013    11909 
   11839    11875    11958    11947    11839    11742    11713    11767 
   11877    11921    11826    11686    11632    11666    11720    11769 
   11835    11928    12005    12001    11897    11778    11777    11885 
   11940    11865    11772    11765    11793    11763    11682    11649 
   11735    11889    11974    11924    11809    11759    11843    12000 
   12125    12182    12151    12001    11807    11689    11697    11793 
   11874    11853    11777    11738    11754    11790    11800    11774 
   11758    11759    11745    11713    11696    11707    11742    11784 
   11793    11735    11630    11550    11554    11642    11790    11954 
   12063    12089    12044    11959    11908    11931    11961    11936 
   11904    11884    11838    11807    11863    11938    11934    11881 
   11871    11935    12015    12021    11940    11844    11797    11769 
   11708    11637    11632    11693    11731    11712    11674    11673 
   11709    11712    11635    11574    11649    11842    12046    12145 
   12070    11912    11838    11857    11874    11882    11889    11842 
   11726    11580    11485    11530    11674    11794    11832    11811 
   11794    11878    12052    12155    12131    12075    12033    11997 
   11971    11931    11843    11740    11677    11682    11794    11956 
   11993    11830    11610    11493    11518    11670    11880    11998 
   11994    11983    12025    12069    12081    12075    12036    11916 
   11732    11619    11686    11847    11939    11925    11851    11789 
   11820    11920    11962    11877    11716    11622    11676    11778 
   11793    11745    11731    11805    11938    12023    11998    11943 
   11951    11981    11923    11782    11695    11743    11873    11986 
   12013    11961    11909    11894    11871    11834    11812    11785 
   11739    11708    11697    11688    11691    11732    11808    11875 
   11886    11844    11793    11746    11711    11723    11813    11970 
   12129    12195    12123    11932    11684    11493    11464    11608 
   11844    12028    12071    12006    11913    11855    11844    11805 
   11707    11655    11751    11927    12031    11994    11898    11878 
   11956    12036    12020    11927    11875    11931    12001    11965 
   11850    11786    11827    11894    11913    11893    11874    11861 
   11842    11815    11800    11835    11902    11893    11777    11684 
   11722    11869    12035    12097    12037    11979    11961    11920 
   11894    11936    11973    11908    11745    11595    11580    11719 
   11928    12064    12010    11835    11709    11655    11601    11562 
   11592    11718    11898    12044    12096    12054    11913    11715 
   11591    11637    11809    11978    12023    11911    11735    11630 
   11623    11665    11693    11659    11591    11574    11623    11688 
   11731    11720    11669    11620    11574    11519    11523    11649 
   11839    11971    11997    11965    11917    11865    11820    11835 
   11946    12101    12199    12182    12089    12000    11934    11867 
   11820    11830    11900    12001    12081    12087    12009    11884 
   11758    11664    11615    11630    11705    11793    11862    11898 
   11867    11801    11805    11897    11992    12023    11971    11875 
   11812    11808    11827    11859    11892    11861    11720    11518 
   11379    11407    11581    11772    11836    11773    11740    11838 
   11938    11908    11793    11724    11785    11935    12051    12089 
   12106    12086    11967    11792    11682    11708    11847    11988 
   12004    11889    11759    11720    11772    11830    11824    11776 
   11774    11875    12021    12112    12128    12096    12019    11915 
   11850    11867    11954    12052    12081    11997    11842    11686 
   11601    11646    11805    11970    12037    12037    12062    12112 
   12137    12132    12116    12097    12060    11981    11851    11720 
   11668    11728    11843    11924    11946    11967    12037    12096 
   12048    11915    11785    11731    11778    11858    11893    11924 
   11998    12039    11958    11781    11618    11561    11615    11719 
   11809    11848    11820    11740    11641    11560    11554    11643 
   11740    11749    11711    11713    11735    11701    11627    11595 
   11657    11770    11844    11869    11909    12008    12117    12135 
   12025    11857    11708    11630    11645    11715    11766    11755 
   11708    11696    11730    11757    11742    11709    11700    11695 
   11649    11583    11560    11610    11718    11784    11713    11581 
   11556    11692    11889    11990    11934    11831    11804    11844 
   11869    11821    11742    11711    11739    11782    11846    11954 
   12083    12160    12129    12035    11997    12093    12247    12283 
   12131    11894    11724    11674    11745    11898    12051    12123 
   12074    11913    11742    11676    11727    11843    11925    11892 
   11823    11819    11817    11759    11668    11593    11627    11759 
   11830    11792    11712    11587    11443    11407    11534    11759 
   11970    12062    12023    11928    11874    11905    11994    12069 
   12052    11951    11865    11831    11832    11894    12012    12058 
   11947    11776    11682    11711    11839    11986    12019    11908 
   11777    11712    11703    11758    11869    11977    12046    12058 
   12012    11950    11920    11908    11880    11826    11785    11807 
   11874    11915    11893    11820    11734    11708    11813    12006 
   12154    12144    11974    11750    11587    11523    11560    11661 
   11755    11794    11792    11770    11743    11746    11788    11836 
   11875    11896    11901    11911    11877    11790    11739    11758 
   11761    11707    11664    11695    11796    11924    12000    11962 
   11848    11750    11686    11627    11592    11591    11581    11572 
   11619    11699    11738    11703    11619    11592    11731    11963 
   12094    12093    12064    12040    12029    12086    12194    12260 
   12225    12118    12033    12020    12040    12037    11992    11916 
   11816    11695    11568    11487    11522    11672    11853    12001 
   12106    12183    12247    12252    12127    11919    11801    11823 
   11847    11754    11570    11435    11495    11723    11863    11734 
   11477    11369    11542    11885    12131    12118    11939    11746 
   11600    11514    11500    11589    11777    11917    11886    11782 
   11780    11901    12052    12114    12040    11925    11892    11940 
   11997    12010    12009    12058    12140    12147    11997    11711 
   11425    11321    11439    11645    11780    11801    11777    11800 
   11873    11917    11916    11911    11881    11819    11778    11777 
   11792    11827    11853    11803    11705    11704    11870    12116 
   12290    12313    12214    12073    11929    11785    11646    11545 
   11483    11443    11475    11603    11742    11803    11796    11776 
   11767    11799    11866    11912    11919    11928    11935    11928 
   11950    11958    11865    11712    11622    11659    11827    12046 
   12181    12163    12051    11943    11907    11961    12077    12178 
   12160    11998    11790    11658    11659    11763    11871    11905 
   11865    11765    11587    11385    11326    11484    11747    11959 
   12013    11890    11704    11577    11554    11638    11754    11777 
   11693    11619    11611    11658    11720    11740    11727    11758 
   11826    11834    11754    11658    11610    11587    11556    11551 
   11623    11745    11848    11909    11981    12096    12170    12108 
   11959    11861    11908    12077    12231    12282    12282    12271 
   12202    12054    11884    11753    11727    11850    12043    12181 
   12208    12113    11920    11715    11593    11595    11673    11727 
   11696    11603    11523    11516    11573    11669    11815    11990 
   12108    12143    12129    12054    11940    11867    11805    11678 
   11542    11487    11488    11492    11503    11519    11520    11541 
   11597    11637    11668    11807    12066    12268    12279    12159 
   12035    11959    11915    11850    11747    11654    11604    11601 
   11664    11800    11974    12089    12019    11759    11476    11325 
   11349    11512    11718    11877    11952    11947    11907    11869 
   11819    11778    11794    11855    11935    12000    11986    11916 
   11897    11961    12031    12055    12033    11963    11894    11927 
   12091    12302    12448    12461    12363    12255    12214    12205 
   12136    11965    11766    11668    11685    11726    11759    11827 
   11888    11824    11653    11589    11773    12063    12217    12132 
   11897    11691    11593    11554    11526    11492    11425    11333 
   11295    11372    11535    11739    11923    11974    11912    11944 
   12156    12387    12457    12356    12198    12098    12087    12116 
   12151    12185    12185    12098    11939    11816    11797    11844 
   11920    12009    12074    12133    12212    12218    12059    11813 
   11638    11584    11581    11556    11487    11396    11323    11321 
   11404    11500    11549    11605    11726    11907    12105    12240 
   12268    12236    12170    12082    12006    11967    11967    12009 
   12071    12127    12132    12075    12036    12067    12082    12004 
   11881    11799    11827    11993    12167    12151    11919    11649 
   11535    11581    11653    11685    11738    11844    11965    12064 
   12120    12083    11966    11830    11677    11483    11292    11206 
   11300    11497    11612    11607    11596    11654    11769    11866 
   11848    11693    11534    11543    11742    11971    12078    12064 
   12047    12112    12220    12282    12275    12208    12085    11921 
   11767    11692    11708    11757    11773    11723    11616    11549 
   11634    11855    12083    12216    12240    12197    12125    12051 
   11981    11889    11745    11580    11488    11507    11576    11600 
   11523    11379    11288    11348    11527    11722    11873    11997 
   12093    12106    12027    11935    11935    12025    12086    12029 
   11909    11812    11724    11611    11485    11402    11406    11460 
   11503    11569    11728    11923    12004    11935    11838    11827 
   11882    11913    11920    12013    12194    12306    12259    12074 
   11808    11572    11439    11364    11296    11280    11338    11431 
   11500    11533    11599    11736    11861    11916    11955    12000 
   12000    11965    11932    11901    11873    11893    12025    12253 
   12438    12471    12361    12152    11875    11623    11518    11596 
   11763    11871    11847    11739    11647    11634    11704    11824 
   11932    11955    11869    11754    11745    11859    12001    12074 
   12055    12043    12127    12214    12139    11912    11681    11577 
   11632    11722    11689    11549    11427    11383    11375    11371 
   11412    11535    11732    11943    12059    12042    11982    11986 
   12069    12179    12248    12231    12145    12063    12042    12046 
   11990    11881    11828    11885    11963    11923    11781    11699 
   11770    11923    12008    11950    11848    11859    11973    12043 
   12001    11929    11938    12021    12071    11974    11758    11614 
   11641    11677    11573    11406    11306    11306    11377    11441 
   11466    11551    11722    11839    11813    11700    11618    11659 
   11811    11946    11974    11909    11765    11564    11431    11479 
   11701    12008    12251    12299    12145    11904    11742    11767 
   11963    12195    12285    12148    11892    11686    11600    11626 
   11758    11934    12023    11921    11649    11361    11196    11149 
   11180    11284    11430    11639    11944    12263    12467    12536 
   12517    12440    12337    12271    12274    12307    12320    12310 
   12313    12334    12347    12279    12078    11742    11376    11199 
   11321    11584    11763    11769    11632    11477    11344    11179 
   11090    11246    11565    11832    11932    11886    11840    11932 
   12121    12290    12401    12428    12347    12186    11950    11654 
   11472    11576    11855    12058    12104    12060    11990    11967 
   12032    12096    12039    11896    11805    11867    12091    12379 
   12546    12555    12483    12298    11988    11738    11709    11870 
   12073    12179    12125    11971    11805    11628    11400    11191 
   11152    11299    11472    11508    11392    11222    11121    11180 
   11410    11701    11884    11850    11670    11502    11404    11333 
   11240    11151    11155    11299    11473    11496    11372    11268 
   11259    11327    11487    11686    11832    11934    12042    12156 
   12312    12534    12749    12868    12908    12891    12829    12814 
   12889    12895    12708    12414    12108    11848    11691    11578 
   11438    11303    11226    11233    11345    11496    11560    11503 
   11422    11422    11484    11520    11502    11493    11547    11650 
   11730    11699    11596    11600    11799    12079    12263    12264 
   12143    12039    12033    12112    12217    12278    12253    12197 
   12164    12117    12042    12021    12112    12258    12352    12314 
   12151    11931    11730    11610    11604    11711    11871    11974 
   11911    11664    11295    10955    10839    11037    11402    11665 
   11716    11701    11824    12056    12179    12116    11989    11915 
   11932    12001    12046    12055    12079    12129    12168    12168 
   12163    12224    12356    12484    12511    12379    12129    11831 
   11493    11202    11151    11402    11773    12036    12085    11967 
   11838    11827    11947    12110    12199    12090    11755    11350 
   11083    11040    11168    11349    11491    11601    11757    11952 
   12083    12062    11905    11695    11487    11315    11209    11152 
   11118    11132    11222    11402    11643    11809    11812    11772 
   11840    12054    12356    12603    12641    12488    12286    12166 
   12201    12325    12420    12434    12332    12112    11904    11807 
   11754    11637    11398    11070    10832    10874    11146    11452 
   11646    11696    11673    11701    11828    11962    11969    11808 
   11583    11442    11470    11657    11921    12145    12271    12348 
   12433    12518    12564    12550    12487    12390    12282    12213 
   12201    12186    12094    11908    11657    11438    11338    11335 
   11362    11367    11327    11302    11326    11341    11346    11389 
   11460    11523    11589    11688    11851    12096    12397    12653 
   12692    12491    12283    12256    12333    12388    12379    12271 
   12081    11882    11707    11561    11484    11472    11495    11576 
   11742    11931    12044    12019    11867    11678    11585    11669 
   11839    11911    11835    11723    11693    11811    12019    12159 
   12174    12079    11885    11696    11627    11655    11750    11855 
   11840    11728    11670    11692    11759    11850    11859    11753 
   11682    11780    12000    12178    12187    12087    12032    12091 
   12216    12282    12218    12125    12129    12201    12247    12262 
   12302    12383    12448    12430    12333    12231    12148    12010 
   11796    11581    11423    11292    11118    10901    10782    10879 
   11138    11450    11740    11944    12028    11994    11863    11704 
   11615    11642    11767    11888    11870    11724    11564    11445 
   11368    11331    11334    11377    11435    11454    11425    11406 
   11465    11627    11823    11950    11985    11990    12051    12175 
   12285    12368    12517    12730    12861    12777    12475    12089 
   11788    11645    11623    11645    11645    11589    11508    11487 
   11584    11742    11812    11738    11592    11464    11412    11445 
   11465    11404    11349    11400    11530    11668    11794    11929 
   12093    12248    12376    12510    12606    12546    12285    11901 
   11576    11458    11565    11772    11890    11828    11672    11624 
   11800    12121    12401    12522    12501    12367    12133    11893 
   11755    11735    11784    11854    11875    11820    11704    11566 
   11479    11466    11464    11431    11396    11398    11483    11670 
   11912    12132    12295    12351    12247    12043    11898    11867 
   11894    11929    11912    11796    11595    11381    11273    11344 
   11558    11828    12052    12148    12086    11880    11595    11364 
   11314    11439    11623    11758    11819    11855    11946    12070 
   12144    12168    12205    12276    12370    12421    12406    12420 
   12487    12452    12263    12062    11962    11973    12059    12139 
   12141    12106    12106    12105    12037    11942    11880    11824 
   11709    11547    11448    11493    11588    11592    11502    11367 
   11215    11107    11092    11198    11439    11730    11907    11917 
   11853    11794    11758    11739    11718    11700    11738    11839 
   11938    12010    12089    12132    12082    12000    11965    11983 
   12050    12124    12097    11934    11738    11589    11569    11749 
   12002    12158    12233    12272    12224    12113    12019    11927 
   11809    11715    11682    11697    11712    11657    11514    11354 
   11261    11250    11245    11182    11155    11300    11620    11979 
   12183    12144    11934    11638    11322    11109    11164    11510 
   11934    12206    12293    12253    12163    12071    12001    11967 
   11955    11986    12079    12154    12179    12195    12204    12225 
   12228    12145    12025    11919    11793    11677    11647    11691 
   11743    11815    11916    11990    12010    11977    11902    11838 
   11784    11712    11672    11692    11723    11716    11680    11672 
   11708    11774    11870    11971    12025    12005    11928    11831 
   11732    11637    11551    11481    11414    11360    11367    11449 
   11578    11740    11928    12104    12249    12372    12447    12445 
   12375    12275    12216    12217    12244    12225    12100    11927 
   11834    11790    11686    11530    11377    11263    11213    11217 
   11267    11396    11592    11770    11857    11871    11908    12025 
   12158    12205    12178    12191    12258    12236    12043    11781 
   11637    11681    11839    11948    11898    11763    11693    11695 
   11692    11658    11569    11439    11350    11327    11348    11395 
   11450    11496    11554    11664    11807    11911    11923    11884 
   11855    11819    11761    11731    11774    11911    12091    12185 
