Origin Time       2026/01/15 07:13:00
Lat.              42.7
Long.             145.4
Depth. (km)       30
Mag.              5.7
Station Code      HKD091
Station Lat.      42.8088
Station Long.     143.6590
Station Height(m) 16
Record Time       2026/01/15 07:13:58
Sampling Freq(Hz) 100Hz
Duration Time(s)  84
Dir.              U-D
Scale Factor      7845(gal)/8223790
Max. Acc. (gal)   6.774
Last Correction   2026/01/15 07:13:59
Memo.             
[...]
   -8968    -8876    -8742    -8557    -8392    -8321    -8325    -8374 
   -8475    -8576    -8606    -8611    -8696    -8820    -8860    -8777 
   -8603    -8391    -8217    -8132    -8154    -8309    -8552    -8754 
   -8846    -8903    -9028    -9217    -9412    -9602    -9733    -9729 
   -9607    -9431    -9227    -9004    -8765    -8527    -8376    -8372 
   -8402    -8356    -8249    -8094    -7908    -7754    -7650    -7542 
   -7423    -7358    -7380    -7433    -7497    -7665    -7993    -8375 
   -8691    -8966    -9231    -9447    -9594    -9701    -9799    -9867 
   -9809    -9607    -9396    -9305    -9359    -9467    -9504    -9406 
   -9238    -9111    -9009    -8850    -8654    -8496    -8371    -8203 
   -7956    -7719    -7595    -7593    -7717    -7971    -8290    -8568 
   -8738    -8850    -8974    -9042    -8939    -8721    -8556    -8586 
   -8803    -9053    -9180    -9158    -9089    -9085    -9132    -9131 
   -9026    -8826    -8583    -8364    -8224    -8156    -8104    -7998 
   -7842    -7735    -7762    -7888    -8033    -8125    -8110    -8077 
   -8148    -8302    -8441    -8513    -8496    -8424    -8387    -8451 
   -8615    -8854    -9099    -9289    -9427    -9508    -9491    -9387 
   -9273    -9175    -9067    -8954    -8851    -8758    -8727    -8820 
   -9013    -9219    -9346    -9333    -9225    -9165    -9196    -9196 
   -9099    -8958    -8796    -8561    -8275    -8093    -8093    -8164 
   -8226    -8310    -8430    -8567    -8681    -8760    -8834    -8887 
   -8830    -8677    -8583    -8617    -8646    -8559    -8406    -8289 
   -8205    -8093    -7928    -7701    -7454    -7307    -7310    -7396 
   -7516    -7703    -7992    -8341    -8667    -8941    -9184    -9374 
   -9477    -9516    -9539    -9541    -9505    -9462    -9466    -9537 
   -9610    -9594    -9483    -9343    -9219    -9111    -9000    -8916 
   -8850    -8692    -8395    -8066    -7816    -7681    -7668    -7717 
   -7711    -7650    -7662    -7811    -8068    -8410    -8745    -8961 
   -9086    -9267    -9548    -9805    -9921    -9931    -9899    -9780 
   -9517    -9131    -8703    -8348    -8058    -7704    -7330    -7125 
   -7129    -7248    -7395    -7522    -7639    -7823    -8106    -8449 
   -8823    -9200    -9508    -9760   -10048   -10314   -10396   -10251 
   -9958    -9583    -9198    -8915    -8762    -8633    -8472    -8355 
   -8371    -8529    -8748    -8883    -8823    -8634    -8490    -8456 
   -8468    -8444    -8313    -8093    -7950    -8041    -8293    -8550 
   -8808    -9086    -9290    -9352    -9336    -9302    -9192    -8928 
   -8567    -8203    -7900    -7672    -7462    -7252    -7109    -7076 
   -7146    -7327    -7603    -7916    -8286    -8746    -9224    -9620 
   -9875    -9936    -9830    -9674    -9510    -9301    -9094    -9004 
   -9012    -8992    -8919    -8904    -9011    -9171    -9285    -9331 
   -9321    -9224    -9039    -8878    -8810    -8742    -8584    -8438 
   -8421    -8440    -8376    -8287    -8245    -8218    -8179    -8158 
   -8181    -8256    -8367    -8469    -8529    -8563    -8581    -8567 
   -8527    -8502    -8499    -8522    -8590    -8704    -8851    -9012 
   -9161    -9227    -9166    -9051    -8970    -8911    -8854    -8837 
   -8904    -9015    -9049    -8969    -8864    -8793    -8722    -8575 
   -8351    -8159    -8067    -8005    -7942    -7966    -8121    -8336 
   -8592    -8897    -9123    -9146    -9042    -8945    -8888    -8842 
   -8777    -8634    -8357    -8068    -7971    -8093    -8295    -8486 
   -8665    -8833    -8969    -9059    -9081    -9009    -8878    -8754 
   -8623    -8436    -8280    -8275    -8353    -8402    -8500    -8738 
   -9004    -9177    -9300    -9427    -9528    -9551    -9498    -9377 
   -9147    -8807    -8448    -8136    -7870    -7642    -7447    -7288 
   -7257    -7429    -7717    -7994    -8206    -8356    -8503    -8702 
   -8905    -9039    -9057    -8981    -8900    -8842    -8824    -8947 
   -9224    -9520    -9730    -9864    -9954    -9980    -9845    -9510 
   -9115    -8803    -8563    -8337    -8074    -7701    -7285    -6997 
   -6885    -6934    -7163    -7457    -7654    -7812    -8078    -8383 
   -8635    -8874    -9092    -9294    -9553    -9849   -10046   -10089 
  -10034    -9925    -9764    -9564    -9356    -9131    -8880    -8644 
   -8437    -8264    -8190    -8221    -8221    -8118    -7958    -7811 
   -7753    -7811    -7923    -8039    -8185    -8343    -8426    -8452 
   -8525    -8675    -8905    -9197    -9414    -9425    -9275    -9101 
   -8938    -8776    -8649    -8586    -8575    -8595    -8577    -8479 
   -8383    -8357    -8355    -8313    -8259    -8279    -8430    -8654 
   -8822    -8869    -8878    -8976    -9180    -9398    -9545    -9593 
   -9541    -9445    -9319    -9121    -8881    -8696    -8572    -8401 
   -8181    -8086    -8191    -8387    -8550    -8617    -8602    -8590 
   -8645    -8814    -9051    -9185    -9120    -8974    -8862    -8766 
   -8664    -8618    -8650    -8668    -8627    -8591    -8606    -8707 
   -8862    -8955    -8938    -8804    -8536    -8190    -7847    -7512 
   -7198    -6971    -6920    -7103    -7503    -8028    -8546    -8978 
   -9297    -9489    -9595    -9736    -9944   -10053    -9913    -9586 
   -9212    -8858    -8599    -8496    -8471    -8406    -8284    -8160 
   -8110    -8171    -8291    -8395    -8448    -8428    -8343    -8253 
   -8229    -8287    -8391    -8484    -8568    -8694    -8905    -9197 
   -9512    -9764    -9910    -9936    -9864    -9787    -9760    -9725 
   -9617    -9444    -9194    -8835    -8411    -8004    -7672    -7447 
   -7294    -7101    -6872    -6743    -6751    -6852    -7042    -7277 
   -7480    -7686    -7947    -8232    -8538    -8820    -9000    -9107 
   -9209    -9308    -9414    -9506    -9458    -9219    -8861    -8503 
   -8272    -8220    -8301    -8429    -8521    -8588    -8700    -8865 
   -9086    -9329    -9448    -9356    -9134    -8923    -8792    -8734 
   -8715    -8723    -8777    -8918    -9151    -9397    -9537    -9568 
   -9559    -9531    -9458    -9325    -9124    -8893    -8677    -8500 
   -8405    -8401    -8419    -8374    -8263    -8160    -8122    -8141 
   -8213    -8403    -8797    -9343    -9567    -8932    -8006    -7983 
   -8550    -8509    -8218    -8487    -8752    -8695    -8816    -9073 
   -9235    -9259    -9062    -8837    -8780    -8770    -8704    -8598 
   -8436    -8233    -8102    -8066    -7946    -7659    -7406    -7357 
   -7520    -7754    -7924    -8178    -8622    -9039    -9333    -9582 
   -9799    -9975    -9994    -9786    -9513    -9293    -9094    -8976 
   -9003    -9086    -9146    -9243    -9371    -9358    -9167    -8961 
   -8827    -8748    -8671    -8514    -8282    -8079    -7924    -7728 
   -7542    -7487    -7489    -7441    -7456    -7661    -7992    -8344 
   -8645    -8785    -8756    -8733    -8838    -8968    -9011    -8955 
   -8811    -8633    -8548    -8623    -8808    -9015    -9177    -9269 
   -9301    -9262    -9142    -8965    -8704    -8317    -7840    -7407 
   -7155    -7132    -7261    -7454    -7704    -8025    -8379    -8710 
   -8927    -8935    -8814    -8795    -8974    -9239    -9454    -9566 
   -9551    -9447    -9363    -9374    -9408    -9358    -9216    -9047 
   -8900    -8765    -8590    -8361    -8154    -8063    -8086    -8147 
   -8245    -8399    -8532    -8630    -8810    -9112    -9489    -9892 
  -10185   -10187    -9894    -9526    -9262    -9045    -8764    -8409 
   -8028    -7665    -7364    -7200    -7221    -7385    -7591    -7700 
   -7686    -7682    -7761    -7830    -7869    -7944    -8014    -8021 
   -8114    -8453    -8953    -9420    -9761    -9988   -10146   -10295 
  -10470   -10642   -10728   -10619   -10278    -9829    -9414    -9065 
   -8749    -8453    -8212    -8073    -8032    -8024    -7975    -7861 
   -7734    -7645    -7551    -7449    -7479    -7728    -8068    -8344 
   -8544    -8694    -8760    -8761    -8757    -8703    -8559    -8428 
   -8441    -8648    -8980    -9283    -9459    -9544    -9578    -9517 
   -9336    -9063    -8731    -8352    -7954    -7620    -7438    -7419 
   -7535    -7750    -7960    -8087    -8203    -8394    -8583    -8698 
   -8806    -8931    -8997    -9019    -9062    -9131    -9234    -9406 
   -9599    -9759    -9909   -10030   -10017    -9834    -9537    -9163 
   -8756    -8380    -8071    -7805    -7553    -7331    -7142    -6945 
   -6775    -6723    -6781    -6905    -7084    -7306    -7553    -7834 
   -8179    -8618    -9112    -9579    -9965   -10251   -10409   -10435 
  -10357   -10207   -10029    -9921    -9975   -10150   -10299   -10303 
  -10195   -10077   -10000    -9931    -9772    -9417    -8903    -8333 
   -7724    -7122    -6655    -6304    -5941    -5618    -5505    -5622 
   -5923    -6442    -7164    -7929    -8598    -9146    -9605   -10044 
  -10552   -11152   -11719   -12070   -12093   -11789   -11277   -10708 
  -10093    -9375    -8656    -8118    -7807    -7624    -7461    -7268 
   -7083    -6889    -6590    -6188    -5776    -5460    -5343    -5445 
   -5668    -5953    -6386    -7069    -7975    -8931    -9768   -10465 
  -11071   -11591   -12005   -12309   -12475   -12457   -12245   -11880 
  -11412   -10893   -10361    -9819    -9225    -8546    -7850    -7290 
   -6975    -6899    -6955    -7018    -7064    -7123    -7172    -7128 
   -6970    -6808    -6768    -6905    -7209    -7635    -8028    -8190 
   -8109    -7986    -7960    -7992    -8012    -8052    -8152    -8302 
   -8483    -8683    -8976    -9489   -10195   -10920   -11516   -11859 
  -11855   -11553   -11111   -10631   -10081    -9444    -8758    -8037 
   -7358    -6889    -6677    -6624    -6659    -6789    -7040    -7435 
   -7920    -8384    -8772    -9081    -9312    -9487    -9643    -9787 
   -9896    -9909    -9778    -9506    -9177    -8908    -8710    -8522 
   -8375    -8321    -8387    -8614    -8941    -9228    -9423    -9505 
   -9421    -9194    -8947    -8752    -8556    -8293    -8033    -7927 
   -7975    -8050    -8097    -8122    -8043    -7792    -7481    -7250 
   -7142    -7149    -7202    -7234    -7300    -7514    -7905    -8415 
   -8946    -9437    -9860   -10177   -10390   -10551   -10673   -10740 
  -10764   -10740   -10604   -10285    -9823    -9315    -8777    -8218 
   -7720    -7344    -7063    -6840    -6659    -6573    -6656    -6909 
   -7260    -7661    -8067    -8402    -8637    -8870    -9151    -9352 
   -9428    -9516    -9656    -9734    -9744    -9834   -10019   -10114 
  -10003    -9756    -9447    -9003    -8399    -7816    -7356    -6943 
   -6583    -6421    -6573    -7036    -7653    -8262    -8818    -9331 
   -9795   -10142   -10274   -10179    -9914    -9541    -9139    -8799 
   -8572    -8483    -8536    -8702    -8876    -8916    -8856    -8866 
   -8984    -9132    -9235    -9221    -9092    -8742    -8098    -7966 
   -8795    -8599    -6143    -4225    -5081    -6593    -6675    -6624 
   -7420    -7977    -8357    -9220   -10027   -10647   -11064   -11037 
  -10910   -10712   -10359   -10147    -9919    -9470    -9135    -9132 
   -9228    -9281    -9366    -9367    -9066    -8577    -8256    -8259 
   -8413    -8507    -8537    -8599    -8657    -8564    -8253    -7773 
   -7288    -7011    -6982    -7118    -7407    -7817    -8259    -8649 
   -8915    -9031    -9042    -8984    -8891    -8779    -8631    -8451 
   -8316    -8337    -8559    -8905    -9223    -9427    -9513    -9497 
   -9448    -9404    -9305    -9139    -8972    -8845    -8760    -8673 
   -8513    -8316    -8209    -8230    -8314    -8378    -8380    -8306 
   -8174    -8101    -8220    -8479    -8742    -8966    -9120    -9148 
   -9078    -8966    -8830    -8745    -8818    -9055    -9396    -9815 
  -10237   -10515   -10598   -10531   -10368   -10149    -9871    -9526 
   -9101    -8586    -8027    -7429    -6764    -6102    -5583    -5297 
   -5192    -5215    -5377    -5659    -5987    -6311    -6619    -6879 
   -7094    -7350    -7685    -8021    -8318    -8718    -9387   -10287 
  -11221   -12060   -12756   -13213   -13335   -13158   -12845   -12480 
  -12027   -11454   -10789   -10052    -9277    -8565    -8004    -7554 
   -7117    -6673    -6303    -6084    -6019    -6042    -6087    -6157 
   -6281    -6462    -6673    -6893    -7134    -7429    -7786    -8206 
   -8648    -9057    -9448    -9837   -10137   -10251   -10160    -9927 
   -9682    -9502    -9362    -9258    -9223    -9262    -9386    -9598 
   -9856   -10099   -10237   -10207    -9992    -9585    -9036    -8453 
   -7923    -7523    -7273    -7134    -7088    -7148    -7296    -7487 
   -7657    -7804    -7944    -8082    -8233    -8333    -8244    -7925 
   -7491    -7091    -6833    -6767    -6899    -7183    -7596    -8170 
   -8905    -9741   -10602   -11395   -12023   -12430   -12598   -12537 
  -12341   -12071   -11678   -11119   -10403    -9625    -8957    -8424 
   -7908    -7392    -6930    -6542    -6246    -6014    -5724    -5324 
   -4915    -4614    -4463    -4456    -4588    -4868    -5312    -5933 
   -6721    -7651    -8675    -9728   -10762   -11740   -12650   -13517 
  -14328   -14970   -15340   -15410   -15151   -14524   -13570   -12457 
  -11371   -10328    -9266    -8224    -7265    -6347    -5440    -4625 
   -3948    -3366    -2824    -2328    -1979    -1883    -2061    -2509 
   -3215    -4105    -5107    -6195    -7329    -8498    -9734   -11020 
  -12258   -13336   -14216   -14924   -15454   -15746   -15761   -15499 
  -15002   -14364   -13630   -12772   -11778   -10694    -9549    -8344 
   -7110    -5907    -4807    -3854    -3034    -2347    -1871    -1709 
   -1844    -2200    -2760    -3524    -4495    -5694    -7057    -8432 
   -9711   -10863   -11851   -12598   -13069   -13363   -13548   -13582 
  -13446   -13135   -12615   -11911   -11128   -10341    -9595    -8911 
   -8279    -7692    -7129    -6600    -6178    -5917    -5844    -6029 
   -6493    -7122    -7746    -8228    -8478    -8522    -8491    -8453 
   -8351    -8147    -7906    -7711    -7623    -7728    -8025    -8409 
   -8796    -9163    -9491    -9752    -9930   -10039   -10111   -10169 
  -10188   -10092    -9886    -9709    -9663    -9688    -9664    -9529 
   -9277    -8932    -8541    -8135    -7742    -7410    -7160    -6960 
   -6798    -6685    -6616    -6609    -6774    -7188    -7712    -8102 
   -8313    -8441    -8550    -8679    -8802    -8846    -8827    -8812 
   -8858    -9008    -9229    -9474    -9748   -10045   -10358   -10660 
  -10863   -10912   -10875   -10812   -10712   -10555   -10365   -10112 
   -9698    -9086    -8376    -7693    -7110    -6635    -6238    -5887 
   -5583    -5413    -5452    -5613    -5786    -6027    -6417    -6929 
   -7472    -7990    -8491    -8997    -9485    -9940   -10369   -10736 
  -10975   -11024   -10908   -10740   -10611   -10515   -10420   -10318 
  -10214   -10110   -10008    -9907    -9792    -9613    -9312    -8914 
   -8502    -8141    -7846    -7604    -7402    -7231    -7084    -6963 
   -6924    -7017    -7155    -7209    -7227    -7333    -7542    -7805 
   -8104    -8432    -8750    -8997    -9146    -9215    -9219    -9163 
   -9061    -8946    -8914    -9065    -9331    -9545    -9674    -9748 
   -9732    -9602    -9402    -9181    -8999    -8864    -8694    -8475 
   -8338    -8371    -8522    -8712    -8903    -9076    -9204    -9247 
   -9146    -8900    -8617    -8395    -8217    -8029    -7888    -7908 
   -8067    -8243    -8379    -8476    -8527    -8529    -8499    -8483 
   -8530    -8622    -8698    -8731    -8727    -8694    -8642    -8599 
   -8588    -8577    -8506    -8361    -8186    -8013    -7865    -7789 
   -7838    -8001    -8218    -8452    -8671    -8847    -9005    -9153 
   -9285    -9417    -9541    -9612    -9621    -9620    -9655    -9670 
   -9564    -9355    -9157    -9047    -8991    -8883    -8706    -8540 
   -8444    -8455    -8573    -8711    -8773    -8758    -8708    -8637 
   -8532    -8383    -8181    -7950    -7750    -7634    -7646    -7762 
   -7869    -7952    -8106    -8324    -8519    -8635    -8658    -8631 
   -8627    -8657    -8704    -8777    -8812    -8712    -8506    -8325 
   -8264    -8378    -8675    -9066    -9397    -9558    -9563    -9506 
   -9450    -9364    -9188    -8904    -8541    -8139    -7798    -7631 
   -7615    -7631    -7609    -7622    -7757    -7997    -8286    -8635 
   -9016    -9309    -9456    -9535    -9620    -9683    -9722    -9813 
   -9977   -10134   -10222   -10247   -10241   -10181   -10052    -9875 
   -9624    -9239    -8779    -8336    -7915    -7493    -7060    -6612 
   -6195    -5859    -5636    -5562    -5621    -5755    -5991    -6403 
   -6959    -7562    -8193    -8847    -9431    -9838   -10083   -10246 
  -10378   -10467   -10512   -10515   -10459   -10362   -10303   -10311 
  -10309   -10220   -10049    -9848    -9632    -9386    -9085    -8735 
   -8383    -8056    -7759    -7519    -7342    -7183    -7024    -6928 
   -6957    -7121    -7396    -7732    -8054    -8344    -8683    -9130 
   -9621    -9992   -10137   -10127   -10110   -10107   -10053    -9950 
   -9809    -9586    -9310    -9032    -8681    -8228    -7771    -7335 
   -6860    -6421    -6181    -6145    -6184    -6254    -6396    -6577 
   -6793    -7157    -7727    -8406    -9045    -9529    -9823   -10008 
  -10195   -10397   -10563   -10704   -10871   -11061   -11211   -11257 
  -11190   -11029   -10748   -10361    -9975    -9630    -9273    -8899 
   -8511    -8046    -7543    -7165    -6971    -6895    -6890    -6947 
   -7034    -7128    -7288    -7562    -7840    -8039    -8240    -8451 
   -8627    -8835    -9072    -9224    -9247    -9188    -9062    -8814 
   -8430    -7974    -7526    -7180    -6944    -6794    -6801    -7002 
   -7325    -7695    -8071    -8428    -8737    -9000    -9219    -9378 
   -9510    -9667    -9819    -9917   -10002   -10149   -10341   -10504 
  -10621   -10712   -10743   -10706   -10658   -10554   -10316   -10022 
   -9747    -9435    -9066    -8708    -8376    -8027    -7674    -7368 
   -7111    -6939    -6941    -7119    -7339    -7511    -7638    -7708 
   -7686    -7596    -7468    -7346    -7341    -7426    -7542    -7798 
   -8195    -8559    -8818    -9001    -9131    -9182    -9116    -8968 
   -8827    -8716    -8579    -8402    -8255    -8139    -7969    -7730 
   -7516    -7418    -7453    -7604    -7851    -8187    -8615    -9120 
   -9637   -10083   -10422   -10647   -10773   -10844   -10874   -10781 
  -10544   -10289   -10064    -9853    -9701    -9571    -9417    -9286 
   -9171    -9066    -8988    -8878    -8710    -8515    -8284    -8013 
   -7771    -7605    -7472    -7327    -7171    -6994    -6837    -6812 
   -6951    -7173    -7439    -7788    -8156    -8397    -8503    -8617 
   -8819    -9094    -9391    -9603    -9643    -9549    -9412    -9300 
   -9310    -9432    -9506    -9495    -9506    -9582    -9697    -9801 
   -9806    -9652    -9346    -8947    -8544    -8190    -7865    -7537 
   -7230    -6963    -6697    -6423    -6195    -6089    -6118    -6234 
   -6427    -6751    -7236    -7848    -8560    -9335   -10161   -11043 
  -11911   -12625   -13123   -13358   -13258   -12901   -12490   -12118 
  -11772   -11439   -11091   -10654   -10081    -9425    -8739    -8000 
