Origin Time       2026/01/15 07:13:00
Lat.              42.7
Long.             145.4
Depth. (km)       30
Mag.              5.7
Station Code      HKD070
Station Lat.      43.3852
Station Long.     145.2840
Station Height(m) 6
Record Time       2026/01/15 07:13:36
Sampling Freq(Hz) 100Hz
Duration Time(s)  117
Dir.              U-D
Scale Factor      7845(gal)/8223790
Max. Acc. (gal)   3.991
Last Correction   2026/01/15 07:13:36
Memo.             
[...]
   12190    12190    12190    12187    12193    12197    12193    12194 
   12198    12198    12195    12193    12194    12194    12191    12191 
   12193    12191    12195    12195    12191    12191    12193    12193 
   12195    12198    12194    12191    12190    12189    12190    12191 
   12191    12193    12194    12194    12197    12198    12197    12195 
   12193    12189    12189    12189    12189    12190    12194    12197 
   12195    12191    12191    12193    12193    12194    12194    12194 
   12194    12194    12195    12195    12194    12193    12194    12197 
   12197    12197    12197    12193    12190    12189    12189    12191 
   12193    12193    12194    12195    12195    12195    12193    12191 
   12194    12197    12194    12193    12194    12194    12194    12194 
   12194    12193    12193    12191    12190    12190    12189    12189 
   12190    12194    12194    12191    12190    12191    12190    12187 
   12190    12193    12193    12194    12193    12190    12191    12191 
   12187    12187    12191    12191    12190    12190    12190    12189 
   12189    12187    12189    12190    12193    12197    12199    12198 
   12194    12193    12191    12189    12190    12195    12195    12197 
   12195    12187    12183    12185    12185    12187    12195    12201 
   12198    12197    12195    12195    12198    12198    12198    12201 
   12198    12195    12197    12195    12190    12191    12194    12191 
   12191    12197    12198    12198    12199    12195    12193    12191 
   12191    12193    12194    12194    12197    12195    12190    12190 
   12193    12195    12195    12197    12197    12195    12194    12191 
   12190    12191    12191    12191    12193    12194    12193    12193 
   12194    12194    12194    12193    12193    12195    12194    12191 
   12189    12190    12194    12195    12193    12193    12193    12190 
   12189    12187    12186    12190    12195    12194    12195    12195 
   12197    12195    12193    12191    12190    12193    12195    12193 
   12187    12185    12185    12187    12191    12194    12194    12197 
   12198    12197    12191    12189    12189    12187    12186    12190 
   12190    12190    12193    12194    12191    12190    12190    12187 
   12185    12186    12187    12187    12190    12193    12194    12195 
   12197    12195    12195    12198    12199    12195    12189    12186 
   12183    12183    12189    12190    12191    12195    12199    12199 
   12194    12189    12186    12185    12182    12185    12186    12189 
   12193    12194    12195    12198    12198    12199    12201    12198 
   12194    12190    12186    12183    12182    12183    12186    12190 
   12194    12197    12195    12194    12194    12193    12190    12187 
   12181    12170    12163    12160    12156    12148    12143    12139 
   12131    12121    12112    12101    12096    12100    12106    12108 
   12102    12098    12102    12114    12121    12116    12112    12123 
   12133    12129    12116    12100    12067    12019    11989    11994 
   12015    12019    11997    11982    12005    12033    12037    12037 
   12043    12055    12067    12055    12047    12131    12267    12293 
   12209    12194    12286    12322    12247    12136    12027    11946 
   11878    11803    11817    11909    12008    12236    12587    12810 
   12745    12465    12252    12295    12356    12128    11878    11924 
   12013    12073    12428    12838    12775    12532    12657    12835 
   12594    12140    11877    12025    12456    12692    12685    12838 
   13197    13427    13171    12517    12044    12019    12272    12430 
   12131    11846    12245    12735    12480    12070    12267    12361 
   11713    11294    11696    11900    11584    11588    11959    12422 
   13022    13244    12748    11990    11539    11794    12334    12330 
   12217    12480    12541    12464    12676    12691    12314    12179 
   12293    12106    12021    12561    12745    11842    11322    12221 
   12916    12345    11947    12278    12341    12259    12426    12429 
   12248    11878    11368    11530    12285    12498    11996    11472 
   11394    11618    11666    11862    12559    12793    12155    11647 
   11709    11897    11894    11668    11371    11469    12023    12349 
   12523    12935    13012    12762    12769    12679    12105    11504 
   11522    12097    12502    12602    12969    13381    13135    12644 
   12711    12883    12253    11210    10906    11504    12123    12216 
   12042    11893    11828    12010    12440    12488    12019    11842 
   11824    11480    11676    12523    12629    12127    12453    13020 
   12582    12162    12567    12633    12062    11956    12272    11994 
   11383    11464    11975    11954    11709    12108    12548    12129 
   11758    12538    13356    12803    11777    11319    11086    11362 
   12347    12806    12534    12575    12669    12194    11859    11997 
   11766    11252    11354    11880    12204    12216    11969    11827 
   12224    13093    13572    12820    11966    12673    13918    13784 
   12536    11688    11751    11920    11909    12275    12842    13018 
   12885    12683    12307    12101    12611    13124    12426    11059 
   10733    11462    11812    11631    11719    12133    12532    12503 
   12020    11862    12191    12324    12005    11415    10960    10822 
   10993    11882    12974    12897    12137    12364    13456    13941 
   13205    12032    11780    12576    12884    12237    12017    12649 
   13030    12582    12069    12198    12287    11722    11313    11616 
   12220    12731    12410    11263    11167    12407    12837    12101 
   11572    11458    11381    11387    11531    11599    11542    11867 
   12339    11936    11121    11168    12033    12765    12652    11870 
   11416    11996    12933    12754    11639    11511    12690    13350 
   12838    12425    12586    12691    12792    12992    12803    12278 
   11948    12336    13362    13645    12679    12070    12349    12406 
   12117    12097    12456    12642    12036    11306    11630    12696 
   13009    11951    10903    11009    11361    11445    11925    12436 
   12024    11306    11750    12750    12568    11888    12171    12874 
   13020    12721    12688    13005    12976    12542    12418    12687 
   12750    12569    12559    12677    12630    12526    12648    12587 
   12047    11678    11780    11942    11996    11832    11257    10909 
   11747    13008    13112    12050    10955    10764    11578    12383 
   12043    10828    10169    10913    12367    12974    12357    11889 
   12403    13142    13074    12217    11593    11688    11971    11986 
   11944    12247    12583    12779    13188    13204    12644    12451 
   12465    12243    12175    12278    12109    11699    11989    13188 
   13782    13101    12490    12804    12996    12205    11313    11140 
   11437    11824    12113    12178    11820    11354    11713    12577 
   12530    11897    11951    12037    11365    10878    11002    11372 
   12159    12910    12744    12164    12291    12985    13122    12472 
   11955    12058    12615    13132    12789    11932    11799    12113 
   11974    11769    12004    12275    12220    12179    12494    12749 
   12513    12075    11720    11624    12073    12414    11792    10932 
   10976    11969    13224    13684    12880    12075    12243    12205 
   11637    11871    12453    12256    11963    12109    12352    12542 
   12559    12349    11983    11774    12108    12280    11599    11265 
   12093    12615    11880    11196    11604    12271    12523    12653 
   12398    11816    12032    12877    12928    12322    12171    12285 
   12031    11870    12306    12702    12509    12194    12064    12148 
   12536    12649    12310    12195    12361    12664    13027    13046 
   12738    12361    12244    12526    12502    12156    12228    12313 
   11890    11321    11070    11454    11884    11495    11078    11545 
   12198    12563    12814    12629    12251    12198    12101    12293 
   13132    13354    12569    11813    11272    11030    11545    11805 
   10786    10091    11234    12911    13302    12302    11384    11762 
   12475    12137    11398    11445    12104    12542    12522    12645 
   13163    13171    12607    12650    13140    13128    12696    12228 
   12077    12363    12453    12085    11958    12448    13139    13609 
   13471    12791    12511    12829    12958    12533    11653    10947 
   11130    11973    12577    12401    11842    11356    10793    10628 
   11448    12221    12067    11997    12577    12880    12413    11803 
   11898    12452    12560    12552    12895    12650    11707    11749 
   12789    12596    11304    11337    12533    12891    12388    12131 
   12132    12098    12221    12294    12013    11847    12039    12016 
   11758    12156    13153    13374    12441    11593    11657    12310 
   12762    12313    11556    11831    12795    12869    11886    11531 
   12523    13132    12428    11850    12174    12447    12075    11651 
   11574    11574    11905    12735    12991    12333    12236    13030 
   12915    11561    11098    12089    12622    12127    12069    12691 
   12816    12638    12938    12965    12295    11950    12097    11962 
   11666    11709    11901    11905    11770    11912    12413    12615 
   12293    11905    11740    11805    11863    11734    11691    12181 
   12953    12768    11434    11024    12523    13559    12366    11002 
   11619    12776    12617    12113    12256    12455    12793    13235 
   12738    11846    11826    12059    11842    11732    11996    12328 
   12334    11900    11711    12016    12052    11732    11524    11643 
   12444    13444    13165    11923    11691    12364    12683    13035 
   13506    13239    12297    11268    10813    11306    12291    13076 
   13004    12019    11191    11244    11539    11533    11578    11874 
   12351    12723    12271    11383    11454    12266    12575    12610 
   13184    13923    13898    12883    11923    12039    12476    12475 
   12587    12577    11981    11757    12260    12649    12899    13019 
   12172    10762    10357    11024    11388    11217    11604    12474 
   12684    12414    12509    12699    12394    11881    11465    10868 
   10782    12009    13076    12621    11884    12075    12441    12307 
   12411    12861    12568    11816    11836    11975    11304    11225 
   12492    12989    12032    11796    12421    12174    11570    11793 
   12205    12177    12179    12105    11464    11368    12733    13980 
   13629    12510    12096    12414    12474    12101    12074    12622 
   12873    12310    11685    11499    11619    12218    12696    12021 
   11094    11210    11650    11641    11641    11924    12205    12094 
   11664    11628    12128    12457    12264    11834    11674    11983 
   12348    12491    12726    13240    13517    13030    12352    12089 
   11693    11078    11117    11812    12132    11877    12050    12773 
   13100    13296    13964    14008    12787    11834    12302    12984 
   12341    11086    10804    11611    12603    12717    11851    11433 
   12025    12818    13409    13333    12567    12411    12958    13027 
   12765    12366    11253    10315    10833    11994    12653    12869 
   12189    10578    10142    11623    12789    12604    12298    12280 
   11909    11564    11996    12491    12688    13381    13336    11341 
   10378    12332    13980    13552    13077    13200    12853    12109 
   11766    11931    12052    12320    13325    13857    12523    10675 
   10439    11587    12291    12258    12729    13234    12509    11724 
   12459    13629    13485    12285    11196    10831    11480    12390 
   11979    10921    11325    12294    11851    11072    11128    11207 
   11642    12916    13381    12538    11738    11227    11075    11379 
   10866     9559     9294     9857    10133    11180    13273    14500 
   14613    14851    14670    13470    12901    13603    13821    13302 
   13259    13204    12391    12093    13298    14339    13707    12440 
   11349    10141     9526    10606    12687    13423    12282    11496 
   11843    11908    11523    11584    11712    11203    10561    10096 
    9783    10751    13142    14374    13252    12145    12339    12561 
   12540    12607    12293    11758    11487    11327    11207    11530 
   12285    12252    11117    10785    11450    10790     9067     8866 
   10134    11268    12104    12175    11080    10735    12297    13811 
   13617    12631    12411    12962    13239    13182    13629    14272 
   14265    14029    14111    14523    15037    15016    14877    15327 
   15489    15039    14551    13572    12027    11259    11736    12202 
   11884    11227    10504    10357    11664    13243    13409    12911 
   12827    12221    10844    10552    11670    12263    11674    11136 
   11676    12984    13811    13558    12904    12791    13412    13643 
   12235    10449    10635    12280    13385    13262    12059    11010 
   11360    12121    12089    11506    10798    10372    10435    10674 
   11308    12507    12826    11576    10588    10724    11097    11487 
   11778    11927    12618    13323    12831    12355    13501    14648 
   13857    12125    11092    10728    10174     9370     9201    10218 
   11632    12089    11465    10817    11088    12529    13944    13749 
   12576    12039    11924    11577    11661    12229    12270    11709 
   11173    11113    12271    14589    16308    16376    15417    13977 
   12694    12328    12464    12166    11666    11886    12398    12055 
   11711    12879    14359    13946    12293    11497    11623    11560 
   11121    10979    11610    12129    11565    10897    11011    10997 
   10748    11325    12274    12533    12366    12498    13209    13868 
   13875    13944    14029    13170    12405    12719    12438    11061 
   10785    11653    11591    11192    11715    11913    11641    12262 
   12816    11858    10732    11161    12208    12231    12035    12946 
   13861    13617    13007    12991    13548    13462    11969    10835 
   11276    11832    11948    12202    11662    10473    10908    12368 
   12286    11712    12534    13212    12549    12175    12660    12760 
   12626    12604    11730    10651    11161    12522    13068    13535 
   14894    15649    14342    12214    10914    10285    10092    10515 
   10602     9834     9502     9992    10191    10164    10756    12004 
   13277    13441    12140    10698    10382    11017    11908    12910 
   13481    12548    10831    10157    10293    10326    10851    12001 
   13074    14158    15314    15819    15237    14139    13458    13432 
   13679    14096    14704    15093    14762    13473    11882    11319 
   12063    13027    12753    11283    10766    11931    13113    13657 
   13929    13528    12429    11480    10979    10546    10247    10574 
   11263    11527    11565    11900    12047    11649    11124    10727 
   10631    10991    11271    10786    10062    10621    12399    13134 
   12012    10941    11060    11497    11724    12199    13089    13890 
   14013    13408    12602    12333    13085    14133    14029    13065 
   13053    14104    14434    13311    11823    10891    10316     9809 
    9742    10395    11271    12044    12690    12501    11362    10746 
   11612    13004    13216    11979    10690     9909     9185     9046 
    9910    10827    11437    12463    13468    13671    14072    15090 
   15400    14801    14251    13587    12135    10922    11345    12194 
   11900    11335    11327    11140    10552    10662    11982    13333 
   13780    13676    13193    12591    12503    12187    10933    10215 
   10959    11792    11680    11188    11133    11745    12723    13552 
   14017    14172    13957    13440    13158    13289    12972    12062 
   11781    12270    12649    13055    13593    13541    12906    12343 
   12285    12874    13455    13194    12337    11631    11650    12426 
   12970    12673    12279    11942    11187    10620    10766    11435 
   12567    13531    13455    12555    11553    10739    10471    11379 
   12619    12249    10804    10358    10671    10613    10814    12104 
   13616    13747    12297    10851    10536    10639    10488    10797 
   12135    13423    13274    12380    12313    12807    12961    13038 
   13143    12781    12139    11728    11635    11942    12457    12344 
   11439    10687    10582    10719    10827    11279    12267    13131 
   13263    12792    12329    12243    11920    11005    10647    11750 
   13347    13988    13606    13340    13657    13653    12977    12177 
   11330    10747    11080    12152    13115    13194    12853    13244 
   13622    12563    10872    10072    10131    10501    11421    12897 
   13813    13478    12687    12241    12213    12660    13432    13702 
   13054    12294    12201    12695    13127    12933    12598    12715 
   12653    12131    11878    12027    12035    11624    10858    10158 
   10119    10677    11140    11159    11221    12043    13082    12891 
   11857    12002    13417    14189    13675    13034    13097    13225 
   12690    12090    11956    11904    12186    13184    13834    13327 
   12721    12942    13236    12750    11796    11144    11098    11318 
   11333    11106    10955    11018    11090    11381    12175    12572 
   12172    12073    12229    11859    11681    12224    12692    12550 
   12067    11701    11804    12314    12735    12846    12856    12858 
   12843    13016    13612    14353    14508    13694    12494    11931 
   12140    12202    11697    11299    11288    11180    10953    11003 
   11381    11766    11880    11915    12104    12174    11928    11715 
   11703    11404    10944    10944    11065    11250    11916    12318 
   12231    12418    12344    11384    10447    10266    10741    11454 
   12029    12842    13756    13720    13178    13298    13871    14301 
   14197    13463    12658    12226    12264    12495    12185    11426 
   11200    11730    12374    12696    12781    13036    13536    13786 
   13706    13582    13468    13520    13392    12488    11373    10932 
   10926    10573     9976    10029    11028    12397    13331    13558 
   13479    13267    13012    12961    12657    11857    11415    11460 
   11269    11168    11561    11691    11452    11557    11659    11477 
   11697    12028    11799    11576    11765    12120    12812    13702 
   13991    13767    13655    13320    12641    12374    12561    12899 
   13474    13848    13624    13475    13795    13614    12464    11480 
   11287    11524    12164    12644    11878    10215     9178     9263 
    9336     8654     8202     8762     9609    10266    10945    11109 
   10496    10216    10863    11649    11853    11491    11082    11313 
   12397    13656    14214    14319    14800    15333    15094    14374 
   13896    13471    12714    11983    11631    11403    11236    11712 
   13053    14447    15012    14793    14594    14661    14212    13027 
   11803    10903    10620    11038    11191    10805    11025    11838 
   12097    12098    12634    12951    12641    12617    12843    12754 
   12853    13088    12586    11670    11149    10987    11167    11722 
   12270    12533    12553    12513    12474    12430    12397    12129 
