Origin Time       2026/01/15 07:13:00
Lat.              42.7
Long.             145.4
Depth. (km)       30
Mag.              5.7
Station Code      HKD074
Station Lat.      43.3680
Station Long.     145.8026
Station Height(m) 16
Record Time       2026/01/15 07:13:31
Sampling Freq(Hz) 100Hz
Duration Time(s)  92
Dir.              U-D
Scale Factor      7845(gal)/8223790
Max. Acc. (gal)   14.760
Last Correction   2026/01/15 07:13:31
Memo.             
[...]
   17196    17196    17194    17196    17200    17203    17200    17196 
   17193    17197    17199    17199    17199    17197    17196    17196 
   17199    17201    17201    17200    17197    17196    17197    17200 
   17201    17201    17199    17194    17197    17201    17201    17200 
   17197    17194    17197    17201    17201    17197    17197    17196 
   17192    17193    17200    17203    17200    17196    17194    17197 
   17201    17201    17199    17194    17193    17196    17200    17201 
   17199    17194    17196    17197    17196    17199    17200    17197 
   17197    17196    17197    17201    17201    17199    17196    17197 
   17197    17199    17204    17203    17197    17197    17197    17199 
   17201    17204    17199    17194    17194    17199    17200    17201 
   17200    17197    17197    17201    17203    17200    17199    17197 
   17192    17192    17197    17201    17199    17196    17194    17196 
   17200    17201    17197    17196    17196    17194    17199    17203 
   17203    17201    17196    17192    17197    17201    17200    17199 
   17197    17194    17196    17203    17205    17199    17194    17197 
   17201    17203    17200    17197    17200    17197    17194    17197 
   17199    17197    17200    17197    17193    17199    17205    17201 
   17199    17199    17196    17196    17200    17201    17199    17197 
   17197    17199    17201    17204    17200    17197    17199    17196 
   17196    17200    17200    17196    17194    17197    17199    17201 
   17203    17199    17192    17192    17194    17201    17205    17201 
   17196    17196    17199    17197    17197    17199    17199    17197 
   17197    17201    17203    17203    17199    17192    17193    17201 
   17203    17200    17197    17194    17196    17197    17197    17200 
   17201    17196    17194    17196    17200    17203    17199    17196 
   17196    17196    17197    17201    17203    17200    17197    17197 
   17200    17200    17200    17200    17197    17197    17199    17199 
   17201    17200    17196    17194    17196    17199    17200    17199 
   17199    17196    17196    17200    17201    17199    17199    17196 
   17194    17199    17203    17201    17199    17196    17196    17199 
   17203    17204    17201    17194    17196    17200    17200    17203 
   17203    17196    17193    17196    17199    17199    17200    17199 
   17196    17197    17200    17200    17201    17201    17196    17192 
   17196    17200    17200    17197    17197    17197    17197    17199 
   17201    17200    17197    17196    17196    17197    17200    17200 
   17199    17196    17199    17200    17200    17201    17200    17197 
   17196    17196    17200    17201    17201    17197    17193    17197 
   17201    17200    17199    17199    17196    17193    17199    17204 
   17200    17194    17196    17196    17196    17199    17199    17197 
   17197    17197    17197    17201    17203    17197    17196    17200 
   17201    17201    17203    17200    17197    17199    17197    17197 
   17201    17201    17199    17194    17196    17199    17197    17197 
   17199    17196    17196    17197    17197    17200    17199    17196 
   17196    17196    17199    17201    17199    17196    17197    17199 
   17203    17211    17209    17205    17209    17212    17213    17223 
   17230    17235    17239    17239    17238    17234    17215    17186 
   17153    17120    17109    17138    17199    17262    17297    17289 
   17244    17193    17163    17154    17151    17159    17180    17204 
   17226    17238    17216    17151    17077    17047    17082    17153 
   17203    17203    17178    17178    17227    17289    17307    17258 
   17149    17020    16957    17020    17172    17281    17248    17139 
   17119    17231    17327    17208    16865    16588    16675    17095 
   17544    17702    17451    17012    16848    17186    17716    17922 
   17656    17265    17112    17163    17204    17089    16893    16866 
   17091    17354    17462    17489    17682    18056    18193    17647 
   16518    15508    15300    16089    17535    18833    19186    18558 
   17685    17088    16627    16287    16503    17305    17869    17504 
   16564    15900    15894    16475    17548    18789    19373    18642 
   16924    15334    14770    15323    16638    18149    18951    18430 
   17170    16371    16480    17097    17660    17902    17880    17544 
   16708    15637    15078    15616    17220    19190    20460    20286 
   18779    16835    15484    15118    15465    16100    16738    17339 
   17678    17493    17267    17610    18189    18280    17757    16951 
   16158    15738    15955    16629    17433    18177    18666    18775 
   18623    18091    16819    15469    15400    16609    17805    18134 
   17697    16881    16006    15727    16557    17991    19101    19268 
   18353    16980    16100    16067    16571    17105    17365    17378 
   17197    16787    16418    16518    17124    17848    18337    18543 
   18279    17235    15877    15168    15411    16287    17389    18312 
   18821    18852    18342    17509    16714    15955    15358    15438 
   16293    17302    17803    17825    17730    17581    17483    17571 
   17532    17112    16777    17031    17424    17208    16549    16258 
   16731    17595    18204    18119    17266    16151    15747    16557 
   17906    18719    18601    17864    17043    16553    16480    16555 
   16484    16505    17131    18179    18689    18258    17455    16791 
   16456    16603    17103    17539    17659    17652    17779    17824 
   17429    16764    16351    16474    16834    16949    16884    16983 
   17262    17528    17620    17575    17529    17429    17167    16853 
   16727    16800    16970    17278    17728    18269    18705    18426 
   17038    15372    14855    15741    17089    18165    18678    18351 
   17223    16050    15777    16494    17436    18111    18508    18361 
   17400    16083    15462    16163    17716    19129    19518    18403 
   16082    13724    13009    14859    18269    21158    21971    20385 
   17325    14362    12899    13775    16686    19884    21280    20170 
   17641    15286    14146    14629    16351    18211    19164    18848 
   17475    15869    15230    15905    17219    18488    19012    18049 
   16020    14810    15642    17531    18985    19674    19653    18697 
   16919    15030    13853    13875    15195    17504    19758    20638 
   19890    18428    17096    16162    15635    15491    15696    16168 
   16869    17774    18553    18863    18802    18299    17115    15826 
   15256    15473    16255    17398    18428    18771    18407    17929 
   17640    17404    17109    16443    15411    15172    16706    19025 
   20229    19791    18377    16561    15165    15141    16301    17550 
   18121    18050    17837    17613    17167    16559    16039    15903 
   16222    16710    17312    17972    18088    17421    16713    16690 
   17244    17783    17806    17174    16114    15256    15619    17545 
   19597    20020    18825    17173    15842    15210    15485    16337 
   17127    17716    18188    18254    17656    16641    15916    16092 
   17134    18396    18879    18108    16789    16067    16452    17416 
   18009    17863    17176    16299    15893    16661    18434    19872 
   19539    17475    15188    13940    14118    15828    18270    19646 
   19136    17844    17054    16686    16224    16001    16505    17265 
   17554    17625    17936    18257    18365    18117    17220    16051 
   15496    15823    16710    17741    18388    18334    17848    17456 
   17356    17267    16960    16687    16781    17197    17532    17509 
   17599    18308    19043    18882    17695    15982    14628    14598 
   16090    18100    19164    18628    17244    16143    15454    15041 
   15543    17234    19064    19529    18076    15859    14608    14918 
   16356    18085    18972    18391    16853    15577    15697    17161 
   18655    19261    18985    17867    16239    15221    15670    17186 
   18682    19415    19260    18361    17138    16316    16177    16312 
   16472    16692    16873    17139    17728    18283    18273    17733 
   17209    16987    16663    16235    16426    17523    18909    19402 
   18301    16425    15202    15079    15759    17011    18218    18436 
   17707    17065    17027    17184    17204    17185    17240    17401 
   17521    17454    17537    18017    18192    17335    15998    15307 
   15473    15989    16522    16991    17485    18018    18288    18103 
   17639    17172    16854    16872    17350    17844    17826    17444 
   17058    16733    16389    16144    16370    17158    18006    18274 
   17891    17497    17540    17379    16399    15449    15492    16189 
   16945    17707    18453    18771    18254    17211    16340    15963 
   16244    17194    18361    19134    19018    17892    16546    16029 
   16471    17328    17937    17732    16992    16551    16515    16490 
   16387    16264    16174    16324    16931    17910    18681    18588 
   17734    16900    16526    16630    17266    18094    18392    17892 
   16945    16197    16202    17004    17977    18324    17995    17474 
   16888    16240    15943    16321    17126    17961    18559    18738 
   18466    17612    16170    15006    15082    16310    17847    18846 
   18937    18237    17199    16380    15885    15547    15603    16440 
   18026    19573    20113    19575    18636    17880    17275    16413 
   15589    15622    16295    16663    16648    16966    17726    17960 
   16993    15618    15055    15601    16636    17398    17710    17682 
   17297    17073    17707    18723    19097    18715    18067    17379 
   16615    15973    15855    16152    16321    16251    16351    17059 
   18311    19341    19522    18823    17455    16071    15616    16186 
   16985    17452    17450    16923    16094    15542    15797    16738 
   17728    18427    18638    17979    16798    16042    15981    16370 
   16965    17363    17396    17494    18102    18925    19314    19121 
   18362    16771    14860    14156    15067    16468    17703    18774 
   19341    19076    18129    16922    16112    16121    16588    17043 
   17429    17667    17720    17732    17744    17724    17743    17743 
   17371    16459    15434    15001    15495    16740    18292    19300 
   18947    17556    16260    15642    15476    15641    16513    18076 
   19395    19415    18058    16351    15408    15651    16740    17867 
   18242    17541    16367    15958    16856    18219    18898    18719 
   18013    16949    15998    15723    16152    16876    17366    17417 
   17487    17960    18300    17923    17258    17082    17335    17470 
   17479    17350    16745    15946    15684    16247    17316    18273 
   18647    18284    17270    16004    15160    15361    16714    18495 
   19440    18874    17518    16511    16233    16572    17267    17778 
   17721    17371    17223    17262    17069    16569    16271    16557 
   17155    17575    17753    18007    18307    18269    17932    17540 
   17101    16650    16303    16239    16568    17012    17247    17338 
   17474    17648    17793    17944    17976    17582    16792    16096 
   16017    16541    17096    17347    17277    16807    16123    15809 
   16244    17162    18099    18879    19291    19024    18036    16733 
   15812    15685    16240    17300    18561    19202    18657    17464 
   16386    15596    15225    15473    16174    16885    17323    17508 
   17556    17605    17849    18254    18393    18015    17331    16630 
   16239    16406    16744    16776    16893    17474    18130    18409 
   18110    17240    16298    16074    16794    17763    18314    18334 
   17670    16497    15799    16016    16536    16961    17375    17807 
   18184    18330    17995    17116    16100    15585    15711    16270 
   17370    18793    19481    18848    17608    16659    16167    15958 
   16038    16409    16924    17529    18123    18368    18146    17697 
   17131    16530    16262    16553    17200    17761    17745    17058 
   16384    16492    17277    17982    17917    16896    15651    15296 
   16129    17486    18373    18200    17123    15862    15380    16151 
   17703    19101    19476    18546    17053    16193    16410    17274 
   18171    18534    18226    17709    17246    16727    16347    16632 
   17736    18985    19429    18806    17670    16510    15545    15363 
   16353    17945    19430    20417    20494    19600    18179    16615 
   15299    14708    14922    15820    17127    18021    17930    17093 
   15885    14670    14037    14312    15148    15877    16016    15631 
   15128    14737    14854    15973    17780    19477    20773    21625 
   21616    20356    18265    16297    15250    15770    17890    20299 
   21271    20313    18206    15808    13668    12205    11641    12235 
   14099    16497    18296    19103    19051    17999    15885    13637 
   12987    14573    17054    18889    19375    18274    16179    14366 
   13913    15118    17213    19120    20494    21425    21829    21960 
   22395    22858    22418    20981    19368    17872    16243    14951 
   14477    14224    13545    12978    13799    16216    18578    19140 
   18038    16573    15538    15431    16822    19545    22345    23882 
   23862    22624    20206    16333    11227     6724     5761     9899 
   17672    25636    30564    30181    24035    15797    11218    12298 
   17096    22370    23457    18420    10925     4592     1726     3769 
    8325    12658    16066    18153    19858    21967    23781    25278 
   26514    26478    24792    22461    20200    17794    15805    15097 
   15206    15043    13319     9691     5891     4286     6461    12091 
   18608    23211    24675    23426    21157    19633    19129    18943 
   18878    18428    17080    16321    17248    18503    18655    17246 
   14469    11572    10355    11796    15292    19049    21546    22501 
   21945    19954    17205    14424    12761    13532    16093    18713 
   20615    21236    19996    17447    15249    14508    15029    16401 
   18446    20449    21169    20268    18528    16756    15489    15076 
   15565    16640    18060    19587    20529    20202    18355    15789 
   14256    14530    15623    16378    16622    16255    15244    14790 
   16316    19394    21782    21861    20262    18180    16175    15171 
   15788    16920    16746    14967    13468    13959    15915    17926 
   19041    18616    17031    15951    16510    18106    19452    19588 
   18033    15184    12933    13887    18226    22457    23461    21413 
   18046    15306    14760    16322    18335    19070    18162    16708 
   15858    15850    16271    16340    15325    13783    13220    14218 
   16272    18727    21023    22426    21799    18898    15562    13995 
   14709    16492    17616    17620    17589    18231    18985    19068 
   18000    15803    13522    12463    13147    15245    17487    18423 
   17977    17532    18511    20599    21799    21150    19604    18137 
   17269    17362    17693    16811    14740    13459    14611    17668 
   20476    21193    19440    15813    11981    10605    12911    17000 
   19641    19441    17244    14211    11628    11076    12850    15786 
   18520    20090    20349    20056    19982    19884    18577    15593 
   12484    11681    14292    18975    22901    24036    22079    18154 
   14609    13757    16083    19843    22176    21528    19183    17516 
   17641    18951    19705    18420    15651    13683    14023    16337 
   19155    20710    20212    18565    17185    16634    16837    17528 
   17888    17093    15735    14966    14881    15399    16302    16556 
   16185    16447    17316    17574    16771    15650    15304    15790 
   16151    15838    15037    14573    15160    16271    17223    18366 
   19872    20699    19863    18144    16997    16649    16757    17037 
   16980    16552    16290    16672    17840    19422    20722    21022 
   19693    16848    14210    13950    16125    18619    19303    17435 
   14153    11943    12688    16298    20760    23369    22933    20542 
   18260    17626    18519    19129    17919    15161    12492    11623 
   12810    14823    16515    17266    17074    16895    17450    18256 
   18530    18268    17976    17982    18239    18185    17157    15226 
   13250    12591    13967    16364    18314    19251    19494    19726 
   19824    19025    17528    16224    15749    16578    18673    21100 
   22426    21729    19224    15741    12360    10211    10027    11715 
   14184    16513    18689    20440    21041    20406    19230    18270 
   17726    17354    17230    17675    18405    18875    18937    18391 
   17080    15669    14975    15086    15957    17446    18675    18832 
   18195    17678    17598    17589    17313    16443    15106    14168 
   14112    14882    16386    18324    19836    19920    18959    18468 
   19087    20308    21143    20815    19229    16661    13780    11774 
   11773    13653    15797    17072    17508    16978    15705    15157 
   16541    19020    20459    19877    18046    15921    14084    13011 
   12881    13819    15946    18675    20853    21780    21728    21227 
   20509    19742    18785    17300    15581    14287    13578    13468 
   14214    15535    16729    17547    18171    18998    20113    20837 
   20345    18357    15693    14122    14616    16567    18667    19672 
   19210    18091    17443    17820    18652    18905    18276    17023 
   15654    14918    15106    15950    16923    17304    16557    14798 
   12997    12557    14274    17610    20929    22636    22018    19530 
   16892    15777    16144    16734    16563    15549    14422    14077 
   14643    15580    16518    17134    17093    16731    16950    18315 
   20240    21311    20935    19707    18339    17401    17023    16750 
   16447    16197    15539    14346    13522    13832    15276    17350 
   19113    19734    18947    17315    16101    16062    16991    18465 
   19966    20784    20583    19716    18774    17860    16567    15005 
   14083    14268    15377    17257    19072    19656    19394    19375 
   19507    19268    18581    17463    16089    15039    14800    15114 
   15323    15268    15313    15595    15958    16448    17045    17540 
   17896    17926    17471    16885    16507    16382    16472    16713 
   17107    17590    17855    17670    17185    16895    17340    18385 
   19137    19117    18536    17652    16930    16835    17174    17451 
   17367    16983    16615    16668    17501    18692    19101    18450 
   17317    16052    15137    15149    15915    16683    16841    16506 
   16467    17199    18342    19070    19016    18708    18472    18112 
   17694    17305    17093    17432    18077    18276    17728    16627 
   15425    14790    15310    16775    17884    17648    16767    16314 
   16345    16629    16897    16443    15277    14616    15083    16031 
   16869    17679    18562    19195    19218    18716    18164    17867 
   17551    17057    16989    17620    18148    17901    16923    15704 
   15171    15790    16935    17784    17852    17126    16507    16723 
   17327    17857    18131    17649    16436    15489    15674    16733 
   17763    18416    18751    18534    17632    16517    15973    16337 
