Origin Time       2026/01/15 07:13:00
Lat.              42.7
Long.             145.4
Depth. (km)       30
Mag.              5.7
Station Code      HKD070
Station Lat.      43.3852
Station Long.     145.2840
Station Height(m) 6
Record Time       2026/01/15 07:13:36
Sampling Freq(Hz) 100Hz
Duration Time(s)  117
Dir.              E-W
Scale Factor      7845(gal)/8223790
Max. Acc. (gal)   11.880
Last Correction   2026/01/15 07:13:36
Memo.             
[...]
    3107     3109     3110     3111     3109     3110     3113     3113 
    3111     3109     3110     3113     3113     3110     3111     3110 
    3111     3114     3111     3110     3113     3115     3114     3111 
    3111     3109     3106     3107     3111     3113     3110     3109 
    3111     3113     3114     3111     3109     3111     3113     3111 
    3113     3113     3113     3115     3115     3113     3111     3111 
    3110     3113     3114     3113     3113     3113     3114     3114 
    3113     3113     3114     3113     3113     3113     3111     3110 
    3109     3111     3115     3115     3114     3113     3114     3113 
    3110     3111     3113     3111     3110     3113     3111     3109 
    3111     3115     3114     3113     3111     3111     3113     3115 
    3114     3114     3114     3113     3110     3113     3114     3111 
    3111     3114     3111     3111     3113     3113     3113     3114 
    3115     3114     3111     3113     3114     3113     3111     3113 
    3115     3114     3113     3113     3114     3114     3115     3115 
    3115     3114     3114     3115     3115     3114     3115     3117 
    3117     3115     3114     3114     3114     3114     3117     3115 
    3115     3115     3113     3111     3113     3115     3117     3115 
    3113     3114     3114     3113     3113     3114     3117     3113 
    3110     3111     3113     3113     3113     3113     3113     3113 
    3113     3111     3113     3114     3113     3114     3114     3114 
    3113     3110     3110     3113     3113     3114     3115     3113 
    3111     3114     3110     3107     3110     3113     3113     3113 
    3111     3114     3113     3110     3110     3113     3114     3114 
    3111     3110     3111     3110     3107     3109     3109     3109 
    3111     3113     3111     3113     3113     3111     3111     3111 
    3110     3109     3111     3114     3113     3113     3114     3113 
    3110     3110     3110     3111     3114     3115     3115     3115 
    3110     3110     3114     3115     3114     3115     3114     3110 
    3111     3113     3113     3111     3111     3111     3113     3114 
    3113     3115     3117     3114     3113     3113     3110     3111 
    3115     3114     3113     3115     3115     3113     3115     3115 
    3113     3114     3115     3114     3113     3114     3114     3113 
    3114     3113     3111     3115     3117     3114     3113     3111 
    3114     3118     3117     3114     3113     3111     3113     3114 
    3114     3118     3118     3113     3110     3113     3114     3115 
    3115     3115     3117     3113     3113     3114     3113     3113 
    3114     3115     3117     3119     3119     3117     3113     3113 
    3113     3111     3117     3125     3122     3114     3118     3122 
    3117     3114     3117     3119     3121     3115     3109     3113 
    3121     3121     3110     3107     3115     3126     3123     3105 
    3098     3117     3126     3115     3107     3117     3129     3127 
    3123     3125     3115     3105     3107     3118     3121     3109 
    3099     3105     3121     3134     3132     3113     3105     3122 
    3127     3103     3088     3090     3096     3121     3150     3136 
    3086     3080     3148     3173     3100     3036     3055     3118 
    3164     3129     3048     3064     3173     3199     3111     3060 
    3096     3125     3123     3114     3075     3084     3183     3184 
    3072     3084     3191     3161     3037     3015     3103     3142 
    3090     3061     3087     3102     3127     3133     3064     3041 
    3118     3156     3100     3044     3075     3163     3156     3080 
    3107     3154     3099     3087     3127     3080     3068     3152 
    3141     3063     3083     3152     3140     3072     3091     3159 
    3126     3069     3083     3092     3110     3152     3141     3138 
    3159     3098     3059     3127     3153     3080     3056     3110 
    3144     3150     3136     3105     3129     3176     3141     3046 
    3013     3099     3168     3107     3065     3126     3144     3100 
    3100     3129     3111     3045     3021     3073     3106     3083 
    3100     3165     3180     3152     3157     3149     3072     3036 
    3103     3149     3113     3122     3213     3227     3171     3208 
    3227     3084     3010     3113     3138     3040     3049     3132 
    3095     3061     3146     3152     3055     3086     3186     3129 
    3009     3024     3122     3144     3098     3100     3110     3057 
    3060     3154     3177     3127     3161     3242     3192     3059 
    3059     3134     3111     3096     3159     3163     3134     3171 
    3159     3049     3044     3140     3065     2891     2898     3030 
    3125     3133     3072     3061     3160     3238     3194     3092 
    3082     3172     3214     3123     3007     3038     3169     3150 
    2965     2882     2970     3036     3036     3080     3154     3215 
    3275     3229     3078     3019     3092     3111     2984     2906 
    3048     3231     3289     3268     3206     3150     3146     3157 
    3160     3132     3096     3154     3260     3276     3192     3063 
    2994     3059     3076     2903     2741     2771     2929     3078 
    3076     3037     3253     3457     3196     2795     2727     2870 
    2994     3041     3099     3326     3634     3739     3512     3165 
    3075     3187     3098     2917     3017     3285     3423     3366 
    3150     2902     2790     2809     2855     2879     2932     3100 
    3291     3308     3150     2926     2779     2835     2924     2841 
    2783     3006     3385     3581     3473     3329     3343     3348 
    3288     3245     3146     3049     3052     3017     2905     2829 
    2847     2971     3123     3208     3258     3304     3296     3240 
    3138     2990     2921     3002     3040     2992     3102     3361 
    3468     3338     3233     3287     3287     3171     3106     3049 
    3009     3126     3195     3017     2829     2774     2821     2967 
    3033     2928     2897     3026     3130     3156     3157     3119 
    3094     3111     3065     2978     2941     2964     3117     3403 
    3676     3794     3692     3496     3410     3364     3222     3069 
    3042     3211     3464     3497     3222     2880     2648     2490 
    2357     2307     2447     2737     3044     3294     3373     3211 
    2941     2748     2733     2878     3040     3130     3235     3449 
    3654     3643     3423     3235     3231     3307     3330     3269 
    3152     3096     3196     3281     3156     2936     2899     3123 
    3292     3157     3002     3044     3057     3003     3048     3111 
    3107     3171     3323     3345     3165     3067     3164     3191 
    3088     3014     2909     2790     2862     3028     3132     3308 
    3458     3285     2889     2596     2565     2686     2762     2824 
    2964     3187     3497     3680     3542     3376     3349     3206 
    2959     2874     2949     3111     3321     3399     3385     3462 
    3396     3060     2794     2768     2895     3075     3211     3280 
    3326     3358     3246     2862     2474     2408     2506     2628 
    2929     3319     3495     3418     3269     3111     2899     2733 
    2759     2868     2936     3115     3418     3470     3240     3133 
    3206     3229     3213     3233     3230     3199     3227     3298 
    3280     3192     3141     3030     2856     2847     2987     3076 
    3177     3303     3316     3356     3499     3508     3418     3480 
    3615     3626     3481     3211     3015     3087     3208     3099 
    2849     2691     2670     2635     2489     2397     2547     2843 
    3102     3199     3130     3105     3229     3358     3446     3555 
    3663     3645     3449     3249     3176     3137     3150     3269 
    3352     3392     3478     3493     3474     3642     3796     3572 
    3154     2924     2826     2677     2478     2367     2454     2621 
    2667     2644     2735     2961     3146     3126     2988     2922 
    2909     2836     2798     2943     3173     3325     3322     3188 
    3091     3071     3010     2970     3036     3154     3238     3177 
    3052     3061     3083     3010     3026     3122     3119     3045 
    3036     3129     3196     3113     2953     2830     2752     2814 
    3103     3429     3557     3532     3510     3515     3446     3319 
    3292     3308     3257     3279     3318     3173     3060     3194 
    3269     3094     2959     3026     3113     3146     3146     2987 
    2722     2562     2434     2216     2133     2394     2798     3025 
    3171     3484     3816     3933     3871     3801     3855     3900 
    3654     3161     2756     2663     2783     2822     2728     2791 
    3090     3252     3096     2936     2972     3003     2924     2897 
    2975     3088     3280     3489     3437     3121     2937     2930 
    2847     2844     3087     3319     3357     3264     3137     2974 
    2802     2822     3034     3200     3296     3408     3472     3438 
    3429     3542     3608     3418     3142     3042     3019     2887 
    2789     2856     2894     2818     2744     2641     2613     2922 
    3369     3462     3222     3080     3145     3150     2990     2914 
    3159     3543     3721     3616     3321     3052     3022     3080 
    3007     2932     2986     3030     3019     3075     3172     3153 
    2991     2856     2857     2857     2799     2785     2839     3022 
    3289     3335     3208     3295     3527     3635     3707     3804 
    3821     3766     3628     3330     2970     2751     2675     2542 
    2351     2340     2527     2691     2766     2844     2955     3105 
    3298     3392     3343     3333     3407     3412     3273     3049 
    2930     3014     3121     3179     3326     3510     3639     3788 
    3817     3541     3207     3048     2925     2814     2857     2918 
    2856     2930     3287     3535     3361     3052     2951     2947 
    2844     2722     2674     2633     2616     2655     2587     2366 
    2245     2315     2376     2457     2821     3353     3682     3827 
    3985     3978     3719     3632     3800     3777     3653     3786 
    3851     3519     3141     3019     3088     3272     3408     3316 
    3150     3127     3071     2768     2452     2446     2640     2632 
    2336     2161     2327     2562     2659     2728     2941     3261 
    3429     3323     3113     3037     3186     3373     3408     3431 
    3568     3665     3584     3372     3198     3150     3109     2957 
    2799     2840     3114     3449     3709     3844     3797     3595 
    3279     2862     2509     2465     2683     2934     3154     3321 
    3267     3002     2740     2543     2438     2597     2940     3180 
    3338     3504     3501     3256     2902     2600     2486     2517 
    2592     2755     3044     3377     3645     3797     3832     3739 
    3522     3177     2743     2377     2242     2332     2594     3096 
    3789     4309     4503     4496     4136     3481     3061     2878 
    2589     2474     2798     3138     3169     3056     2837     2428 
    2106     2114     2200     2268     2747     3649     4267     4376 
    4380     4310     3996     3551     3119     2862     2849     2891 
    2975     3179     3306     3312     3343     3276     3060     2953 
    2970     2779     2381     2204     2353     2479     2498     2583 
    2782     3148     3627     3831     3643     3538     3721     3828 
    3639     3308     3069     3071     3206     3183     2983     2945 
    3167     3321     3264     3076     2767     2587     2735     2816 
    2578     2386     2455     2633     2920     3311     3524     3470 
    3389     3275     3009     2818     2909     3041     2929     2779 
    2824     2830     2709     2756     2995     3188     3283     3330 
    3241     2918     2631     2725     2918     2816     2745     3078 
    3580     3962     4117     3947     3636     3574     3612     3252 
    2663     2378     2284     2146     2161     2324     2425     2613 
    2971     3257     3500     3881     4108     3964     3808     3870 
    3913     3775     3692     3906     4220     4313     4194     4033 
    3942     4001     4112     4056     3912     3909     4087     4388 
    4711     4981     5189     5143     4772     4401     4239     4309 
    4608     4941     5185     5441     5671     5788     5707     5239 
    4581     4278     4274     4141     3981     3977     3879     3619 
    3375     3034     2473     1933     1732     1972     2581     3485 
    4449     4949     4907     4839     4887     4734     4218     3477 
    2918     2763     2678     2313     1773     1439     1593     2018 
    2211     2096     1944     1765     1426     1009      729      730 
     930     1086     1158     1246     1246     1021      697      564 
     670      648      292      -21      -87     -108      -75       66 
     139       95      -83     -523    -1054    -1325    -1339    -1495 
   -2126    -3056    -3789    -4035    -3647    -2521     -931      569 
    1628     2104     2074     1918     1942     2151     2619     3580 
    4990     6380     7410     8199     8939     9602    10046    10119 
    9792     9313     8885     8380     7634     6720     5748     4645 
    3183     1185    -1237    -3775    -6115    -7817    -8287    -7059 
   -3929      936     6516    11129    13984    15437    15566    14239 
   11971     9472     7489     6737     7020     7538     7921     8109 
    7974     7302     5763     3392      828    -1420    -3142    -3877 
   -3302    -1989     -862     -218       68     -336    -1918    -4085 
   -5651    -6176    -5572    -3750    -1264     1228     3813     6623 
    9111    10584    10870    10272     9227     8193     7668     7884 
    8387     8554     8293     7604     6149     3825     1296     -650 
   -1786    -1977    -1017      742     2781     4992     6864     7326 
    6100     3866     1285     -959    -1954    -1325      506     3075 
    5957     8244     9108     8684     7591     6353     5391     4822 
    4594     4806     5366     5714     5217     3700     1448    -1134 
   -3655    -5744    -7049    -7191    -6045    -4148    -2106      -72 
    1613     2481     2821     3364     4267     5251     6396     7971 
    9617    10575    10737    10459     9790     8843     8055     7530 
    7137     6860     6377     5039     2714       76    -2195    -3966 
   -5185    -5528    -4768    -3102    -1148      488     1718     2832 
    3983     4911     5073     4243     2772     1229      201      174 
    1134     2685     4510     6146     6890     6509     5540     4617 
    3921     3364     2901     2614     2542     2639     3078     4179 
    5695     6629     6205     4612     2609      943     -152    -1066 
   -1857    -1946    -1138      184     1692     3217     4749     6392 
    7879     8642     8533     7817     6805     5900     5340     5077 
    5130     5360     5003     3325      641    -1846    -3033    -2593 
    -990     1027     2893     4391     5486     5876     5179     3532 
    1409     -839    -2970    -4715    -5724    -5633    -4239    -1703 
    1235     3615     5057     5846     6288     6471     6430     6268 
    6292     6758     7456     7848     7615     6894     6060     5464 
    5400     5779     6008     5784     5412     4970     4216     3252 
    2328     1424      540      -66     -101      487     1559     2975 
    4537     5942     6922     7194     6531     5039     3152     1441 
     441      371      892     1440     1807     2130     2409     2365 
    1827     1093      672      708      885      922      880      916 
    1062     1271     1582     2208     3335     4768     5950     6448 
    6393     6261     6300     6507     6666     6297     5283     4129 
    3117     2088     1289     1551     3206     5298     6542     6673 
    6187     5441     4634     3886     3082     2106     1089      233 
    -324     -565     -468      302     1892     3573     4452     4581 
    4627     4893     5289     5759     6255     6752     7261     7481 
    7099     6407     5871     5562     5265     4494     2851      785 
    -712    -1359    -1737    -2214    -2493    -2290    -1815    -1502 
   -1524    -1611    -1389     -908     -556     -564     -799     -697 
     284     1891     3387     4565     5540     6134     6312     6415 
    6538     6536     6531     6635     6517     5857     4985     4553 
    4696     5012     5215     5255     5093     4693     4056     3250 
    2330     1282      112    -1216    -2573    -3372    -3149    -2122 
    -658     1051     2620     3520     3613     3223     2744     2290 
    1788     1401     1544     2205     2691     2562     2330     2700 
    3581     4384     4904     5371     6046     6871     7236     6604 
    5304     4032     2976     1894      629     -692    -1853    -2571 
   -2417    -1416     -318      568     1891     3943     5962     7175 
    7669     7908     7824     6959     5351     3613     2362     1961 
    2415     3470     4872     6238     7144     7348     6655     5117 
    3337     1973     1285     1325     2069     3276     4502     5447 
    6170     6802     7245     7441     7557     7651     7533     6948 
    5629     3454      895    -1270    -2758    -3639    -3659    -2552 
    -715      935     1664     1379      583      -78     -283      -99 
     453     1618     3570     5999     8221     9821    10863    11314 
   10615     8511     5807     3461     1858     1263     1723     2797 
    4025     5162     5853     5630     4423     2797     1374      348 
    -329     -702     -862     -927     -940     -827     -444       93 
     373      247     -149     -796    -1563    -2101    -2266    -2089 
   -1582    -1085    -1075    -1379    -1332     -561      858     2592 
    4382     6324     8457    10412    11866    12806    13246    13181 
   12613    11507     9826     7634     5147     2907     1640     1439 
    1625     1780     1930     1876     1343      280    -1101    -2197 
   -2461    -1996    -1177     -147     1026     2214     3231     3894 
    4241     4523     4908     5302     5394     5055     4579     4330 
    4599     5611     7213     8824     9837     9863     8962     7690 
    6515     5404     4338     3709     3721     4024     4251     4216 
    3769     2992     2039      830     -552    -1622    -2014    -1900 
   -1678    -1372     -730      124      803     1327     1977     2794 
    3676     4457     4950     5351     6029     6762     6960     6463 
    5563     4444     2988     1215     -459    -1509    -1656     -978 
     234     1688     3146     4394     5152     5267     5020     4901 
    5108     5459     5624     5387     4704     3704     2697     1795 
     824     -129     -708     -746     -234      834     2215     3426 
    4232     4737     4977     4974     4990     5148     5182     4749 
    3647     2007      464     -321     -221      523     1695     3079 
    4329     5181     5582     5574     5347     5220     5324     5516 
    5598     5587     5691     5917     5906     5290     4149     2983 
    2273     2181     2506     2883     3107     3159     3038     2755 
