Origin Time       2026/01/15 07:13:00
Lat.              42.7
Long.             145.4
Depth. (km)       30
Mag.              5.7
Station Code      HKD087
Station Lat.      43.1502
Station Long.     143.8916
Station Height(m) 170
Record Time       2026/01/15 07:13:52
Sampling Freq(Hz) 100Hz
Duration Time(s)  60
Dir.              N-S
Scale Factor      7845(gal)/8223790
Max. Acc. (gal)   2.356
Last Correction   2026/01/15 07:13:53
Memo.             
[...]
   -4868    -4837    -4770    -4685    -4604    -4584    -4654    -4738 
   -4742    -4676    -4618    -4630    -4703    -4777    -4801    -4769 
   -4722    -4731    -4780    -4764    -4661    -4580    -4583    -4615 
   -4614    -4553    -4468    -4455    -4536    -4606    -4615    -4604 
   -4599    -4594    -4604    -4648    -4695    -4703    -4665    -4606 
   -4549    -4521    -4554    -4649    -4730    -4754    -4766    -4791 
   -4792    -4749    -4691    -4669    -4693    -4720    -4737    -4754 
   -4723    -4592    -4432    -4355    -4403    -4536    -4661    -4718 
   -4711    -4658    -4588    -4560    -4587    -4615    -4633    -4681 
   -4727    -4726    -4699    -4657    -4585    -4540    -4575    -4648 
   -4695    -4712    -4691    -4657    -4676    -4737    -4781    -4803 
   -4791    -4731    -4641    -4554    -4515    -4553    -4633    -4681 
   -4704    -4769    -4853    -4864    -4776    -4665    -4627    -4677 
   -4734    -4731    -4693    -4623    -4488    -4345    -4311    -4418 
   -4573    -4673    -4692    -4648    -4567    -4509    -4500    -4514 
   -4553    -4627    -4706    -4735    -4679    -4571    -4513    -4571 
   -4719    -4868    -4938    -4942    -4930    -4904    -4834    -4719 
   -4610    -4580    -4658    -4796    -4900    -4915    -4851    -4737 
   -4596    -4479    -4430    -4473    -4590    -4673    -4600    -4407 
   -4287    -4376    -4615    -4804    -4799    -4641    -4502    -4498 
   -4606    -4723    -4791    -4815    -4799    -4753    -4704    -4671 
   -4658    -4653    -4621    -4575    -4567    -4630    -4730    -4761 
   -4652    -4496    -4437    -4488    -4590    -4693    -4772    -4791 
   -4760    -4735    -4743    -4783    -4824    -4801    -4688    -4556 
   -4499    -4544    -4635    -4687    -4671    -4650    -4673    -4685 
   -4644    -4590    -4548    -4488    -4421    -4406    -4475    -4594 
   -4684    -4696    -4657    -4626    -4645    -4693    -4731    -4753 
   -4741    -4679    -4619    -4623    -4675    -4715    -4696    -4634 
   -4617    -4685    -4792    -4876    -4931    -4947    -4900    -4796 
   -4672    -4575    -4549    -4599    -4685    -4762    -4783    -4706 
   -4553    -4399    -4324    -4376    -4531    -4673    -4707    -4645 
   -4548    -4479    -4488    -4575    -4698    -4801    -4835    -4806 
   -4769    -4766    -4791    -4800    -4764    -4687    -4595    -4529 
   -4511    -4534    -4592    -4653    -4654    -4573    -4441    -4318 
   -4294    -4438    -4702    -4941    -5050    -5011    -4858    -4679 
   -4545    -4498    -4560    -4699    -4807    -4795    -4676    -4557 
   -4531    -4599    -4668    -4689    -4685    -4665    -4621    -4580 
   -4576    -4606    -4644    -4645    -4603    -4592    -4662    -4764 
   -4822    -4810    -4715    -4572    -4464    -4441    -4509    -4658 
   -4841    -4946    -4923    -4799    -4610    -4415    -4317    -4367 
   -4525    -4714    -4877    -4954    -4900    -4725    -4476    -4253 
   -4195    -4357    -4631    -4855    -4926    -4851    -4708    -4563 
   -4448    -4395    -4419    -4519    -4661    -4777    -4806    -4743 
   -4642    -4545    -4482    -4502    -4611    -4760    -4889    -4931 
   -4845    -4700    -4611    -4610    -4665    -4738    -4792    -4793 
   -4747    -4673    -4596    -4553    -4556    -4590    -4645    -4700 
   -4708    -4637    -4510    -4405    -4423    -4576    -4747    -4845 
   -4887    -4900    -4873    -4823    -4791    -4766    -4711    -4638 
   -4602    -4627    -4687    -4699    -4602    -4456    -4384    -4429 
   -4523    -4596    -4614    -4592    -4571    -4568    -4583    -4634 
   -4737    -4854    -4924    -4935    -4884    -4777    -4638    -4468 
   -4282    -4178    -4255    -4477    -4716    -4862    -4885    -4807 
   -4684    -4569    -4475    -4428    -4479    -4630    -4806    -4915 
   -4903    -4765    -4564    -4402    -4371    -4487    -4666    -4811 
   -4858    -4808    -4707    -4622    -4611    -4665    -4734    -4779 
   -4807    -4826    -4827    -4787    -4702    -4592    -4479    -4391 
   -4372    -4446    -4573    -4681    -4730    -4692    -4587    -4519 
   -4576    -4710    -4824    -4862    -4814    -4753    -4760    -4799 
   -4788    -4729    -4680    -4644    -4584    -4523    -4496    -4504 
   -4537    -4579    -4614    -4631    -4652    -4708    -4796    -4850 
   -4800    -4660    -4538    -4514    -4571    -4649    -4706    -4723 
   -4683    -4594    -4529    -4544    -4621    -4733    -4837    -4855 
   -4745    -4560    -4419    -4432    -4588    -4785    -4909    -4909 
   -4815    -4711    -4661    -4679    -4735    -4783    -4770    -4683 
   -4554    -4460    -4459    -4564    -4707    -4781    -4760    -4704 
   -4673    -4687    -4715    -4704    -4642    -4558    -4498    -4495 
   -4544    -4584    -4585    -4556    -4483    -4399    -4395    -4494 
   -4639    -4781    -4869    -4869    -4831    -4819    -4828    -4828 
   -4777    -4681    -4612    -4604    -4612    -4619    -4627    -4606 
   -4571    -4580    -4646    -4725    -4745    -4669    -4564    -4521 
   -4534    -4564    -4615    -4681    -4708    -4665    -4603    -4590 
   -4641    -4734    -4799    -4774    -4687    -4619    -4641    -4741 
   -4828    -4823    -4745    -4648    -4549    -4455    -4394    -4422 
   -4554    -4716    -4808    -4801    -4731    -4642    -4584    -4577 
   -4608    -4641    -4661    -4707    -4818    -4953    -4997    -4853 
   -4563    -4326    -4313    -4517    -4811    -5036    -5067    -4904 
   -4638    -4368    -4209    -4244    -4428    -4611    -4688    -4660 
   -4588    -4522    -4473    -4450    -4480    -4590    -4756    -4897 
   -4919    -4797    -4608    -4461    -4425    -4515    -4693    -4869 
   -4959    -4939    -4823    -4652    -4513    -4496    -4598    -4715 
   -4760    -4720    -4656    -4619    -4617    -4621    -4602    -4568 
   -4576    -4657    -4746    -4773    -4727    -4641    -4563    -4544 
   -4591    -4657    -4700    -4695    -4645    -4599    -4592    -4602 
   -4610    -4627    -4653    -4689    -4742    -4783    -4746    -4610 
   -4422    -4291    -4332    -4573    -4882    -5082    -5098    -4976 
   -4807    -4692    -4648    -4617    -4542    -4444    -4372    -4342 
   -4338    -4361    -4418    -4517    -4641    -4743    -4806    -4842 
   -4849    -4820    -4780    -4743    -4699    -4637    -4590    -4606 
   -4681    -4760    -4789    -4742    -4618    -4473    -4401    -4433 
   -4525    -4622    -4708    -4797    -4874    -4907    -4876    -4784 
   -4673    -4599    -4591    -4664    -4795    -4912    -4941    -4869 
   -4772    -4727    -4756    -4826    -4865    -4779    -4538    -4256 
   -4090    -4120    -4303    -4509    -4606    -4594    -4550    -4522 
   -4510    -4510    -4531    -4622    -4789    -4958    -5043    -5012 
   -4872    -4668    -4492    -4422    -4472    -4591    -4687    -4680 
   -4590    -4490    -4423    -4448    -4581    -4734    -4839    -4905 
   -4935    -4915    -4831    -4699    -4594    -4581    -4656    -4762 
   -4847    -4885    -4857    -4772    -4662    -4576    -4537    -4523 
   -4506    -4498    -4542    -4630    -4696    -4711    -4672    -4556 
   -4382    -4206    -4070    -4031    -4166    -4467    -4828    -5130 
   -5267    -5202    -4996    -4768    -4639    -4665    -4811    -4997 
   -5111    -5059    -4862    -4615    -4422    -4340    -4344    -4379 
   -4434    -4510    -4554    -4527    -4460    -4413    -4402    -4418 
   -4495    -4658    -4843    -4941    -4887    -4706    -4487    -4328 
   -4306    -4445    -4677    -4893    -5023    -5055    -5008    -4885 
   -4702    -4507    -4341    -4255    -4329    -4568    -4830    -4924 
   -4797    -4558    -4388    -4423    -4676    -5008    -5240    -5233 
   -4984    -4639    -4367    -4253    -4326    -4540    -4803    -5032 
   -5182    -5238    -5193    -5022    -4712    -4347    -4085    -4016 
   -4128    -4367    -4627    -4792    -4847    -4853    -4846    -4837 
   -4858    -4927    -5022    -5094    -5063    -4892    -4664    -4473 
   -4352    -4311    -4359    -4460    -4518    -4471    -4383    -4401 
   -4585    -4866    -5081    -5100    -4931    -4706    -4549    -4480 
   -4426    -4341    -4293    -4363    -4495    -4575    -4561    -4511 
   -4495    -4513    -4527    -4587    -4738    -4901    -4932    -4766 
   -4469    -4228    -4195    -4349    -4557    -4710    -4754    -4696 
   -4600    -4540    -4584    -4765    -5015    -5204    -5244    -5165 
   -5050    -4939    -4815    -4672    -4518    -4375    -4295    -4322 
   -4419    -4517    -4571    -4577    -4534    -4469    -4471    -4610 
   -4818    -4935    -4877    -4719    -4606    -4595    -4634    -4657 
   -4622    -4521    -4402    -4322    -4301    -4351    -4480    -4642 
   -4761    -4823    -4889    -5005    -5127    -5142    -4995    -4765 
   -4573    -4461    -4428    -4463    -4526    -4558    -4511    -4387 
   -4293    -4356    -4584    -4876    -5078    -5094    -4973    -4861 
   -4847    -4916    -4963    -4858    -4579    -4271    -4104    -4109 
   -4225    -4363    -4426    -4380    -4299    -4297    -4459    -4787 
   -5147    -5335    -5274    -5054    -4804    -4583    -4407    -4324 
   -4365    -4494    -4653    -4799    -4888    -4895    -4815    -4685 
   -4577    -4541    -4576    -4665    -4761    -4761    -4612    -4378 
   -4155    -4017    -4064    -4345    -4756    -5139    -5377    -5410 
   -5246    -4942    -4591    -4306    -4164    -4129    -4116    -4141 
   -4286    -4549    -4857    -5120    -5250    -5190    -4965    -4681 
   -4445    -4338    -4405    -4569    -4693    -4706    -4614    -4487 
   -4430    -4495    -4675    -4918    -5120    -5211    -5209    -5136 
   -4943    -4606    -4222    -3967    -3967    -4233    -4654    -5042 
   -5213    -5076    -4695    -4284    -4074    -4199    -4623    -5115 
   -5414    -5409    -5150    -4799    -4514    -4355    -4315    -4372 
   -4482    -4590    -4687    -4806    -4941    -5046    -5112    -5173 
   -5252    -5297    -5181    -4841    -4388    -4001    -3775    -3781 
   -4063    -4554    -5081    -5447    -5512    -5262    -4838    -4405 
   -4056    -3865    -3885    -4091    -4390    -4668    -4810    -4765 
   -4603    -4429    -4322    -4360    -4577    -4885    -5134    -5194 
   -4999    -4595    -4158    -3839    -3708    -3832    -4240    -4839 
   -5451    -5852    -5886    -5591    -5162    -4793    -4549    -4375 
   -4206    -4048    -3947    -3923    -3916    -3843    -3719    -3654 
   -3735    -3966    -4276    -4579    -4827    -4972    -4959    -4842 
   -4801    -5017    -5498    -6037    -6350    -6261    -5783    -5071 
   -4380    -3991    -4079    -4607    -5306    -5746    -5597    -4887 
   -3952    -3176    -2860    -3149    -3936    -4895    -5644    -5906 
   -5649    -5084    -4477    -4025    -3838    -3931    -4218    -4517 
   -4617    -4423    -4059    -3808    -3936    -4496    -5270    -5908 
   -6138    -5856    -5204    -4548    -4209    -4239    -4513    -4872 
   -5127    -5130    -4868    -4444    -4017    -3773    -3821    -4137 
   -4641    -5200    -5599    -5638    -5277    -4654    -4023    -3589 
   -3433    -3555    -3936    -4500    -5092    -5516    -5582    -5239 
   -4679    -4243    -4260    -4811    -5547    -5910    -5595    -4756 
   -3846    -3343    -3453    -4023    -4761    -5431    -5834    -5825 
   -5397    -4700    -3956    -3411    -3242    -3503    -4116    -4861 
   -5432    -5645    -5517    -5219    -4972    -4876    -4839    -4787 
   -4780    -4887    -5098    -5332    -5402    -5146    -4619    -4078 
   -3812    -3960    -4419    -4901    -5146    -5062    -4699    -4210 
   -3842    -3798    -4054    -4363    -4499    -4436    -4322    -4324 
   -4504    -4810    -5084    -5139    -4897    -4446    -3950    -3601 
   -3616    -4052    -4699    -5250    -5494    -5404    -5136    -4920 
   -4884    -5009    -5192    -5312    -5319    -5246    -5177    -5211 
   -5352    -5424    -5205    -4654    -3958    -3431    -3280    -3487 
   -3888    -4252    -4409    -4375    -4271    -4189    -4193    -4324 
   -4542    -4758    -4868    -4834    -4720    -4653    -4689    -4807 
   -4981    -5148    -5175    -5028    -4824    -4656    -4563    -4615 
   -4801    -4997    -5057    -4866    -4452    -4012    -3743    -3697 
   -3855    -4226    -4783    -5378    -5775    -5786    -5441    -4962 
   -4576    -4410    -4455    -4573    -4627    -4581    -4499    -4472 
   -4495    -4388    -4004    -3484    -3145    -3234    -3792    -4598 
   -5274    -5617    -5733    -5767    -5699    -5460    -5098    -4757 
   -4548    -4469    -4460    -4459    -4440    -4432    -4500    -4665 
   -4881    -5105    -5279    -5304    -5130    -4842    -4590    -4482 
   -4558    -4752    -4892    -4843    -4604    -4264    -3939    -3728 
   -3685    -3789    -3964    -4101    -4067    -3856    -3685    -3769 
   -4074    -4379    -4517    -4534    -4608    -4864    -5271    -5667 
   -5849    -5715    -5316    -4837    -4492    -4453    -4780    -5327 
   -5811    -6035    -5938    -5597    -5163    -4783    -4579    -4573 
   -4638    -4619    -4492    -4313    -4139    -3975    -3778    -3551 
   -3453    -3654    -4156    -4823    -5460    -5836    -5773    -5286 
   -4585    -3977    -3681    -3719    -3967    -4275    -4533    -4676 
   -4679    -4556    -4341    -4097    -3932    -3958    -4193    -4531 
   -4800    -4841    -4612    -4249    -4008    -4140    -4766    -5756 
   -6705    -7122    -6785    -5895    -4912    -4267    -4152    -4536 
   -5248    -5989    -6359    -6099    -5309    -4357    -3601    -3217 
   -3187    -3404    -3742    -4048    -4178    -4135    -4078    -4163 
   -4429    -4810    -5205    -5525    -5688    -5624    -5362    -5062 
   -4888    -4857    -4823    -4668    -4413    -4125    -3859    -3661 
   -3549    -3570    -3771    -4082    -4360    -4579    -4837    -5170 
   -5478    -5594    -5437    -5113    -4806    -4584    -4457    -4491 
   -4735    -5097    -5394    -5458    -5178    -4567    -3796    -3142 
   -2862    -3051    -3589    -4207    -4623    -4660    -4359    -3996 
   -3925    -4337    -5065    -5679    -5825    -5490    -4939    -4479 
   -4299    -4414    -4720    -5097    -5447    -5740    -6000    -6176 
   -6069    -5536    -4700    -3967    -3720    -3982    -4419    -4645 
   -4521    -4191    -3890    -3796    -3985    -4384    -4781    -4977 
   -4965    -4888    -4893    -5071    -5347    -5491    -5395    -5178 
   -4993    -4853    -4685    -4476    -4298    -4209    -4186    -4168 
   -4140    -4116    -4099    -4102    -4131    -4153    -4136    -4068 
   -3963    -3871    -3896    -4101    -4421    -4692    -4851    -4951 
   -5036    -5104    -5162    -5254    -5441    -5714    -5988    -6181 
   -6153    -5748    -4992    -4121    -3412    -3064    -3123    -3512 
   -4095    -4664    -4942    -4774    -4252    -3665    -3325    -3403 
   -3881    -4581    -5247    -5680    -5809    -5664    -5354    -5026 
   -4820    -4830    -5050    -5375    -5671    -5868    -5940    -5865 
   -5656    -5391    -5167    -5024    -4919    -4791    -4650    -4525 
   -4348    -4040    -3688    -3483    -3532    -3831    -4291    -4768 
   -5121    -5252    -5094    -4679    -4209    -3932    -3939    -4093 
   -4180    -4129    -4005    -3877    -3780    -3744    -3793    -3917 
   -4082    -4280    -4534    -4814    -5030    -5127    -5144    -5209 
   -5428    -5737    -5941    -5883    -5530    -4968    -4383    -3985 
   -3882    -4058    -4409    -4774    -5024    -5111    -5042    -4842 
   -4576    -4301    -4058    -3942    -4068    -4441    -4926    -5283 
   -5300    -4941    -4382    -3916    -3813    -4147    -4741    -5286 
   -5508    -5347    -4981    -4646    -4502    -4600    -4878    -5182 
   -5379    -5412    -5278    -5015    -4696    -4417    -4260    -4266 
   -4415    -4625    -4783    -4779    -4577    -4275    -4082    -4158 
   -4464    -4788    -4911    -4772    -4479    -4170    -3936    -3829 
   -3834    -3869    -3875    -3879    -3956    -4152    -4480    -4891 
   -5251    -5456    -5495    -5410    -5246    -5051    -4916    -4939 
   -5147    -5448    -5709    -5799    -5649    -5270    -4714    -4087 
   -3551    -3253    -3271    -3591    -4110    -4664    -5009    -4949 
   -4540    -4091    -3893    -3990    -4251    -4538    -4792    -4974 
   -5035    -4989    -4934    -4915    -4865    -4737    -4622    -4669 
   -4947    -5356    -5667    -5697    -5466    -5120    -4785    -4526 
   -4376    -4318    -4253    -4054    -3689    -3298    -3069    -3132 
   -3508    -4098    -4687    -5069    -5179    -5112    -5024    -4999 
   -5003    -5009    -5031    -5078    -5123    -5144    -5139    -5125 
   -5119    -5073    -4923    -4688    -4471    -4326    -4225    -4129 
   -4039    -3966    -3959    -4093    -4395    -4791    -5090    -5109 
   -4831    -4405    -4063    -4004    -4236    -4573    -4781    -4753 
   -4576    -4425    -4396    -4468    -4553    -4592    -4594    -4594 
   -4596    -4554    -4456    -4384    -4456    -4735    -5219    -5786 
   -6224    -6357    -6127    -5621    -5054    -4641    -4442    -4407 
   -4463    -4533    -4548    -4459    -4244    -3986    -3843    -3924 
   -4203    -4552    -4828    -4957    -4946    -4885    -4887    -5000 
   -5135    -5123    -4897    -4567    -4321    -4264    -4374    -4575 
   -4760    -4827    -4774    -4731    -4851    -5174    -5563    -5814 
   -5810    -5607    -5355    -5140    -4919    -4637    -4369    -4247 
   -4283    -4369    -4409    -4410    -4440    -4499    -4514    -4410 
   -4178    -3882    -3646    -3604    -3831    -4299    -4835    -5186 
   -5192    -4880    -4415    -4018    -3882    -4055    -4432    -4845 
   -5127    -5193    -5081    -4934    -4885    -4953    -5061    -5125 
   -5086    -4951    -4796    -4692    -4672    -4742    -4872    -5019 
   -5154    -5240    -5238    -5090    -4750    -4284    -3932    -3913 
   -4224    -4633    -4876    -4868    -4700    -4463    -4182    -3902 
   -3731    -3794    -4155    -4716    -5254    -5525    -5404    -4953 
   -4429    -4118    -4117    -4297    -4460    -4486    -4394    -4297 
   -4284    -4365    -4476    -4534    -4502    -4403    -4321    -4317 
   -4376    -4469    -4576    -4669    -4727    -4746    -4726    -4676 
   -4646    -4723    -4947    -5224    -5378    -5296    -5032    -4749 
   -4581    -4558    -4633    -4715    -4745    -4718    -4656    -4567 
   -4459    -4371    -4333    -4353    -4423    -4500    -4513    -4421 
   -4288    -4248    -4414    -4797    -5227    -5448    -5332    -4949 
   -4500    -4218    -4230    -4495    -4841    -5061    -5000    -4653 
   -4198    -3875    -3817    -4028    -4415    -4824    -5103    -5189 
   -5115    -4958    -4806    -4750    -4837    -4995    -5105    -5125 
   -5089    -5026    -4908    -4681    -4379    -4145    -4118    -4317 
   -4649    -4999    -5247    -5289    -5103    -4820    -4646    -4700 
   -4936    -5221    -5454    -5609    -5657    -5545    -5292    -4995 
   -4734    -4531    -4364    -4203    -4072    -4016    -4018    -4063 
   -4170    -4305    -4347    -4229    -4023    -3867    -3878    -4041 
   -4209    -4263    -4220    -4147    -4116    -4198    -4374    -4519 
   -4537    -4432    -4264    -4116    -4070    -4158    -4333    -4517 
