Origin Time       2026/01/15 07:13:00
Lat.              42.7
Long.             145.4
Depth. (km)       30
Mag.              5.7
Station Code      HKD058
Station Lat.      44.0242
Station Long.     144.2637
Station Height(m) 4
Record Time       2026/01/15 07:14:06
Sampling Freq(Hz) 100Hz
Duration Time(s)  60
Dir.              E-W
Scale Factor      7845(gal)/8223790
Max. Acc. (gal)   1.545
Last Correction   2026/01/15 07:14:06
Memo.             
   -7688    -7739    -7828    -7921    -7921    -7816    -7658    -7500 
   -7379    -7287    -7221    -7183    -7148    -7129    -7176    -7283 
   -7388    -7452    -7489    -7519    -7580    -7700    -7807    -7854 
   -7869    -7879    -7923    -8001    -8070    -8105    -8079    -8019 
   -7996    -8010    -8010    -7959    -7842    -7700    -7623    -7641 
   -7715    -7781    -7798    -7821    -7909    -8013    -8071    -8062 
   -7994    -7908    -7812    -7703    -7620    -7560    -7477    -7391 
   -7323    -7291    -7327    -7385    -7398    -7400    -7439    -7510 
   -7582    -7611    -7588    -7578    -7622    -7688    -7723    -7715 
   -7699    -7734    -7794    -7798    -7759    -7743    -7773    -7819 
   -7839    -7840    -7875    -7917    -7904    -7851    -7793    -7774 
   -7827    -7909    -7956    -7947    -7886    -7809    -7763    -7759 
   -7767    -7746    -7676    -7572    -7499    -7518    -7592    -7614 
   -7538    -7427    -7361    -7350    -7381    -7429    -7468    -7493 
   -7524    -7577    -7632    -7654    -7636    -7596    -7560    -7537 
   -7524    -7523    -7516    -7522    -7591    -7700    -7773    -7793 
   -7798    -7805    -7792    -7759    -7713    -7641    -7573    -7578 
   -7645    -7695    -7699    -7699    -7711    -7699    -7650    -7603 
   -7580    -7582    -7607    -7632    -7623    -7578    -7537    -7538 
   -7591    -7645    -7692    -7754    -7776    -7711    -7615    -7562 
   -7568    -7604    -7658    -7707    -7713    -7678    -7666    -7719 
   -7793    -7832    -7824    -7788    -7755    -7735    -7716    -7704 
   -7701    -7715    -7767    -7857    -7932    -7925    -7827    -7734 
   -7740    -7823    -7920    -7983    -7985    -7921    -7838    -7811 
   -7823    -7794    -7707    -7611    -7585    -7635    -7646    -7566 
   -7457    -7399    -7430    -7537    -7645    -7688    -7669    -7618 
   -7565    -7584    -7689    -7792    -7824    -7786    -7713    -7672 
   -7689    -7705    -7673    -7592    -7493    -7461    -7520    -7581 
   -7591    -7570    -7527    -7474    -7447    -7489    -7609    -7728 
   -7781    -7820    -7874    -7870    -7792    -7701    -7649    -7647 
   -7663    -7647    -7584    -7499    -7435    -7441    -7531    -7646 
   -7738    -7794    -7804    -7777    -7707    -7596    -7511    -7469 
   -7433    -7431    -7495    -7588    -7685    -7782    -7835    -7804 
   -7713    -7608    -7543    -7534    -7537    -7535    -7549    -7611 
   -7731    -7858    -7933    -7946    -7909    -7838    -7765    -7730 
   -7740    -7785    -7830    -7843    -7813    -7739    -7628    -7542 
   -7519    -7535    -7562    -7588    -7607    -7636    -7688    -7757 
   -7828    -7869    -7878    -7893    -7904    -7869    -7758    -7589 
   -7450    -7408    -7460    -7547    -7627    -7690    -7759    -7835 
   -7886    -7897    -7858    -7765    -7655    -7564    -7504    -7495 
   -7515    -7520    -7504    -7499    -7539    -7623    -7700    -7734 
   -7743    -7734    -7689    -7649    -7658    -7692    -7716    -7742 
   -7790    -7874    -7950    -7963    -7924    -7900    -7927    -7979 
   -8005    -7975    -7912    -7847    -7780    -7713    -7655    -7614 
   -7589    -7572    -7535    -7465    -7396    -7375    -7414    -7491 
   -7595    -7727    -7830    -7831    -7735    -7608    -7512    -7460 
   -7442    -7472    -7527    -7558    -7566    -7577    -7599    -7611 
   -7591    -7542    -7499    -7497    -7547    -7626    -7700    -7724 
   -7668    -7534    -7392    -7321    -7335    -7395    -7450    -7481 
   -7504    -7569    -7696    -7821    -7885    -7913    -7933    -7924 
   -7850    -7731    -7669    -7724    -7827    -7884    -7865    -7801 
   -7755    -7740    -7695    -7615    -7577    -7608    -7682    -7765 
   -7819    -7831    -7801    -7753    -7736    -7776    -7835    -7896 
   -7951    -7965    -7931    -7888    -7852    -7824    -7792    -7747 
   -7709    -7708    -7757    -7819    -7827    -7766    -7680    -7607 
   -7569    -7589    -7649    -7700    -7713    -7684    -7638    -7597 
   -7541    -7472    -7404    -7344    -7325    -7368    -7435    -7488 
   -7518    -7551    -7605    -7661    -7717    -7773    -7797    -7789 
   -7781    -7793    -7821    -7855    -7882    -7877    -7861    -7877 
   -7892    -7850    -7732    -7589    -7510    -7527    -7604    -7704 
   -7777    -7793    -7792    -7808    -7808    -7766    -7719    -7680 
   -7630    -7612    -7654    -7712    -7761    -7794    -7792    -7755 
   -7699    -7638    -7577    -7477    -7326    -7213    -7209    -7246 
   -7261    -7256    -7260    -7338    -7510    -7673    -7747    -7743 
   -7699    -7657    -7645    -7661    -7690    -7684    -7649    -7661 
   -7722    -7773    -7807    -7824    -7797    -7740    -7682    -7623 
   -7569    -7519    -7474    -7468    -7515    -7612    -7747    -7861 
   -7904    -7905    -7908    -7905    -7877    -7817    -7732    -7643 
   -7612    -7670    -7738    -7753    -7758    -7776    -7789    -7821 
   -7861    -7873    -7859    -7834    -7807    -7784    -7751    -7701 
   -7672    -7697    -7719    -7681    -7630    -7605    -7603    -7636 
   -7696    -7739    -7747    -7723    -7676    -7623    -7568    -7500 
   -7434    -7402    -7402    -7426    -7477    -7560    -7659    -7727 
   -7735    -7730    -7743    -7731    -7690    -7703    -7771    -7827 
   -7851    -7875    -7932    -8010    -8078    -8132    -8163    -8127 
   -8025    -7878    -7690    -7510    -7371    -7250    -7167    -7155 
   -7204    -7285    -7391    -7489    -7542    -7566    -7600    -7650 
   -7689    -7685    -7650    -7595    -7543    -7507    -7472    -7446 
   -7445    -7441    -7453    -7516    -7570    -7550    -7501    -7489 
   -7514    -7564    -7626    -7680    -7735    -7817    -7898    -7929 
   -7931    -7931    -7924    -7905    -7852    -7763    -7692    -7689 
   -7744    -7801    -7811    -7798    -7847    -7946    -7978    -7912 
   -7797    -7665    -7537    -7434    -7383    -7369    -7350    -7327 
   -7357    -7453    -7582    -7697    -7758    -7758    -7734    -7700 
   -7651    -7600    -7565    -7565    -7614    -7708    -7811    -7889 
   -7951    -8010    -8077    -8143    -8179    -8166    -8117    -8074 
   -8048    -8006    -7942    -7865    -7805    -7798    -7803    -7742 
   -7638    -7558    -7518    -7487    -7442    -7380    -7302    -7237 
   -7233    -7284    -7344    -7412    -7487    -7518    -7499    -7457 
   -7406    -7379    -7393    -7429    -7479    -7554    -7611    -7642 
   -7682    -7728    -7777    -7836    -7870    -7886    -7892    -7865 
   -7813    -7750    -7686    -7631    -7584    -7551    -7543    -7561 
   -7581    -7574    -7572    -7607    -7677    -7762    -7834    -7889 
   -7921    -7897    -7847    -7834    -7838    -7808    -7735    -7645 
   -7605    -7632    -7666    -7688    -7701    -7686    -7682    -7724 
   -7781    -7805    -7792    -7754    -7680    -7572    -7491    -7483 
   -7537    -7609    -7681    -7765    -7852    -7902    -7885    -7838 
   -7805    -7778    -7744    -7717    -7695    -7681    -7684    -7676 
   -7668    -7704    -7771    -7808    -7790    -7730    -7647    -7577 
   -7554    -7551    -7527    -7511    -7515    -7508    -7511    -7526 
   -7520    -7506    -7506    -7542    -7611    -7674    -7700    -7686 
   -7659    -7657    -7689    -7713    -7695    -7645    -7618    -7643 
   -7673    -7685    -7705    -7724    -7722    -7722    -7726    -7703 
   -7654    -7636    -7673    -7713    -7720    -7717    -7730    -7770 
   -7832    -7875    -7870    -7828    -7763    -7704    -7676    -7650 
   -7595    -7515    -7450    -7439    -7484    -7543    -7591    -7612 
   -7605    -7581    -7572    -7601    -7636    -7608    -7542    -7514 
   -7535    -7596    -7688    -7790    -7870    -7913    -7935    -7913 
   -7824    -7707    -7623    -7600    -7607    -7624    -7669    -7744 
   -7828    -7875    -7847    -7774    -7728    -7724    -7722    -7700 
   -7685    -7680    -7674    -7711    -7794    -7836    -7800    -7749 
   -7722    -7697    -7666    -7645    -7627    -7580    -7499    -7433 
   -7400    -7389    -7400    -7427    -7464    -7527    -7593    -7647 
   -7719    -7794    -7828    -7840    -7848    -7843    -7834    -7819 
   -7798    -7801    -7811    -7813    -7850    -7898    -7908    -7885 
   -7846    -7796    -7747    -7703    -7669    -7659    -7655    -7653 
   -7674    -7701    -7689    -7634    -7574    -7537    -7497    -7434 
   -7384    -7388    -7438    -7508    -7577    -7645    -7732    -7812 
   -7824    -7773    -7711    -7659    -7614    -7578    -7569    -7572 
   -7572    -7585    -7630    -7673    -7677    -7654    -7645    -7662 
   -7704    -7766    -7812    -7777    -7669    -7561    -7507    -7485 
   -7442    -7385    -7375    -7423    -7506    -7589    -7668    -7754 
   -7851    -7966    -8059    -8082    -8050    -8010    -7982    -7951 
   -7904    -7835    -7759    -7712    -7693    -7636    -7527    -7430 
   -7391    -7389    -7406    -7431    -7460    -7518    -7599    -7650 
   -7650    -7632    -7632    -7661    -7705    -7757    -7809    -7843 
   -7865    -7913    -7983    -8027    -8020    -7973    -7898    -7800 
   -7670    -7543    -7462    -7408    -7383    -7398    -7429    -7469 
   -7533    -7591    -7627    -7655    -7678    -7673    -7658    -7658 
   -7653    -7620    -7577    -7551    -7549    -7537    -7508    -7488 
   -7469    -7447    -7460    -7495    -7512    -7520    -7539    -7568 
   -7608    -7657    -7677    -7650    -7624    -7639    -7677    -7704 
   -7723    -7744    -7757    -7750    -7735    -7701    -7649    -7615 
   -7609    -7614    -7614    -7605    -7593    -7596    -7622    -7641 
   -7647    -7659    -7666    -7659    -7669    -7701    -7716    -7703 
   -7703    -7751    -7821    -7881    -7925    -7952    -7990    -8056 
   -8102    -8090    -8052    -8040    -8058    -8048    -7994    -7908 
   -7816    -7753    -7715    -7685    -7659    -7624    -7601    -7624 
   -7672    -7699    -7700    -7693    -7711    -7747    -7754    -7736 
   -7734    -7732    -7724    -7723    -7724    -7712    -7682    -7673 
   -7695    -7703    -7674    -7641    -7635    -7645    -7649    -7649 
   -7627    -7564    -7479    -7399    -7372    -7399    -7422    -7423 
   -7427    -7430    -7441    -7493    -7580    -7655    -7705    -7720 
   -7695    -7655    -7636    -7630    -7601    -7558    -7524    -7500 
   -7497    -7530    -7572    -7580    -7564    -7557    -7554    -7541 
   -7542    -7585    -7639    -7674    -7711    -7754    -7771    -7776 
   -7803    -7832    -7820    -7739    -7597    -7453    -7356    -7306 
   -7295    -7335    -7420    -7534    -7689    -7884    -8078    -8236 
   -8324    -8345    -8317    -8228    -8091    -7954    -7827    -7709 
   -7632    -7674    -7873    -8113    -8257    -8298    -8286    -8235 
   -8160    -8082    -7994    -7886    -7761    -7651    -7615    -7646 
   -7672    -7658    -7635    -7612    -7593    -7599    -7620    -7646 
   -7682    -7738    -7820    -7916    -7979    -7958    -7859    -7740 
   -7638    -7542    -7476    -7464    -7458    -7454    -7499    -7551 
   -7545    -7483    -7384    -7285    -7241    -7229    -7202    -7148 
   -7057    -6940    -6863    -6885    -6993    -7136    -7287    -7454 
   -7620    -7731    -7785    -7811    -7805    -7755    -7653    -7530 
   -7438    -7365    -7287    -7244    -7241    -7222    -7180    -7149 
   -7152    -7195    -7265    -7354    -7458    -7560    -7655    -7759 
   -7863    -7943    -8000    -8058    -8135    -8239    -8372    -8499 
   -8587    -8633    -8658    -8689    -8722    -8712    -8641    -8507 
   -8363    -8275    -8230    -8178    -8120    -8060    -7977    -7859 
   -7730    -7618    -7518    -7435    -7443    -7584    -7813    -8043 
   -8172    -8149    -7989    -7754    -7535    -7388    -7318    -7285 
   -7242    -7177    -7130    -7167    -7314    -7514    -7661    -7677 
   -7576    -7422    -7279    -7192    -7155    -7128    -7084    -6972 
   -6768    -6548    -6446    -6539    -6783    -7094    -7423    -7724 
   -7936    -8035    -8035    -7992    -7979    -8054    -8205    -8341 
   -8384    -8363    -8311    -8222    -8152    -8127    -8083    -8013 
   -7990    -8056    -8189    -8334    -8430    -8441    -8405    -8343 
   -8233    -8048    -7780    -7454    -7106    -6764    -6484    -6285 
   -6137    -6056    -6089    -6243    -6484    -6713    -6853    -6959 
   -7087    -7210    -7308    -7381    -7426    -7472    -7542    -7599 
   -7612    -7614    -7631    -7642    -7645    -7685    -7763    -7830 
   -7906    -8029    -8160    -8248    -8253    -8168    -8031    -7871 
   -7707    -7542    -7399    -7341    -7414    -7581    -7776    -7959 
   -8094    -8162    -8183    -8178    -8148    -8089    -8017    -7987 
   -8033    -8129    -8218    -8248    -8226    -8230    -8317    -8461 
   -8615    -8729    -8770    -8725    -8583    -8357    -8106    -7863 
   -7632    -7465    -7431    -7523    -7678    -7842    -7948    -7959 
   -7908    -7823    -7688    -7512    -7353    -7236    -7157    -7121 
   -7063    -6934    -6820    -6817    -6933    -7092    -7186    -7172 
   -7102    -7045    -7047    -7099    -7140    -7125    -7102    -7140 
   -7248    -7391    -7522    -7627    -7743    -7882    -8012    -8113 
   -8159    -8135    -8079    -8031    -7994    -7971    -7946    -7900 
   -7819    -7726    -7641    -7573    -7542    -7543    -7587    -7688 
   -7798    -7857    -7859    -7839    -7821    -7778    -7689    -7620 
   -7601    -7576    -7495    -7350    -7194    -7094    -7067    -7122 
   -7252    -7334    -7281    -7194    -7194    -7261    -7337    -7425 
   -7554    -7739    -7952    -8136    -8259    -8306    -8249    -8118 
   -7992    -7884    -7770    -7666    -7609    -7639    -7763    -7955 
   -8179    -8405    -8588    -8707    -8779    -8791    -8696    -8484 
   -8206    -7939    -7738    -7632    -7636    -7732    -7896    -8091 
   -8245    -8306    -8259    -8124    -7963    -7798    -7564    -7242 
   -6928    -6723    -6664    -6745    -6930    -7155    -7338    -7446 
   -7506    -7535    -7526    -7474    -7406    -7360    -7315    -7209 
   -7068    -6980    -6972    -7026    -7129    -7268    -7403    -7496 
   -7535    -7542    -7512    -7443    -7387    -7383    -7423    -7474 
   -7510    -7514    -7465    -7388    -7384    -7530    -7769    -7960 
   -8025    -7990    -7901    -7805    -7777    -7840    -7917    -7913 
   -7824    -7712    -7626    -7604    -7649    -7713    -7788    -7852 
   -7854    -7805    -7766    -7736    -7728    -7774    -7844    -7901 
   -7967    -8052    -8106    -8081    -8006    -7969    -7989    -7970 
   -7836    -7618    -7377    -7172    -7041    -7002    -7056    -7179 
   -7356    -7572    -7790    -8002    -8185    -8293    -8336    -8363 
   -8368    -8336    -8295    -8282    -8298    -8341    -8405    -8461 
   -8506    -8536    -8482    -8287    -8000    -7717    -7510    -7357 
   -7194    -7010    -6885    -6883    -6971    -7053    -7075    -7029 
   -6978    -7032    -7173    -7283    -7314    -7300    -7281    -7284 
   -7302    -7299    -7256    -7202    -7165    -7138    -7137    -7169 
   -7196    -7186    -7145    -7098    -7071    -7088    -7153    -7242 
   -7339    -7426    -7499    -7585    -7674    -7746    -7834    -7955 
   -8097    -8267    -8460    -8621    -8684    -8625    -8487    -8313 
   -8113    -7915    -7771    -7705    -7719    -7796    -7894    -7963 
   -7960    -7904    -7832    -7749    -7643    -7538    -7488    -7546 
   -7696    -7878    -8048    -8195    -8320    -8409    -8467    -8490 
   -8441    -8325    -8199    -8098    -8017    -7935    -7866    -7850 
   -7874    -7896    -7902    -7915    -7970    -8093    -8260    -8383 
   -8372    -8214    -7983    -7763    -7576    -7429    -7327    -7252 
   -7180    -7119    -7103    -7122    -7118    -7098    -7092    -7082 
   -7074    -7086    -7086    -7042    -6978    -6939    -6982    -7101 
   -7249    -7420    -7581    -7665    -7647    -7531    -7365    -7238 
   -7184    -7177    -7169    -7153    -7177    -7277    -7437    -7615 
   -7778    -7897    -7958    -7969    -7913    -7776    -7587    -7400 
   -7258    -7173    -7119    -7094    -7115    -7176    -7290    -7469 
   -7666    -7843    -7986    -8079    -8141    -8221    -8305    -8355 
   -8382    -8436    -8529    -8594    -8594    -8560    -8492    -8374 
   -8248    -8137    -8000    -7819    -7609    -7391    -7214    -7128 
   -7106    -7096    -7119    -7214    -7357    -7503    -7619    -7695 
   -7763    -7884    -8056    -8225    -8324    -8311    -8203    -8054 
   -7881    -7695    -7542    -7445    -7373    -7321    -7325    -7380 
   -7422    -7422    -7411    -7416    -7460    -7533    -7597    -7635 
   -7639    -7597    -7535    -7492    -7484    -7496    -7497    -7501 
   -7518    -7508    -7468    -7442    -7452    -7464    -7439    -7388 
   -7348    -7349    -7400    -7514    -7711    -7967    -8193    -8352 
   -8469    -8556    -8598    -8600    -8561    -8490    -8418    -8336 
   -8225    -8114    -8036    -7998    -7998    -8021    -8041    -8017 
   -7919    -7788    -7696    -7653    -7622    -7587    -7547    -7496 
   -7435    -7358    -7263    -7169    -7109    -7111    -7156    -7190 
   -7217    -7275    -7325    -7304    -7223    -7119    -7028    -6991 
   -7044    -7148    -7229    -7261    -7271    -7303    -7403    -7546 
   -7659    -7723    -7767    -7803    -7809    -7784    -7724    -7659 
   -7651    -7744    -7924    -8122    -8274    -8364    -8414    -8409 
   -8313    -8129    -7911    -7708    -7545    -7430    -7369    -7357 
   -7410    -7534    -7672    -7759    -7778    -7744    -7680    -7593 
   -7479    -7361    -7300    -7326    -7391    -7427    -7429    -7426 
   -7434    -7447    -7488    -7582    -7707    -7825    -7943    -8066 
   -8181    -8282    -8365    -8424    -8445    -8418    -8347    -8225 
   -8002    -7690    -7399    -7186    -7044    -6953    -6902    -6885 
   -6895    -6940    -7002    -7041    -7076    -7161    -7281    -7398 
   -7500    -7581    -7609    -7599    -7614    -7676    -7759    -7875 
   -8025    -8158    -8240    -8299    -8351    -8379    -8368    -8324 
   -8280    -8259    -8233    -8202    -8198    -8228    -8260    -8244 
   -8149    -7997    -7807    -7576    -7330    -7117    -6986    -6953 
   -6998    -7090    -7195    -7299    -7426    -7585    -7723    -7789 
   -7777    -7716    -7654    -7601    -7555    -7531    -7515    -7483 
   -7458    -7457    -7447    -7418    -7399    -7407    -7422    -7415 
   -7362    -7273    -7202    -7186    -7219    -7281    -7352    -7422 
   -7497    -7580    -7659    -7708    -7704    -7666    -7634    -7616 
   -7614    -7646    -7720    -7815    -7896    -7965    -8041    -8121 
   -8191    -8271    -8375    -8459    -8490    -8475    -8451    -8448 
   -8448    -8417    -8355    -8272    -8182    -8118    -8079    -8044 
   -8005    -7950    -7885    -7834    -7804    -7769    -7711    -7669 
   -7686    -7749    -7805    -7855    -7894    -7898    -7871    -7825 
   -7763    -7709    -7673    -7654    -7630    -7569    -7497    -7438 
   -7396    -7375    -7341    -7277    -7207    -7159    -7144    -7138 
   -7105    -7022    -6898    -6768    -6667    -6598    -6550    -6524 
