Origin Time       2026/01/15 07:13:00
Lat.              42.7
Long.             145.4
Depth. (km)       30
Mag.              5.7
Station Code      HKD090
Station Lat.      43.1213
Station Long.     143.6183
Station Height(m) 65
Record Time       2026/01/15 07:13:59
Sampling Freq(Hz) 100Hz
Duration Time(s)  62
Dir.              N-S
Scale Factor      7845(gal)/8223790
Max. Acc. (gal)   2.993
Last Correction   2026/01/15 07:13:59
Memo.             
[...]
  -14828   -14855   -14902   -14945   -14985   -15037   -15080   -15083 
  -15040   -14975   -14913   -14863   -14852   -14889   -14897   -14787 
  -14570   -14339   -14165   -14056   -14034   -14146   -14395   -14712 
  -15024   -15292   -15484   -15554   -15495   -15353   -15195   -15051 
  -14901   -14746   -14638   -14596   -14569   -14519   -14445   -14353 
  -14283   -14307   -14446   -14642   -14851   -15082   -15322   -15514 
  -15615   -15638   -15574   -15385   -15084   -14743   -14422   -14157 
  -13994   -13967   -14080   -14299   -14575   -14840   -15039   -15167 
  -15206   -15117   -14922   -14671   -14412   -14222   -14161   -14204 
  -14297   -14453   -14685   -14937   -15134   -15233   -15205   -15074 
  -14941   -14866   -14825   -14778   -14755   -14831   -15016   -15211 
  -15303   -15242   -15068   -14854   -14662   -14539   -14511   -14578 
  -14716   -14870   -14983   -15009   -14944   -14844   -14777   -14771 
  -14806   -14818   -14746   -14598   -14490   -14507   -14628   -14816 
  -15045   -15256   -15345   -15267   -15097   -14966   -14921   -14878 
  -14759   -14585   -14435   -14380   -14453   -14629   -14821   -14962 
  -15037   -15074   -15078   -15021   -14922   -14879   -14943   -15061 
  -15165   -15196   -15114   -14945   -14735   -14511   -14293   -14122 
  -14068   -14179   -14399   -14629   -14823   -15012   -15219   -15408 
  -15496   -15412   -15157   -14813   -14497   -14278   -14158   -14127 
  -14211   -14418   -14662   -14821   -14887   -14935   -14967   -14939 
  -14866   -14836   -14894   -14999   -15118   -15223   -15268   -15215 
  -15076   -14897   -14710   -14504   -14289   -14149   -14165   -14347 
  -14628   -14899   -15057   -15045   -14898   -14704   -14531   -14423 
  -14446   -14620   -14866   -15075   -15191   -15201   -15105   -14943 
  -14796   -14708   -14669   -14647   -14632   -14634   -14682   -14785 
  -14912   -15044   -15187   -15322   -15379   -15286   -15075   -14856 
  -14705   -14607   -14527   -14486   -14517   -14580   -14620   -14666 
  -14737   -14801   -14823   -14804   -14770   -14720   -14640   -14573 
  -14577   -14634   -14696   -14783   -14975   -15300   -15651   -15870 
  -15857   -15631   -15298   -14991   -14782   -14617   -14416   -14176 
  -13965   -13818   -13713   -13655   -13666   -13740   -13882   -14125 
  -14438   -14721   -14905   -14999   -15043   -15068   -15095   -15114 
  -15120   -15111   -15084   -15063   -15053   -15024   -14951   -14871 
  -14816   -14785   -14769   -14747   -14694   -14608   -14497   -14403 
  -14388   -14481   -14635   -14756   -14771   -14681   -14565   -14516 
  -14582   -14762   -14991   -15184   -15336   -15441   -15425   -15248 
  -15021   -14897   -14925   -15070   -15271   -15466   -15595   -15635 
  -15568   -15385   -15138   -14871   -14570   -14226   -13895   -13660 
  -13562   -13603   -13786   -14095   -14481   -14859   -15161   -15364 
  -15468   -15472   -15396   -15283   -15155   -15002   -14823   -14658 
  -14562   -14550   -14585   -14638   -14693   -14760   -14844   -14916 
  -14929   -14871   -14767   -14625   -14454   -14268   -14089   -13952 
  -13902   -13977   -14206   -14550   -14913   -15210   -15461   -15734 
  -16000   -16152   -16150   -16020   -15751   -15304   -14724   -14165 
  -13761   -13567   -13581   -13736   -13952   -14226   -14597   -15014 
  -15338   -15502   -15568   -15623   -15664   -15653   -15619   -15577 
  -15469   -15267   -15010   -14731   -14430   -14139   -13934   -13873 
  -13927   -14037   -14187   -14369   -14544   -14702   -14862   -14987 
  -15012   -14945   -14893   -14945   -15090   -15263   -15449   -15650 
  -15793   -15785   -15616   -15340   -15005   -14655   -14343   -14123 
  -14033   -14088   -14285   -14601   -14970   -15280   -15465   -15542 
  -15530   -15408   -15179   -14895   -14607   -14342   -14123   -13972 
  -13884   -13848   -13887   -14044   -14301   -14589   -14839   -15001 
  -15078   -15132   -15228   -15381   -15546   -15662   -15734   -15778 
  -15749   -15576   -15288   -15005   -14800   -14647   -14528   -14480 
  -14512   -14592   -14671   -14702   -14674   -14642   -14683   -14802 
  -14891   -14839   -14658   -14450   -14284   -14173   -14145   -14219 
  -14368   -14594   -14932   -15315   -15588   -15637   -15475   -15217 
  -15005   -14914   -14913   -14945   -14999   -15075   -15149   -15182 
  -15115   -14955   -14808   -14733   -14624   -14365   -14007   -13711 
  -13589   -13648   -13836   -14099   -14388   -14651   -14839   -14902 
  -14812   -14608   -14430   -14423   -14656   -15078   -15539   -15907 
  -16108   -16105   -15907   -15612   -15325   -15070   -14844   -14677 
  -14585   -14534   -14440   -14253   -13988   -13703   -13477   -13392 
  -13485   -13740   -14121   -14550   -14926   -15192   -15364   -15479 
  -15531   -15479   -15303   -15047   -14770   -14543   -14465   -14600 
  -14906   -15271   -15614   -15888   -16005   -15886   -15531   -15026 
  -14517   -14121   -13861   -13709   -13647   -13693   -13845   -14072 
  -14330   -14593   -14823   -14941   -14881   -14662   -14408   -14223 
  -14150   -14265   -14608   -15107   -15649   -16139   -16482   -16572 
  -16357   -15927   -15493   -15205   -15063   -15020   -15012   -14952 
  -14806   -14658   -14554   -14432   -14241   -14026   -13838   -13647 
  -13432   -13293   -13360   -13637   -14045   -14558   -15126   -15600 
  -15846   -15842   -15634   -15253   -14781   -14403   -14256   -14301 
  -14439   -14605   -14770   -14889   -14928   -14928   -14924   -14908 
  -14932   -15145   -15603   -16136   -16494   -16545   -16310   -15865 
  -15284   -14611   -13909   -13301   -12888   -12696   -12700   -12868 
  -13181   -13630   -14158   -14650   -15025   -15302   -15549   -15773 
  -15924   -15967   -15896   -15763   -15672   -15649   -15608   -15499 
  -15360   -15221   -15036   -14728   -14280   -13764   -13304   -12997 
  -12896   -13008   -13301   -13717   -14170   -14565   -14827   -14944 
  -14971   -14971   -14978   -15028   -15157   -15368   -15620   -15847 
  -15942   -15823   -15526   -15186   -14976   -15022   -15283   -15593 
  -15839   -15998   -16083   -16105   -16065   -15931   -15665   -15255 
  -14728   -14148   -13626   -13271   -13128   -13176   -13320   -13427 
  -13435   -13446   -13617   -14015   -14608   -15311   -15994   -16517 
  -16802   -16811   -16540   -16047   -15468   -14924   -14477   -14141 
  -13902   -13726   -13614   -13621   -13780   -14026   -14288   -14555 
  -14829   -15045   -15109   -14975   -14715   -14474   -14377   -14465 
  -14674   -14893   -15071   -15236   -15395   -15511   -15591   -15676 
  -15773   -15844   -15865   -15817   -15693   -15488   -15178   -14767 
  -14320   -13957   -13803   -13921   -14253   -14650   -14944   -15047 
  -14995   -14898   -14839   -14858   -14944   -15013   -14958   -14737 
  -14399   -14046   -13806   -13783   -14035   -14497   -14995   -15368 
  -15566   -15628   -15606   -15518   -15367   -15144   -14859   -14544 
  -14246   -14007   -13894   -13977   -14214   -14439   -14540   -14555 
  -14578   -14662   -14818   -15052   -15330   -15545   -15597   -15512 
  -15381   -15201   -14905   -14500   -14069   -13716   -13513   -13439 
  -13425   -13479   -13702   -14149   -14728   -15268   -15684   -16036 
  -16406   -16773   -17019   -17046   -16861   -16540   -16097   -15465 
  -14671   -13888   -13279   -12896   -12727   -12729   -12876   -13146 
  -13483   -13837   -14168   -14435   -14617   -14733   -14812   -14871 
  -14944   -15066   -15252   -15477   -15687   -15831   -15892   -15850 
  -15669   -15360   -15010   -14713   -14489   -14307   -14143   -14011 
  -13940   -13944   -14030   -14199   -14426   -14701   -15053   -15471 
  -15824   -15924   -15672   -15120   -14403   -13694   -13177   -12970 
  -13089   -13491   -14112   -14844   -15526   -16016   -16256   -16236 
  -15990   -15608   -15202   -14847   -14573   -14426   -14459   -14670 
  -14972   -15288   -15592   -15873   -16069   -16085   -15896   -15549 
  -15105   -14629   -14251   -14083   -14123   -14346   -14781   -15390 
  -15955   -16212   -16071   -15641   -15080   -14493   -13941   -13490 
  -13211   -13163   -13328   -13578   -13813   -14000   -14122   -14183 
  -14229   -14292   -14384   -14520   -14723   -14982   -15248   -15476 
  -15670   -15827   -15885   -15800   -15619   -15438   -15288   -15102 
  -14817   -14478   -14207   -14098   -14181   -14446   -14823   -15186 
  -15449   -15597   -15658   -15668   -15657   -15638   -15614   -15552 
  -15394   -15125   -14808   -14524   -14303   -14137   -14027   -13948 
  -13818   -13624   -13463   -13409   -13482   -13743   -14230   -14854 
  -15439   -15811   -15866   -15641   -15273   -14924   -14698   -14598 
  -14547   -14501   -14461   -14403   -14310   -14235   -14258   -14389 
  -14578   -14806   -15109   -15504   -15942   -16312   -16495   -16403 
  -16047   -15520   -14883   -14204   -13639   -13327   -13250   -13313 
  -13467   -13702   -14050   -14538   -15090   -15565   -15886   -16074 
  -16147   -16077   -15859   -15583   -15369   -15287   -15340   -15472 
  -15557   -15466   -15168   -14731   -14238   -13759   -13358   -13109 
  -13041   -13143   -13410   -13805   -14242   -14654   -14991   -15233 
  -15399   -15539   -15696   -15857   -15924   -15793   -15461   -15005 
  -14528   -14148   -13959   -13971   -14104   -14261   -14391   -14513 
  -14667   -14871   -15101   -15283   -15358   -15317   -15157   -14905 
  -14655   -14490   -14396   -14314   -14245   -14250   -14357   -14519 
  -14652   -14706   -14688   -14619   -14517   -14426   -14413   -14530 
  -14773   -15110   -15466   -15712   -15753   -15639   -15507   -15396 
  -15271   -15099   -14883   -14639   -14374   -14094   -13860   -13770 
  -13825   -13936   -14050   -14212   -14489   -14883   -15350   -15827 
  -16222   -16456   -16467   -16241   -15863   -15475   -15168   -14948 
  -14740   -14461   -14125   -13848   -13721   -13725   -13802   -13964 
  -14261   -14642   -14935   -15025   -14933   -14708   -14427   -14219 
  -14158   -14242   -14458   -14775   -15130   -15450   -15666   -15743 
  -15705   -15597   -15468   -15371   -15315   -15234   -15082   -14929 
  -14882   -14936   -14998   -15005   -14970   -14948   -14952   -14929 
  -14851   -14769   -14743   -14806   -14929   -15029   -15036   -14918 
  -14704   -14422   -14084   -13768   -13589   -13617   -13855   -14202 
  -14534   -14808   -15010   -15084   -14985   -14716   -14341   -13940 
  -13602   -13423   -13433   -13587   -13860   -14281   -14864   -15525 
  -16119   -16507   -16626   -16524   -16312   -16085   -15867   -15649 
  -15477   -15471   -15684   -16004   -16258   -16349   -16205   -15759 
  -15030   -14134   -13243   -12511   -12046   -11904   -12063   -12456 
  -13030   -13717   -14404   -14976   -15372   -15580   -15615   -15496 
  -15260   -14990   -14821   -14843   -15022   -15272   -15520   -15709 
  -15784   -15705   -15526   -15377   -15345   -15423   -15565   -15704 
  -15768   -15684   -15434   -15115   -14805   -14467   -14060   -13590 
  -13100   -12684   -12476   -12536   -12852   -13393   -14060   -14704 
  -15228   -15588   -15751   -15695   -15445   -15106   -14837   -14742 
  -14831   -15067   -15369   -15615   -15701   -15601   -15345   -14989 
  -14602   -14254   -14008   -13933   -14052   -14318   -14621   -14855 
  -14985   -15025   -14970   -14804   -14550   -14291   -14150   -14200 
  -14403   -14685   -15006   -15354   -15678   -15889   -15911   -15735 
  -15411   -14970   -14393   -13730   -13154   -12876   -13001   -13479 
  -14157   -14858   -15435   -15777   -15857   -15788   -15727   -15734 
  -15819   -16004   -16243   -16424   -16479   -16398   -16167   -15774 
  -15233   -14612   -14062   -13738   -13706   -13957   -14411   -14891 
  -15186   -15175   -14889   -14466   -14045   -13671   -13331   -13061 
  -12976   -13161   -13609   -14237   -14899   -15434   -15743   -15811 
  -15691   -15535   -15515   -15655   -15863   -16016   -15981   -15693 
  -15211   -14636   -14056   -13537   -13144   -12920   -12872   -13005 
  -13325   -13814   -14427   -15083   -15678   -16082   -16190   -16024 
  -15691   -15309   -14972   -14728   -14612   -14651   -14760   -14825 
  -14856   -14937   -15078   -15195   -15255   -15287   -15292   -15288 
  -15333   -15453   -15623   -15768   -15805   -15699   -15444   -15060 
  -14565   -14004   -13483   -13107   -12927   -12947   -13131   -13414 
  -13756   -14131   -14494   -14810   -15079   -15321   -15537   -15688 
  -15728   -15661   -15553   -15452   -15341   -15183   -14943   -14620 
  -14270   -13980   -13837   -13902   -14203   -14742   -15426   -16059 
  -16463   -16579   -16482   -16313   -16158   -16027   -15893   -15697 
  -15399   -14999   -14521   -14026   -13640   -13466   -13494   -13633 
  -13825   -14052   -14278   -14457   -14575   -14685   -14832   -14990 
  -15048   -14891   -14523   -14046   -13543   -13050   -12631   -12361 
  -12305   -12523   -13015   -13709   -14521   -15418   -16355   -17170 
  -17640   -17675   -17347   -16775   -16028   -15163   -14301   -13637 
  -13290   -13230   -13335   -13518   -13743   -13994   -14273   -14562 
  -14791   -14909   -14894   -14778   -14632   -14531   -14544   -14725 
  -15067   -15518   -15986   -16335   -16437   -16270   -15928   -15556 
  -15218   -14939   -14729   -14557   -14376   -14187   -14002   -13842 
  -13760   -13815   -14006   -14281   -14632   -15091   -15682   -16355 
  -16946   -17261   -17213   -16854   -16259   -15468   -14544   -13610 
  -12792   -12159   -11770   -11666   -11820   -12198   -12792   -13547 
  -14307   -14912   -15310   -15553   -15696   -15738   -15718   -15773 
  -15959   -16166   -16268   -16236   -16104   -15898   -15627   -15323 
  -15043   -14831   -14716   -14704   -14767   -14882   -15059   -15296 
  -15510   -15600   -15542   -15356   -15102   -14837   -14555   -14265 
  -14069   -14050   -14196   -14428   -14636   -14731   -14694   -14585 
  -14476   -14419   -14434   -14493   -14570   -14679   -14810   -14902 
  -14929   -14936   -14976   -15037   -15055   -14997   -14881   -14725 
  -14543   -14358   -14206   -14098   -14064   -14142   -14342   -14671 
  -15121   -15576   -15925   -16185   -16414   -16580   -16606   -16498 
  -16332   -16160   -15963   -15664   -15240   -14774   -14373   -14069 
  -13836   -13648   -13549   -13603   -13780   -13987   -14189   -14412 
  -14643   -14796   -14804   -14702   -14580   -14526   -14592   -14744 
  -14901   -15036   -15137   -15165   -15117   -15028   -14916   -14785 
  -14662   -14592   -14612   -14708   -14775   -14740   -14663   -14632 
  -14669   -14766   -14902   -15026   -15091   -15095   -15061   -14976 
  -14808   -14615   -14524   -14559   -14608   -14585   -14520   -14472 
  -14438   -14395   -14342   -14323   -14372   -14459   -14513   -14482 
  -14372   -14258   -14239   -14326   -14457   -14580   -14661   -14688 
  -14675   -14627   -14517   -14341   -14164   -14099   -14214   -14478 
  -14787   -15040   -15184   -15225   -15192   -15121   -15039   -14978 
  -14975   -15055   -15203   -15338   -15349   -15226   -15086   -15034 
  -15060   -15084   -15055   -14971   -14866   -14760   -14646   -14530 
  -14467   -14499   -14585   -14667   -14693   -14625   -14503   -14438 
  -14504   -14696   -14995   -15385   -15815   -16177   -16362   -16316 
  -16065   -15668   -15194   -14725   -14349   -14108   -13960   -13863 
  -13846   -13932   -14076   -14246   -14407   -14465   -14395   -14301 
  -14284   -14312   -14301   -14291   -14427   -14752   -15142   -15445 
  -15612   -15696   -15730   -15680   -15511   -15248   -14998   -14891 
  -14958   -15093   -15163   -15106   -14943   -14715   -14438   -14157 
  -13977   -13967   -14069   -14175   -14246   -14349   -14519   -14700 
  -14820   -14851   -14783   -14601   -14341   -14119   -14065   -14231 
  -14563   -14918   -15132   -15152   -15037   -14897   -14848   -14935 
  -15087   -15225   -15361   -15541   -15745   -15920   -16032   -16081 
  -16083   -16048   -15904   -15529   -14914   -14237   -13716   -13455 
  -13460   -13699   -14107   -14571   -14971   -15264   -15449   -15487 
  -15304   -14886   -14307   -13709   -13246   -13023   -13074   -13348 
  -13725   -14091   -14419   -14725   -15002   -15210   -15321   -15365 
  -15425   -15572   -15834   -16137   -16341   -16335   -16094   -15658 
  -15151   -14762   -14611   -14674   -14855   -15076   -15292   -15469 
  -15577   -15549   -15342   -15034   -14756   -14550   -14393   -14295 
  -14301   -14458   -14727   -14979   -15103   -15083   -14916   -14571 
  -14075   -13560   -13198   -13077   -13176   -13398   -13672   -13999 
  -14378   -14763   -15084   -15299   -15406   -15422   -15360   -15209 
  -14975   -14737   -14584   -14519   -14513   -14578   -14696   -14798 
  -14854   -14897   -14979   -15115   -15279   -15448   -15610   -15731 
  -15784   -15778   -15757   -15745   -15727   -15657   -15472   -15172 
  -14851   -14601   -14457   -14438   -14536   -14666   -14698   -14563 
  -14310   -14018   -13752   -13591   -13609   -13818   -14183   -14625 
  -15041   -15367   -15576   -15677   -15714   -15734   -15735   -15680 
  -15545   -15321   -15007   -14593   -14133   -13792   -13694   -13830 
  -14112   -14435   -14733   -15003   -15242   -15421   -15515   -15546 
  -15568   -15607   -15610   -15450   -15078   -14640   -14341   -14211 
  -14130   -14015   -13876   -13755   -13679   -13659   -13702   -13828 
  -14083   -14490   -14982   -15454   -15838   -16101   -16237   -16210 
  -15992   -15651   -15315   -15016   -14704   -14365   -14049   -13805 
  -13649   -13576   -13590   -13689   -13883   -14175   -14511   -14808 
  -15022   -15137   -15133   -15012   -14827   -14659   -14594   -14694 
  -14936   -15205   -15377   -15403   -15313   -15174   -15056   -14989 
  -14980   -15041   -15142   -15226   -15246   -15171   -15001   -14791 
  -14604   -14469   -14381   -14345   -14345   -14342   -14307   -14243 
  -14160   -14064   -13983   -13940   -13932   -13967   -14077   -14261 
  -14477   -14740   -15066   -15372   -15565   -15619   -15564   -15438 
  -15246   -14986   -14715   -14532   -14478   -14482   -14470   -14465 
  -14524   -14686   -14966   -15336   -15709   -16035   -16339   -16605 
  -16696   -16533   -16175   -15726   -15255   -14810   -14440   -14189 
  -14062   -14011   -13973   -13946   -13949   -13963   -13980   -14054 
  -14204   -14381   -14527   -14593   -14534   -14377   -14223   -14123 
  -14042   -13968   -13945   -14021   -14211   -14488   -14770   -14983 
  -15132   -15276   -15457   -15657   -15807   -15840   -15754   -15588 
  -15399   -15225   -15045   -14841   -14636   -14466   -14347   -14301 
  -14380   -14594   -14868   -15107   -15272   -15373   -15417   -15390 
  -15310   -15233   -15175   -15095   -14951   -14732   -14457   -14175 
  -13956   -13824   -13765   -13786   -13899   -14095   -14316   -14513 
  -14670   -14786   -14851   -14886   -14941   -15037   -15159   -15280 
  -15388   -15466   -15469   -15358   -15196   -15088   -15079   -15164 
  -15317   -15475   -15557   -15541   -15462   -15325   -15111   -14863 
  -14678   -14600   -14569   -14524   -14509   -14597   -14801   -15093 
  -15415   -15687   -15807   -15709   -15402   -14953   -14457   -13975 
  -13558   -13263   -13158   -13297   -13672   -14189   -14723   -15175 
  -15502   -15685   -15689   -15538   -15331   -15140   -14958   -14790 
