Origin Time       2026/01/15 07:13:00
Lat.              42.7
Long.             145.4
Depth. (km)       30
Mag.              5.7
Station Code      HKD092
Station Lat.      42.9283
Station Long.     143.4485
Station Height(m) 17
Record Time       2026/01/15 07:14:02
Sampling Freq(Hz) 100Hz
Duration Time(s)  62
Dir.              N-S
Scale Factor      7845(gal)/8223790
Max. Acc. (gal)   5.205
Last Correction   2026/01/15 07:14:02
Memo.             
[...]
   -6485    -6575    -6575    -6550    -6588    -6674    -6679    -6525 
   -6272    -6031    -5871    -5817    -5856    -5929    -5979    -6033 
   -6134    -6237    -6277    -6268    -6262    -6284    -6323    -6397 
   -6507    -6594    -6633    -6629    -6596    -6558    -6501    -6397 
   -6291    -6269    -6353    -6474    -6577    -6631    -6608    -6528 
   -6396    -6176    -5923    -5771    -5759    -5838    -5979    -6183 
   -6401    -6548    -6620    -6709    -6824    -6783    -6469    -6085 
   -5956    -6097    -6257    -6276    -6237    -6262    -6336    -6397 
   -6470    -6558    -6550    -6351    -6065    -5891    -5891    -6015 
   -6195    -6312    -6308    -6245    -6219    -6303    -6519    -6771 
   -6899    -6860    -6735    -6605    -6535    -6538    -6501    -6354 
   -6165    -5983    -5852    -5840    -5914    -5984    -6021    -6058 
   -6168    -6334    -6453    -6486    -6489    -6481    -6466    -6488 
   -6558    -6608    -6592    -6521    -6432    -6342    -6241    -6130 
   -6087    -6160    -6284    -6354    -6326    -6242    -6195    -6187 
   -6165    -6193    -6354    -6571    -6725    -6774    -6701    -6508 
   -6249    -6015    -5896    -5890    -5894    -5854    -5857    -5971 
   -6166    -6409    -6696    -7042    -7383    -7526    -7366    -7011 
   -6621    -6274    -6015    -5837    -5678    -5544    -5517    -5636 
   -5871    -6127    -6315    -6450    -6594    -6717    -6786    -6810 
   -6786    -6708    -6546    -6299    -6077    -5994    -6035    -6162 
   -6326    -6435    -6438    -6372    -6293    -6264    -6313    -6378 
   -6370    -6269    -6112    -5992    -5992    -6069    -6118    -6131 
   -6193    -6353    -6539    -6647    -6662    -6640    -6596    -6486 
   -6323    -6169    -6048    -5958    -5945    -6006    -6061    -6068 
   -6085    -6176    -6323    -6440    -6461    -6434    -6485    -6609 
   -6656    -6569    -6436    -6357    -6370    -6470    -6577    -6629 
   -6629    -6597    -6561    -6554    -6540    -6475    -6378    -6296 
   -6278    -6363    -6511    -6586    -6498    -6305    -6143    -6112 
   -6219    -6374    -6492    -6529    -6478    -6338    -6131    -5899 
   -5714    -5645    -5672    -5748    -5887    -6083    -6238    -6307 
   -6357    -6404    -6349    -6193    -6089    -6102    -6142    -6156 
   -6195    -6336    -6539    -6650    -6623    -6596    -6647    -6666 
   -6589    -6482    -6384    -6273    -6196    -6224    -6336    -6467 
   -6612    -6764    -6874    -6883    -6787    -6671    -6651    -6727 
   -6794    -6814    -6799    -6697    -6466    -6214    -6097    -6146 
   -6211    -6130    -5940    -5782    -5691    -5657    -5722    -5917 
   -6161    -6343    -6451    -6561    -6666    -6685    -6609    -6497 
   -6349    -6124    -5856    -5706    -5830    -6154    -6432    -6528 
   -6494    -6446    -6458    -6515    -6532    -6475    -6363    -6231 
   -6139    -6120    -6166    -6280    -6436    -6558    -6629    -6678 
   -6675    -6592    -6442    -6254    -6083    -6007    -6046    -6164 
   -6327    -6478    -6521    -6451    -6390    -6444    -6590    -6700 
   -6658    -6512    -6397    -6339    -6296    -6243    -6129    -5907 
   -5651    -5509    -5599    -5892    -6178    -6285    -6249    -6210 
   -6266    -6451    -6691    -6841    -6832    -6724    -6600    -6501 
   -6416    -6307    -6215    -6187    -6204    -6242    -6313    -6417 
   -6496    -6461    -6319    -6154    -6018    -5930    -5933    -6030 
   -6139    -6204    -6274    -6396    -6508    -6502    -6346    -6134 
   -6012    -5999    -6035    -6141    -6396    -6833    -7350    -7739 
   -7836    -7589    -7064    -6473    -6062    -5915    -5929    -5949 
   -5883    -5753    -5671    -5691    -5765    -5863    -5969    -6058 
   -6178    -6404    -6685    -6891    -6978    -7030    -7080    -7005 
   -6702    -6295    -6016    -5934    -5957    -6003    -6018    -5999 
   -6002    -6035    -6075    -6112    -6161    -6276    -6459    -6610 
   -6627    -6498    -6324    -6262    -6384    -6588    -6673    -6521 
   -6212    -5972    -5967    -6107    -6181    -6145    -6119    -6203 
   -6421    -6714    -6976    -7110    -7051    -6818    -6547    -6309 
   -6039    -5724    -5497    -5481    -5684    -6014    -6295    -6419 
   -6450    -6489    -6612    -6868    -7155    -7264    -7128    -6868 
   -6644    -6529    -6500    -6454    -6299    -6004    -5653    -5424 
   -5422    -5598    -5821    -5972    -6037    -6087    -6137    -6187 
   -6301    -6480    -6593    -6565    -6427    -6255    -6141    -6111 
   -6106    -6080    -6031    -5950    -5867    -5868    -6038    -6354 
   -6687    -6914    -7033    -7082    -7056    -6978    -6867    -6670 
   -6378    -6112    -5999    -6025    -6061    -6019    -5921    -5867 
   -5935    -6088    -6208    -6251    -6307    -6478    -6750    -7014 
   -7157    -7129    -6970    -6766    -6588    -6444    -6293    -6170 
   -6151    -6162    -6099    -5996    -5949    -6026    -6237    -6443 
   -6496    -6434    -6361    -6268    -6119    -5976    -5926    -6026 
   -6276    -6559    -6744    -6848    -6926    -6941    -6840    -6659 
   -6454    -6239    -6016    -5786    -5568    -5444    -5490    -5661 
   -5861    -6037    -6199    -6370    -6531    -6621    -6610    -6565 
   -6543    -6505    -6436    -6420    -6548    -6781    -6936    -6893 
   -6705    -6462    -6197    -5937    -5745    -5648    -5618    -5665 
   -5860    -6238    -6681    -6955    -6972    -6898    -6897    -6940 
   -6918    -6750    -6450    -6126    -5868    -5682    -5593    -5645 
   -5825    -6081    -6369    -6656    -6912    -7080    -7102    -6968 
   -6751    -6547    -6400    -6247    -6038    -5823    -5682    -5602 
   -5532    -5464    -5475    -5655    -5962    -6249    -6434    -6536 
   -6579    -6569    -6570    -6662    -6810    -6948    -7087    -7269 
   -7435    -7406    -7111    -6704    -6319    -5938    -5574    -5359 
   -5400    -5632    -5872    -6026    -6183    -6428    -6690    -6859 
   -6964    -7063    -7111    -7080    -7011    -6880    -6579    -6107 
   -5660    -5459    -5497    -5633    -5787    -5948    -6089    -6222 
   -6417    -6697    -6949    -7052    -7021    -6974    -6957    -6917 
   -6789    -6551    -6285    -6114    -6050    -6022    -5973    -5813 
   -5532    -5320    -5327    -5493    -5734    -6011    -6297    -6573 
   -6783    -6856    -6781    -6593    -6342    -6130    -6066    -6126 
   -6230    -6334    -6408    -6473    -6532    -6488    -6363    -6361 
   -6501    -6596    -6558    -6420    -6218    -6025    -5900    -5886 
   -6030    -6247    -6381    -6482    -6658    -6814    -6820    -6667 
   -6409    -6135    -5941    -5833    -5795    -5813    -5854    -5938 
   -6138    -6453    -6740    -6844    -6751    -6593    -6484    -6424 
   -6377    -6316    -6247    -6200    -6164    -6149    -6262    -6496 
   -6643    -6610    -6496    -6374    -6266    -6193    -6176    -6210 
   -6258    -6276    -6293    -6404    -6606    -6795    -6912    -6943 
   -6872    -6744    -6571    -6304    -6007    -5806    -5728    -5749 
   -5836    -5969    -6166    -6427    -6693    -6871    -6891    -6740 
   -6497    -6323    -6324    -6436    -6519    -6521    -6502    -6458 
   -6274    -5954    -5665    -5540    -5586    -5752    -5944    -6095 
   -6219    -6370    -6583    -6822    -6970    -6933    -6747    -6516 
   -6335    -6295    -6413    -6596    -6736    -6777    -6685    -6523 
   -6390    -6305    -6247    -6178    -6056    -5925    -5875    -5934 
   -6077    -6243    -6355    -6408    -6421    -6359    -6223    -6095 
   -6043    -6099    -6242    -6393    -6507    -6577    -6582    -6559 
   -6615    -6763    -6885    -6890    -6804    -6663    -6493    -6342 
   -6254    -6220    -6134    -5907    -5659    -5609    -5772    -5968 
   -6065    -6080    -6091    -6153    -6286    -6448    -6578    -6617 
   -6494    -6245    -6016    -5921    -6012    -6264    -6525    -6658 
   -6631    -6498    -6327    -6174    -6052    -5950    -5908    -5972 
   -6112    -6273    -6453    -6647    -6812    -6939    -7029    -7006 
   -6813    -6551    -6347    -6214    -6119    -6076    -6108    -6200 
   -6288    -6312    -6259    -6196    -6207    -6316    -6498    -6678 
   -6740    -6617    -6326    -5989    -5783    -5749    -5798    -5888 
   -6072    -6365    -6659    -6832    -6859    -6785    -6686    -6629 
   -6605    -6554    -6442    -6308    -6243    -6250    -6224    -6151 
   -6092    -6031    -5930    -5830    -5842    -5998    -6168    -6273 
   -6380    -6511    -6578    -6546    -6477    -6478    -6561    -6660 
   -6781    -6910    -6905    -6633    -6201    -5826    -5576    -5451 
   -5487    -5676    -6000    -6451    -6917    -7258    -7414    -7323 
   -6978    -6500    -6065    -5768    -5611    -5568    -5636    -5825 
   -6112    -6401    -6589    -6642    -6531    -6259    -5965    -5778 
   -5664    -5529    -5391    -5366    -5513    -5815    -6253    -6748 
   -7182    -7472    -7582    -7465    -7068    -6465    -5927    -5736 
   -5927    -6293    -6597    -6745    -6766    -6704    -6579    -6369 
   -6108    -5960    -6064    -6343    -6631    -6804    -6793    -6563 
   -6139    -5660    -5374    -5416    -5744    -6227    -6713    -7060 
   -7184    -7086    -6820    -6453    -6034    -5597    -5227    -5066 
   -5165    -5447    -5817    -6241    -6741    -7285    -7685    -7777 
   -7603    -7314    -6993    -6650    -6335    -6141    -6065    -6041 
   -6061    -6146    -6278    -6401    -6424    -6308    -6110    -5950 
   -5934    -6076    -6288    -6454    -6521    -6488    -6362    -6235 
   -6201    -6141    -5880    -5528    -5374    -5518    -5822    -6089 
   -6176    -6102    -6019    -6068    -6324    -6710    -7020    -7190 
   -7294    -7288    -7072    -6701    -6269    -5771    -5201    -4688 
   -4402    -4419    -4676    -5071    -5590    -6254    -7005    -7726 
   -8293    -8573    -8473    -8014    -7377    -6870    -6681    -6755 
   -6924    -7051    -7088    -7067    -7011    -6905    -6751    -6592 
   -6399    -6114    -5780    -5526    -5414    -5391    -5425    -5545 
   -5705    -5732    -5544    -5300    -5255    -5584    -6231    -6853 
   -7103    -6960    -6664    -6428    -6315    -6273    -6235    -6227 
   -6324    -6492    -6588    -6508    -6258    -5948    -5744    -5765 
   -6003    -6308    -6543    -6706    -6847    -6955    -6978    -6906 
   -6825    -6812    -6795    -6629    -6250    -5738    -5262    -4934 
   -4793    -4861    -5093    -5451    -5964    -6619    -7308    -7898 
   -8253    -8268    -7943    -7423    -6940    -6612    -6390    -6185 
   -6050    -6108    -6330    -6563    -6673    -6606    -6485    -6474 
   -6569    -6720    -6878    -6913    -6731    -6446    -6301    -6385 
   -6513    -6477    -6264    -6008    -5788    -5528    -5196    -4870 
   -4606    -4414    -4394    -4731    -5474    -6343    -6988    -7292 
   -7325    -7192    -7003    -6894    -6956    -7082    -7088    -6926 
   -6636    -6253    -5868    -5652    -5714    -5995    -6396    -6874 
   -7352    -7655    -7635    -7376    -7091    -6810    -6424    -5923 
   -5414    -5096    -5150    -5543    -6049    -6434    -6682    -6967 
   -7356    -7707    -7835    -7663    -7283    -6880    -6640    -6647 
   -6806    -6902    -6785    -6431    -5875    -5162    -4411    -3808 
   -3446    -3280    -3288    -3580    -4201    -5026    -5844    -6470 
   -6829    -7003    -7096    -7180    -7387    -7801    -8262    -8546 
   -8631    -8573    -8303    -7673    -6693    -5617    -4706    -4028 
   -3631    -3634    -4043    -4741    -5603    -6454    -7082    -7261 
   -6859    -6075    -5282    -4675    -4472    -5046    -6214    -7254 
   -8043    -9001    -9914   -10110    -9571    -8568    -7210    -5919 
   -4816    -3951    -3919    -4534    -5181    -5968    -6794    -7179 
   -7207    -7294    -7523    -7836    -8117    -8068    -7709    -7391 
   -7215    -7079    -6980    -6929    -6758    -6382    -6111    -6157 
   -6170    -5784    -4970    -3780    -2605    -1973    -1857    -2014 
   -2300    -2637    -3202    -4054    -5046    -6126    -7087    -7692 
   -8051    -8253    -8151    -7828    -7589    -7511    -7603    -7983 
   -8590    -9202    -9659    -9872    -9931    -9934    -9690    -9027 
   -8154    -7385    -6767    -6106    -5235    -4185    -3210    -2652 
   -2652    -3025    -3591    -4341    -5246    -6158    -6918    -7398 
   -7565    -7508    -7406    -7426    -7558    -7584    -7377    -7049 
   -6747    -6535    -6486    -6694    -7138    -7605    -7812    -7661 
   -7326    -7021    -6787    -6593    -6400    -6145    -5782    -5327 
   -4824    -4310    -3796    -3333    -3094    -3225    -3661    -4216 
   -4780    -5309    -5745    -6042    -6284    -6559    -6831    -7063 
   -7384    -7935    -8494    -8545    -7927    -7182    -7013    -7433 
   -7689    -7184    -6205    -5459    -5194    -5252    -5476    -5454 
   -4738    -3724    -3330    -3696    -4151    -4494    -5101    -5972 
   -6659    -7036    -7614    -8617    -9383    -9414    -8973    -8550 
   -8068    -6910    -5570    -5293    -5629    -5431    -5209    -5695 
   -6319    -6747    -7218    -7476    -7403    -7385    -7412    -7188 
   -7068    -7530    -8081    -8154    -8010    -7801    -7284    -6493 
   -5594    -4668    -3931    -3522    -3294    -3073    -2783    -2455 
   -2289    -2531    -3268    -4293    -5356    -6520    -7904    -9390 
  -10740   -11641   -11789   -11209   -10300    -9485    -8831    -8232 
   -7734    -7318    -6804    -6166    -5530    -4909    -4297    -3809 
   -3570    -3569    -3692    -3874    -4153    -4552    -5044    -5618 
   -6278    -7032    -7800    -8367    -8511    -8218    -7678    -7118 
   -6660    -6299    -6030    -5948    -6169    -6741    -7573    -8461 
   -9234    -9745    -9848    -9463    -8627    -7523    -6432    -5506 
   -4671    -3813    -2991    -2457    -2408    -2790    -3389    -3917 
   -4113    -3913    -3553    -3457    -3902    -4796    -5836    -6793 
   -7597    -8241    -8788    -9354    -9856    -9972    -9466    -8476 
   -7425    -6646    -6216    -6045    -6019    -6048    -6054    -6016 
   -5949    -5815    -5598    -5427    -5493    -5860    -6403    -6964 
   -7489    -7951    -8279    -8409    -8256    -7686    -6637    -5251 
   -3898    -2968    -2571    -2527    -2627    -2817    -3122    -3577 
   -4294    -5374    -6694    -7924    -8842    -9521   -10174   -10827 
  -11161   -10840    -9926    -8776    -7661    -6669    -5859    -5277 
   -4804    -4247    -3669    -3311    -3329    -3717    -4320    -4959 
   -5606    -6320    -7140    -8014    -8777    -9209    -9121    -8448 
   -7334    -6069    -4938    -4144    -3771    -3784    -4085    -4537 
   -4976    -5355    -5817    -6340    -6717    -7003    -7369    -7746 
   -8006    -8079    -7861    -7388    -6848    -6201    -5363    -4595 
   -4174    -4075    -4156    -4315    -4511    -4834    -5451    -6330 
   -7361    -8533    -9572   -10075   -10014    -9602    -9046    -8517 
   -8036    -7524    -6926    -6245    -5526    -4788    -4097    -3716 
   -3730    -3847    -3900    -4052    -4430    -4953    -5479    -5903 
   -6185    -6404    -6728    -7245    -7819    -8164    -8208    -8133 
   -8027    -7840    -7554    -7195    -6859    -6606    -6369    -6095 
   -5765    -5310    -4753    -4353    -4378    -4843    -5539    -6187 
   -6632    -6913    -7079    -7064    -6831    -6444    -5991    -5594 
   -5402    -5422    -5567    -5805    -6131    -6461    -6698    -6839 
   -6930    -7013    -7080    -7130    -7164    -7146    -7074    -7037 
   -7123    -7304    -7499    -7584    -7406    -6913    -6196    -5409 
   -4704    -4189    -3883    -3781    -3942    -4384    -4963    -5516 
   -6052    -6681    -7387    -8020    -8455    -8631    -8534    -8212 
   -7749    -7249    -6762    -6246    -5687    -5151    -4725    -4517 
   -4595    -4901    -5296    -5649    -5860    -5883    -5829    -5957 
   -6450    -7284    -8282    -9201    -9871   -10195   -10110    -9630 
   -8861    -7927    -6959    -6076    -5360    -4873    -4660    -4727 
   -4980    -5304    -5655    -6030    -6396    -6648    -6696    -6574 
   -6380    -6134    -5838    -5568    -5427    -5443    -5566    -5773 
   -6089    -6457    -6721    -6832    -6885    -6939    -7006    -7057 
   -6953    -6562    -5968    -5427    -5166    -5259    -5622    -6060 
   -6393    -6593    -6750    -6947    -7176    -7330    -7281    -6968 
   -6436    -5868    -5452    -5235    -5139    -5070    -5007    -4962 
   -4911    -4857    -4872    -5016    -5267    -5508    -5616    -5587 
   -5483    -5368    -5310    -5337    -5387    -5472    -5709    -6149 
   -6700    -7221    -7585    -7740    -7732    -7622    -7422    -7134 
   -6762    -6380    -6181    -6277    -6569    -6909    -7203    -7373 
   -7411    -7371    -7214    -6806    -6158    -5485    -5019    -4878 
   -5132    -5802    -6724    -7577    -8156    -8491    -8676    -8750 
   -8721    -8618    -8498    -8386    -8244    -8037    -7727    -7198 
   -6338    -5189    -3954    -2907    -2273    -2118    -2371    -2949 
   -3753    -4608    -5397    -6122    -6805    -7429    -7913    -8147 
   -8104    -7852    -7518    -7264    -7195    -7249    -7333    -7462 
   -7635    -7723    -7592    -7204    -6604    -5913    -5290    -4861 
   -4722    -4831    -5001    -5140    -5323    -5603    -6030    -6632 
   -7280    -7738    -7871    -7726    -7457    -7148    -6727    -6195 
   -5663    -5140    -4611    -4171    -3920    -3856    -3947    -4118 
   -4266    -4380    -4550    -4876    -5448    -6242    -7114    -7929 
   -8592    -9047    -9350    -9547    -9541    -9236    -8675    -7990 
   -7264    -6521    -5809    -5278    -5119    -5331    -5729    -6184 
   -6624    -6941    -7045    -6860    -6359    -5648    -4932    -4432 
   -4309    -4538    -4887    -5140    -5269    -5394    -5707    -6255 
   -6831    -7242    -7507    -7720    -7920    -8021    -7873    -7437 
   -6825    -6176    -5605    -5202    -4939    -4649    -4298    -4074 
   -4083    -4178    -4152    -3952    -3692    -3559    -3689    -4056 
   -4545    -5076    -5611    -6156    -6708    -7184    -7433    -7399 
   -7221    -7136    -7321    -7765    -8259    -8583    -8685    -8580 
   -8224    -7649    -7092    -6829    -6910    -7167    -7415    -7546 
   -7553    -7512    -7429    -7180    -6713    -6197    -5892    -5898 
   -6112    -6380    -6588    -6718    -6867    -7057    -7129    -6932 
   -6542    -6259    -6358    -6794    -7244    -7435    -7346    -7119 
   -6829    -6465    -6043    -5606    -5186    -4855    -4761    -5013 
   -5537    -6146    -6696    -7133    -7376    -7311    -7001    -6677 
   -6438    -6219    -5968    -5657    -5247    -4733    -4197    -3839 
   -3855    -4271    -4899    -5483    -5958    -6457    -7052    -7623 
   -7997    -8094    -7987    -7848    -7785    -7727    -7554    -7263 
   -6966    -6802    -6789    -6714    -6385    -5876    -5385    -5027 
   -4874    -4938    -5148    -5440    -5802    -6208    -6555    -6713 
   -6709    -6774    -7026    -7308    -7462    -7569    -7771    -8051 
   -8256    -8260    -8055    -7730    -7381    -7114    -7022    -7114 
   -7288    -7339    -7115    -6720    -6274    -5713    -5055    -4503 
