Origin Time       2026/01/15 07:13:00
Lat.              42.7
Long.             145.4
Depth. (km)       30
Mag.              5.7
Station Code      HKD063
Station Lat.      44.1060
Station Long.     145.2478
Station Height(m) 5
Record Time       2026/01/15 07:13:59
Sampling Freq(Hz) 100Hz
Duration Time(s)  60
Dir.              N-S
Scale Factor      7845(gal)/8223790
Max. Acc. (gal)   7.613
Last Correction   2026/01/15 07:14:00
Memo.             
[...]
   -5514    -5605    -5780    -5983    -6191    -6413    -6629    -6805 
   -6918    -6926    -6810    -6600    -6323    -6015    -5742    -5528 
   -5359    -5246    -5192    -5142    -5067    -5009    -4951    -4851 
   -4735    -4635    -4575    -4619    -4815    -5123    -5482    -5845 
   -6150    -6385    -6597    -6782    -6887    -6886    -6779    -6615 
   -6454    -6307    -6149    -6012    -5913    -5799    -5626    -5393 
   -5127    -4896    -4781    -4804    -4934    -5169    -5474    -5771 
   -6006    -6145    -6170    -6138    -6135    -6173    -6205    -6227 
   -6235    -6200    -6131    -6026    -5853    -5641    -5449    -5274 
   -5108    -4985    -4931    -4968    -5076    -5155    -5132    -5042 
   -4946    -4903    -4990    -5215    -5516    -5840    -6097    -6228 
   -6288    -6345    -6366    -6324    -6243    -6149    -6052    -5960 
   -5836    -5667    -5539    -5525    -5611    -5748    -5891    -6025 
   -6160    -6270    -6292    -6219    -6106    -5965    -5794    -5636 
   -5502    -5383    -5296    -5213    -5074    -4865    -4641    -4486 
   -4461    -4591    -4831    -5123    -5437    -5757    -6084    -6438 
   -6797    -7102    -7334    -7464    -7423    -7182    -6756    -6187 
   -5580    -5062    -4681    -4455    -4410    -4549    -4837    -5247 
   -5733    -6185    -6527    -6729    -6775    -6683    -6508    -6276 
   -6004    -5730    -5467    -5217    -5030    -4916    -4858    -4865 
   -4909    -4943    -4995    -5125    -5340    -5609    -5922    -6238 
   -6500    -6689    -6766    -6686    -6498    -6269    -6014    -5768 
   -5556    -5350    -5139    -4965    -4864    -4876    -5022    -5260 
   -5526    -5782    -5976    -6087    -6145    -6161    -6107    -5984 
   -5834    -5674    -5510    -5370    -5267    -5229    -5294    -5421 
   -5530    -5616    -5709    -5800    -5881    -5956    -5998    -5968 
   -5877    -5761    -5674    -5659    -5688    -5718    -5761    -5818 
   -5850    -5849    -5845    -5877    -5952    -6016    -6004    -5925 
   -5836    -5742    -5636    -5570    -5594    -5718    -5911    -6066 
   -6108    -6076    -6031    -5960    -5845    -5709    -5562    -5402 
   -5271    -5224    -5294    -5464    -5675    -5877    -6042    -6142 
   -6183    -6226    -6327    -6442    -6478    -6403    -6228    -6002 
   -5745    -5421    -5031    -4662    -4398    -4256    -4256    -4402 
   -4648    -4945    -5244    -5491    -5683    -5827    -5884    -5821 
   -5671    -5483    -5310    -5227    -5273    -5417    -5636    -5919 
   -6223    -6507    -6747    -6917    -7006    -7033    -6988    -6837 
   -6581    -6262    -5948    -5682    -5452    -5217    -4966    -4730 
   -4549    -4483    -4563    -4754    -4996    -5279    -5617    -6002 
   -6423    -6839    -7186    -7450    -7614    -7592    -7346    -6920 
   -6349    -5680    -5012    -4430    -3986    -3731    -3659    -3732 
   -3958    -4334    -4789    -5269    -5752    -6211    -6613    -6909 
   -7029    -6972    -6820    -6629    -6397    -6103    -5722    -5304 
   -4962    -4739    -4576    -4455    -4413    -4468    -4631    -4930 
   -5306    -5680    -6037    -6367    -6629    -6785    -6820    -6712 
   -6482    -6222    -6031    -5965    -6014    -6081    -6064    -5918 
   -5652    -5324    -5040    -4874    -4842    -4954    -5189    -5454 
   -5686    -5875    -6008    -6104    -6177    -6196    -6137    -6038 
   -5953    -5917    -5930    -5968    -6021    -6106    -6192    -6192 
   -6083    -5930    -5786    -5672    -5598    -5522    -5400    -5232 
   -5026    -4789    -4604    -4575    -4714    -4984    -5341    -5703 
   -6012    -6280    -6520    -6727    -6874    -6897    -6774    -6565 
   -6304    -5961    -5566    -5244    -5119    -5211    -5444    -5706 
   -5930    -6111    -6227    -6235    -6124    -5935    -5736    -5584 
   -5481    -5379    -5281    -5217    -5185    -5177    -5219    -5325 
   -5486    -5702    -5941    -6150    -6308    -6376    -6312    -6158 
   -5992    -5841    -5725    -5644    -5520    -5279    -4951    -4575 
   -4213    -3989    -3971    -4121    -4367    -4650    -4931    -5211 
   -5498    -5769    -5989    -6156    -6264    -6301    -6286    -6242 
   -6162    -6041    -5880    -5690    -5520    -5425    -5421    -5490 
   -5602    -5706    -5782    -5864    -5956    -6058    -6216    -6421 
   -6601    -6741    -6859    -6932    -6943    -6929    -6925    -6944 
   -6998    -7042    -7021    -6948    -6833    -6639    -6339    -5935 
   -5447    -4973    -4626    -4414    -4307    -4297    -4348    -4449 
   -4618    -4820    -5032    -5305    -5644    -5948    -6146    -6219 
   -6156    -6006    -5861    -5757    -5690    -5647    -5574    -5422 
   -5219    -5030    -4926    -4958    -5088    -5255    -5439    -5587 
   -5616    -5551    -5514    -5575    -5749    -6033    -6335    -6547 
   -6646    -6620    -6435    -6102    -5699    -5339    -5151    -5175 
   -5306    -5439    -5555    -5653    -5730    -5806    -5915    -6081 
   -6312    -6561    -6718    -6720    -6592    -6388    -6146    -5864 
   -5530    -5197    -4938    -4752    -4599    -4494    -4471    -4568 
   -4819    -5197    -5607    -5985    -6324    -6597    -6783    -6889 
   -6902    -6824    -6691    -6481    -6135    -5672    -5158    -4644 
   -4193    -3861    -3669    -3630    -3775    -4132    -4698    -5409 
   -6137    -6775    -7302    -7690    -7906    -7958    -7848    -7561 
   -7144    -6679    -6189    -5694    -5248    -4891    -4627    -4465 
   -4410    -4456    -4614    -4891    -5260    -5668    -6060    -6417 
   -6750    -7029    -7194    -7221    -7141    -6987    -6763    -6454 
   -6043    -5539    -4981    -4438    -4014    -3805    -3825    -4033 
   -4405    -4897    -5408    -5821    -6079    -6173    -6154    -6106 
   -6065    -6027    -6025    -6083    -6141    -6149    -6129    -6084 
   -6002    -5900    -5783    -5645    -5518    -5413    -5289    -5155 
   -5063    -5044    -5125    -5301    -5491    -5628    -5724    -5819 
   -5934    -6054    -6137    -6174    -6220    -6276    -6291    -6220 
   -6057    -5832    -5624    -5475    -5344    -5208    -5120    -5096 
   -5104    -5150    -5202    -5223    -5269    -5401    -5583    -5787 
   -6007    -6197    -6328    -6408    -6404    -6296    -6131    -5962 
   -5822    -5730    -5630    -5435    -5154    -4872    -4633    -4476 
   -4467    -4590    -4804    -5117    -5487    -5826    -6089    -6264 
   -6338    -6361    -6386    -6412    -6438    -6450    -6417    -6363 
   -6324    -6268    -6188    -6137    -6131    -6134    -6129    -6111 
   -6077    -6042    -6002    -5926    -5829    -5755    -5715    -5729 
   -5798    -5850    -5825    -5741    -5614    -5431    -5206    -4972 
   -4733    -4531    -4432    -4434    -4510    -4641    -4810    -5028 
   -5319    -5636    -5918    -6153    -6365    -6566    -6739    -6836 
   -6816    -6712    -6581    -6427    -6226    -5989    -5744    -5503 
   -5287    -5067    -4815    -4595    -4504    -4595    -4895    -5350 
   -5827    -6247    -6570    -6733    -6727    -6656    -6617    -6623 
   -6637    -6578    -6350    -5956    -5466    -4946    -4496    -4213 
   -4117    -4195    -4421    -4722    -5062    -5455    -5861    -6200 
   -6432    -6528    -6475    -6339    -6199    -6057    -5922    -5807 
   -5663    -5449    -5212    -4990    -4820    -4792    -4905    -5031 
   -5109    -5177    -5251    -5350    -5489    -5648    -5807    -5977 
   -6156    -6323    -6461    -6550    -6578    -6562    -6494    -6340 
   -6112    -5879    -5686    -5560    -5502    -5486    -5501    -5562 
   -5657    -5757    -5865    -5987    -6096    -6189    -6257    -6250 
   -6185    -6139    -6143    -6172    -6180    -6104    -5927    -5715 
   -5516    -5319    -5146    -5043    -5027    -5097    -5248    -5427 
   -5583    -5710    -5780    -5763    -5668    -5528    -5402    -5390 
   -5513    -5684    -5838    -5944    -5960    -5876    -5726    -5543 
   -5386    -5312    -5292    -5293    -5327    -5401    -5522    -5738 
   -6046    -6374    -6660    -6872    -6967    -6944    -6853    -6709 
   -6512    -6319    -6150    -5965    -5736    -5479    -5247    -5077 
   -4941    -4780    -4591    -4417    -4297    -4276    -4399    -4669 
   -5076    -5593    -6133    -6585    -6879    -6972    -6864    -6635 
   -6377    -6135    -5929    -5769    -5616    -5422    -5188    -4938 
   -4716    -4573    -4506    -4468    -4445    -4429    -4392    -4344 
   -4303    -4252    -4203    -4237    -4390    -4646    -5024    -5529 
   -6112    -6710    -7252    -7639    -7832    -7862    -7763    -7578 
   -7389    -7230    -7072    -6886    -6664    -6428    -6219    -6064 
   -5980    -6007    -6161    -6390    -6628    -6839    -7001    -7105 
   -7148    -7092    -6909    -6647    -6332    -5899    -5281    -4490 
   -3604    -2771    -2127    -1699    -1480    -1513    -1784    -2209 
   -2725    -3318    -3994    -4780    -5665    -6609    -7587    -8571 
   -9455   -10107   -10453   -10469   -10197    -9741    -9186    -8575 
   -7929    -7254    -6571    -5967    -5553    -5364    -5383    -5563 
   -5811    -6057    -6272    -6412    -6423    -6264    -5890    -5314 
   -4695    -4214    -3950    -3889    -3987    -4160    -4344    -4544 
   -4753    -4923    -5063    -5238    -5486    -5788    -6045    -6114 
   -5930    -5522    -4950    -4272    -3561    -2891    -2358    -2058 
   -1975    -2019    -2150    -2380    -2733    -3260    -3997    -4935 
   -6016    -7126    -8089    -8723    -8924    -8702    -8208    -7672 
   -7245    -6943    -6669    -6311    -5873    -5455    -5140    -4992 
   -5065    -5377    -5925    -6674    -7537    -8330    -8846    -9016 
   -8918    -8646    -8287    -7905    -7522    -7172    -6889    -6635 
   -6381    -6166    -6021    -5973    -6075    -6304    -6548    -6727 
   -6805    -6724    -6473    -6137    -5829    -5659    -5726    -6038 
   -6525    -7075    -7533    -7755    -7678    -7318    -6716    -5918 
   -4963    -3908    -2859    -1950    -1244     -788     -650     -819 
   -1223    -1768    -2319    -2786    -3230    -3715    -4217    -4684 
   -5063    -5302    -5408    -5455    -5524    -5672    -5954    -6370 
   -6822    -7137    -7144    -6781    -6149    -5413    -4706    -4175 
   -3950    -4050    -4401    -4900    -5437    -5944    -6401    -6766 
   -6970    -7001    -6870    -6579    -6149    -5613    -5035    -4560 
   -4360    -4529    -5020    -5705    -6419    -7036    -7504    -7797 
   -7897    -7835    -7651    -7322    -6812    -6154    -5486    -5043 
   -5012    -5341    -5809    -6193    -6351    -6241    -5934    -5590 
   -5439    -5651    -6169    -6782    -7299    -7585    -7560    -7272 
   -6855    -6393    -5908    -5367    -4687    -3831    -2893    -2045 
   -1462    -1297    -1624    -2400    -3478    -4666    -5787    -6741 
   -7499    -8070    -8471    -8698    -8711    -8506    -8136    -7670 
   -7140    -6574    -6042    -5614    -5296    -5065    -4928    -4938 
   -5171    -5659    -6347    -7102    -7742    -8137    -8305    -8328 
   -8228    -8048    -7869    -7635    -7234    -6632    -5800    -4742 
   -3605    -2532    -1613     -965     -622     -498     -487     -523 
    -606     -835    -1345    -2157    -3214    -4417    -5557    -6373 
   -6710    -6593    -6227    -5931    -5944    -6303    -6916    -7600 
   -8136    -8403    -8442    -8384    -8349    -8376    -8397    -8298 
   -8005    -7512    -6901    -6327    -5898    -5579    -5324    -5139 
   -5028    -5012    -5171    -5580    -6241    -7074    -7906    -8564 
   -8955    -9049    -8874    -8548    -8187    -7798    -7298    -6629 
   -5840    -5057    -4396    -3890    -3508    -3215    -2974    -2779 
   -2700    -2801    -3133    -3716    -4471    -5212    -5767    -6042 
   -6000    -5687    -5247    -4814    -4441    -4180    -4074    -4079 
   -4143    -4271    -4469    -4761    -5184    -5703    -6278    -6960 
   -7808    -8816    -9879   -10762   -11229   -11195   -10670    -9656 
   -8233    -6581    -4873    -3260    -1856     -712      105      498 
     394     -191    -1198    -2559    -4201    -6045    -7947    -9675 
  -11032   -11900   -12177   -11843   -11049   -10035    -9003    -8032 
   -7101    -6168    -5220    -4257    -3284    -2377    -1674    -1252 
   -1132    -1336    -1810    -2427    -3067    -3634    -4116    -4579 
   -5070    -5609    -6223    -6876    -7465    -7942    -8341    -8642 
   -8765    -8645    -8252    -7662    -7017    -6394    -5844    -5443 
   -5252    -5320    -5656    -6162    -6700    -7206    -7676    -8041 
   -8189    -8021    -7443    -6446    -5178    -3815    -2506    -1476 
    -980    -1104    -1777    -2849    -4081    -5248    -6226    -6955 
   -7445    -7674    -7551    -7128    -6551    -5825    -4915    -3954 
   -3118    -2520    -2315    -2636    -3437    -4556    -5896    -7331 
   -8625    -9576   -10098   -10214   -10030    -9613    -8984    -8213 
   -7398    -6585    -5792    -5036    -4336    -3739    -3327    -3141 
   -3161    -3341    -3616    -3910    -4183    -4425    -4585    -4650 
   -4661    -4642    -4642    -4733    -4880    -4974    -4950    -4785 
   -4473    -4059    -3605    -3213    -3037    -3186    -3631    -4284 
   -5078    -5960    -6874    -7780    -8615    -9286    -9695    -9744 
   -9369    -8607    -7492    -6049    -4386    -2691    -1202     -176 
     166     -240    -1286    -2775    -4476    -6200    -7862    -9397 
  -10744   -11917   -12901   -13551   -13699   -13234   -12117   -10469 
   -8554    -6602    -4799    -3339    -2281    -1557    -1163    -1116 
   -1397    -1993    -2876    -3987    -5266    -6631    -7929    -8996 
   -9703    -9976    -9830    -9351    -8646    -7870    -7132    -6396 
   -5595    -4738    -3861    -2999    -2211    -1572    -1150     -981 
   -1035    -1212    -1463    -1846    -2431    -3202    -4078    -4981 
   -5887    -6802    -7690    -8410    -8837    -9007    -9009    -8856 
   -8546    -8075    -7449    -6775    -6199    -5800    -5616    -5651 
   -5859    -6147    -6396    -6451    -6261    -5918    -5541    -5265 
   -5260    -5574    -6081    -6617    -6993    -7069    -6866    -6481 
   -6006    -5528    -5140    -4868    -4660    -4486    -4321    -4108 
   -3805    -3439    -3113    -2936    -2975    -3258    -3794    -4567 
   -5517    -6548    -7572    -8482    -9174    -9622    -9798    -9636 
   -9166    -8503    -7690    -6759    -5782    -4787    -3825    -3033 
   -2517    -2342    -2525    -2986    -3599    -4266    -4869    -5308 
   -5563    -5680    -5726    -5757    -5803    -5838    -5827    -5803 
   -5811    -5869    -6027    -6295    -6577    -6754    -6751    -6575 
   -6323    -6133    -6091    -6226    -6542    -6986    -7458    -7877 
   -8158    -8270    -8260    -8145    -7875    -7425    -6808    -6056 
   -5252    -4499    -3820    -3230    -2812    -2627    -2685    -2992 
   -3495    -4083    -4700    -5339    -5948    -6465    -6871    -7152 
   -7307    -7327    -7141    -6666    -5883    -4854    -3742    -2733 
   -1962    -1517    -1433    -1648    -2060    -2627    -3350    -4222 
   -5212    -6231    -7101    -7670    -7892    -7758    -7323    -6739 
   -6141    -5568    -5078    -4739    -4523    -4387    -4376    -4517 
   -4801    -5252    -5854    -6536    -7260    -7992    -8623    -9031 
   -9142    -8901    -8322    -7507    -6598    -5783    -5200    -4896 
   -4857    -5019    -5292    -5606    -5956    -6327    -6697    -7092 
   -7547    -8046    -8569    -9073    -9458    -9655    -9651    -9413 
   -8918    -8216    -7366    -6405    -5397    -4434    -3566    -2824 
   -2261    -1925    -1815    -1933    -2303    -2937    -3813    -4845 
   -5891    -6845    -7593    -8023    -8117    -7916    -7431    -6697 
   -5806    -4826    -3802    -2816    -1942    -1266     -889     -845 
   -1071    -1522    -2155    -2903    -3750    -4693    -5653    -6532 
   -7237    -7669    -7798    -7712    -7495    -7222    -7003    -6928 
   -7015    -7242    -7499    -7658    -7674    -7546    -7263    -6855 
   -6397    -5915    -5410    -4923    -4482    -4109    -3863    -3788 
   -3871    -4085    -4386    -4730    -5144    -5671    -6276    -6898 
   -7476    -7933    -8218    -8334    -8301    -8133    -7866    -7487 
   -6936    -6219    -5391    -4515    -3712    -3123    -2776    -2627 
   -2640    -2756    -2910    -3113    -3403    -3790    -4305    -4982 
   -5772    -6535    -7152    -7537    -7662    -7576    -7327    -6972 
   -6590    -6250    -5965    -5740    -5562    -5409    -5306    -5302 
   -5382    -5520    -5703    -5879    -5992    -6010    -5913    -5738 
   -5610    -5614    -5759    -6014    -6350    -6743    -7159    -7537 
   -7792    -7900    -7889    -7755    -7496    -7160    -6782    -6389 
   -6054    -5813    -5655    -5601    -5686    -5913    -6243    -6573 
   -6759    -6718    -6443    -5957    -5331    -4683    -4097    -3638 
   -3392    -3387    -3570    -3923    -4469    -5198    -6058    -6968 
   -7773    -8322    -8571    -8496    -8089    -7456    -6741    -5983 
   -5202    -4469    -3802    -3227    -2826    -2641    -2681    -2945 
   -3375    -3888    -4455    -5030    -5518    -5863    -6053    -6102 
   -6064    -5991    -5902    -5810    -5744    -5698    -5636    -5559 
   -5495    -5481    -5545    -5698    -5890    -6083    -6272    -6434 
   -6550    -6646    -6732    -6781    -6766    -6651    -6416    -6096 
   -5746    -5401    -5084    -4804    -4541    -4290    -4052    -3809 
   -3592    -3488    -3545    -3763    -4139    -4626    -5190    -5841 
   -6569    -7307    -7983    -8525    -8851    -8912    -8711    -8264 
   -7616    -6839    -5999    -5121    -4247    -3457    -2808    -2367 
   -2236    -2454    -3001    -3859    -4955    -6161    -7368    -8472 
   -9402   -10138   -10642   -10868   -10845   -10620   -10188    -9583 
   -8884    -8120    -7296    -6451    -5607    -4818    -4187    -3766 
   -3541    -3503    -3653    -3960    -4390    -4900    -5401    -5810 
   -6081    -6173    -6092    -5899    -5641    -5371    -5163    -5022 
   -4904    -4818    -4774    -4777    -4857    -5036    -5258    -5454 
   -5586    -5620    -5557    -5452    -5306    -5104    -4895    -4725 
   -4575    -4432    -4321    -4270    -4315    -4482    -4733    -5017 
   -5308    -5529    -5617    -5602    -5518    -5359    -5140    -4878 
   -4588    -4317    -4121    -4004    -3964    -4056    -4297    -4646 
   -5077    -5528    -5908    -6189    -6376    -6451    -6419    -6315 
   -6157    -5971    -5792    -5656    -5580    -5571    -5636    -5791 
   -6048    -6376    -6731    -7086    -7377    -7500    -7408    -7111 
   -6627    -6004    -5328    -4653    -4021    -3528    -3256    -3210 
   -3389    -3778    -4318    -4988    -5775    -6589    -7342    -7992 
   -8484    -8769    -8857    -8776    -8544    -8205    -7821    -7435 
   -7067    -6716    -6361    -5998    -5655    -5364    -5142    -5020 
   -5038    -5206    -5536    -5989    -6484    -6960    -7357    -7623 
   -7777    -7830    -7720    -7427    -6984    -6384    -5641    -4873 
   -4185    -3631    -3289    -3183    -3242    -3435    -3763    -4178 
   -4637    -5136    -5636    -6095    -6508    -6845    -7026    -7018 
   -6821    -6438    -5938    -5428    -4958    -4571    -4302    -4126 
