Origin Time       2026/01/15 07:13:00
Lat.              42.7
Long.             145.4
Depth. (km)       30
Mag.              5.7
Station Code      HKD073
Station Lat.      43.3327
Station Long.     145.6003
Station Height(m) 36
Record Time       2026/01/15 07:13:30
Sampling Freq(Hz) 100Hz
Duration Time(s)  84
Dir.              N-S
Scale Factor      7845(gal)/8223790
Max. Acc. (gal)   20.801
Last Correction   2026/01/15 07:13:30
Memo.             
[...]
   -4175    -4178    -4172    -4170    -4175    -4179    -4175    -4171 
   -4172    -4176    -4179    -4174    -4168    -4172    -4176    -4175 
   -4174    -4175    -4174    -4171    -4171    -4172    -4174    -4172 
   -4170    -4171    -4175    -4176    -4174    -4175    -4175    -4174 
   -4174    -4179    -4179    -4171    -4167    -4175    -4179    -4176 
   -4174    -4172    -4174    -4178    -4176    -4172    -4172    -4172 
   -4171    -4172    -4175    -4175    -4174    -4176    -4179    -4175 
   -4172    -4170    -4170    -4174    -4174    -4174    -4176    -4175 
   -4171    -4170    -4172    -4172    -4174    -4176    -4175    -4172 
   -4174    -4172    -4174    -4176    -4174    -4171    -4171    -4172 
   -4172    -4174    -4176    -4175    -4172    -4172    -4171    -4174 
   -4178    -4174    -4170    -4172    -4175    -4174    -4174    -4175 
   -4175    -4174    -4174    -4175    -4175    -4174    -4174    -4175 
   -4175    -4171    -4172    -4174    -4174    -4170    -4171    -4176 
   -4179    -4176    -4171    -4168    -4174    -4175    -4171    -4174 
   -4174    -4170    -4171    -4174    -4176    -4175    -4171    -4170 
   -4172    -4172    -4172    -4176    -4176    -4172    -4170    -4170 
   -4170    -4175    -4179    -4172    -4171    -4178    -4172    -4168 
   -4174    -4175    -4172    -4172    -4172    -4172    -4172    -4172 
   -4174    -4176    -4172    -4166    -4168    -4176    -4176    -4172 
   -4174    -4174    -4171    -4171    -4172    -4174    -4176    -4171 
   -4167    -4175    -4178    -4170    -4171    -4176    -4176    -4175 
   -4174    -4174    -4175    -4172    -4172    -4175    -4176    -4172 
   -4168    -4170    -4174    -4175    -4174    -4174    -4176    -4176 
   -4172    -4171    -4175    -4174    -4170    -4171    -4174    -4172 
   -4174    -4175    -4175    -4174    -4172    -4174    -4174    -4174 
   -4174    -4174    -4175    -4174    -4170    -4170    -4175    -4174 
   -4172    -4172    -4174    -4175    -4171    -4170    -4174    -4176 
   -4175    -4174    -4174    -4174    -4171    -4170    -4171    -4172 
   -4170    -4168    -4170    -4176    -4178    -4172    -4171    -4172 
   -4174    -4176    -4175    -4172    -4170    -4168    -4170    -4174 
   -4178    -4175    -4171    -4171    -4174    -4171    -4172    -4175 
   -4175    -4172    -4172    -4175    -4175    -4175    -4176    -4175 
   -4174    -4174    -4171    -4172    -4176    -4175    -4170    -4171 
   -4175    -4175    -4172    -4168    -4171    -4174    -4172    -4175 
   -4178    -4174    -4171    -4171    -4174    -4174    -4170    -4168 
   -4172    -4176    -4174    -4171    -4178    -4179    -4171    -4167 
   -4171    -4174    -4172    -4175    -4175    -4174    -4172    -4170 
   -4172    -4178    -4172    -4166    -4171    -4176    -4174    -4168 
   -4174    -4178    -4175    -4172    -4172    -4172    -4174    -4174 
   -4174    -4171    -4168    -4171    -4175    -4180    -4182    -4171 
   -4166    -4174    -4176    -4175    -4175    -4176    -4176    -4174 
   -4171    -4171    -4172    -4174    -4176    -4174    -4171    -4174 
   -4172    -4171    -4176    -4175    -4170    -4175    -4179    -4176 
   -4170    -4168    -4174    -4175    -4172    -4172    -4176    -4176 
   -4171    -4172    -4178    -4174    -4170    -4172    -4175    -4176 
   -4175    -4174    -4175    -4176    -4171    -4168    -4174    -4179 
   -4175    -4171    -4175    -4178    -4172    -4171    -4172    -4174 
   -4174    -4174    -4175    -4175    -4170    -4170    -4175    -4176 
   -4175    -4174    -4171    -4174    -4175    -4171    -4171    -4178 
   -4178    -4171    -4170    -4172    -4172    -4171    -4172    -4178 
   -4178    -4170    -4168    -4175    -4176    -4176    -4174    -4168 
   -4171    -4174    -4172    -4174    -4172    -4171    -4174    -4176 
   -4175    -4174    -4172    -4170    -4171    -4172    -4170    -4168 
   -4176    -4178    -4172    -4172    -4174    -4172    -4172    -4171 
   -4174    -4178    -4172    -4170    -4174    -4172    -4168    -4174 
   -4179    -4175    -4171    -4171    -4172    -4172    -4172    -4170 
   -4168    -4174    -4176    -4174    -4174    -4175    -4172    -4171 
   -4170    -4174    -4180    -4176    -4171    -4175    -4176    -4168 
   -4167    -4174    -4175    -4174    -4172    -4171    -4170    -4172 
   -4174    -4176    -4178    -4171    -4170    -4178    -4176    -4171 
   -4170    -4175    -4174    -4170    -4175    -4179    -4178    -4178 
   -4176    -4175    -4180    -4182    -4179    -4179    -4178    -4174 
   -4171    -4174    -4178    -4180    -4178    -4174    -4182    -4194 
   -4195    -4197    -4197    -4189    -4180    -4186    -4206    -4224 
   -4221    -4209    -4198    -4193    -4193    -4201    -4210    -4207 
   -4197    -4206    -4236    -4261    -4266    -4240    -4203    -4175 
   -4135    -4067    -4040    -4098    -4167    -4171    -4136    -4131 
   -4194    -4342    -4503    -4554    -4461    -4263    -4035    -3929 
   -4008    -4113    -4059    -3828    -3634    -3782    -4324    -4872 
   -4963    -4596    -4113    -3773    -3603    -3528    -3541    -3642 
   -3761    -3877    -4075    -4395    -4710    -4814    -4723    -4707 
   -4769    -4506    -3769    -2952    -2639    -3172    -4132    -4584 
   -4214    -3711    -3912    -4799    -5490    -5373    -4824    -4440 
   -4158    -3696    -3299    -3373    -3761    -4191    -4680    -4907 
   -4569    -4210    -4394    -4769    -4708    -4243    -3866    -3731 
   -3561    -3330    -3478    -4048    -4471    -4661    -5020    -5370 
   -5229    -4577    -3711    -3075    -3032    -3329    -3545    -3839 
   -4349    -4725    -4862    -4984    -4974    -4634    -4193    -3882 
   -3433    -2660    -2249    -2899    -4185    -5194    -5645    -5725 
   -5514    -5012    -4437    -4023    -3673    -3217    -2833    -2745 
   -2918    -3427    -4369    -5340    -5734    -5472    -5049    -4789 
   -4437    -3731    -2998    -2829    -3304    -3867    -4056    -3966 
   -3940    -4168    -4665    -5359    -5900    -5746    -4899    -4005 
   -3318    -2683    -2496    -3014    -3586    -3912    -4422    -5108 
   -5665    -6033    -5960    -5238    -4324    -3666    -2956    -1989 
   -1422    -1881    -3175    -4629    -5626    -6012    -5979    -5526 
   -4743    -4194    -4014    -3589    -2833    -2367    -2420    -2992 
   -4229    -5617    -6158    -5741    -5184    -4895    -4569    -4094 
   -3724    -3573    -3586    -3678    -3798    -4081    -4558    -4845 
   -4656    -4133    -3541    -3434    -4224    -5046    -4860    -4112 
   -3780    -4031    -4422    -4386    -3758    -3141    -3191    -3717 
   -4252    -4783    -5185    -5119    -4626    -3975    -3480    -3464 
   -3817    -4126    -4325    -4531    -4608    -4445    -4109    -3653 
   -3339    -3478    -3747    -3728    -3813    -4472    -5305    -5522 
   -4839    -3778    -3095    -3044    -3522    -4372    -5155    -5387 
   -5073    -4550    -4189    -4202    -4369    -4209    -3596    -3026 
   -3011    -3343    -3572    -3805    -4249    -4648    -4773    -4730 
   -4660    -4621    -4665    -4760    -4837    -4872    -4653    -4005 
   -3319    -3173    -3742    -4828    -5665    -5247    -3777    -2573 
   -2357    -2891    -3744    -4441    -4669    -4826    -5401    -5890 
   -5512    -4449    -3458    -3096    -3435    -4017    -4240    -3909 
   -3376    -3095    -3199    -3616    -4226    -4814    -5116    -5163 
   -5201    -5100    -4691    -4144    -3392    -2500    -2142    -2714 
   -4004    -5428    -6042    -5578    -4861    -4326    -3912    -4037 
   -4533    -4341    -3481    -2818    -2440    -2323    -2789    -3528 
   -4197    -5292    -6567    -6767    -5671    -4035    -2565    -2189 
   -3213    -4544    -5035    -4536    -3654    -3380    -4182    -5428 
   -6196    -6049    -5062    -3754    -2949    -3198    -4137    -4849 
   -4704    -3761    -2740    -2382    -2880    -3990    -5262    -6014 
   -5634    -4691    -4450    -4768    -4719    -4286    -3557    -2547 
   -1892    -2038    -2774    -3908    -5229    -6173    -6274    -5522 
   -4368    -3673    -3703    -3713    -3457    -3595    -4160    -4538 
   -4765    -5026    -4876    -4179    -3325    -2585    -2401    -3268 
   -4927    -6342    -6373    -4932    -3461    -3180    -3755    -4369 
   -4608    -4324    -3838    -3685    -4001    -4591    -5093    -5000 
   -4263    -3713    -3990    -4437    -4310    -4094    -4217    -4063 
   -3335    -2775    -2968    -3750    -4861    -5988    -6319    -5262 
   -3360    -1744    -1147    -1688    -3125    -4978    -6430    -6681 
   -5832    -4733    -3897    -3487    -3713    -4180    -3908    -2882 
   -2457    -3538    -5277    -6166    -5692    -4479    -3566    -3615 
   -4301    -4725    -4359    -3423    -2801    -3229    -4193    -4668 
   -4604    -4576    -4857    -5259    -5271    -4741    -4206    -4121 
   -4440    -4827    -4768    -4048    -3133    -2601    -2585    -2971 
   -3524    -3954    -4287    -4822    -5557    -6037    -5790    -4799 
   -3505    -2481    -2142    -2551    -3364    -4093    -4434    -4270 
   -3715    -3391    -3977    -5197    -5976    -5782    -4949    -4013 
   -3492    -3542    -3786    -3948    -3885    -3626    -3765    -4444 
   -4816    -4522    -4145    -4058    -4153    -4220    -4059    -3952 
   -4480    -5275    -5219    -4368    -4031    -4496    -4677    -4099 
   -3406    -3240    -3630    -4021    -3843    -3365    -3480    -4499 
   -5649    -5972    -5422    -4603    -3967    -3755    -3874    -3983 
   -4153    -4615    -4889    -4500    -3850    -3298    -2787    -2516 
   -2736    -3314    -3877    -4006    -3666    -3569    -4236    -5194 
   -5891    -6237    -6200    -5842    -5228    -4229    -2983    -2119 
   -2035    -2363    -2542    -2648    -3323    -4784    -6251    -6809 
   -6400    -5617    -4973    -4465    -3977    -3921    -4456    -4860 
   -4635    -3974    -3163    -2554    -2401    -2619    -3099    -3654 
   -3875    -3828    -4040    -4614    -5321    -5805    -5560    -4931 
   -4961    -5479    -5362    -4675    -4303    -4063    -3225    -2058 
   -1443    -1811    -2791    -3596    -3974    -4244    -4488    -4675 
   -5093    -5741    -6141    -6127    -5698    -4699    -3458    -2506 
   -2081    -2614    -4017    -5004    -4793    -3989    -3458    -3636 
   -4348    -4934    -4887    -4291    -3743    -3800    -4450    -5204 
   -5501    -5167    -4581    -4063    -3483    -2911    -2660    -2716 
   -3003    -3391    -3523    -3640    -4410    -5495    -5914    -5443 
   -4564    -3951    -4102    -4706    -4972    -4679    -4228    -3842 
   -3304    -2727    -2771    -3626    -4515    -4699    -4378    -4170 
   -4287    -4703    -5266    -5607    -5667    -5543    -4930    -3866 
   -2964    -2566    -2732    -3208    -3369    -3312    -3704    -4271 
   -4409    -4486    -4785    -4968    -5166    -5420    -5063    -4114 
   -3358    -3001    -2852    -3006    -3497    -4226    -5036    -5352 
   -4727    -3781    -3476    -3950    -4719    -5198    -5009    -4475 
   -4163    -3987    -3738    -3740    -4166    -4669    -4974    -4885 
   -4126    -3003    -2299    -2181    -2359    -3014    -4290    -5587 
   -6215    -6083    -5487    -4596    -3569    -2979    -3123    -3454 
   -3504    -3461    -3704    -4318    -4924    -5071    -4812    -4591 
   -4718    -5251    -5756    -5444    -4368    -3461    -3041    -2859 
   -3084    -3771    -4509    -5063    -5182    -4506    -3331    -2312 
   -1756    -2038    -3437    -5094    -5810    -5638    -5389    -5444 
   -5641    -5676    -5555    -5406    -4783    -3295    -1830    -1437 
   -1784    -2251    -3009    -4106    -5059    -5567    -5668    -5505 
   -5404    -5564    -5659    -5435    -5053    -4437    -3501    -2785 
   -2639    -2714    -2903    -3362    -3639    -3412    -3276    -3658 
   -4403    -5302    -5881    -5686    -5000    -4325    -3840    -3820 
   -4243    -4270    -3662    -3375    -3665    -3762    -3465    -3149 
   -3125    -3627    -4441    -5061    -5408    -5470    -5040    -4602 
   -4796    -5084    -4726    -4055    -3537    -3307    -3519    -3978 
   -4338    -4545    -4401    -3673    -2759    -2303    -2403    -2866 
   -3546    -4257    -5070    -5967    -6374    -6048    -5400    -4750 
   -4264    -4166    -4380    -4419    -3925    -3072    -2370    -2292 
   -2913    -3770    -4283    -4299    -4131    -4229    -4747    -5289 
   -5337    -4851    -4141    -3576    -3457    -3653    -3839    -4002 
   -4136    -4217    -4588    -5244    -5455    -4959    -4378    -4317 
   -4830    -5294    -5008    -4305    -4109    -4492    -4700    -4275 
   -3408    -2656    -2667    -3524    -4526    -5286    -6075    -6647 
   -6404    -5629    -5144    -5274    -5832    -6336    -6345    -5865 
   -5081    -4105    -3284    -2990    -3015    -2837    -2494    -2497 
   -2871    -3230    -3520    -3856    -4160    -4351    -4621    -5258 
   -6228    -7198    -7642    -7119    -5934    -4656    -3105    -1031 
     780     1188       87    -1499    -2373    -1987     -770      483 
    1485     2054     1335    -1356    -5148    -8247    -9597    -9342 
   -8318    -7385    -6886    -6582    -6214    -5876    -5251    -3423 
    -378     2628     4476     5098     5013     4257     2200    -1235 
   -4996    -8293   -11140   -12764   -11709    -7825    -2470     2794 
    6705     7916     5505     -101    -7458   -14828   -20807   -24692 
  -25980   -24467   -20695   -15199    -8519    -2095     2662     5559 
    7060     7304     5782     2331    -1819    -5258    -7418    -8073 
   -7466    -6289    -4854    -3346    -2444    -2482    -2905    -3339 
   -4048    -5475    -7712   -10204   -12124   -12491   -10552    -6191 
    -109     5460     7676     4999    -1819    -9401   -14103   -15074 
  -13720   -11565    -8976    -5190      573     7816    13857    15288 
   11551     5368     -808    -6251   -10315   -12538   -13352   -12406 
   -8905    -3627     2103     7018     9391     8105     2951    -4588 
  -10540   -12016    -9771    -5647    -1433      735      -32    -2980 
   -6563    -8954    -9690    -9973   -10539   -11318   -12143   -11870 
   -9459    -6224    -4081    -2855    -1587    -1007    -2436    -4687 
   -5100    -3107      194     3700     5748     4681     1030    -2689 
   -5274    -7716   -10301   -12233   -13234   -12483    -9378    -5875 
   -3681    -1833      326     1480      658    -1069    -1755     -915 
    -149    -1098    -3796    -7350   -10210   -10412    -7460    -2617 
    2169     4679     3805      422    -3939    -8166   -11211   -12023 
  -10554    -7395    -3233      417     2398     2743     1063    -3303 
   -9127   -13378   -14492   -13439   -10773    -5999      193     5644 
    8066     6382     1525    -4131    -8572   -11564   -13567   -13861 
  -11589    -7973    -5395    -4388    -3732    -3126    -3234    -3844 
   -3753    -2369     -805     -537    -1711    -3599    -5594    -7292 
   -7952    -7029    -5524    -4891    -5027    -5047    -4253    -1829 
    1875     4671     5009     3092     -631    -5167    -8020    -7218 
   -3734     -201     1858     2416     1526    -1340    -6127   -11314 
  -15164   -16799   -15871   -12452    -7750    -3503      290     4514 
    8141     9333     7408     2577    -4048   -10566   -15086   -16093 
  -13549    -9589    -6384    -4249    -2578    -1375    -1129    -1613 
   -2292    -3512    -5532    -7408    -8187    -7929    -6917    -5120 
   -2409     1217     4822     6116     3542    -1706    -6943   -10470 
  -12406   -13537   -13726   -11855    -7384    -1493     4031     7963 
    9197     7084     2164    -4305   -10989   -16533   -19342   -18096 
  -13274    -7360    -2293     1960     5159     5709     3233     -527 
   -3951    -6363    -7249    -6303    -4055    -1937    -1409    -2600 
   -3937    -4051    -3434    -3015    -2941    -3338    -4228    -5243 
   -6412    -7861    -8849    -8577    -7304    -5517    -3163     -719 
     650      565     -340    -1927    -5001    -8954   -11041    -9898 
   -7079    -4369    -2496    -2057    -2876    -3499    -3411    -3636 
   -4309    -4402    -3676    -2744    -2122    -1934    -1748    -1127 
    -492     -727    -2245    -4653    -7291    -9572   -10662   -10129 
   -8742    -7149    -4912    -2072      172      780     -541    -3289 
   -6266    -8505    -9726    -9892    -8756    -5945    -1879     1730 
    3202     2605     1179     -788    -3919    -7792   -10775   -11651 
  -10509    -8048    -4661     -984     1563     2234     1486     -450 
   -3454    -6566    -8777    -9666    -8806    -6346    -3465     -676 
    1961     3059     1651     -738    -2191    -2833    -4033    -6415 
   -9117   -10951   -12104   -12769   -11254    -6704    -1150     3041 
    5019     4870     2998      -16    -3271    -5795    -7021    -6805 
   -5764    -5254    -5503    -5011    -3233    -1908    -2598    -4448 
   -5471    -5100    -4199    -3623    -3537    -3851    -4687    -5443 
   -4756    -2601     -939    -1447    -3599    -5879    -7512    -8228 
   -8255    -8351    -8446    -7800    -6542    -4923    -2469      248 
    1458      692     -966    -2722    -4502    -6281    -7777    -8758 
   -9367    -9782    -9413    -7099    -3273     -194      949      703 
      -6     -521    -1036    -2011    -2856    -2689    -2216    -3218 
   -5826    -8332    -9585    -9525    -8448    -7086    -6022    -4928 
   -3350    -1503      -56      197    -1109    -3415    -5782    -7584 
   -8332    -7491    -5135    -2555    -1236    -1216    -1520    -1718 
   -2303    -3801    -5679    -6631    -6232    -5436    -5154    -4966 
   -3732    -1391      508      399    -1645    -4272    -6477    -8112 
   -9161    -9370    -8266    -5579    -2022     1009     2458     1875 
    -607    -4137    -7573   -10174   -11344   -10223    -6758    -2269 
    1682     3874     3694     1520    -2023    -6451   -10454   -12190 
  -11356    -9077    -6048    -2971     -935     -122     -135    -1086 
   -3292    -6616   -10008   -11884   -11520    -9417    -6401    -3234 
    -359     2474     5208     6627     5644     2493    -1721    -5755 
   -8757   -10767   -12015   -12036   -10469    -7780    -4733    -1854 
     571     2218     2724     1992      398    -1293    -2691    -4035 
   -5481    -7159    -9219   -10681    -9961    -7415    -4820    -2717 
   -1020     -423    -1097    -2112    -2895    -3618    -4303    -4851 
   -5390    -5915    -6204    -6137    -5719    -4939    -3925    -3246 
   -3553    -4719    -5946    -6675    -6943    -7206    -7734    -8240 
   -8230    -7164    -4787    -1738      749     1617      726     -797 
   -1872    -2628    -3241    -3438    -3748    -4795    -5846    -6007 
   -5451    -4750    -4043    -3145    -2473    -2817    -3699    -3672 
   -2587    -1944    -2979    -5208    -6948    -7329    -6832    -5929 
   -4830    -3955    -3572    -3438    -3121    -2740    -2801    -3272 
   -3777    -3935    -3199    -1707     -716     -939    -1867    -3194 
   -5011    -6964    -8626    -9755   -10145    -9822    -8764    -6745 
   -3910    -1173      502     1140     1366     1227      168    -1975 
   -4521    -6565    -7743    -8270    -8444    -8297    -7846    -7322 
   -6805    -5891    -4248    -2625    -2147    -2635    -3126    -3304 
