Origin Time       2026/01/15 07:13:00
Lat.              42.7
Long.             145.4
Depth. (km)       30
Mag.              5.7
Station Code      HKD095
Station Lat.      42.9311
Station Long.     143.2137
Station Height(m) 35
Record Time       2026/01/15 07:14:07
Sampling Freq(Hz) 100Hz
Duration Time(s)  77
Dir.              N-S
Scale Factor      7845(gal)/8223790
Max. Acc. (gal)   2.082
Last Correction   2026/01/15 07:14:08
Memo.             
[...]
   -3019    -2930    -2836    -2782    -2803    -2879    -2963    -3063 
   -3138    -3110    -3017    -2937    -2917    -2990    -3090    -3132 
   -3148    -3129    -3002    -2868    -2833    -2813    -2755    -2717 
   -2743    -2830    -2921    -2974    -3017    -3042    -3025    -2992 
   -2941    -2880    -2853    -2841    -2852    -2959    -3088    -3083 
   -2992    -2948    -2918    -2849    -2809    -2855    -2934    -3010 
   -3079    -3105    -3083    -3015    -2909    -2849    -2889    -2968 
   -3014    -2987    -2924    -2863    -2816    -2828    -2911    -2987 
   -3006    -3005    -2971    -2918    -2951    -3051    -3103    -3126 
   -3144    -3092    -2997    -2936    -2936    -2979    -3029    -3028 
   -2944    -2836    -2776    -2779    -2870    -3034    -3138    -3083 
   -2920    -2763    -2689    -2698    -2767    -2866    -2959    -3006 
   -2964    -2862    -2797    -2826    -2893    -2921    -2937    -3007 
   -3103    -3191    -3250    -3234    -3150    -3075    -3011    -2938 
   -2876    -2864    -2905    -2951    -2959    -2941    -2910    -2870 
   -2833    -2809    -2776    -2768    -2832    -2938    -3041    -3105 
   -3098    -3013    -2860    -2724    -2731    -2879    -3034    -3134 
   -3181    -3171    -3142    -3137    -3119    -3075    -3034    -2972 
   -2864    -2755    -2708    -2760    -2878    -2951    -2933    -2875 
   -2837    -2851    -2886    -2924    -2986    -3019    -2952    -2840 
   -2799    -2848    -2930    -3025    -3138    -3244    -3308    -3307 
   -3244    -3203    -3217    -3177    -3045    -2906    -2802    -2708 
   -2612    -2569    -2641    -2774    -2884    -2982    -3045    -3037 
   -2999    -2976    -2972    -3014    -3083    -3091    -3017    -2955 
   -2957    -2953    -2890    -2852    -2918    -3033    -3090    -3060 
   -3003    -2965    -2918    -2847    -2791    -2771    -2774    -2776 
   -2771    -2776    -2790    -2756    -2664    -2590    -2598    -2664 
   -2762    -2911    -3079    -3186    -3238    -3245    -3129    -2909 
   -2785    -2829    -2887    -2894    -2920    -2955    -2980    -3011 
   -3003    -2944    -2891    -2864    -2812    -2725    -2704    -2805 
   -2959    -3098    -3195    -3219    -3164    -3063    -2984    -2945 
   -2905    -2895    -2948    -2956    -2887    -2848    -2862    -2875 
   -2907    -3001    -3105    -3129    -3090    -3060    -3055    -3024 
   -2947    -2874    -2849    -2856    -2863    -2839    -2781    -2732 
   -2731    -2764    -2805    -2860    -2940    -3019    -3068    -3068 
   -3021    -2929    -2856    -2891    -3011    -3133    -3227    -3294 
   -3307    -3252    -3171    -3123    -3099    -3055    -3009    -3015 
   -3028    -2995    -2975    -2995    -3018    -3037    -3063    -3094 
   -3110    -3090    -3028    -2944    -2893    -2928    -3018    -3080 
   -3086    -3052    -2995    -2917    -2799    -2681    -2631    -2624 
   -2606    -2619    -2710    -2810    -2871    -2926    -2956    -2930 
   -2870    -2778    -2674    -2651    -2720    -2782    -2832    -2952 
   -3094    -3113    -3034    -3037    -3114    -3088    -2971    -2907 
   -2890    -2829    -2745    -2720    -2749    -2785    -2837    -2928 
   -3036    -3146    -3211    -3175    -3100    -3090    -3136    -3199 
   -3235    -3207    -3114    -2994    -2897    -2844    -2813    -2775 
   -2743    -2751    -2829    -2963    -3084    -3157    -3203    -3222 
   -3192    -3103    -2967    -2851    -2808    -2795    -2801    -2843 
   -2925    -3061    -3231    -3346    -3358    -3289    -3153    -2971 
   -2808    -2729    -2709    -2683    -2671    -2741    -2867    -2928 
   -2882    -2840    -2821    -2732    -2654    -2700    -2760    -2752 
   -2783    -2897    -3002    -3059    -3090    -3111    -3126    -3099 
   -2957    -2751    -2639    -2646    -2681    -2741    -2841    -2905 
   -2913    -2948    -3055    -3169    -3210    -3150    -3040    -2938 
   -2856    -2795    -2787    -2826    -2845    -2844    -2898    -3057 
   -3252    -3352    -3361    -3353    -3294    -3136    -2963    -2876 
   -2867    -2920    -3014    -3069    -3045    -2998    -2961    -2914 
   -2866    -2856    -2866    -2830    -2775    -2772    -2794    -2801 
   -2852    -2963    -3044    -3072    -3079    -3084    -3100    -3129 
   -3141    -3107    -3038    -2920    -2728    -2538    -2461    -2502 
   -2594    -2700    -2840    -2997    -3117    -3225    -3352    -3456 
   -3451    -3316    -3150    -3026    -2911    -2816    -2795    -2845 
   -2934    -3052    -3184    -3249    -3217    -3165    -3105    -2988 
   -2866    -2770    -2693    -2658    -2666    -2679    -2706    -2808 
   -2971    -3082    -3102    -3095    -3088    -3059    -3030    -3024 
   -2974    -2849    -2720    -2628    -2593    -2656    -2781    -2905 
   -3005    -3056    -3045    -2979    -2868    -2748    -2667    -2663 
   -2728    -2812    -2916    -3067    -3246    -3399    -3461    -3408 
   -3295    -3192    -3080    -2921    -2790    -2762    -2798    -2868 
   -2971    -3060    -3117    -3142    -3109    -3053    -3021    -2963 
   -2886    -2870    -2922    -3014    -3064    -3018    -2952    -2906 
   -2826    -2718    -2640    -2619    -2640    -2673    -2700    -2740 
   -2794    -2833    -2864    -2937    -3028    -3072    -3078    -3096 
   -3133    -3121    -3013    -2868    -2772    -2732    -2737    -2782 
   -2840    -2917    -3010    -3061    -3040    -2986    -2928    -2868 
   -2835    -2849    -2913    -3028    -3173    -3271    -3260    -3171 
   -3067    -2987    -2974    -3045    -3145    -3200    -3192    -3165 
   -3142    -3095    -3006    -2906    -2847    -2837    -2835    -2809 
   -2782    -2770    -2785    -2856    -2929    -2951    -2994    -3064 
   -3065    -3014    -2982    -2959    -2930    -2911    -2891    -2872 
   -2867    -2872    -2882    -2916    -2983    -3014    -2957    -2867 
   -2821    -2825    -2835    -2826    -2825    -2812    -2789    -2825 
   -2897    -2901    -2843    -2783    -2718    -2662    -2658    -2728 
   -2845    -2988    -3136    -3217    -3172    -3053    -2959    -2924 
   -2932    -2964    -3030    -3088    -3071    -2999    -2929    -2852 
   -2767    -2710    -2689    -2721    -2845    -3002    -3087    -3138 
   -3218    -3245    -3175    -3100    -3084    -3082    -3053    -3067 
   -3167    -3272    -3306    -3302    -3267    -3123    -2902    -2737 
   -2664    -2635    -2612    -2589    -2621    -2754    -2932    -3048 
   -3071    -3061    -3044    -2972    -2875    -2820    -2766    -2678 
   -2641    -2708    -2825    -2949    -3088    -3226    -3281    -3237 
   -3172    -3138    -3129    -3141    -3148    -3123    -3061    -2984 
   -2932    -2889    -2840    -2812    -2799    -2798    -2832    -2855 
   -2836    -2824    -2833    -2836    -2852    -2878    -2849    -2749 
   -2659    -2683    -2821    -2967    -3071    -3161    -3233    -3245 
   -3184    -3083    -2970    -2855    -2785    -2812    -2909    -3017 
   -3106    -3129    -3090    -3045    -3009    -2955    -2867    -2795 
   -2843    -2975    -3052    -3064    -3080    -3136    -3222    -3267 
   -3203    -3068    -2932    -2849    -2867    -2948    -3018    -3060 
   -3037    -2918    -2793    -2713    -2675    -2713    -2779    -2795 
   -2812    -2884    -2990    -3113    -3256    -3369    -3346    -3204 
   -3090    -3030    -2988    -2997    -3051    -3091    -3105    -3122 
   -3157    -3186    -3177    -3105    -2955    -2812    -2778    -2802 
   -2840    -2974    -3150    -3187    -3088    -2992    -2928    -2897 
   -2945    -3042    -3122    -3167    -3163    -3115    -3076    -3071 
   -3046    -2936    -2774    -2655    -2566    -2481    -2466    -2544 
   -2662    -2791    -2890    -2930    -2916    -2813    -2643    -2489 
   -2407    -2409    -2485    -2619    -2814    -2988    -3075    -3142 
   -3184    -3132    -3109    -3171    -3157    -3045    -2975    -2959 
   -2938    -2936    -2957    -2963    -2975    -3057    -3153    -3159 
   -3099    -3018    -2874    -2714    -2655    -2678    -2701    -2735 
   -2814    -2894    -2938    -3006    -3084    -3083    -3021    -2959 
   -2886    -2820    -2843    -2944    -3022    -3057    -3079    -3087 
   -3082    -3068    -3021    -2940    -2860    -2810    -2802    -2836 
   -2884    -2905    -2902    -2922    -2952    -2930    -2891    -2886 
   -2868    -2832    -2848    -2906    -2964    -3065    -3165    -3134 
   -3002    -2899    -2874    -2911    -2999    -3102    -3146    -3123 
   -3102    -3057    -2926    -2803    -2771    -2776    -2794    -2824 
   -2851    -2894    -2957    -3006    -3018    -2976    -2894    -2859 
   -2952    -3114    -3206    -3172    -3071    -2959    -2840    -2736 
   -2689    -2697    -2708    -2701    -2720    -2779    -2855    -2936 
   -2986    -2999    -3018    -3037    -3033    -3038    -3051    -3037 
   -2990    -2913    -2830    -2770    -2758    -2822    -2917    -2960 
   -2978    -3005    -3009    -2974    -2913    -2840    -2782    -2779 
   -2791    -2729    -2652    -2690    -2801    -2920    -3064    -3184 
   -3217    -3204    -3157    -3060    -2978    -2944    -2890    -2767 
   -2635    -2563    -2525    -2531    -2670    -2890    -3061    -3199 
   -3299    -3260    -3107    -2948    -2828    -2767    -2768    -2775 
   -2789    -2893    -3061    -3153    -3160    -3187    -3210    -3145 
   -2990    -2782    -2600    -2486    -2419    -2438    -2567    -2698 
   -2756    -2781    -2844    -2951    -3018    -3048    -3051    -2963 
   -2829    -2759    -2763    -2810    -2893    -3048    -3268    -3415 
   -3434    -3400    -3353    -3303    -3250    -3152    -3001    -2863 
   -2790    -2776    -2821    -2910    -2971    -2988    -3028    -3103 
   -3172    -3199    -3156    -3052    -2909    -2755    -2718    -2872 
   -3096    -3248    -3316    -3338    -3267    -3087    -2921    -2898 
   -2976    -3015    -2978    -2924    -2879    -2812    -2716    -2656 
   -2722    -2918    -3160    -3360    -3453    -3430    -3327    -3194 
   -3092    -3024    -2944    -2903    -2936    -3001    -3113    -3233 
   -3223    -3092    -2929    -2759    -2639    -2673    -2828    -2964 
   -3067    -3191    -3269    -3237    -3153    -3059    -2934    -2787 
   -2671    -2601    -2573    -2614    -2667    -2678    -2740    -2902 
   -3099    -3264    -3337    -3296    -3184    -3071    -2961    -2821 
   -2693    -2606    -2493    -2370    -2371    -2540    -2775    -2982 
   -3125    -3163    -3071    -2926    -2824    -2799    -2874    -3037 
   -3167    -3186    -3168    -3165    -3177    -3264    -3411    -3457 
   -3304    -3055    -2822    -2613    -2475    -2494    -2621    -2762 
   -2909    -3071    -3241    -3346    -3308    -3130    -2864    -2609 
   -2473    -2511    -2729    -3056    -3387    -3631    -3688    -3553 
   -3343    -3180    -3115    -3148    -3206    -3192    -3136    -3138 
   -3190    -3252    -3334    -3402    -3357    -3161    -2894    -2668 
   -2539    -2538    -2656    -2841    -3011    -3033    -2883    -2710 
   -2590    -2517    -2511    -2516    -2454    -2350    -2265    -2239 
   -2317    -2501    -2737    -2953    -3075    -3034    -2830    -2566 
   -2403    -2444    -2697    -3094    -3492    -3755    -3844    -3812 
   -3727    -3635    -3535    -3424    -3325    -3245    -3192    -3171 
   -3142    -3065    -2902    -2613    -2223    -1823    -1485    -1279 
   -1320    -1567    -1849    -2066    -2172    -2150    -2142    -2299 
   -2575    -2848    -3053    -3153    -3103    -2924    -2776    -2820 
   -3013    -3238    -3427    -3549    -3643    -3782    -3947    -4063 
   -4083    -3963    -3700    -3388    -3122    -2920    -2816    -2835 
   -2924    -3028    -3145    -3275    -3358    -3307    -3098    -2820 
   -2573    -2377    -2245    -2204    -2224    -2247    -2273    -2354 
   -2533    -2785    -3061    -3365    -3654    -3838    -3900    -3883 
   -3828    -3786    -3825    -3974    -4147    -4222    -4164    -4036 
   -3936    -3875    -3767    -3555    -3219    -2821    -2428    -2031 
   -1736    -1718    -1895    -2076    -2250    -2404    -2430    -2338 
   -2216    -2092    -2010    -2030    -2124    -2164    -2083    -1992 
   -2035    -2205    -2438    -2710    -2980    -3235    -3514    -3786 
   -3990    -4128    -4193    -4124    -3881    -3524    -3213    -3040 
   -2970    -2992    -3079    -3084    -2955    -2790    -2635    -2478 
   -2331    -2218    -2174    -2184    -2184    -2172    -2176    -2191 
   -2232    -2300    -2350    -2398    -2493    -2650    -2857    -3072 
   -3256    -3391    -3391    -3202    -2883    -2539    -2327    -2359 
   -2562    -2907    -3373    -3746    -3900    -3925    -3933    -3971 
   -3993    -3978    -4001    -4024    -3990    -4005    -4104    -4172 
   -4212    -4212    -4071    -3839    -3624    -3392    -3152    -3009 
   -2922    -2781    -2637    -2563    -2459    -2245    -2006    -1834 
   -1695    -1537    -1445    -1530    -1738    -1938    -2104    -2203 
   -2101    -1817    -1551    -1444    -1487    -1607    -1783    -2012 
   -2234    -2474    -2849    -3360    -3910    -4361    -4585    -4588 
   -4449    -4282    -4186    -4168    -4236    -4386    -4483    -4379 
   -4098    -3781    -3450    -3091    -2836    -2751    -2787    -2890 
   -2968    -2999    -3017    -2983    -2905    -2866    -2928    -3157 
   -3477    -3707    -3815    -3785    -3524    -3125    -2801    -2658 
   -2725    -2978    -3333    -3684    -3908    -3905    -3659    -3190 
   -2570    -1923    -1339     -928     -765     -828    -1154    -1730 
   -2374    -2870    -3063    -2951    -2690    -2440    -2266    -2216 
   -2428    -2909    -3368    -3624    -3782    -3852    -3793    -3730 
   -3693    -3574    -3352    -3087    -2866    -2766    -2783    -2816 
   -2770    -2695    -2674    -2678    -2674    -2708    -2764    -2755 
   -2709    -2752    -2936    -3207    -3477    -3686    -3815    -3793 
   -3559    -3181    -2809    -2544    -2397    -2312    -2235    -2173 
   -2187    -2312    -2538    -2886    -3341    -3696    -3751    -3565 
   -3281    -2970    -2697    -2567    -2605    -2702    -2782    -2853 
   -2901    -2897    -2848    -2744    -2571    -2358    -2192    -2170 
   -2236    -2300    -2388    -2473    -2486    -2521    -2660    -2806 
   -2891    -2934    -2936    -2929    -2983    -3084    -3191    -3307 
   -3392    -3407    -3404    -3423    -3487    -3581    -3647    -3663 
   -3603    -3442    -3267    -3091    -2857    -2610    -2431    -2394 
   -2513    -2660    -2774    -2882    -2937    -2929    -2964    -3064 
   -3152    -3207    -3264    -3327    -3365    -3352    -3281    -3106 
   -2799    -2481    -2274    -2165    -2077    -2004    -2019    -2189 
   -2475    -2781    -3049    -3190    -3115    -2937    -2828    -2824 
   -2921    -3159    -3516    -3883    -4136    -4186    -4040    -3798 
   -3523    -3248    -3107    -3165    -3333    -3550    -3719    -3704 
   -3480    -3121    -2775    -2538    -2371    -2280    -2311    -2450 
   -2660    -2871    -3030    -3192    -3380    -3505    -3466    -3249 
   -2911    -2548    -2273    -2153    -2173    -2303    -2466    -2602 
   -2698    -2733    -2751    -2794    -2802    -2725    -2590    -2473 
   -2455    -2571    -2801    -3060    -3269    -3383    -3370    -3268 
   -3137    -2991    -2874    -2794    -2728    -2747    -2874    -3003 
   -3088    -3117    -3010    -2775    -2556    -2466    -2517    -2701 
   -2983    -3267    -3387    -3238    -2887    -2498    -2266    -2335 
   -2666    -3071    -3369    -3453    -3331    -3096    -2870    -2775 
   -2803    -2863    -2953    -3073    -3141    -3146    -3140    -3132 
   -3140    -3159    -3141    -3134    -3225    -3377    -3466    -3441 
   -3350    -3214    -2986    -2729    -2619    -2648    -2701    -2829 
   -3086    -3372    -3585    -3661    -3542    -3285    -3032    -2851 
   -2733    -2636    -2505    -2358    -2261    -2246    -2353    -2610 
   -2983    -3358    -3622    -3743    -3746    -3638    -3488    -3388 
   -3327    -3264    -3211    -3146    -3068    -3063    -3121    -3144 
   -3169    -3250    -3312    -3318    -3310    -3315    -3298    -3214 
   -3098    -2957    -2702    -2339    -1996    -1788    -1787    -1962 
   -2227    -2477    -2602    -2629    -2705    -2845    -2951    -2982 
   -2955    -2859    -2660    -2359    -2039    -1806    -1719    -1792 
   -2003    -2274    -2508    -2700    -2910    -3122    -3260    -3296 
   -3310    -3403    -3581    -3771    -3879    -3861    -3734    -3500 
   -3160    -2789    -2459    -2182    -1989    -1949    -2058    -2220 
   -2347    -2427    -2524    -2659    -2783    -2909    -3022    -3044 
   -2970    -2790    -2523    -2336    -2338    -2419    -2478    -2569 
   -2705    -2812    -2920    -3082    -3208    -3231    -3115    -2824 
   -2461    -2216    -2135    -2226    -2513    -2875    -3188    -3472 
   -3713    -3875    -3993    -4058    -4014    -3889    -3724    -3569 
   -3516    -3565    -3655    -3711    -3588    -3289    -2971    -2690 
   -2478    -2413    -2501    -2666    -2825    -2922    -2952    -2982 
   -3033    -3030    -2995    -3037    -3150    -3298    -3492    -3709 
   -3889    -3990    -4008    -3923    -3723    -3451    -3146    -2845 
   -2619    -2506    -2475    -2443    -2396    -2423    -2516    -2575 
   -2675    -2884    -3071    -3164    -3210    -3223    -3202    -3138 
   -3044    -2956    -2940    -2990    -3029    -3111    -3306    -3484 
   -3499    -3311    -2982    -2628    -2315    -2127    -2165    -2365 
   -2587    -2816    -3084    -3346    -3541    -3635    -3568    -3329 
   -3029    -2790    -2646    -2608    -2658    -2664    -2578    -2489 
   -2388    -2251    -2191    -2245    -2366    -2532    -2698    -2845 
   -3005    -3194    -3384    -3528    -3620    -3680    -3726    -3797 
   -3896    -3958    -3935    -3842    -3721    -3619    -3551    -3472 
   -3325    -3122    -2909    -2683    -2423    -2182    -2045    -1958 
   -1877    -1854    -1904    -1984    -2096    -2272    -2498    -2731 
   -2924    -3025    -3021    -2974    -2899    -2768    -2616    -2540 
   -2554    -2555    -2506    -2442    -2317    -2135    -1984    -1887 
   -1841    -1880    -1998    -2150    -2354    -2624    -2893    -3084 
   -3199    -3277    -3358    -3446    -3497    -3499    -3489    -3491 
   -3488    -3431    -3345    -3337    -3437    -3593    -3713    -3667 
   -3457    -3217    -3018    -2894    -2917    -3099    -3373    -3643 
   -3827    -3865    -3707    -3387    -3017    -2647    -2307    -2089 
   -2049    -2155    -2369    -2659    -2891    -2898    -2741    -2586 
   -2442    -2319    -2332    -2523    -2808    -3075    -3280    -3412 
   -3451    -3470    -3580    -3743    -3844    -3846    -3754    -3559 
   -3272    -2975    -2767    -2685    -2716    -2806    -2884    -2921 
   -2994    -3202    -3483    -3694    -3798    -3813    -3755    -3708 
   -3742    -3846    -3973    -4083    -4135    -4077    -3890    -3608 
   -3326    -3117    -2988    -2947    -2967    -3001    -3018    -2948 
   -2745    -2527    -2420    -2401    -2380    -2365    -2378    -2344 
   -2247    -2185    -2208    -2266    -2304    -2355    -2492    -2721 
   -3014    -3295    -3438    -3430    -3369    -3310    -3321    -3437 
   -3574    -3659    -3662    -3516    -3230    -2925    -2651    -2386 
