Origin Time       2026/01/15 07:13:00
Lat.              42.7
Long.             145.4
Depth. (km)       30
Mag.              5.7
Station Code      HKD096
Station Lat.      42.6977
Station Long.     143.1357
Station Height(m) 192
Record Time       2026/01/15 07:14:08
Sampling Freq(Hz) 100Hz
Duration Time(s)  60
Dir.              N-S
Scale Factor      7845(gal)/8223790
Max. Acc. (gal)   3.287
Last Correction   2026/01/15 07:14:09
Memo.             
[...]
  -16961   -17077   -17188   -17230   -17226   -17200   -17147   -17085 
  -17062   -17104   -17177   -17188   -17088   -16977   -16973   -17059 
  -17161   -17228   -17224   -17122   -16980   -16908   -16953   -17065 
  -17136   -17101   -17032   -16997   -16981   -16995   -17065   -17150 
  -17190   -17170   -17122   -17143   -17258   -17355   -17358   -17297 
  -17238   -17204   -17181   -17146   -17101   -17077   -17062   -17046 
  -17061   -17084   -17068   -17046   -17069   -17116   -17145   -17131 
  -17093   -17096   -17140   -17143   -17072   -16996   -16999   -17076 
  -17139   -17142   -17143   -17173   -17194   -17208   -17205   -17135 
  -17054   -17069   -17182   -17305   -17329   -17226   -17104   -17058 
  -17059   -17085   -17138   -17176   -17169   -17139   -17099   -17096 
  -17161   -17223   -17199   -17138   -17136   -17174   -17196   -17166 
  -17097   -17073   -17126   -17193   -17215   -17177   -17122   -17131 
  -17200   -17273   -17312   -17286   -17234   -17231   -17263   -17262 
  -17226   -17120   -16929   -16787   -16834   -16988   -17076   -17059 
  -17039   -17080   -17132   -17140   -17120   -17123   -17159   -17178 
  -17177   -17194   -17216   -17151   -16980   -16841   -16873   -17030 
  -17139   -17108   -16987   -16900   -16943   -17101   -17250   -17277 
  -17197   -17126   -17122   -17147   -17173   -17188   -17142   -17024 
  -16929   -16953   -17095   -17226   -17238   -17163   -17130   -17151 
  -17165   -17196   -17262   -17265   -17146   -17020   -16977   -16987 
  -17030   -17077   -17066   -17024   -17023   -17051   -17101   -17204 
  -17309   -17325   -17254   -17173   -17132   -17118   -17081   -17001 
  -16931   -16969   -17108   -17224   -17228   -17180   -17166   -17178 
  -17194   -17236   -17312   -17367   -17327   -17215   -17153   -17161 
  -17135   -17074   -17073   -17131   -17185   -17217   -17242   -17267 
  -17278   -17255   -17220   -17139   -17008   -16965   -17072   -17190 
  -17244   -17271   -17236   -17130   -17065   -17112   -17224   -17315 
  -17292   -17161   -17050   -17038   -17069   -17058   -17019   -17001 
  -16997   -16985   -17001   -17053   -17078   -17061   -17037   -17016 
  -16985   -16954   -16945   -16989   -17065   -17064   -17010   -17028 
  -17084   -17080   -17097   -17203   -17319   -17378   -17374   -17321 
  -17258   -17207   -17169   -17163   -17162   -17101   -16997   -16919 
  -16877   -16856   -16887   -17016   -17185   -17266   -17234   -17212 
  -17275   -17320   -17285   -17254   -17244   -17182   -17077   -17007 
  -16997   -17030   -17086   -17127   -17145   -17166   -17170   -17145 
  -17176   -17298   -17381   -17304   -17143   -17046   -16999   -16933 
  -16885   -16893   -16922   -16947   -16989   -17038   -17062   -17064 
  -17046   -17059   -17173   -17316   -17313   -17167   -17076   -17124 
  -17182   -17169   -17170   -17228   -17296   -17373   -17458   -17490 
  -17479   -17462   -17429   -17373   -17305   -17211   -17077   -16983 
  -16995   -17039   -17054   -17088   -17150   -17223   -17328   -17421 
  -17404   -17288   -17149   -17027   -16942   -16923   -16966   -17026 
  -17076   -17095   -17051   -16978   -16960   -17031   -17154   -17248 
  -17262   -17207   -17119   -17037   -16983   -16977   -17007   -17016 
  -16974   -16903   -16850   -16860   -16958   -17101   -17192   -17180 
  -17093   -16980   -16888   -16872   -16941   -17026   -17073   -17065 
  -17008   -16974   -17020   -17091   -17113   -17112   -17118   -17119 
  -17082   -17024   -17008   -17041   -17068   -17080   -17145   -17261 
  -17331   -17339   -17347   -17348   -17312   -17267   -17255   -17255 
  -17223   -17153   -17059   -16964   -16891   -16880   -16935   -16999 
  -17057   -17134   -17224   -17289   -17311   -17302   -17269   -17201 
  -17153   -17161   -17186   -17205   -17211   -17173   -17111   -17095 
  -17136   -17196   -17255   -17290   -17269   -17204   -17149   -17138 
  -17158   -17145   -17096   -17078   -17101   -17115   -17130   -17167 
  -17209   -17211   -17163   -17128   -17170   -17265   -17319   -17293 
  -17220   -17134   -17084   -17101   -17169   -17255   -17290   -17196 
  -17050   -16991   -17032   -17135   -17246   -17281   -17227   -17154 
  -17123   -17174   -17266   -17284   -17185   -17050   -16991   -17065 
  -17235   -17388   -17424   -17327   -17154   -17005   -16958   -17008 
  -17072   -17064   -16953   -16772   -16614   -16606   -16765   -16949 
  -17026   -17031   -17053   -17100   -17151   -17234   -17354   -17435 
  -17406   -17292   -17178   -17111   -17068   -17034   -17010   -16968 
  -16900   -16866   -16922   -17024   -17116   -17142   -17097   -17057 
  -17080   -17157   -17250   -17324   -17327   -17204   -17023   -16941 
  -16984   -17053   -17105   -17120   -17076   -17046   -17115   -17217 
  -17250   -17246   -17273   -17289   -17271   -17274   -17285   -17217 
  -17104   -17076   -17127   -17122   -17046   -17005   -17041   -17088 
  -17077   -17028   -17039   -17147   -17248   -17273   -17273   -17257 
  -17167   -17081   -17116   -17217   -17267   -17244   -17180   -17138 
  -17172   -17221   -17226   -17204   -17177   -17154   -17149   -17143 
  -17092   -16968   -16826   -16788   -16875   -16958   -16981   -17004 
  -17039   -17082   -17193   -17346   -17409   -17358   -17274   -17199 
  -17155   -17161   -17139   -17043   -16954   -16935   -16949   -16978 
  -17073   -17207   -17281   -17290   -17289   -17271   -17238   -17219 
  -17235   -17238   -17159   -17041   -16999   -17043   -17073   -17059 
  -17068   -17104   -17139   -17185   -17235   -17250   -17176   -17028 
  -16937   -16980   -17077   -17112   -17051   -16981   -16993   -17076 
  -17178   -17302   -17423   -17447   -17355   -17266   -17261   -17250 
  -17138   -16993   -16900   -16854   -16853   -16868   -16861   -16834 
  -16839   -16937   -17118   -17247   -17211   -17120   -17158   -17280 
  -17342   -17319   -17239   -17134   -17065   -17068   -17097   -17111 
  -17138   -17220   -17351   -17473   -17509   -17439   -17347   -17327 
  -17321   -17238   -17127   -17061   -16995   -16907   -16872   -16910 
  -16961   -16983   -16993   -17054   -17147   -17166   -17086   -17027 
  -17081   -17170   -17169   -17107   -17099   -17122   -17070   -16968 
  -16923   -16958   -17027   -17119   -17208   -17232   -17185   -17120 
  -17089   -17084   -17084   -17068   -17028   -17030   -17140   -17285 
  -17312   -17219   -17128   -17089   -17081   -17108   -17154   -17177 
  -17143   -17078   -17042   -17072   -17134   -17178   -17190   -17230 
  -17343   -17474   -17537   -17505   -17396   -17244   -17115   -17072 
  -17108   -17157   -17199   -17236   -17220   -17138   -17086   -17136 
  -17219   -17250   -17211   -17127   -17023   -16954   -16941   -16914 
  -16842   -16808   -16839   -16861   -16877   -16947   -17038   -17091 
  -17122   -17154   -17174   -17201   -17261   -17304   -17282   -17216 
  -17132   -17041   -16977   -16997   -17126   -17284   -17323   -17243 
  -17220   -17292   -17331   -17305   -17296   -17317   -17285   -17153 
  -17014   -16991   -17041   -17046   -17031   -17084   -17194   -17297 
  -17339   -17319   -17284   -17259   -17239   -17280   -17361   -17327 
  -17161   -17019   -16958   -16935   -16912   -16880   -16903   -16978 
  -16988   -16950   -17020   -17185   -17305   -17329   -17261   -17128 
  -17016   -16966   -16961   -16950   -16887   -16812   -16838   -16968 
  -17100   -17182   -17243   -17280   -17235   -17100   -16988   -16997 
  -17041   -17008   -16941   -16881   -16839   -16900   -17088   -17248 
  -17251   -17157   -17104   -17180   -17383   -17551   -17501   -17312 
  -17146   -17038   -17058   -17236   -17404   -17425   -17304   -17113 
  -17004   -17058   -17176   -17221   -17167   -17126   -17149   -17120 
  -17061   -17123   -17220   -17146   -16993   -17054   -17308   -17486 
  -17490   -17382   -17265   -17180   -17088   -17045   -17077   -17045 
  -16893   -16731   -16702   -16831   -16969   -17046   -17154   -17253 
  -17263   -17293   -17417   -17541   -17540   -17402   -17226   -17039 
  -16839   -16749   -16826   -16910   -16895   -16829   -16776   -16822 
  -17039   -17313   -17464   -17483   -17456   -17429   -17415   -17410 
  -17375   -17263   -17068   -16885   -16830   -16875   -16931   -16968 
  -16988   -17004   -17047   -17112   -17161   -17155   -17055   -16945 
  -16983   -17139   -17221   -17131   -16951   -16830   -16822   -16918 
  -17093   -17234   -17188   -16985   -16866   -16969   -17140   -17166 
  -17058   -16970   -16977   -17023   -17031   -17023   -17054   -17076 
  -17034   -16988   -17016   -17072   -17041   -16943   -16939   -17050 
  -17154   -17248   -17385   -17520   -17587   -17545   -17416   -17296 
  -17251   -17253   -17228   -17123   -16966   -16866   -16849   -16845 
  -16838   -16889   -17000   -17084   -17105   -17099   -17062   -16999 
  -16980   -17035   -17068   -16989   -16833   -16691   -16661   -16771 
  -16943   -17113   -17257   -17335   -17331   -17340   -17447   -17528 
  -17456   -17340   -17312   -17298   -17207   -17109   -17082   -17088 
  -17088   -17070   -17023   -17027   -17190   -17454   -17643   -17697 
  -17687   -17631   -17518   -17423   -17389   -17342   -17217   -17045 
  -16854   -16687   -16663   -16791   -16872   -16846   -16875   -17020 
  -17238   -17490   -17663   -17612   -17402   -17217   -17115   -17084 
  -17123   -17189   -17228   -17223   -17170   -17105   -17132   -17305 
  -17510   -17555   -17405   -17236   -17145   -17059   -16977   -16951 
  -16968   -17026   -17143   -17267   -17365   -17462   -17529   -17512 
  -17458   -17460   -17485   -17427   -17294   -17154   -17049   -17010 
  -17010   -16974   -16945   -17046   -17282   -17497   -17555   -17467 
  -17320   -17159   -17019   -16987   -17065   -17092   -16980   -16862 
  -16883   -17026   -17190   -17317   -17412   -17482   -17501   -17432 
  -17331   -17288   -17271   -17176   -16981   -16781   -16663   -16636 
  -16699   -16821   -16920   -16969   -16957   -16880   -16830   -16896 
  -17005   -17057   -17065   -17065   -17008   -16933   -16949   -16974 
  -16868   -16760   -16834   -17026   -17146   -17095   -16918   -16753 
  -16681   -16659   -16686   -16826   -16997   -17072   -17068   -17045 
  -17023   -16985   -16912   -16880   -16911   -16884   -16798   -16756 
  -16737   -16687   -16645   -16629   -16634   -16663   -16706   -16810 
  -16961   -17038   -16973   -16807   -16687   -16773   -16974   -17062 
  -17019   -16978   -17031   -17201   -17436   -17649   -17772   -17799 
  -17760   -17643   -17510   -17486   -17509   -17489   -17423   -17278 
  -17093   -16969   -16951   -17015   -17065   -17043   -16968   -16842 
  -16645   -16444   -16371   -16399   -16437   -16519   -16676   -16857 
  -17053   -17293   -17555   -17756   -17851   -17805   -17663   -17562 
  -17505   -17402   -17265   -17159   -17073   -16997   -17038   -17232 
  -17462   -17610   -17671   -17701   -17726   -17755   -17778   -17748 
  -17597   -17289   -16950   -16802   -16870   -17007   -17151   -17324 
  -17497   -17649   -17794   -17902   -17965   -17994   -17952   -17845 
  -17768   -17736   -17703   -17643   -17501   -17329   -17280   -17334 
  -17378   -17429   -17521   -17577   -17550   -17455   -17293   -17078 
  -16854   -16656   -16560   -16573   -16536   -16409   -16364   -16470 
  -16579   -16515   -16340   -16321   -16560   -16920   -17221   -17317 
  -17243   -17213   -17350   -17577   -17809   -18038   -18191   -18130 
  -17840   -17520   -17352   -17292   -17178   -16946   -16687   -16538 
  -16506   -16494   -16497   -16613   -16779   -16819   -16812   -16911 
  -16980   -16891   -16772   -16717   -16744   -16900   -17162   -17462 
  -17825   -18246   -18630   -18966   -19322   -19639   -19766   -19707 
  -19546   -19252   -18875   -18589   -18369   -18026   -17489   -16879 
  -16363   -16087   -16060   -16093   -16054   -15965   -15851   -15792 
  -15904   -16113   -16252   -16271   -16198   -16086   -16005   -15952 
  -15867   -15704   -15484   -15311   -15300   -15438   -15624   -15813 
  -15975   -16058   -16097   -16185   -16310   -16403   -16521   -16779 
  -17081   -17226   -17200   -17112   -16974   -16772   -16619   -16625 
  -16715   -16761   -16745   -16707   -16642   -16544   -16503   -16569 
  -16609   -16521   -16368   -16220   -16097   -16006   -15957   -15969 
  -16016   -16033   -16004   -15994   -16043   -16120   -16276   -16578 
  -16983   -17405   -17751   -17960   -18073   -18108   -18042   -17914 
  -17783   -17648   -17462   -17212   -16972   -16794   -16605   -16343 
  -16139   -16120   -16236   -16441   -16719   -16972   -17120   -17240 
  -17486   -17898   -18392   -18847   -19160   -19344   -19462   -19523 
  -19606   -19811   -19992   -19935   -19668   -19429   -19379   -19423 
  -19353   -19122   -18887   -18759   -18732   -18760   -18756   -18698 
  -18597   -18430   -18266   -18152   -17986   -17693   -17336   -17072 
  -16904   -16734   -16591   -16483   -16322   -16098   -15913   -15888 
  -16013   -16218   -16451   -16668   -16883   -17088   -17289   -17540 
  -17786   -18009   -18262   -18492   -18666   -18823   -18991   -19132 
  -19138   -19059   -19040   -19057   -18982   -18740   -18405   -18111 
  -17909   -17760   -17543   -17201   -16834   -16542   -16399   -16337 
  -16190   -15925   -15589   -15283   -15148   -15176   -15263   -15287 
  -15229   -15246   -15336   -15363   -15368   -15449   -15646   -15877 
  -15981   -15923   -15739   -15407   -14913   -14334   -13884   -13693 
  -13684   -13799   -14037   -14373   -14756   -15117   -15444   -15805 
  -16241   -16726   -17128   -17320   -17328   -17257   -17115   -16910 
  -16741   -16619   -16468   -16289   -16096   -15904   -15819   -15893 
  -16050   -16193   -16244   -16239   -16308   -16451   -16588   -16765 
  -17073   -17500   -17988   -18481   -18854   -19040   -19068   -18974 
  -18819   -18636   -18407   -18121   -17788   -17439   -17127   -16977 
  -17046   -17184   -17289   -17432   -17628   -17743   -17670   -17517 
  -17409   -17217   -16970   -16962   -17150   -17311   -17420   -17456 
  -17428   -17383   -17366   -17531   -17913   -18260   -18368   -18292 
  -18269   -18366   -18418   -18459   -18678   -19053   -19406   -19666 
  -19858   -19942   -19909   -19863   -19832   -19758   -19653   -19570 
  -19537   -19527   -19491   -19329   -18995   -18624   -18364   -18226 
  -18172   -18119   -18030   -17895   -17579   -17104   -16730   -16569 
  -16600   -16742   -16866   -16876   -16707   -16463   -16309   -16179 
  -15944   -15622   -15337   -15195   -15126   -14994   -14813   -14770 
  -14991   -15369   -15723   -15979   -16243   -16607   -16900   -16980 
  -16949   -16906   -16920   -16987   -16949   -16771   -16565   -16355 
  -16148   -15970   -15828   -15755   -15808   -15947   -16039   -16050 
  -16100   -16276   -16534   -16735   -16789   -16723   -16594   -16452 
  -16482   -16808   -17220   -17474   -17501   -17265   -16849   -16445 
  -16200   -16112   -16087   -16117   -16181   -16208   -16213   -16251 
  -16364   -16580   -16849   -17015   -17003   -16920   -16856   -16789 
  -16731   -16727   -16738   -16688   -16568   -16424   -16399   -16617 
  -16930   -17080   -17020   -16914   -16893   -17016   -17247   -17344 
  -17169   -16966   -16978   -17153   -17410   -17739   -18081   -18372 
  -18592   -18744   -18809   -18767   -18630   -18423   -18148   -17882 
  -17747   -17695   -17578   -17356   -17116   -16985   -17034   -17262 
  -17632   -18018   -18220   -18175   -18010   -17809   -17644   -17602 
  -17628   -17679   -17714   -17663   -17591   -17545   -17478   -17447 
  -17540   -17720   -17855   -17890   -17878   -17863   -17828   -17691 
  -17442   -17220   -17095   -16991   -16914   -16918   -16993   -17122 
  -17267   -17370   -17455   -17545   -17554   -17456   -17342   -17211 
  -17038   -16919   -16911   -16989   -17031   -16918   -16807   -16860 
  -17050   -17311   -17485   -17523   -17629   -17914   -18237   -18409 
  -18389   -18226   -17968   -17693   -17466   -17350   -17348   -17393 
  -17456   -17493   -17473   -17425   -17308   -17124   -16992   -16854 
  -16545   -16128   -15816   -15662   -15587   -15523   -15419   -15294 
  -15265   -15438   -15765   -16083   -16321   -16456   -16407   -16252 
  -16190   -16217   -16217   -16168   -16028   -15803   -15662   -15692 
  -15809   -16006   -16295   -16542   -16677   -16792   -16872   -16810 
  -16744   -16891   -17107   -17124   -16943   -16663   -16402   -16359 
  -16586   -16933   -17253   -17413   -17334   -17177   -17196   -17393 
  -17563   -17628   -17605   -17447   -17223   -17127   -17155   -17193 
  -17232   -17265   -17235   -17192   -17239   -17336   -17409   -17460 
  -17440   -17307   -17186   -17199   -17288   -17311   -17178   -16954 
  -16815   -16866   -17073   -17284   -17406   -17491   -17531   -17469 
  -17451   -17589   -17740   -17821   -17905   -18003   -18085   -18165 
  -18246   -18346   -18490   -18577   -18546   -18557   -18696   -18828 
  -18835   -18777   -18721   -18566   -18311   -18123   -18010   -17907 
  -17860   -17836   -17737   -17572   -17389   -17199   -17042   -16923 
  -16733   -16475   -16353   -16422   -16491   -16486   -16519   -16636 
  -16764   -16887   -17010   -17124   -17238   -17280   -17204   -17158 
  -17207   -17192   -17049   -16931   -16919   -16915   -16857   -16833 
  -16951   -17170   -17315   -17335   -17358   -17442   -17450   -17316 
  -17204   -17238   -17254   -17057   -16746   -16586   -16613   -16661 
  -16676   -16711   -16741   -16684   -16536   -16429   -16440   -16422 
  -16233   -16000   -15917   -15935   -15900   -15858   -15925   -16046 
  -16105   -16143   -16244   -16337   -16329   -16262   -16236   -16294 
  -16376   -16370   -16266   -16181   -16181   -16225   -16330   -16530 
  -16707   -16762   -16808   -16976   -17163   -17219   -17170   -17169 
  -17284   -17425   -17489   -17463   -17406   -17335   -17226   -17130 
  -17103   -17062   -16896   -16676   -16537   -16471   -16421   -16432 
  -16502   -16534   -16474   -16347   -16209   -16123   -16137   -16283 
  -16564   -16950   -17371   -17720   -17895   -17890   -17841   -17907 
  -18127   -18449   -18713   -18771   -18690   -18623   -18590   -18607 
  -18696   -18797   -18844   -18798   -18642   -18432   -18252   -18149 
  -18119   -18108   -18079   -18013   -17863   -17701   -17686   -17786 
  -17806   -17714   -17637   -17656   -17737   -17778   -17695   -17513 
  -17321   -17176   -17082   -17053   -17122   -17296   -17491   -17653 
  -17813   -17941   -17967   -17923   -17890   -17899   -17949   -17972 
  -17896   -17774   -17703   -17705   -17709   -17645   -17504   -17336 
  -17217   -17167   -17153   -17130   -17003   -16703   -16329   -16069 
  -15994   -16017   -16011   -15931   -15844   -15862   -15998   -16167 
  -16357   -16627   -16903   -17054   -17069   -17030   -17005   -17023 
  -17042   -16993   -16879   -16750   -16618   -16474   -16386   -16402 
  -16425   -16351   -16283   -16395   -16652   -16888   -17019   -17051 
  -17038   -17019   -16964   -16843   -16727   -16652   -16534   -16356 
  -16233   -16213   -16205   -16141   -16071   -16069   -16120   -16181 
  -16244   -16293   -16285   -16208   -16110   -16070   -16129   -16262 
  -16425   -16611   -16795   -16907   -16924   -16893   -16833   -16727 
  -16609   -16532   -16517   -16571   -16630   -16614   -16578   -16653 
