Origin Time       2026/01/15 07:13:00
Lat.              42.7
Long.             145.4
Depth. (km)       30
Mag.              5.7
Station Code      HKD098
Station Lat.      42.4985
Station Long.     143.2790
Station Height(m) 81
Record Time       2026/01/15 07:14:08
Sampling Freq(Hz) 100Hz
Duration Time(s)  81
Dir.              U-D
Scale Factor      7845(gal)/8223790
Max. Acc. (gal)   2.282
Last Correction   2026/01/15 07:14:08
Memo.             
[...]
  -14640   -14785   -14968   -15037   -15010   -14987   -14997   -14990 
  -14948   -14917   -14918   -14929   -14932   -14932   -14929   -14906 
  -14860   -14827   -14824   -14829   -14806   -14735   -14662   -14648 
  -14651   -14620   -14558   -14459   -14359   -14337   -14385   -14458 
  -14554   -14638   -14673   -14715   -14797   -14867   -14899   -14962 
  -15074   -15161   -15201   -15217   -15198   -15153   -15107   -15039 
  -14966   -14951   -14993   -15059   -15106   -15122   -15144   -15164 
  -15175   -15184   -15145   -15105   -15184   -15288   -15250   -15149 
  -15097   -15088   -15138   -15259   -15395   -15461   -15407   -15282 
  -15169   -15074   -14971   -14839   -14678   -14547   -14497   -14527 
  -14592   -14647   -14686   -14721   -14754   -14781   -14775   -14742 
  -14759   -14848   -14928   -14970   -15030   -15094   -15084   -15021 
  -15001   -15043   -15045   -14951   -14860   -14855   -14855   -14810 
  -14804   -14839   -14833   -14797   -14793   -14814   -14831   -14843 
  -14893   -14990   -15102   -15183   -15232   -15275   -15307   -15275 
  -15207   -15199   -15228   -15219   -15214   -15194   -15102   -15048 
  -15109   -15179   -15194   -15203   -15226   -15223   -15202   -15187 
  -15129   -15026   -14978   -14970   -14917   -14866   -14895   -14955 
  -14963   -14931   -14886   -14801   -14705   -14728   -14859   -14958 
  -14995   -14999   -14987   -14989   -14986   -15001   -15041   -15018 
  -14975   -15013   -15049   -15059   -15125   -15184   -15164   -15136 
  -15132   -15118   -15090   -15056   -15025   -14978   -14879   -14752 
  -14678   -14670   -14670   -14673   -14716   -14763   -14771   -14796 
  -14891   -15033   -15180   -15314   -15421   -15492   -15515   -15452 
  -15361   -15326   -15271   -15171   -15088   -14964   -14810   -14733 
  -14694   -14643   -14639   -14702   -14778   -14798   -14759   -14751 
  -14820   -14898   -14916   -14894   -14871   -14821   -14735   -14675 
  -14678   -14693   -14688   -14675   -14639   -14601   -14609   -14612 
  -14557   -14511   -14524   -14542   -14520   -14500   -14482   -14455 
  -14459   -14530   -14635   -14754   -14890   -15028   -15155   -15269 
  -15348   -15406   -15475   -15496   -15425   -15318   -15245   -15174 
  -15076   -14993   -14952   -14943   -14964   -15001   -15026   -15034 
  -15007   -14971   -15021   -15137   -15199   -15218   -15276   -15314 
  -15255   -15134   -14978   -14758   -14574   -14559   -14651   -14716 
  -14763   -14809   -14817   -14817   -14808   -14748   -14643   -14493 
  -14359   -14339   -14366   -14373   -14427   -14503   -14536   -14562 
  -14635   -14763   -14875   -14909   -14909   -14898   -14856   -14827 
  -14801   -14728   -14663   -14658   -14688   -14721   -14697   -14600 
  -14494   -14465   -14550   -14661   -14693   -14685   -14673   -14646 
  -14682   -14800   -14909   -15020   -15151   -15230   -15277   -15363 
  -15483   -15583   -15588   -15518   -15485   -15500   -15502   -15466 
  -15406   -15375   -15368   -15304   -15215   -15210   -15268   -15298 
  -15291   -15275   -15242   -15203   -15165   -15128   -15113   -15129 
  -15174   -15244   -15333   -15431   -15510   -15542   -15533   -15472 
  -15363   -15253   -15144   -15020   -14928   -14885   -14891   -14928 
  -14928   -14924   -14974   -15053   -15148   -15236   -15269   -15230 
  -15122   -15022   -15003   -15025   -15039   -15043   -15029   -14972 
  -14858   -14736   -14679   -14669   -14644   -14596   -14551   -14577 
  -14683   -14794   -14881   -14975   -15043   -15037   -14995   -14960 
  -14914   -14854   -14801   -14796   -14878   -15001   -15060   -15018 
  -14921   -14868   -14922   -14995   -14986   -14982   -15052   -15106 
  -15076   -14974   -14871   -14827   -14798   -14732   -14659   -14624 
  -14673   -14800   -14921   -15002   -15063   -15088   -15016   -14852 
  -14685   -14542   -14404   -14310   -14291   -14324   -14376   -14432 
  -14520   -14661   -14832   -15014   -15167   -15238   -15279   -15329 
  -15350   -15342   -15337   -15314   -15214   -15060   -14947   -14905 
  -14902   -14914   -14955   -15034   -15140   -15277   -15445   -15599 
  -15703   -15724   -15665   -15541   -15350   -15148   -14985   -14833 
  -14688   -14592   -14548   -14494   -14362   -14183   -14050   -13988 
  -13957   -13968   -14044   -14106   -14123   -14172   -14200   -14148 
  -14114   -14158   -14246   -14349   -14454   -14547   -14621   -14728 
  -14904   -15087   -15195   -15230   -15287   -15412   -15558   -15723 
  -15913   -16073   -16141   -16112   -16052   -16046   -16077   -16081 
  -16027   -15884   -15696   -15557   -15457   -15286   -14999   -14704 
  -14520   -14423   -14369   -14396   -14493   -14616   -14767   -14910 
  -14991   -15022   -14962   -14796   -14652   -14616   -14685   -14802 
  -14864   -14872   -14870   -14851   -14859   -14871   -14836   -14824 
  -14864   -14931   -15036   -15141   -15219   -15315   -15421   -15488 
  -15542   -15574   -15499   -15369   -15311   -15294   -15240   -15152 
  -15080   -15060   -15045   -15001   -14940   -14852   -14762   -14709 
  -14671   -14655   -14706   -14809   -14926   -15059   -15179   -15253 
  -15310   -15390   -15460   -15464   -15396   -15333   -15304   -15298 
  -15318   -15321   -15225   -15070   -14925   -14755   -14526   -14318 
  -14208   -14195   -14220   -14211   -14152   -14106   -14114   -14157 
  -14219   -14295   -14341   -14368   -14435   -14512   -14530   -14550 
  -14625   -14685   -14688   -14679   -14698   -14736   -14767   -14791 
  -14860   -14971   -15053   -15107   -15168   -15210   -15223   -15205 
  -15144   -15079   -14990   -14863   -14781   -14755   -14725   -14654 
  -14531   -14419   -14403   -14432   -14408   -14301   -14176   -14102 
  -14049   -13948   -13840   -13817   -13900   -14025   -14127   -14195 
  -14233   -14276   -14403   -14602   -14806   -15057   -15410   -15770 
  -16033   -16245   -16440   -16528   -16491   -16424   -16322   -16139 
  -15967   -15855   -15701   -15485   -15276   -15078   -14891   -14747 
  -14615   -14449   -14301   -14253   -14287   -14342   -14380   -14366 
  -14300   -14283   -14384   -14501   -14536   -14571   -14682   -14814 
  -14929   -15036   -15125   -15196   -15265   -15321   -15337   -15327 
  -15342   -15371   -15336   -15207   -15048   -14941   -14882   -14828 
  -14831   -14947   -15121   -15272   -15415   -15580   -15707   -15732 
  -15670   -15585   -15502   -15380   -15207   -15001   -14782   -14588 
  -14451   -14401   -14467   -14625   -14816   -14998   -15175   -15334 
  -15442   -15519   -15596   -15660   -15720   -15797   -15840   -15805 
  -15766   -15784   -15770   -15680   -15588   -15512   -15403   -15260 
  -15140   -15078   -15044   -15021   -15044   -15109   -15203   -15306 
  -15373   -15407   -15410   -15372   -15317   -15237   -15095   -14926 
  -14794   -14696   -14570   -14427   -14338   -14273   -14181   -14087 
  -14014   -13961   -13950   -13980   -14037   -14091   -14112   -14131 
  -14138   -14079   -14026   -14075   -14180   -14291   -14419   -14543 
  -14634   -14716   -14809   -14929   -15063   -15175   -15295   -15454 
  -15606   -15688   -15678   -15611   -15545   -15489   -15421   -15337 
  -15277   -15286   -15344   -15392   -15384   -15310   -15160   -14945 
  -14736   -14550   -14337   -14103   -13921   -13801   -13714   -13691 
  -13747   -13842   -13976   -14122   -14202   -14218   -14247   -14323 
  -14458   -14656   -14893   -15122   -15338   -15549   -15747   -15921 
  -16070   -16154   -16162   -16135   -16077   -15985   -15885   -15734 
  -15465   -15133   -14847   -14628   -14430   -14269   -14243   -14376 
  -14540   -14643   -14729   -14805   -14778   -14656   -14550   -14490 
  -14420   -14318   -14266   -14307   -14361   -14382   -14428   -14532 
  -14667   -14816   -14980   -15134   -15250   -15353   -15446   -15514 
  -15542   -15533   -15557   -15657   -15739   -15735   -15701   -15672 
  -15615   -15542   -15506   -15510   -15506   -15454   -15377   -15322 
  -15309   -15319   -15323   -15299   -15250   -15192   -15106   -14983 
  -14918   -14963   -15037   -15137   -15304   -15433   -15466   -15499 
  -15522   -15448   -15309   -15155   -15010   -14891   -14783   -14683 
  -14601   -14497   -14328   -14150   -14064   -14080   -14127   -14135 
  -14116   -14154   -14284   -14439   -14584   -14740   -14867   -14895 
  -14812   -14670   -14566   -14512   -14438   -14339   -14257   -14199 
  -14196   -14285   -14423   -14550   -14671   -14805   -14901   -14940 
  -14953   -14947   -14917   -14850   -14748   -14688   -14697   -14706 
  -14690   -14721   -14852   -15012   -15091   -15083   -15063   -15045 
  -15024   -15028   -15044   -15048   -15063   -15091   -15109   -15120 
  -15153   -15225   -15303   -15338   -15340   -15357   -15377   -15380 
  -15412   -15500   -15588   -15664   -15763   -15854   -15878   -15847 
  -15795   -15741   -15685   -15600   -15450   -15271   -15137   -15044 
  -14926   -14750   -14543   -14349   -14183   -14064   -14030   -14100 
  -14229   -14354   -14493   -14679   -14871   -15032   -15198   -15388 
  -15549   -15654   -15743   -15840   -15894   -15871   -15790   -15658 
  -15519   -15433   -15364   -15267   -15159   -15060   -14997   -14987 
  -15009   -15053   -15124   -15176   -15176   -15133   -15055   -14943 
  -14824   -14706   -14575   -14463   -14440   -14503   -14571   -14600 
  -14611   -14650   -14751   -14877   -14972   -15030   -15041   -14986 
  -14870   -14758   -14705   -14665   -14589   -14507   -14453   -14423 
  -14411   -14419   -14457   -14535   -14666   -14823   -14945   -15043 
  -15176   -15331   -15434   -15472   -15471   -15468   -15481   -15465 
  -15391   -15276   -15126   -14958   -14800   -14648   -14503   -14377 
  -14276   -14218   -14214   -14241   -14277   -14328   -14397   -14445 
  -14436   -14422   -14431   -14463   -14523   -14573   -14589   -14605 
  -14632   -14651   -14661   -14694   -14758   -14800   -14808   -14840 
  -14920   -14993   -15025   -15071   -15142   -15145   -15075   -15012 
  -14955   -14913   -14913   -14893   -14810   -14702   -14597   -14543 
  -14557   -14582   -14608   -14659   -14723   -14781   -14801   -14766 
  -14744   -14779   -14781   -14716   -14658   -14642   -14651   -14670 
  -14700   -14760   -14852   -14968   -15115   -15273   -15426   -15564 
  -15700   -15836   -15890   -15834   -15757   -15687   -15583   -15445 
  -15300   -15156   -15009   -14859   -14729   -14632   -14559   -14478 
  -14385   -14335   -14337   -14311   -14264   -14264   -14303   -14346 
  -14408   -14482   -14561   -14675   -14813   -14932   -15055   -15203 
  -15327   -15384   -15387   -15365   -15344   -15326   -15306   -15272 
  -15240   -15230   -15246   -15272   -15255   -15187   -15151   -15171 
  -15174   -15148   -15118   -15055   -14945   -14816   -14686   -14580 
  -14509   -14490   -14539   -14624   -14688   -14685   -14612   -14540 
  -14551   -14617   -14669   -14746   -14917   -15115   -15277   -15465 
  -15684   -15876   -16054   -16201   -16259   -16205   -16052   -15850 
  -15650   -15483   -15363   -15268   -15205   -15198   -15232   -15306 
  -15422   -15503   -15512   -15510   -15526   -15547   -15520   -15421 
  -15323   -15246   -15126   -15006   -14962   -14983   -15007   -14986 
  -14955   -14962   -14991   -15003   -14982   -14931   -14897   -14920 
  -14967   -14993   -14997   -14980   -14940   -14908   -14921   -14949 
  -14931   -14858   -14777   -14719   -14670   -14600   -14505   -14401 
  -14308   -14253   -14257   -14319   -14430   -14553   -14681   -14833 
  -14943   -14964   -14958   -14939   -14866   -14774   -14697   -14661 
  -14677   -14666   -14596   -14536   -14485   -14418   -14395   -14420 
  -14428   -14418   -14407   -14385   -14343   -14314   -14323   -14337 
  -14326   -14346   -14439   -14558   -14632   -14654   -14659   -14650 
  -14609   -14561   -14540   -14513   -14439   -14382   -14393   -14409 
  -14392   -14403   -14499   -14654   -14817   -14976   -15132   -15255 
  -15318   -15334   -15352   -15411   -15511   -15616   -15700   -15780 
  -15855   -15927   -16002   -16050   -16038   -15998   -15942   -15858 
  -15788   -15745   -15701   -15660   -15623   -15596   -15592   -15603 
  -15597   -15569   -15498   -15385   -15257   -15118   -14999   -14941 
  -14897   -14827   -14756   -14693   -14648   -14636   -14613   -14566 
  -14521   -14507   -14526   -14554   -14577   -14611   -14682   -14796 
  -14909   -14985   -15009   -14971   -14875   -14752   -14634   -14515 
  -14369   -14202   -14058   -13961   -13888   -13830   -13834   -13890 
  -13918   -13917   -13921   -13959   -14075   -14264   -14458   -14632 
  -14812   -15010   -15218   -15406   -15545   -15666   -15770   -15799 
  -15777   -15781   -15784   -15762   -15738   -15696   -15634   -15569 
  -15498   -15410   -15315   -15240   -15215   -15250   -15295   -15299 
  -15275   -15276   -15323   -15400   -15493   -15612   -15712   -15742 
  -15705   -15626   -15527   -15430   -15300   -15110   -14886   -14696 
  -14563   -14446   -14326   -14223   -14162   -14189   -14296   -14426 
  -14571   -14742   -14913   -15057   -15151   -15206   -15252   -15265 
  -15236   -15184   -15138   -15118   -15125   -15152   -15165   -15144 
  -15133   -15164   -15206   -15240   -15272   -15296   -15290   -15248 
  -15210   -15207   -15253   -15311   -15322   -15279   -15240   -15213 
  -15148   -15053   -14987   -14960   -14953   -14979   -15043   -15088 
  -15076   -14993   -14843   -14659   -14472   -14250   -13953   -13625 
  -13339   -13103   -12872   -12669   -12563   -12552   -12588   -12669 
  -12787   -12906   -13039   -13220   -13451   -13697   -13926   -14160 
  -14430   -14732   -15053   -15357   -15608   -15835   -16056   -16208 
  -16271   -16320   -16362   -16335   -16254   -16195   -16163   -16116 
  -16052   -15993   -15935   -15853   -15732   -15619   -15566   -15535 
  -15471   -15402   -15369   -15365   -15361   -15340   -15317   -15326 
  -15349   -15365   -15360   -15292   -15187   -15110   -15049   -14985 
  -14962   -14983   -15009   -15039   -15083   -15132   -15137   -15103 
  -15075   -15018   -14893   -14775   -14706   -14632   -14548   -14511 
  -14530   -14539   -14523   -14554   -14661   -14809   -14975   -15130 
  -15233   -15294   -15348   -15385   -15403   -15415   -15425   -15434 
  -15425   -15375   -15303   -15229   -15151   -15061   -14937   -14805 
  -14723   -14663   -14580   -14503   -14461   -14427   -14413   -14439 
  -14466   -14485   -14528   -14561   -14559   -14559   -14561   -14535 
  -14494   -14470   -14484   -14534   -14596   -14651   -14701   -14766 
  -14866   -14970   -15048   -15114   -15147   -15130   -15099   -15093 
  -15124   -15198   -15290   -15367   -15412   -15450   -15516   -15612 
  -15695   -15749   -15781   -15774   -15700   -15581   -15484   -15384 
  -15236   -15101   -15014   -14928   -14820   -14667   -14484   -14337 
  -14227   -14153   -14133   -14130   -14130   -14183   -14272   -14359 
  -14450   -14532   -14640   -14793   -14913   -14997   -15072   -15101 
  -15118   -15178   -15199   -15155   -15114   -15084   -15047   -15044 
  -15061   -15032   -14936   -14800   -14662   -14532   -14391   -14247 
  -14134   -14023   -13898   -13797   -13743   -13709   -13718   -13780 
  -13845   -13909   -14008   -14129   -14246   -14332   -14373   -14432 
  -14519   -14567   -14589   -14609   -14627   -14685   -14779   -14867 
  -14991   -15144   -15241   -15323   -15454   -15603   -15763   -15931 
  -16060   -16143   -16185   -16175   -16125   -16052   -15950   -15830 
  -15709   -15581   -15448   -15306   -15147   -15006   -14908   -14805 
  -14706   -14656   -14613   -14550   -14512   -14496   -14481   -14467 
  -14419   -14327   -14276   -14299   -14376   -14501   -14647   -14779 
  -14910   -15055   -15215   -15421   -15647   -15839   -16000   -16158 
  -16312   -16463   -16603   -16706   -16806   -16922   -16972   -16935 
  -16872   -16779   -16652   -16514   -16364   -16228   -16124   -16005 
  -15847   -15681   -15493   -15275   -15045   -14777   -14485   -14238 
  -14041   -13869   -13744   -13663   -13568   -13455   -13350   -13228 
  -13112   -13035   -13003   -13059   -13219   -13420   -13620   -13810 
  -13959   -14095   -14265   -14408   -14488   -14571   -14666   -14748 
  -14863   -15001   -15115   -15222   -15299   -15340   -15419   -15514 
  -15545   -15553   -15557   -15520   -15488   -15498   -15487   -15434 
  -15391   -15367   -15356   -15369   -15369   -15344   -15338   -15326 
  -15286   -15248   -15213   -15180   -15149   -15091   -15026   -14989 
  -14953   -14905   -14850   -14783   -14724   -14698   -14682   -14658 
  -14650   -14661   -14669   -14674   -14693   -14713   -14731   -14769 
  -14802   -14800   -14787   -14763   -14709   -14683   -14690   -14682 
  -14696   -14747   -14793   -14878   -14991   -15064   -15141   -15230 
  -15248   -15222   -15202   -15152   -15097   -15075   -15020   -14929 
  -14875   -14818   -14731   -14688   -14671   -14642   -14642   -14656 
  -14654   -14665   -14651   -14600   -14580   -14558   -14478   -14413 
  -14412   -14434   -14465   -14523   -14575   -14621   -14702   -14790 
  -14859   -14955   -15068   -15157   -15273   -15410   -15484   -15525 
  -15570   -15564   -15519   -15484   -15398   -15263   -15157   -15034 
  -14847   -14665   -14496   -14303   -14157   -14098   -14049   -14013 
  -14037   -14081   -14138   -14261   -14419   -14589   -14804   -14987 
  -15095   -15210   -15337   -15446   -15556   -15645   -15720   -15820 
  -15901   -15925   -15959   -16055   -16178   -16287   -16359   -16351 
  -16279   -16200   -16104   -15996   -15925   -15865   -15777   -15697 
  -15622   -15507   -15383   -15277   -15153   -15026   -14941   -14866 
  -14798   -14763   -14725   -14647   -14551   -14465   -14397   -14334 
  -14253   -14143   -14030   -13968   -13964   -13971   -13987   -14022 
  -14071   -14145   -14238   -14315   -14372   -14427   -14490   -14565 
  -14651   -14740   -14828   -14921   -15010   -15070   -15115   -15155 
  -15152   -15134   -15161   -15186   -15160   -15134   -15099   -15017 
  -14963   -14968   -14944   -14871   -14805   -14750   -14697   -14646 
  -14584   -14521   -14480   -14449   -14423   -14420   -14427   -14419 
  -14432   -14503   -14584   -14667   -14767   -14844   -14904   -14987 
  -15087   -15203   -15348   -15480   -15569   -15646   -15709   -15726 
  -15707   -15704   -15707   -15661   -15562   -15456   -15372   -15313 
  -15249   -15168   -15087   -15018   -14947   -14879   -14832   -14798 
  -14762   -14721   -14689   -14656   -14621   -14611   -14609   -14600 
  -14624   -14679   -14710   -14740   -14800   -14823   -14800   -14787 
  -14770   -14742   -14747   -14762   -14744   -14728   -14728   -14717 
  -14697   -14674   -14640   -14647   -14713   -14770   -14800   -14851 
  -14920   -14979   -15026   -15045   -15053   -15101   -15172   -15230 
  -15296   -15350   -15352   -15349   -15377   -15395   -15395   -15399 
  -15400   -15380   -15353   -15326   -15291   -15260   -15241   -15222 
  -15191   -15165   -15157   -15147   -15121   -15094   -15087   -15091 
  -15071   -15020   -14960   -14913   -14867   -14817   -14766   -14731 
  -14712   -14694   -14689   -14706   -14701   -14652   -14597   -14538 
  -14469   -14413   -14350   -14251   -14143   -14048   -13964   -13886 
  -13788   -13693   -13647   -13643   -13655   -13675   -13724   -13818 
