Origin Time       2026/01/15 07:13:00
Lat.              42.7
Long.             145.4
Depth. (km)       30
Mag.              5.7
Station Code      HKD060
Station Lat.      43.9136
Station Long.     144.6657
Station Height(m) 6
Record Time       2026/01/15 07:13:57
Sampling Freq(Hz) 100Hz
Duration Time(s)  63
Dir.              U-D
Scale Factor      7845(gal)/8223790
Max. Acc. (gal)   0.709
Last Correction   2026/01/15 07:13:57
Memo.             
  -20105   -20121   -20062   -20040   -20175   -20456   -20753   -20946 
  -20946   -20725   -20403   -20174   -20167   -20344   -20510   -20537 
  -20463   -20371   -20370   -20528   -20730   -20790   -20645   -20414 
  -20294   -20368   -20507   -20563   -20526   -20428   -20259   -20021 
  -19792   -19719   -19894   -20216   -20474   -20586   -20622   -20618 
  -20505   -20260   -19993   -19865   -19965   -20202   -20374   -20379 
  -20317   -20335   -20420   -20448   -20416   -20403   -20421   -20457 
  -20509   -20569   -20661   -20775   -20811   -20686   -20453   -20275 
  -20248   -20341   -20461   -20509   -20451   -20353   -20294   -20268 
  -20248   -20277   -20395   -20534   -20607   -20602   -20529   -20428 
  -20397   -20460   -20548   -20613   -20625   -20524   -20310   -20102 
  -19985   -19988   -20115   -20306   -20487   -20568   -20464   -20264 
  -20146   -20167   -20259   -20277   -20140   -20028   -20160   -20460 
  -20626   -20532   -20317   -20174   -20202   -20328   -20397   -20394 
  -20425   -20466   -20407   -20285   -20212   -20210   -20271   -20344 
  -20370   -20374   -20385   -20368   -20297   -20228   -20282   -20433 
  -20505   -20445   -20376   -20395   -20513   -20618   -20553   -20331 
  -20151   -20147   -20270   -20406   -20460   -20414   -20355   -20347 
  -20348   -20331   -20318   -20312   -20278   -20262   -20318   -20380 
  -20339   -20174   -19971   -19926   -20178   -20547   -20686   -20538 
  -20367   -20367   -20463   -20468   -20348   -20268   -20358   -20501 
  -20507   -20359   -20191   -20137   -20190   -20228   -20189   -20129 
  -20123   -20193   -20353   -20510   -20540   -20448   -20322   -20248 
  -20275   -20382   -20513   -20619   -20656   -20606   -20511   -20461 
  -20505   -20564   -20541   -20475   -20451   -20434   -20368   -20285 
  -20268   -20374   -20555   -20692   -20713   -20637   -20553   -20517 
  -20540   -20645   -20765   -20726   -20488   -20241   -20171   -20244 
  -20305   -20291   -20262   -20270   -20306   -20318   -20270   -20200 
  -20154   -20177   -20312   -20475   -20513   -20414   -20293   -20224 
  -20231   -20283   -20302   -20237   -20131   -20082   -20160   -20317 
  -20406   -20366   -20282   -20236   -20240   -20285   -20304   -20221 
  -20078   -19996   -20009   -20069   -20156   -20302   -20491   -20599 
  -20532   -20331   -20093   -19946   -20016   -20241   -20425   -20480 
  -20425   -20333   -20359   -20537   -20706   -20752   -20717   -20665 
  -20617   -20561   -20475   -20378   -20329   -20336   -20367   -20432 
  -20555   -20683   -20729   -20672   -20567   -20449   -20317   -20231 
  -20282   -20439   -20556   -20548   -20448   -20362   -20339   -20336 
  -20313   -20295   -20299   -20290   -20243   -20216   -20290   -20424 
  -20502   -20483   -20439   -20460   -20553   -20609   -20545   -20433 
  -20366   -20347   -20305   -20181   -20061   -20089   -20264   -20471 
  -20602   -20561   -20363   -20166   -20109   -20185   -20282   -20267 
  -20116   -19982   -20023   -20208   -20399   -20530   -20626   -20736 
  -20807   -20679   -20385   -20229   -20362   -20621   -20781   -20726 
  -20515   -20344   -20245   -20113   -20031   -20166   -20378   -20387 
  -20196   -20016   -19963   -19984   -19971   -19915   -19897   -19954 
  -20067   -20233   -20434   -20560   -20495   -20336   -20278   -20356 
  -20494   -20623   -20691   -20669   -20560   -20401   -20263   -20190 
  -20166   -20181   -20247   -20358   -20490   -20623   -20744   -20852 
  -20896   -20802   -20628   -20505   -20426   -20343   -20316   -20359 
  -20374   -20339   -20320   -20326   -20306   -20209   -20063   -20023 
  -20140   -20255   -20254   -20212   -20185   -20140   -20075   -20070 
  -20194   -20374   -20426   -20316   -20240   -20360   -20569   -20655 
  -20569   -20448   -20378   -20322   -20247   -20190   -20220   -20352 
  -20514   -20591   -20551   -20464   -20424   -20425   -20385   -20298 
  -20266   -20352   -20472   -20495   -20389   -20231   -20131   -20147 
  -20239   -20325   -20406   -20533   -20652   -20664   -20590   -20528 
  -20514   -20506   -20440   -20328   -20266   -20308   -20382   -20395 
  -20355   -20309   -20277   -20259   -20233   -20181   -20152   -20191 
  -20291   -20412   -20452   -20363   -20256   -20239   -20299   -20394 
  -20474   -20510   -20532   -20536   -20502   -20514   -20660   -20875 
  -21000   -20912   -20609   -20228   -19975   -19921   -19970   -20052 
  -20150   -20208   -20182   -20112   -20051   -20039   -20069   -20083 
  -20089   -20143   -20245   -20316   -20322   -20316   -20317   -20282 
  -20200   -20140   -20179   -20312   -20448   -20483   -20399   -20279 
  -20196   -20148   -20088   -19984   -19916   -19982   -20133   -20224 
  -20223   -20250   -20366   -20488   -20541   -20525   -20478   -20453 
  -20444   -20405   -20362   -20387   -20471   -20528   -20466   -20291 
  -20173   -20316   -20659   -20879   -20773   -20507   -20390   -20511 
  -20695   -20780   -20776   -20737   -20679   -20579   -20436   -20367 
  -20436   -20503   -20456   -20359   -20291   -20259   -20267   -20337 
  -20445   -20528   -20533   -20447   -20316   -20254   -20298   -20341 
  -20308   -20267   -20295   -20363   -20393   -20351   -20266   -20223 
  -20260   -20309   -20313   -20316   -20356   -20387   -20364   -20313 
  -20290   -20316   -20349   -20348   -20294   -20213   -20174   -20243 
  -20405   -20552   -20557   -20420   -20294   -20309   -20413   -20467 
  -20444   -20459   -20590   -20744   -20757   -20569   -20277   -20038 
  -19943   -19986   -20106   -20240   -20337   -20349   -20264   -20144 
  -20085   -20112   -20202   -20332   -20439   -20441   -20351   -20241 
  -20181   -20202   -20275   -20333   -20362   -20375   -20387   -20441 
  -20538   -20583   -20517   -20424   -20398   -20382   -20270   -20109 
  -20082   -20281   -20556   -20671   -20563   -20402   -20358   -20413 
  -20468   -20486   -20464   -20433   -20453   -20503   -20487   -20399 
  -20322   -20281   -20262   -20320   -20460   -20565   -20510   -20302 
  -20092   -20028   -20121   -20250   -20317   -20318   -20304   -20337 
  -20420   -20490   -20486   -20386   -20279   -20295   -20432   -20533 
  -20533   -20564   -20691   -20791   -20746   -20568   -20371   -20259 
  -20225   -20214   -20213   -20191   -20147   -20151   -20202   -20216 
  -20181   -20159   -20227   -20436   -20695   -20819   -20783   -20704 
  -20632   -20545   -20464   -20426   -20425   -20430   -20436   -20417 
  -20343   -20233   -20175   -20224   -20331   -20403   -20391   -20285 
  -20147   -20093   -20143   -20233   -20321   -20331   -20220   -20108 
  -20129   -20247   -20371   -20460   -20487   -20457   -20433   -20444 
  -20463   -20479   -20507   -20506   -20417   -20285   -20216   -20266 
  -20429   -20591   -20582   -20421   -20295   -20321   -20459   -20537 
  -20393   -20120   -19992   -20113   -20359   -20545   -20580   -20507 
  -20466   -20511   -20583   -20637   -20632   -20505   -20310   -20227 
  -20343   -20571   -20750   -20730   -20513   -20285   -20200   -20235 
  -20289   -20312   -20340   -20398   -20422   -20368   -20281   -20189 
  -20092   -20038   -20052   -20105   -20177   -20255   -20285   -20240 
  -20129   -20017   -20005   -20100   -20187   -20194   -20142   -20069 
  -20069   -20262   -20626   -20950   -21031   -20850   -20552   -20318 
  -20260   -20352   -20493   -20609   -20652   -20602   -20487   -20378 
  -20332   -20336   -20341   -20262   -20071   -19896   -19881   -20019 
  -20182   -20243   -20189   -20123   -20152   -20277   -20372   -20374 
  -20371   -20410   -20387   -20229   -20040   -19989   -20152   -20456 
  -20698   -20746   -20663   -20607   -20659   -20765   -20835   -20834 
  -20772   -20683   -20607   -20567   -20565   -20569   -20529   -20416 
  -20262   -20116   -20009   -19989   -20102   -20277   -20351   -20270 
  -20128   -20029   -19997   -20013   -20063   -20109   -20081   -20012 
  -20039   -20216   -20426   -20545   -20579   -20633   -20756   -20839 
  -20754   -20587   -20533   -20610   -20675   -20660   -20613   -20592 
  -20598   -20565   -20476   -20436   -20495   -20533   -20420   -20201 
  -20043   -20032   -20097   -20110   -20031   -19943   -19962   -20120 
  -20326   -20448   -20452   -20417   -20407   -20480   -20649   -20812 
  -20868   -20845   -20767   -20586   -20351   -20204   -20201   -20324 
  -20536   -20725   -20736   -20542   -20297   -20177   -20229   -20372 
  -20528   -20625   -20590   -20425   -20216   -20032   -19932   -19954 
  -20086   -20295   -20510   -20628   -20617   -20513   -20316   -20034 
  -19788   -19714   -19816   -19984   -20113   -20182   -20223   -20263 
  -20283   -20231   -20158   -20198   -20374   -20544   -20569   -20428 
  -20224   -20106   -20159   -20359   -20564   -20633   -20587   -20503 
  -20368   -20225   -20218   -20405   -20645   -20692   -20390   -19909 
  -19620   -19676   -19919   -20156   -20314   -20393   -20434   -20505 
  -20601   -20644   -20563   -20343   -20082   -19921   -19916   -20028 
  -20204   -20395   -20571   -20667   -20603   -20417   -20216   -20098 
  -20096   -20136   -20120   -20066   -20059   -20125   -20251   -20398 
  -20502   -20530   -20503   -20459   -20436   -20509   -20702   -20877 
  -20873   -20749   -20652   -20564   -20426   -20331   -20434   -20740 
  -21037   -21089   -20884   -20642   -20521   -20451   -20335   -20204 
  -20131   -20137   -20194   -20260   -20274   -20204   -20117   -20101 
  -20143   -20146   -20077   -19998   -19992   -20104   -20304   -20467 
  -20488   -20371   -20216   -20164   -20266   -20407   -20433   -20341 
  -20270   -20324   -20428   -20453   -20428   -20476   -20582   -20630 
  -20592   -20522   -20471   -20451   -20452   -20464   -20467   -20414 
  -20294   -20181   -20171   -20301   -20505   -20660   -20702   -20690 
  -20709   -20729   -20660   -20470   -20227   -20081   -20131   -20308 
  -20494   -20601   -20536   -20309   -20050   -19904   -19971   -20213 
  -20436   -20483   -20383   -20295   -20281   -20235   -20117   -20063 
  -20156   -20259   -20239   -20154   -20127   -20190   -20267   -20251 
  -20155   -20125   -20283   -20580   -20853   -20985   -20956   -20849 
  -20830   -20933   -20981   -20796   -20398   -19990   -19826   -20009 
  -20390   -20680   -20722   -20587   -20456   -20461   -20571   -20611 
  -20478   -20259   -20128   -20123   -20166   -20201   -20187   -20104 
  -20035   -20083   -20240   -20412   -20520   -20536   -20445   -20239 
  -19961   -19719   -19619   -19688   -19896   -20167   -20363   -20383 
  -20281   -20213   -20298   -20474   -20549   -20467   -20329   -20206 
  -20135   -20139   -20163   -20146   -20115   -20123   -20183   -20281 
  -20395   -20506   -20606   -20698   -20738   -20679   -20568   -20518 
  -20571   -20657   -20684   -20628   -20524   -20426   -20382   -20405 
  -20439   -20407   -20310   -20232   -20250   -20368   -20476   -20452 
  -20312   -20142   -20024   -20046   -20200   -20352   -20416   -20443 
  -20502   -20576   -20610   -20595   -20575   -20594   -20636   -20629 
  -20563   -20521   -20575   -20700   -20784   -20733   -20609   -20518 
  -20460   -20398   -20336   -20281   -20229   -20229   -20306   -20385 
  -20382   -20329   -20305   -20367   -20511   -20630   -20619   -20517 
  -20422   -20395   -20455   -20563   -20648   -20675   -20672   -20673 
  -20687   -20687   -20653   -20574   -20460   -20372   -20358   -20440 
  -20592   -20711   -20671   -20470   -20225   -20025   -19899   -19849 
  -19826   -19770   -19727   -19754   -19826   -19913   -20001   -20047 
  -20046   -20044   -20061   -20063   -20032   -20020   -20110   -20278 
  -20374   -20321   -20239   -20266   -20398   -20534   -20576   -20522 
  -20475   -20495   -20541   -20549   -20501   -20440   -20399   -20358 
  -20329   -20386   -20514   -20569   -20449   -20217   -20013   -19917 
  -19921   -19986   -20105   -20281   -20437   -20448   -20340   -20274 
  -20355   -20526   -20626   -20606   -20601   -20692   -20825   -20922 
  -20964   -20945   -20846   -20696   -20586   -20574   -20650   -20758 
  -20833   -20838   -20788   -20764   -20752   -20637   -20412   -20208 
  -20136   -20202   -20312   -20337   -20240   -20123   -20097   -20146 
  -20189   -20185   -20151   -20146   -20202   -20287   -20329   -20308 
  -20283   -20345   -20520   -20710   -20808   -20818   -20787   -20737 
  -20699   -20707   -20730   -20683   -20538   -20351   -20142   -19916 
  -19750   -19726   -19835   -20017   -20197   -20286   -20266   -20189 
  -20109   -20062   -20059   -20088   -20112   -20093   -20056   -20075 
  -20147   -20216   -20251   -20250   -20229   -20204   -20151   -20079 
  -20069   -20171   -20341   -20455   -20399   -20216   -20082   -20093 
  -20137   -20102   -20028   -20005   -20063   -20158   -20216   -20209 
  -20185   -20204   -20275   -20358   -20395   -20344   -20197   -20028 
  -19950   -20017   -20196   -20387   -20501   -20569   -20677   -20830 
  -20931   -20899   -20796   -20736   -20692   -20586   -20452   -20389 
  -20422   -20494   -20536   -20510   -20434   -20367   -20375   -20483 
  -20626   -20669   -20563   -20406   -20322   -20299   -20220   -20061 
  -19936   -19932   -20012   -20135   -20289   -20401   -20409   -20336 
  -20214   -20097   -20056   -20077   -20067   -20016   -20005   -20128 
  -20420   -20750   -20914   -20852   -20673   -20501   -20428   -20471 
  -20564   -20668   -20731   -20691   -20576   -20476   -20406   -20335 
  -20259   -20209   -20198   -20250   -20374   -20494   -20520   -20472 
  -20425   -20382   -20310   -20205   -20129   -20175   -20283   -20295 
  -20236   -20279   -20428   -20522   -20468   -20290   -20115   -20082 
  -20193   -20313   -20370   -20380   -20333   -20206   -20052   -19954 
  -19939   -19989   -20044   -20038   -19967   -19948   -20073   -20270 
  -20403   -20422   -20372   -20322   -20318   -20360   -20379   -20326 
  -20266   -20301   -20441   -20599   -20683   -20641   -20537   -20493 
  -20524   -20579   -20633   -20629   -20486   -20252   -20093   -20115 
  -20263   -20410   -20520   -20628   -20745   -20812   -20744   -20515 
  -20232   -20074   -20113   -20237   -20335   -20390   -20434   -20501 
  -20537   -20467   -20343   -20275   -20258   -20231   -20177   -20108 
  -20079   -20163   -20320   -20393   -20277   -20035   -19863   -19924 
  -20182   -20468   -20667   -20764   -20783   -20730   -20599   -20439 
  -20322   -20302   -20389   -20534   -20657   -20719   -20733   -20702 
  -20661   -20694   -20825   -20960   -20997   -20895   -20696   -20530 
  -20451   -20360   -20209   -20067   -20001   -20005   -20034   -20086 
  -20200   -20318   -20349   -20306   -20241   -20150   -20040   -19975 
  -20015   -20158   -20328   -20434   -20449   -20418   -20401   -20372 
  -20275   -20171   -20210   -20432   -20665   -20714   -20602   -20510 
  -20538   -20629   -20687   -20702   -20715   -20742   -20757   -20717 
  -20628   -20567   -20575   -20580   -20502   -20376   -20306   -20343 
  -20447   -20497   -20407   -20223   -20100   -20154   -20277   -20298 
  -20243   -20266   -20407   -20551   -20553   -20407   -20231   -20125 
  -20079   -20044   -20046   -20133   -20262   -20367   -20445   -20471 
  -20447   -20416   -20367   -20290   -20216   -20127   -19996   -19862 
  -19789   -19793   -19858   -19993   -20193   -20362   -20425   -20430 
  -20449   -20514   -20630   -20738   -20745   -20634   -20472   -20347 
  -20332   -20424   -20536   -20576   -20505   -20379   -20308   -20344 
  -20448   -20499   -20422   -20274   -20201   -20272   -20379   -20349 
  -20167   -19975   -19913   -20031   -20301   -20623   -20825   -20790 
  -20606   -20467   -20470   -20548   -20579   -20538   -20466   -20395 
  -20397   -20513   -20650   -20703   -20676   -20605   -20507   -20433 
  -20418   -20436   -20487   -20583   -20656   -20640   -20580   -20520 
  -20440   -20318   -20179   -20115   -20164   -20243   -20262   -20210 
  -20127   -20100   -20177   -20320   -20426   -20378   -20204   -20081 
  -20097   -20196   -20291   -20353   -20398   -20453   -20513   -20491 
  -20358   -20245   -20274   -20414   -20592   -20729   -20763   -20721 
  -20682   -20652   -20591   -20479   -20368   -20355   -20418   -20455 
  -20464   -20513   -20576   -20579   -20510   -20432   -20391   -20335 
  -20216   -20133   -20189   -20275   -20218   -20027   -19865   -19866 
  -19992   -20089   -20074   -20042   -20137   -20358   -20563   -20633 
  -20537   -20344   -20151   -20004   -19923   -19911   -19965   -20066 
  -20163   -20227   -20283   -20380   -20525   -20659   -20710   -20642 
  -20479   -20291   -20160   -20089   -20023   -19985   -20054   -20223 
  -20440   -20646   -20736   -20656   -20495   -20405   -20457   -20574 
  -20602   -20510   -20399   -20379   -20468   -20586   -20615   -20530 
  -20425   -20389   -20417   -20459   -20478   -20478   -20478   -20460 
  -20403   -20355   -20344   -20331   -20279   -20241   -20302   -20478 
  -20665   -20727   -20645   -20513   -20401   -20275   -20096   -19940 
  -19934   -20074   -20202   -20189   -20028   -19809   -19683   -19768 
  -20035   -20349   -20567   -20584   -20429   -20251   -20179   -20224 
  -20309   -20366   -20345   -20259   -20216   -20278   -20347   -20321 
  -20235   -20209   -20291   -20403   -20460   -20472   -20459   -20412 
  -20349   -20317   -20332   -20344   -20294   -20206   -20194   -20305 
  -20457   -20547   -20511   -20331   -20105   -20020   -20121   -20282 
  -20403   -20436   -20363   -20267   -20244   -20263   -20252   -20177 
  -20075   -20032   -20100   -20281   -20514   -20653   -20602   -20432 
  -20325   -20405   -20628   -20808   -20775   -20536   -20285   -20196 
  -20245   -20291   -20297   -20309   -20343   -20387   -20413   -20374 
  -20308   -20283   -20252   -20143   -20013   -19909   -19796   -19723 
  -19788   -19959   -20127   -20218   -20250   -20289   -20362   -20445 
  -20557   -20710   -20822   -20806   -20665   -20479   -20368   -20380 
  -20426   -20407   -20316   -20212   -20194   -20287   -20418   -20514 
  -20563   -20580   -20591   -20588   -20511   -20295   -19992   -19766 
  -19726   -19834   -19988   -20110   -20220   -20371   -20575   -20756 
  -20807   -20749   -20726   -20794   -20885   -20934   -20910   -20829 
  -20760   -20748   -20764   -20787   -20821   -20811   -20703   -20540 
  -20391   -20283   -20228   -20189   -20102   -20002   -19992   -20131 
  -20347   -20463   -20425   -20362   -20372   -20426   -20440   -20387 
  -20317   -20264   -20241   -20293   -20430   -20575   -20646   -20668 
  -20679   -20649   -20526   -20360   -20266   -20308   -20440   -20555 
  -20587   -20551   -20476   -20352   -20179   -20032   -20007   -20128 
  -20331   -20513   -20596   -20564   -20459   -20340   -20232   -20105 
  -19920   -19728   -19641   -19703   -19894   -20167   -20395   -20451 
  -20368   -20283   -20283   -20347   -20448   -20587   -20700   -20704 
  -20628   -20557   -20532   -20553   -20626   -20717   -20764   -20704 
  -20511   -20258   -20081   -20032   -20055   -20106   -20155   -20167 
  -20137   -20083   -20059   -20121   -20255   -20425   -20614   -20796 
  -20933   -20968   -20885   -20742   -20641   -20632   -20669   -20682 
  -20619   -20480   -20348   -20322   -20440   -20664   -20865   -20931 
  -20861   -20711   -20536   -20375   -20247   -20163   -20104   -20023 
  -19897   -19830   -20005   -20385   -20675   -20691   -20502   -20260 
