Origin Time       2026/01/15 07:13:00
Lat.              42.7
Long.             145.4
Depth. (km)       30
Mag.              5.7
Station Code      HKD081
Station Lat.      43.6427
Station Long.     144.3901
Station Height(m) 130
Record Time       2026/01/15 07:13:44
Sampling Freq(Hz) 100Hz
Duration Time(s)  77
Dir.              U-D
Scale Factor      7845(gal)/8223790
Max. Acc. (gal)   1.627
Last Correction   2026/01/15 07:13:45
Memo.             
[...]
   -3782    -3676    -3694    -3753    -3823    -3973    -4182    -4321 
   -4334    -4297    -4241    -4116    -3940    -3802    -3744    -3785 
   -3955    -4189    -4330    -4315    -4256    -4243    -4171    -3905 
   -3512    -3217    -3210    -3476    -3812    -4047    -4152    -4133 
   -4023    -3906    -3825    -3736    -3661    -3685    -3839    -4067 
   -4255    -4299    -4230    -4155    -4135    -4186    -4290    -4329 
   -4182    -3915    -3735    -3747    -3836    -3862    -3820    -3762 
   -3721    -3757    -3854    -3904    -3886    -3877    -3919    -4052 
   -4298    -4487    -4401    -4094    -3800    -3632    -3592    -3686 
   -3879    -4059    -4117    -4077    -4040    -4010    -3928    -3834 
   -3816    -3905    -4102    -4341    -4468    -4415    -4307    -4244 
   -4175    -4089    -4036    -3964    -3825    -3731    -3755    -3802 
   -3797    -3736    -3591    -3396    -3279    -3276    -3337    -3474 
   -3685    -3832    -3789    -3618    -3497    -3574    -3855    -4167 
   -4318    -4318    -4293    -4297    -4326    -4364    -4371    -4320 
   -4213    -4110    -4083    -4132    -4202    -4236    -4213    -4145 
   -4058    -4020    -4072    -4091    -3960    -3801    -3816    -3971 
   -4081    -4106    -4124    -4109    -4002    -3858    -3804    -3944 
   -4217    -4407    -4386    -4232    -4045    -3861    -3755    -3775 
   -3839    -3866    -3871    -3881    -3909    -4005    -4135    -4148 
   -4017    -3875    -3797    -3793    -3871    -3921    -3824    -3678 
   -3638    -3682    -3754    -3862    -3975    -4029    -4048    -4128 
   -4290    -4450    -4499    -4398    -4198    -3998    -3897    -3950 
   -4085    -4136    -4064    -4001    -4014    -4040    -4029    -4016 
   -4062    -4159    -4244    -4252    -4147    -3975    -3831    -3747 
   -3746    -3882    -4110    -4263    -4253    -4149    -4028    -3878 
   -3673    -3466    -3326    -3272    -3338    -3554    -3894    -4259 
   -4484    -4477    -4263    -3920    -3604    -3528    -3755    -4128 
   -4422    -4486    -4305    -3982    -3684    -3576    -3692    -3904 
   -4085    -4199    -4239    -4155    -3958    -3785    -3746    -3816 
   -3943    -4067    -4081    -3947    -3730    -3528    -3443    -3550 
   -3769    -3886    -3796    -3631    -3568    -3669    -3878    -4071 
   -4162    -4149    -4025    -3789    -3569    -3526    -3681    -3952 
   -4275    -4544    -4623    -4455    -4128    -3840    -3724    -3743 
   -3821    -3973    -4183    -4329    -4318    -4194    -4047    -3905 
   -3780    -3724    -3792    -3920    -3952    -3840    -3717    -3700 
   -3747    -3788    -3815    -3840    -3869    -3932    -4021    -4078 
   -4122    -4213    -4297    -4266    -4128    -4012    -4044    -4172 
   -4187    -3987    -3694    -3480    -3462    -3642    -3870    -3996 
   -4005    -3939    -3815    -3704    -3694    -3781    -3915    -4090 
   -4298    -4473    -4546    -4494    -4341    -4140    -3993    -4014 
   -4210    -4423    -4479    -4369    -4244    -4195    -4164    -4094 
   -4031    -4017    -4021    -3974    -3847    -3674    -3541    -3534 
   -3666    -3865    -4050    -4144    -4104    -3997    -3936    -3960 
   -4041    -4156    -4297    -4413    -4432    -4336    -4160    -3924 
   -3704    -3649    -3800    -4054    -4275    -4342    -4190    -3889 
   -3588    -3343    -3153    -3134    -3385    -3750    -4006    -4106 
   -4027    -3778    -3561    -3586    -3780    -3947    -4039    -4077 
   -4071    -4071    -4143    -4270    -4372    -4368    -4224    -3981 
   -3735    -3609    -3716    -4014    -4259    -4271    -4174    -4168 
   -4272    -4383    -4409    -4295    -4077    -3908    -3923    -4064 
   -4189    -4218    -4128    -3917    -3676    -3558    -3604    -3651 
   -3589    -3516    -3503    -3508    -3557    -3689    -3865    -4047 
   -4224    -4342    -4342    -4226    -4110    -4129    -4232    -4253 
   -4182    -4114    -4066    -4014    -3971    -3915    -3823    -3758 
   -3757    -3757    -3778    -3882    -3985    -3960    -3848    -3739 
   -3635    -3574    -3658    -3858    -4013    -3996    -3800    -3535 
   -3375    -3415    -3616    -3855    -3996    -3985    -3894    -3852 
   -3962    -4156    -4261    -4287    -4365    -4476    -4487    -4353 
   -4162    -4023    -3987    -4033    -4068    -4008    -3886    -3778 
   -3740    -3816    -3954    -4044    -4048    -3969    -3828    -3696 
   -3596    -3516    -3543    -3767    -4083    -4272    -4249    -4109 
   -3954    -3802    -3681    -3647    -3719    -3861    -3996    -4035 
   -3977    -3955    -4058    -4206    -4305    -4359    -4359    -4249 
   -4075    -3951    -3924    -3979    -4067    -4095    -4017    -3915 
   -3902    -3989    -4095    -4190    -4306    -4453    -4563    -4546 
   -4421    -4291    -4236    -4257    -4309    -4306    -4152    -3867 
   -3624    -3508    -3476    -3572    -3861    -4240    -4487    -4426 
   -4113    -3807    -3715    -3808    -3928    -4010    -4051    -4031 
   -4006    -4063    -4158    -4195    -4182    -4180    -4160    -4004 
   -3730    -3500    -3388    -3329    -3302    -3383    -3585    -3788 
   -3844    -3738    -3557    -3399    -3360    -3542    -3925    -4324 
   -4517    -4452    -4271    -4099    -3927    -3796    -3863    -4121 
   -4357    -4407    -4271    -4077    -3974    -3975    -3959    -3878 
   -3788    -3705    -3642    -3645    -3719    -3820    -3897    -3913 
   -3890    -3897    -3901    -3788    -3554    -3362    -3331    -3400 
   -3473    -3565    -3715    -3839    -3836    -3766    -3758    -3839 
   -3905    -3851    -3767    -3829    -4005    -4125    -4167    -4220 
   -4313    -4423    -4500    -4482    -4380    -4279    -4220    -4171 
   -4090    -3983    -3898    -3878    -3929    -4020    -4124    -4260 
   -4446    -4608    -4602    -4388    -4137    -3981    -3883    -3850 
   -3979    -4290    -4654    -4923    -5001    -4839    -4484    -4125 
   -3916    -3798    -3643    -3470    -3362    -3339    -3445    -3711 
   -4004    -4141    -4089    -3917    -3711    -3549    -3480    -3562 
   -3824    -4164    -4396    -4449    -4403    -4317    -4148    -3919 
   -3761    -3719    -3746    -3831    -3946    -3996    -3902    -3693 
   -3538    -3582    -3726    -3755    -3653    -3616    -3728    -3817 
   -3778    -3794    -4020    -4330    -4518    -4531    -4464    -4382 
   -4259    -4117    -4095    -4248    -4390    -4361    -4241    -4109 
   -3892    -3616    -3461    -3497    -3613    -3685    -3663    -3555 
   -3435    -3408    -3487    -3600    -3717    -3846    -3943    -3978 
   -4005    -4024    -3950    -3800    -3680    -3612    -3593    -3708 
   -4021    -4414    -4666    -4712    -4637    -4537    -4461    -4376 
   -4240    -4135    -4202    -4402    -4533    -4523    -4469    -4436 
   -4396    -4305    -4174    -4032    -3859    -3703    -3719    -4004 
   -4460    -4847    -4978    -4828    -4471    -4001    -3510    -3113 
   -2982    -3183    -3589    -4023    -4361    -4511    -4391    -4048 
   -3673    -3397    -3258    -3321    -3577    -3851    -4004    -4086 
   -4126    -4064    -3944    -3878    -3846    -3775    -3712    -3751 
   -3877    -3950    -3923    -3900    -3886    -3758    -3497    -3262 
   -3194    -3303    -3531    -3784    -3920    -3840    -3623    -3445 
   -3438    -3619    -3820    -3852    -3808    -3935    -4243    -4491 
   -4525    -4410    -4264    -4131    -4071    -4171    -4433    -4745 
   -4945    -4908    -4654    -4360    -4217    -4245    -4329    -4395 
   -4446    -4449    -4310    -4029    -3762    -3604    -3430    -3150 
   -2889    -2795    -2860    -2995    -3177    -3434    -3724    -3950 
   -4055    -4018    -3823    -3530    -3292    -3244    -3402    -3717 
   -4122    -4507    -4720    -4689    -4482    -4234    -4066    -4074 
   -4287    -4630    -4926    -4974    -4757    -4482    -4313    -4193 
   -4036    -3925    -3902    -3820    -3623    -3450    -3383    -3406 
   -3555    -3815    -3989    -3958    -3855    -3828    -3873    -3956 
   -4051    -4077    -4006    -3908    -3808    -3716    -3707    -3843 
   -4048    -4203    -4270    -4266    -4162    -3897    -3524    -3261 
   -3252    -3411    -3597    -3812    -4095    -4338    -4361    -4133 
   -3785    -3453    -3264    -3310    -3501    -3697    -3917    -4218 
   -4518    -4683    -4666    -4523    -4365    -4268    -4222    -4194 
   -4175    -4113    -3994    -3950    -4047    -4125    -4051    -3932 
   -3927    -4035    -4189    -4367    -4513    -4530    -4428    -4297 
   -4160    -4033    -3990    -4031    -4108    -4261    -4492    -4627 
   -4506    -4182    -3871    -3765    -3910    -4221    -4546    -4726 
   -4699    -4491    -4145    -3734    -3362    -3121    -3067    -3188 
   -3406    -3622    -3771    -3805    -3704    -3527    -3381    -3294 
   -3199    -3076    -3029    -3137    -3350    -3578    -3738    -3754 
   -3654    -3499    -3321    -3248    -3489    -4059    -4673    -4981 
   -4907    -4666    -4509    -4484    -4495    -4472    -4421    -4313 
   -4078    -3731    -3406    -3196    -3126    -3225    -3515    -3915 
   -4264    -4428    -4369    -4164    -3920    -3724    -3686    -3842 
   -4089    -4283    -4333    -4293    -4290    -4314    -4297    -4301 
   -4380    -4514    -4706    -4926    -5032    -4849    -4360    -3820 
   -3515    -3483    -3619    -3858    -4104    -4185    -4040    -3829 
   -3755    -3854    -4060    -4284    -4356    -4210    -4031    -3971 
   -4027    -4172    -4340    -4344    -4086    -3713    -3478    -3499 
   -3742    -4159    -4665    -5071    -5174    -4901    -4345    -3692 
   -3164    -2957    -3146    -3615    -4087    -4313    -4248    -4060 
   -3985    -4124    -4332    -4417    -4341    -4113    -3681    -3122 
   -2702    -2605    -2782    -3086    -3416    -3730    -3952    -3973 
   -3781    -3524    -3364    -3366    -3485    -3591    -3576    -3424 
   -3218    -3090    -3168    -3457    -3807    -4085    -4288    -4433 
   -4500    -4490    -4450    -4449    -4426    -4267    -4012    -3758 
   -3528    -3387    -3485    -3836    -4132    -4055    -3686    -3307 
   -3083    -3125    -3503    -4064    -4479    -4554    -4368    -4087 
   -3865    -3800    -3892    -4052    -4217    -4378    -4575    -4839 
   -5088    -5115    -4823    -4396    -4082    -3921    -3839    -3875 
   -4095    -4394    -4608    -4706    -4691    -4487    -4116    -3800 
   -3711    -3763    -3781    -3703    -3573    -3451    -3377    -3356 
   -3400    -3572    -3855    -4090    -4174    -4109    -3901    -3661 
   -3628    -3870    -4189    -4386    -4423    -4372    -4342    -4430 
   -4595    -4665    -4518    -4176    -3774    -3447    -3226    -3107 
   -3179    -3433    -3666    -3771    -3825    -3855    -3812    -3753 
   -3761    -3870    -4060    -4199    -4149    -3951    -3732    -3622 
   -3717    -3969    -4167    -4163    -4008    -3883    -3952    -4267 
   -4733    -5093    -5109    -4803    -4394    -4067    -3900    -3885 
   -3982    -4143    -4293    -4379    -4411    -4378    -4310    -4347 
   -4531    -4652    -4511    -4199    -3929    -3767    -3654    -3600 
   -3655    -3735    -3700    -3511    -3203    -2866    -2656    -2762 
   -3241    -3904    -4409    -4515    -4245    -3821    -3485    -3327 
   -3316    -3395    -3504    -3674    -4017    -4500    -4905    -5051 
   -4881    -4457    -3970    -3603    -3361    -3200    -3198    -3396 
   -3712    -4071    -4386    -4498    -4334    -3989    -3632    -3472 
   -3647    -4059    -4409    -4479    -4309    -4010    -3619    -3269 
   -3176    -3319    -3492    -3642    -3893    -4255    -4498    -4441 
   -4230    -4164    -4329    -4523    -4538    -4382    -4217    -4153 
   -4153    -4163    -4198    -4222    -4091    -3780    -3473    -3368 
   -3522    -3804    -4021    -4078    -3939    -3603    -3211    -3059 
   -3365    -4008    -4603    -4828    -4649    -4301    -4012    -3823 
   -3755    -3874    -4120    -4353    -4530    -4602    -4418    -3956 
   -3481    -3273    -3400    -3794    -4340    -4826    -4990    -4719 
   -4180    -3720    -3542    -3628    -3869    -4086    -4101    -3861 
   -3492    -3285    -3483    -4016    -4565    -4812    -4631    -4155 
   -3672    -3481    -3717    -4230    -4739    -5003    -4833    -4240 
   -3564    -3177    -3111    -3169    -3300    -3605    -4036    -4315 
   -4212    -3805    -3487    -3591    -4079    -4622    -4882    -4777 
   -4428    -3901    -3275    -2781    -2646    -2920    -3465    -4040 
   -4449    -4625    -4598    -4425    -4168    -3924    -3785    -3823 
   -4055    -4326    -4359    -4027    -3508    -3118    -3026    -3179 
   -3468    -3811    -4095    -4226    -4189    -4008    -3735    -3542 
   -3624    -3989    -4463    -4849    -5001    -4881    -4581    -4267 
   -4086    -4064    -4102    -4101    -4045    -4009    -4058    -4171 
   -4241    -4162    -3889    -3480    -3146    -3132    -3442    -3850 
   -4144    -4218    -4081    -3866    -3681    -3439    -3021    -2555 
   -2292    -2280    -2459    -2849    -3375    -3816    -4054    -4166 
   -4286    -4502    -4837    -5194    -5386    -5270    -4878    -4406 
   -4058    -3892    -3897    -4043    -4183    -4198    -4172    -4247 
   -4365    -4342    -4122    -3842    -3647    -3597    -3684    -3906 
   -4279    -4706    -4986    -4957    -4572    -4023    -3634    -3555 
   -3723    -4001    -4220    -4294    -4320    -4305    -4012    -3349 
   -2640    -2263    -2273    -2583    -3159    -3869    -4440    -4691 
   -4646    -4472    -4344    -4275    -4168    -4023    -3901    -3815 
   -3782    -3886    -4151    -4480    -4733    -4766    -4492    -4006 
   -3535    -3269    -3319    -3655    -4091    -4417    -4521    -4438 
   -4209    -3838    -3481    -3414    -3697    -4108    -4406    -4530 
   -4502    -4340    -4144    -4028    -3966    -3890    -3823    -3813 
   -3950    -4303    -4712    -4892    -4774    -4467    -4063    -3689 
   -3551    -3763    -4179    -4558    -4750    -4630    -4155    -3478 
   -2895    -2667    -2832    -3177    -3472    -3688    -3947    -4294 
   -4579    -4639    -4521    -4461    -4653    -5046    -5356    -5341 
   -5062    -4757    -4514    -4282    -4062    -3956    -4043    -4207 
   -4264    -4172    -3946    -3570    -3168    -2991    -3150    -3530 
   -3943    -4217    -4248    -4052    -3705    -3295    -2934    -2666 
   -2431    -2292    -2421    -2849    -3406    -3856    -4024    -3925 
   -3751    -3649    -3615    -3577    -3582    -3748    -4005    -4162 
   -4198    -4185    -4117    -3954    -3696    -3416    -3246    -3333 
   -3723    -4263    -4699    -4891    -4812    -4433    -3819    -3241 
   -2992    -3148    -3585    -4109    -4484    -4506    -4131    -3584 
   -3237    -3284    -3584    -3871    -4004    -3974    -3877    -3848 
   -3929    -3979    -3870    -3701    -3711    -3960    -4278    -4494 
   -4560    -4486    -4282    -4028    -3865    -3854    -3958    -4148 
   -4401    -4639    -4776    -4760    -4599    -4367    -4151    -3971 
   -3808    -3723    -3825    -4095    -4372    -4496    -4387    -4093 
   -3777    -3570    -3468    -3408    -3376    -3380    -3408    -3484 
   -3682    -3998    -4272    -4399    -4463    -4592    -4789    -4915 
   -4812    -4467    -4032    -3692    -3603    -3759    -3916    -3897 
   -3855    -3981    -4209    -4380    -4449    -4465    -4483    -4511 
   -4522    -4492    -4413    -4268    -4087    -3966    -3936    -3916 
   -3848    -3800    -3827    -3869    -3873    -3888    -3954    -4012 
   -3997    -3910    -3761    -3558    -3420    -3524    -3847    -4122 
   -4159    -4024    -3883    -3805    -3790    -3831    -3948    -4193 
   -4522    -4733    -4662    -4378    -4033    -3715    -3491    -3476 
   -3739    -4191    -4617    -4793    -4637    -4274    -3967    -3894 
   -4031    -4263    -4518    -4716    -4772    -4700    -4548    -4271 
   -3851    -3381    -3001    -2893    -3129    -3507    -3711    -3657 
   -3527    -3449    -3385    -3356    -3439    -3618    -3812    -3969 
   -3996    -3879    -3789    -3859    -4013    -4060    -3879    -3505 
   -3095    -2791    -2705    -2924    -3410    -3889    -4081    -3997 
   -3840    -3700    -3585    -3578    -3735    -3989    -4193    -4232 
   -4139    -4063    -4056    -4000    -3800    -3545    -3429    -3538 
   -3740    -3858    -3888    -3924    -3956    -3920    -3816    -3715 
   -3727    -3901    -4106    -4147    -4027    -3971    -4137    -4413 
   -4550    -4410    -4066    -3709    -3492    -3468    -3595    -3730 
   -3743    -3620    -3439    -3310    -3330    -3543    -3946    -4486 
   -5058    -5454    -5416    -4905    -4237    -3835    -3855    -4121 
   -4414    -4658    -4834    -4916    -4895    -4761    -4519    -4259 
   -4110    -4110    -4213    -4325    -4301    -4077    -3805    -3672 
   -3676    -3740    -3838    -3975    -4131    -4236    -4213    -4040 
   -3762    -3504    -3420    -3542    -3784    -4027    -4133    -4036 
   -3838    -3734    -3836    -4129    -4507    -4814    -4888    -4702 
   -4391    -4133    -4013    -4018    -4083    -4131    -4070    -3892 
   -3788    -3964    -4309    -4545    -4625    -4653    -4612    -4422 
   -4090    -3701    -3356    -3157    -3114    -3095    -3046    -3098 
   -3335    -3665    -3952    -4167    -4367    -4571    -4671    -4527 
   -4136    -3688    -3391    -3272    -3177    -3009    -2914    -3136 
   -3645    -4145    -4413    -4422    -4247    -4001    -3777    -3613 
   -3569    -3667    -3824    -3931    -3937    -3858    -3747    -3684 
   -3709    -3777    -3847    -3962    -4085    -4089    -3974    -3844 
   -3767    -3751    -3728    -3591    -3392    -3325    -3458    -3694 
   -3936    -4082    -3989    -3676    -3433    -3518    -3905    -4396 
   -4764    -4820    -4527    -4039    -3561    -3238    -3157    -3342 
   -3773    -4330    -4768    -4853    -4573    -4145    -3823    -3773 
   -4028    -4410    -4615    -4502    -4197    -3886    -3663    -3550 
   -3537    -3578    -3639    -3726    -3817    -3882    -3954    -4059 
   -4155    -4220    -4276    -4303    -4251    -4175    -4209    -4361 
   -4486    -4467    -4332    -4128    -3932    -3894    -4106    -4492 
   -4885    -5130    -5155    -4992    -4702    -4369    -4083    -3883 
   -3761    -3697    -3694    -3750    -3879    -4118    -4430    -4660 
   -4673    -4525    -4325    -4078    -3790    -3584    -3573    -3732 
   -3913    -3986    -3908    -3693    -3450    -3322    -3314    -3299 
   -3215    -3115    -3051    -3001    -3001    -3146    -3424    -3665 
   -3703    -3535    -3322    -3230    -3277    -3406    -3595    -3856 
   -4194    -4567    -4892    -5096    -5123    -4993    -4830    -4731 
   -4687    -4653    -4584    -4402    -4075    -3693    -3415    -3295 
   -3242    -3161    -3096    -3176    -3438    -3755    -3960    -4005 
   -3944    -3929    -4094    -4396    -4684    -4864    -4882    -4707 
   -4414    -4159    -4005    -3908    -3865    -3937    -4124    -4340 
   -4526    -4602    -4432    -3991    -3493    -3186    -3130    -3246 
   -3446    -3651    -3771    -3753    -3613    -3466    -3462    -3677 
   -4036    -4360    -4521    -4503    -4349    -4121    -3882    -3697 
   -3634    -3677    -3748    -3852    -4051    -4286    -4388    -4299 
