Origin Time       2026/01/15 07:13:00
Lat.              42.7
Long.             145.4
Depth. (km)       30
Mag.              5.7
Station Code      HKD079
Station Lat.      43.3034
Station Long.     144.5998
Station Height(m) 32
Record Time       2026/01/15 07:13:39
Sampling Freq(Hz) 100Hz
Duration Time(s)  92
Dir.              E-W
Scale Factor      7845(gal)/8223790
Max. Acc. (gal)   3.985
Last Correction   2026/01/15 07:13:39
Memo.             
[...]
    7983     8100     8164     8095     8295     8479     8275     8102 
    8247     8266     8032     8043     8195     8052     7954     8178 
    8280     8132     8149     8353     8411     8370     8370     8299 
    8284     8413     8252     7863     7927     8212     8113     8005 
    8140     8095     7944     8054     8230     8284     8382     8398 
    8159     7965     7963     7983     8085     8263     8245     8054 
    7952     7970     8047     8143     8225     8399     8511     8299 
    8137     8282     8332     8143     7967     7982     8140     8270 
    8328     8378     8295     7990     7858     8140     8345     8256 
    8274     8403     8352     8145     7973     7990     8164     8235 
    8155     8248     8495     8399     8001     7824     7923     8095 
    8226     8197     8059     8040     8155     8179     8070     8063 
    8260     8437     8397     8160     7840     7708     7944     8091 
    7912     8058     8459     8343     8046     8135     8236     8208 
    8374     8537     8426     8378     8395     8021     7624     7805 
    8122     8075     8000     8116     8191     8244     8352     8259 
    8035     8162     8499     8399     7985     7892     8082     8178 
    8162     7987     7727     7932     8505     8527     8160     8356 
    8672     8222     7746     8037     8340     8213     8274     8475 
    8340     8090     7973     7879     7858     8081     8421     8456 
    8189     8109     8136     7931     7916     8334     8536     8395 
    8399     8317     7898     7676     7875     8108     8179     8220 
    8240     8201     8233     8286     8149     8020     8189     8436 
    8469     8413     8471     8472     8199     7877     7705     7747 
    8108     8487     8483     8232     8074     8087     8160     8282 
    8433     8472     8469     8403     8051     7747     7958     8275 
    8170     7989     8137     8329     8334     8325     8378     8299 
    8012     7873     8093     8371     8510     8464     8037     7507 
    7573     8082     8278     8241     8344     8307     8094     8086 
    8220     8230     8325     8617     8608     8145     7905     8179 
    8440     8449     8336     8048     7865     8058     8212     8194 
    8283     8222     7975     8074     8395     8394     8220     8232 
    8243     8014     7813     7962     8303     8402     8244     8325 
    8537     8240     7649     7497     7901     8274     8264     8224 
    8318     8402     8464     8352     8047     7863     7929     8039 
    8056     8197     8379     8236     8110     8341     8384     8073 
    8005     8179     8158     8183     8496     8684     8540     8256 
    7966     7863     7969     8027     8028     8116     8264     8206 
    7828     7650     7939     8098     7947     8019     8290     8395 
    8503     8634     8456     8098     7929     8071     8437     8619 
    8417     8208     8158     8098     8089     8214     8406     8577 
    8619     8468     8216     8060     7956     7825     7954     8306 
    8418     8282     8172     8048     7938     8066     8291     8345 
    8305     8218     8082     8087     8216     8201     8063     8066 
    8167     8156     8194     8361     8376     8256     8271     8297 
    8143     8104     8341     8461     8336     8239     8179     7982 
    7696     7631     7875     8101     8189     8282     8347     8359 
    8298     8025     7840     8124     8430     8343     8175     8193 
    8274     8181     7900     7789     7978     8122     8131     8229 
    8287     8132     8031     8094     8172     8328     8502     8424 
    8230     8244     8294     8098     7865     7884     8028     8156 
    8293     8380     8387     8253     8025     7927     8035     8245 
    8252     7898     7666     7857     8106     8185     8128     8016 
    8149     8552     8614     8267     8128     8195     8163     8222 
    8353     8143     7678     7503     7611     7726     7929     8104 
    8197     8492     8734     8618     8426     8357     8333     8307 
    8241     8024     7879     8122     8353     8264     8225     8337 
    8410     8391     8314     8298     8318     8249     8189     8239 
    8244     8039     7846     7900     8055     8228     8378     8318 
    8155     8095     8125     8283     8534     8444     7963     7820 
    8074     8033     7830     7902     8028     8078     8168     8241 
    8302     8441     8581     8598     8498     8337     8190     8172 
    8307     8495     8568     8397     8213     8329     8510     8459 
    8343     8243     8044     7875     7909     8094     8205     8089 
    7912     7812     7804     7952     8048     7867     7695     7788 
    7983     8206     8446     8446     8235     8187     8179     7942 
    7894     8263     8464     8241     8062     8124     8241     8376 
    8513     8575     8568     8448     8218     8104     8137     8004 
    7740     7824     8214     8309     8074     8075     8330     8417 
    8283     8097     8087     8344     8506     8422     8371     8314 
    8058     7792     7758     7878     7973     7939     7828     7906 
    8218     8459     8542     8559     8505     8499     8577     8518 
    8274     8159     8276     8228     7923     7761     7889     8186 
    8537     8779     8706     8419     8367     8517     8451     8325 
    8295     8025     7662     7722     7983     7902     7635     7626 
    7858     8230     8668     8862     8757     8541     8267     8046 
    7869     7562     7364     7611     8010     8137     8052     7913 
    7815     8027     8530     8892     8978     8887     8641     8414 
    8333     8164     7850     7792     7977     8008     8074     8425 
    8714     8738     8668     8569     8375     8168     8186     8329 
    8314     8171     7877     7441     7246     7364     7503     7757 
    8235     8500     8347     8172     8160     8152     8112     8112 
    8252     8473     8483     8287     8214     8245     8127     7982 
    8086     8313     8322     8144     8058     8048     7905     7719 
    7921     8490     8731     8429     8160     8256     8444     8464 
    8413     8355     8237     8105     8037     8101     8195     8191 
    8229     8263     8060     7731     7495     7481     7769     8054 
    7975     7807     7958     8302     8548     8594     8425     8201 
    8212     8451     8536     8299     8027     8032     8160     8021 
    7793     7889     8043     7996     8118     8468     8635     8579 
    8484     8359     8236     8089     7838     7830     8262     8548 
    8392     8268     8361     8344     8201     8271     8401     8241 
    8140     8347     8365     8019     7696     7596     7616     7715 
    7932     8147     8212     8230     8291     8282     8186     8144 
    8230     8380     8433     8202     7850     7809     8148     8584 
    8824     8677     8370     8325     8445     8313     7917     7655 
    7723     7911     8071     8214     8332     8343     8077     7708 
    7719     8032     8185     8221     8445     8729     8622     8108 
    7755     7844     8127     8405     8521     8397     8293     8334 
    8299     8168     8176     8332     8440     8452     8482     8495 
    8344     8098     7927     7851     7921     8154     8359     8494 
    8679     8726     8492     8299     8395     8629     8849     9042 
    8958     8507     8221     8243     8066     7735     7693     7704 
    7441     7312     7547     7658     7443     7406     7780     8037 
    8016     8218     8534     8429     8163     8139     8121     8133 
    8440     8587     8387     8507     8822     8688     8611     8932 
    8808     8243     8148     8291     8031     7804     7987     8131 
    7969     7817     7932     8106     8105     8191     8542     8684 
    8436     8332     8583     8970     9337     9355     8904     8500 
    8449     8402     8191     8104     8222     8209     7848     7469 
    7437     7607     7635     7453     7303     7353     7593     7925 
    7967     7668     7603     7896     8199     8475     8703     8858 
    9007     8914     8449     8058     8066     8151     8044     8068 
    8364     8483     8235     8004     8108     8341     8386     8499 
    9165    10137    10629    10260     9327     8367     7630     7133 
    6960     7094     7327     7452     7265     6813     6413     6107 
    5873     6008     6512     7180     7986     8509     8229     7551 
    7157     6947     6683     6633     6925     7237     7416     7739 
    8230     8451     8337     8228     8127     8144     8752     9684 
   10196    10345    10351    10012     9518     9238     9081     8957 
    8951     8980     8938     8772     8356     7804     7318     6864 
    6524     6485     6652     6852     7086     7202     6932     6419 
    6050     6107     6756     7906     9227    10377    11010    10898 
   10216     9410     8831     8676     8927     9271     9429     9339 
    8915     8245     7751     7597     7599     7700     7925     8125 
    8094     7804     7331     6640     5838     5363     5478     5925 
    6355     6777     7176     7150     6690     6624     7420     8541 
    9413     9961    10141    10035     9975     9945     9653     8993 
    8109     7427     7254     7389     7572     7886     8340     8460 
    8043     7715     7924     8349     8722     9069     9275     9239 
    9004     8525     7985     7884     8154     8217     8128     8298 
    8546     8510     8193     7769     7487     7555     7962     8559 
    9169     9540     9405     8770     7921     7223     7010     7335 
    7875     8401     8999     9498     9308     8397     7474     6979 
    6925     7404     8523     9971    10932    10737     9441     7708 
    6295     5590     5661     6431     7524     8324     8572     8514 
    8172     7427     6802     6922     7588     8218     8580     8660 
    8453     8170     8062     8187     8722     9634    10264    10135 
    9413     8487     7843     7758     8027     8313     8514     8834 
    9220     9170     8797     8635     8452     7982     7624     7654 
    7983     8463     8887     8985     8723     8465     8333     8170 
    8284     8834     9086     8654     8141     7863     7611     7488 
    7738     8336     9008     9491     9772     9832     9528     8927 
    8266     7805     7697     7662     7342     6936     6930     7493 
    8429     9435    10179    10345     9818     8986     8467     8476 
    8926     9486     9397     8356     6858     5490     4904     5452 
    6551     7423     7921     7936     7303     6655     6511     6451 
    6471     6876     7433     8216     9219     9567     8874     7994 
    7736     8083     8918    10374    11935    12320    11260     9973 
    9204     8561     7842     7188     6637     6419     6704     7273 
    7955     8498     8496     8116     7920     8027     8297     8749 
    9236     9441     9279     9077     9151     9212     8907     8592 
    8730     9120     9186     8830     8527     8309     7717     6955 
    6519     6257     6095     6409     7055     7456     7565     7708 
    7905     7962     7867     7825     8078     8623     8943     8710 
    8522     8683     8560     8093     7894     8019     8106     7960 
    7609     7446     7967     8853     9170     8777     8267     7881 
    7732     7990     8152     7642     6806     6227     6126     6610 
    7562     8731     9907    10651    10565     9926     9400     9162 
    8885     8451     8095     7931     7663     6945     5923     5201 
    5254     6008     7067     8222     9309     9852     9568     8810 
    8263     8415     9031     9420     9336     9057     8769     8378 
    7902     7609     7561     7603     7711     7933     8353     8932 
    9329     9171     8465     7628     7028     6813     7022     7543 
    8280     8854     8708     8183     8010     8020     7892     7884 
    7973     7866     7809     8029     8164     8044     7898     7761 
    7716     8085     8687     8919     8714     8473     8345     8440 
    8739     8742     8510     8703     9117     9170     8961     8650 
    8121     7445     6902     6714     6926     7403     7944     8330 
    8216     7426     6404     5772     5806     6586     7862     8993 
    9458     9220     8716     8436     8313     8008     7769     8113 
    8833     9371     9481     9135     8684     8525     8517     8542 
    8783     9132     9285     9043     8444     7854     7400     6763 
    5980     5404     5150     5418     6358     7439     8136     8623 
    8876     8627     8237     8163     8446     9011     9520     9589 
    9572    10030    10559    10438     9799     9139     8614     8266 
    8064     7815     7376     6709     5972     5643     5833     6139 
    6624     7608     8730     9387     9444     9207     9194     9603 
   10011     9914     9111     7869     6809     6038     5216     4760 
    5304     6351     6933     6774     6162     5786     6386     7674 
    8615     8980     9173     9296     9412     9606     9626     9387 
    9298     9552     9879    10106    10180     9877     9076     7938 
    6691     5661     5463     6403     7838     8884     9228     9004 
    8669     8712     9103     9498     9614     9231     8526     8090 
    8283     8800     9085     8966     8452     7676     7389     8222 
    9767    11105    11630    11169     9749     7618     5459     4159 
    4002     4371     4673     5034     5628     6315     7068     7770 
    8109     8220     8611     9463    10539    11346    11242    10115 
    8665     7496     6832     6982     7971     9219    10131    10638 
   10781    10408     9819     9451     9096     8635     8305     7977 
    7539     7342     7510     7731     7894     7931     7616     7296 
    7611     8367     8923     9117     9022     8610     8054     7821 
    8024     8125     7723     7047     6519     6353     6454     6435 
    6232     6342     6903     7666     8499     9116     9425     9701 
    9954    10149    10305    10241     9940     9664     9464     9009 
    8108     6925     5649     4641     4568     5647     7267     8635 
    9339     9323     8847     8472     8549     8893     9096     8873 
    8233     7591     7353     7416     7585     7894     8102     8016 
    8118     8630     8976     8834     8459     8059     7557     6808 
    6035     5814     6331     7132     7792     8333     8985     9775 
   10453    10809    10708    10092     9386     8970     8691     8486 
    8320     7867     7172     6658     6531     6902     7834     8893 
    9439     9320     8857     8429     8186     8041     8027     8159 
    8128     7749     7256     6957     6990     7291     7619     7813 
    7987     8216     8579     9383    10361    10694    10277     9613 
    9146     9084     9201     9184     8943     8432     7807     7445 
    7504     7777     8100     8550     9054     9450     9896    10378 
   10281     9225     7689     6357     5499     5175     5517     6524 
    7751     8542     8583     8178     7888     7915     8145     8421 
    8544     8471     8210     7682     6967     6292     5800     5638 
    6042     6955     7943     8757     9394     9756     9887    10095 
   10443    10613    10359     9744     8946     7998     6926     6085 
    5852     6076     6517     7238     8091     8738     9093     9251 
    9335     9305     9053     8824     8834     8814     8561     8124 
    7589     7196     7141     7504     8419     9559    10116     9869 
    9215     8351     7470     6970     6806     6594     6412     6515 
    6624     6439     6111     5898     5940     6277     6893     7599 
    8043     8058     7804     7581     7479     7512     7815     8257 
    8608     8841     8901     8796     8695     8688     8826     9088 
    9058     8606     8538     9247     9941    10034     9632     8822 
    7981     7794     8031     8052     8159     8542     8598     8230 
    7952     7959     8136     8332     8225     7744     7592     8160 
    8845     9297     9609     9552     9045     8357     7653     7202 
    7291     7734     8325     9099     9709     9612     8891     8229 
    8095     8210     8077     7747     7530     7441     7368     7241 
    7017     6899     7102     7406     7608     7720     7611     7339 
    7291     7476     7501     7333     7456     8039     8506     8442 
    8086     7650     7338     7685     8741     9729    10197    10363 
   10372    10247    10017     9516     8723     7932     7415     7229 
    7114     6783     6412     6359     6664     7141     7572     7861 
    8090     8320     8523     8627     8553     8324     8016     7870 
    8109     8398     8410     8476     8824     9127     9207     9267 
    9185     8783     8495     8549     8656     8784     8846     8469 
    7792     7423     7558     8024     8645     8999     8899     8749 
    8741     8850     9185     9562     9636     9294     8544     7607 
    6944     6779     6897     6994     6979     6853     6632     6561 
    7005     7959     8937     9462     9613     9769    10031    10268 
   10359    10179     9661     8995     8564     8629     9080     9504 
    9501     9115     8708     8476     8425     8464     8320     7817 
    7179     6669     6258     5979     6146     6790     7376     7425 
    7136     7042     7271     7654     8187     8888     9498     9666 
    9331     8872     8749     8969     9207     9321     9381     9313 
    9073     8903     8862     8762     8684     8588     8170     7643 
    7524     7676     7651     7454     7237     7045     7106     7574 
    8181     8540     8552     8221     7473     6532     5817     5452 
    5428     5738     6295     7076     8023     8753     8910     8730 
    8752     9167     9720     9988     9813     9375     8850     8320 
    7852     7511     7422     7560     7655     7669     7873     8209 
    8306     8137     7898     7670     7527     7427     7227     6975 
    6737     6492     6338     6359     6446     6579     6864     7342 
    8066     8928     9621    10088    10374    10247     9676     9036 
    8677     8630     8630     8433     8152     8013     7948     7885 
    7989     8239     8463     8768     9224     9590     9761     9756 
    9463     8942     8457     8054     7550     6976     6596     6459 
    6384     6264     6108     6018     6304     7153     8178     8954 
    9558    10157    10647    10882    10859    10459     9580     8564 
    7828     7403     7296     7568     7963     8193     8230     8149 
    8014     7780     7338     6805     6455     6450     6627     6669 
    6623     6768     7138     7669     8407     9251     9896    10233 
   10430    10575    10606    10516    10355    10114     9760     9306 
    8702     7861     6890     6149     6037     6577     7303     7820 
    8156     8441     8621     8619     8522     8495     8631     8884 
    9112     9167     8980     8680     8309     7704     7091     6982 
    7418     7927     8172     8244     8216     7948     7472     7091 
    7041     7256     7472     7519     7530     7564     7439     7238 
    7253     7577     8162     8849     9387     9706     9875     9805 
    9467     9040     8491     7751     7106     6709     6466     6547 
