Origin Time       2026/01/15 07:13:00
Lat.              42.7
Long.             145.4
Depth. (km)       30
Mag.              5.7
Station Code      HKD083
Station Lat.      43.2329
Station Long.     144.3251
Station Height(m) 35
Record Time       2026/01/15 07:13:38
Sampling Freq(Hz) 100Hz
Duration Time(s)  91
Dir.              N-S
Scale Factor      7845(gal)/8223790
Max. Acc. (gal)   6.417
Last Correction   2026/01/15 07:13:38
Memo.             
[...]
    3191     2984     2928     3095     3207     2891     2560     2809 
    3258     3526     3861     4028     3665     3238     3149     3227 
    3439     3780     3991     3892     3446     2870     2639     2795 
    2928     2961     3045     3111     3123     3198     3326     3342 
    3238     3172     3125     3122     3372     3655     3634     3636 
    3839     3684     3132     2781     2852     3379     4010     3847 
    2975     2435     2388     2550     3053     3599     3601     3250 
    3049     2998     2991     3130     3361     3500     3501     3362 
    3190     3234     3508     3828     4050     3894     3323     2781 
    2602     2816     3204     3284     2986     2855     3144     3574 
    3854     3782     3308     2822     2808     3110     3299     3376 
    3408     3364     3438     3591     3404     2961     2790     3084 
    3616     3962     3716     2982     2421     2509     3080     3655 
    3933     3910     3632     3225     2968     2965     3075     3177 
    3191     3132     3140     3214     3221     3153     3051     2925 
    2910     3083     3370     3620     3578     3196     2916     3179 
    3711     3842     3580     3438     3406     3173     2880     2857 
    3090     3319     3314     3057     2930     3273     3763     3892 
    3634     3221     2867     2795     3071     3516     3871     3960 
    3661     3064     2652     2748     3036     3096     3057     3202 
    3357     3275     3106     3053     3026     2844     2650     2817 
    3283     3627     3834     4005     3766     3046     2531     2651 
    3161     3708     3997     3784     3152     2660     2810     3422 
    3882     3788     3242     2799     2890     3323     3705     3827 
    3651     3370     3272     3383     3450     3366     3299     3304 
    3248     3111     2956     2818     2845     3122     3419     3508 
    3391     3107     2816     2806     3067     3312     3476     3547 
    3366     3057     2940     3007     3238     3670     3970     3842 
    3465     3086     2828     2867     3184     3503     3661     3649 
    3576     3686     3852     3655     3241     3014     2895     2682 
    2527     2643     3017     3493     3836     3843     3586     3353 
    3242     3126     3025     3069     3186     3264     3365     3427 
    3253     3042     3169     3426     3511     3535     3396     2928 
    2431     2311     2710     3392     3816     3771     3597     3518 
    3407     3246     3171     3244     3441     3650     3784     3773 
    3507     3110     2913     2944     2928     2843     2910     3102 
    3264     3416     3518     3456     3248     3034     2998     3105 
    3144     3114     3142     3229     3352     3541     3750     3885 
    3775     3289     2698     2371     2389     2679     2978     3094 
    3226     3395     3353     3231     3396     3839     4193     4159 
    3701     3157     3017     3327     3682     3767     3555     3173 
    2790     2539     2436     2502     2797     3106     3172     3191 
    3491     3967     4207     4017     3626     3335     3175     3037 
    2959     3102     3480     3869     3986     3705     3211     2847 
    2691     2613     2620     2778     3055     3346     3403     3134 
    2928     3105     3450     3663     3724     3611     3369     3303 
    3501     3724     3801     3565     3049     2720     2774     3002 
    3273     3380     3284     3431     3820     3843     3515     3322 
    3268     3161     2974     2797     2783     2879     2875     2782 
    2786     2986     3289     3473     3370     3171     3192     3334 
    3352     3349     3434     3562     3805     4081     4066     3670 
    3102     2613     2462     2671     2882     2795     2600     2646 
    2994     3472     3790     3762     3559     3385     3248     3238 
    3319     3242     3017     2863     2894     3084     3268     3396 
    3550     3654     3570     3329     3014     2727     2667     2938 
    3292     3393     3245     3156     3289     3458     3526     3518 
    3447     3445     3582     3616     3473     3415     3462     3389 
    3233     3127     2990     2835     2875     3109     3271     3265 
    3343     3608     3709     3434     3084     3017     3165     3237 
    3333     3731     4129     4047     3636     3284     3071     2938 
    2744     2466     2498     3048     3670     3816     3414     2898 
    2795     3121     3396     3308     2990     2685     2577     2803 
    3360     3916     4037     3761     3535     3538     3462     3029 
    2512     2408     2720     3100     3376     3538     3658     3800 
    3827     3647     3438     3422     3681     3997     4029     3875 
    3773     3586     3238     2982     2940     2909     2727     2592 
    2706     2868     2817     2644     2660     2929     3173     3279 
    3372     3430     3396     3334     3244     3091     2976     3046 
    3206     3225     3146     3186     3310     3384     3426     3427 
    3365     3303     3196     2986     2911     3145     3439     3607 
    3709     3780     3856     4012     4012     3607     3195     3227 
    3388     3326     3204     3140     3075     3086     3262     3537 
    3680     3499     3171     3052     3217     3484     3663     3713 
    3774     3886     3908     3750     3439     3069     2725     2359 
    1925     1649     1872     2492     2948     2956     2864     3083 
    3451     3578     3576     3750     3994     4055     3924     3631 
    3150     2729     2717     2983     3079     2933     2901     3115 
    3326     3395     3362     3114     2673     2452     2691     3138 
    3446     3526     3591     3839     4117     4199     4109     3856 
    3457     3144     2999     2794     2511     2421     2614     2907 
    3057     2982     2813     2668     2698     3090     3746     4302 
    4411     4033     3523     3165     2960     2967     3184     3379 
    3469     3597     3757     3780     3550     3150     2874     2894 
    3071     3277     3504     3646     3638     3600     3615     3638 
    3636     3561     3291     2882     2628     2587     2560     2585 
    2821     3184     3488     3580     3384     3105     3001     2983 
    2839     2687     2887     3451     3942     4020     3780     3593 
    3680     3838     3848     3771     3554     3094     2770     2961 
    3384     3580     3551     3488     3384     3208     3109     3223 
    3375     3295     3115     3144     3358     3519     3547     3507 
    3393     3129     2760     2515     2581     2845     3001     2951 
    2857     2875     3067     3326     3361     3073     2782     2673 
    2539     2378     2511     3013     3596     3977     4043     3838 
    3510     3215     3075     3159     3460     3816     3952     3705 
    3256     3044     3269     3474     3161     2574     2262     2390 
    2813     3308     3616     3591     3335     2979     2632     2506 
    2678     3071     3632     4082     4017     3545     3075     2833 
    2968     3414     3705     3600     3354     3186     3132     3295 
    3694     4083     4113     3684     3099     2782     2887     3241 
    3593     3883     4160     4378     4379     3967     3183     2559 
    2577     2955     3163     3145     2951     2509     2049     2015 
    2535     3229     3622     3651     3604     3595     3549     3592 
    3765     3750     3593     3619     3582     3223     2911     2820 
    2647     2378     2293     2501     2976     3543     3948     4094 
    3946     3550     3213     3225     3546     3919     4055     3748 
    3142     2628     2444     2663     3134     3487     3582     3562 
    3518     3461     3402     3307     3172     3078     2968     2640 
    2062     1524     1420     1921     2816     3734     4414     4766 
    4764     4436     3982     3634     3578     3804     3915     3697 
    3449     3244     2880     2617     2779     3084     3194     3091 
    2805     2562     2732     3164     3384     3408     3456     3456 
    3437     3495     3473     3323     3279     3420     3559     3547 
    3504     3667     3959     3958     3447     2754     2404     2523 
    2901     3483     4104     4336     4252     4198     4031     3680 
    3445     3325     3250     3446     3816     3993     3935     3645 
    3102     2756     2944     3277     3433     3478     3376     3195 
    3059     2714     2119     1844     2251     3015     3635     3812 
    3558     3246     3157     3213     3246     3132     2951     2936 
    3161     3501     3678     3559     3438     3411     3223     3025 
    3229     3800     4390     4658     4421     3859     3387     3302 
    3688     4320     4719     4681     4349     3797     3082     2520 
    2358     2425     2550     2882     3489     4151     4581     4610 
    4355     4113     3977     3956     4209     4666     4928     4669 
    3861     2799     1952     1567     1669     2182     2837     3315 
    3492     3410     3084     2629     2331     2274     2307     2361 
    2411     2442     2511     2617     2683     2652     2577     2567 
    2681     2994     3447     3638     3296     2754     2409     2193 
    1931     1651     1509     1802     2493     2982     3024     2988 
    3030     3111     3352     3690     3985     4274     4353     3820 
    2794     1848     1391     1536     2056     2390     2180     1597 
    1196     1613     2971     4579     5641     5891     5479     4807 
    4267     3956     3780     3577     3323     3311     3727     4382 
    4955     5131     4733     3840     2666     1559      891      834 
    1398     2307     2970     3165     3250     3488     3843     4171 
    4180     3789     3335     2940     2521     2407     2879     3581 
    4097     4344     4205     3658     3015     2454     1969     1865 
    2412     3310     4020     4257     4162     4141     4338     4475 
    4322     3858     3113     2312     1925     2193     2821     3287 
    3264     2690     1906     1672     2359     3342     3782     3555 
    3107     2987     3561     4608     5503     5879     5671     4974 
    4180     3804     4064     4652     4877     4252     2941     1563 
     676      502      899     1507     2031     2334     2378     2285 
    2201     2150     2232     2501     2779     3053     3553     4256 
    4920     5436     5663     5354     4673     3993     3329     2785 
    2623     2674     2760     3046     3234     2722     1752     1181 
    1433     2365     3335     3456     2759     2396     2862     3361 
    3258     2781     2353     2245     2542     2961     3179     3156 
    2963     2741     2685     2857     3372     4368     5557     6372 
    6582     6268     5540     4644     3916     3527     3487     3790 
    4363     4918     5038     4554     3716     2884     2361     2312 
    2559     2808     3015     3107     2894     2502     2408     2978 
    4023     4803     4799     4176     3283     2373     1845     2019 
    2833     3942     4795     4787     3777     2365     1331     1042 
    1364     1896     2423     2960     3393     3630     3704     3488 
    2957     2516     2538     2910     3176     3125     3028     2994 
    2740     2297     2154     2529     3159     3712     3985     3931 
    3661     3296     2941     2693     2636     2840     3191     3281 
    2759     1752      839      527      973     2191     3955     5455 
    5827     5109     4018     3038     2301     1738     1148      723 
    1104     2562     4599     6338     7082     6752     5861     4947 
    4147     3415     2787     2461     2798     3870     5096     5814 
    5918     5603     4950     4044     3060     2033      996      233 
     -17      280     1159     2405     3507     4230     4592     4472 
    3886     3222     2911     3015     3056     2597     1944     1761 
    2130     2463     2434     2461     3014     4185     5860     7406 
    7731     6480     4484     2774     1896     2089     3264     4795 
    5806     5852     5121     4008     2897     2057     1387      729 
     217       18      271     1188     2758     4491     5694     6034 
    5607     4584     3179     1829     1082     1197     1948     2997 
    4128     5119     5834     6129     5644     4299     2513      679 
    -859    -1479     -715     1098     3090     4693     5881     6660 
    6814     6292     5509     4949     4658     4422     4166     3894 
    3599     3414     3530     3862     4063     3998     3878     3774 
    3408     2527     1300      329      141      684     1634     2906 
    4329     5340     5512     4774     3206     1366      252      324 
    1251     2496     3562     4055     3734     2648     1347      491 
     314      691     1336     1900     2188     2362     2744     3298 
    3646     3605     3408     3437     3839     4492     5243     5935 
    6340     6309     5994     5676     5413     4981     4203     3231 
    2509     2365     2720     3237     3646     3870     3916     3777 
    3476     3103     2841     3038     3925     5031     5389     4614 
    3191     1849     1088      830      558      156      113      816 
    2029     3118     3646     3549     2999     2351     2015     2189 
    2839     3813     4711     5032     4819     4631     4854     5391 
    5844     5904     5607     5085     4351     3484     2651     1996 
    1810     2470     3834     5186     6000     6041     4981     2818 
     152    -2230    -3462    -2984    -1165     1144     3383     5256 
    6509     6997     6808     6085     4970     3829     3084     2891 
    3029     2938     2243     1291      916     1614     3033     4321 
    4799     4359     3476     2667     2077     1819     2169     3132 
    4170     4689     4665     4554     4699     4866     4361     2984 
    1660     1464     2371     3437     3946     3920     3561     2847 
    1829      838      414      907     2011     3078     3792     4040 
    3649     2909     2652     3265     4201     4611     4058     2840 
    1769     1402     1718     2552     3666     4556     4792     4450 
    3990     3807     3885     3905     3643     2971     1906     1058 
    1212     2232     3222     3528     3037     2143     1633     2027 
    3106     4293     5094     5201     4626     3769     3283     3713 
    4888     5942     6119     5179     3500     2038     1628     2299 
    3460     4402     4568     3900     2979     2296     1737     1169 
     770      638      612      540      550      826     1163     1227 
    1100     1375     2555     4191     5202     5196     4757     4360 
    3843     3226     3225     4450     6457     7967     8127     7222 
    6015     4746     3268     1834     1127     1544     2697     3674 
    3892     3558     3248     3318     3784     4342     4517     4051 
    3002     1699      851     1115     2556     4731     6737     7446 
    6473     4553     2751     1719     1680     2478     3608     4544 
    4950     4630     3774     3140     3424     4371     4924     4399 
    3007     1387      205      -66      657     2134     3897     5414 
    6273     6235     5320     3827     2238     1093      793     1250 
    1802     1931     1918     2447     3790     5535     6951     7577 
    7453     6752     5458     3634     1690       91     -858     -888 
      97     1811     3613     4765     4959     4421     3456     2322 
    1171       21     -797     -596      874     3169     5514     7079 
    7450     7040     6588     6396     6215     5621     4490     3086 
    1840     1067      768      747      943     1381     2091     3141 
    4392     5490     6123     5913     4560     2479      670     -211 
    -241      157      648     1094     1420     1485     1417     1734 
    2682     3859     4691     4826     4139     2794     1314      414 
     666     2027     3693     4762     4941     4526     4044     3771 
    3559     3161     2596     2205     2300     2844     3635     4459 
    4990     5076     4922     4612     3874     2775     1950     1834 
    2301     2941     3399     3790     4515     5609     6778     7749 
    8333     8436     8010     7009     5471     3565     1586       20 
    -679     -480      276     1251     2172     2754     2794     2385 
    1869     1564     1632     2035     2435     2474     2339     2555 
    3279     4297     5283     5769     5485     4688     3824     3192 
    2866     2812     3090     3657     4113     3940     3030     1911 
    1201      896      607      237        4        8      257      784 
    1520     2397     3415     4430     5220     5725     6002     6127 
    6114     5868     5414     5040     5030     5382     5734     5555 
    4648     3353     2258     1798     1910     2176     2239     1966 
    1476     1088      989     1096     1293     1520     1732     2083 
    2798     3770     4679     5290     5435     5007     4083     2940 
    1983     1594     1896     2637     3318     3480     3145     2893 
    3188     3889     4602     5049     5020     4372     3169     1942 
    1487     2091     3294     4503     5382     5734     5429     4518 
    3342     2415     1985     1902     2080     2691     3707     4723 
    5332     5360     4958     4437     3883     3186     2300     1356 
     754      853     1595     2774     4048     4818     4784     4294 
    3843     3608     3462     3198     2748     2209     1734     1453 
    1452     1672     1995     2482     3099     3370     2936     2169 
    1726     1794     2155     2666     3222     3596     3780     4089 
    4630     5115     5297     5113     4488     3526     2666     2239 
    2049     1742     1480     1738     2413     2933     3184     3438 
    3767     4214     4935     5857     6494     6358     5501     4490 
    3919     4025     4639     5279     5350     4594     3416     2517 
    2301     2689     3366     4039     4507     4649     4426     3888 
    3107     2273     1756     1771     2060     2195     2080     1902 
    1788     1732     1711     1794     2083     2566     3119     3488 
    3385     2956     2694     2745     2836     2791     2629     2390 
    2162     2088     2208     2417     2637     2975     3562     4329 
    5171     6010     6593     6701     6424     5944     5398     4980 
    4714     4348     3723     2909     2084     1501     1345     1725 
    2683     3870     4546     4332     3565     2755     2214     2218 
    2776     3430     3740     3586     2978     2076     1306     1129 
    1661     2520     3107     3177     3032     3017     3171     3406 
    3618     3686     3645     3670     3788     3802     3604     3150 
    2349     1340      538      195      276      610     1001     1337 
    1510     1416     1260     1574     2604     3960     5050     5576 
    5509     4992     4379     4086     4297     4873     5593     6262 
    6570     6237     5278     4002     2808     1911     1333     1031 
    1000     1317     1876     2308     2436     2438     2631     3175 
    3893     4455     4648     4510     4390     4591     5008     5282 
    5169     4742     4240     3700     3072     2535     2388     2727 
    3226     3306     2700     1819     1449     2043     3362     4704 
    5417     5378     4874     4170     3346     2390     1416      749 
