Origin Time       2026/01/15 07:13:00
Lat.              42.7
Long.             145.4
Depth. (km)       30
Mag.              5.7
Station Code      HKD066
Station Lat.      43.6619
Station Long.     145.1307
Station Height(m) 3
Record Time       2026/01/15 07:13:35
Sampling Freq(Hz) 100Hz
Duration Time(s)  132
Dir.              N-S
Scale Factor      7845(gal)/8223790
Max. Acc. (gal)   14.350
Last Correction   2026/01/15 07:13:35
Memo.             
[...]
    6847     6851     6845     6813     6806     6864     6916     6893 
    6848     6867     6933     6959     6907     6817     6739     6720 
    6777     6844     6862     6868     6893     6891     6853     6836 
    6890     6959     6947     6880     6863     6924     7010     7040 
    6983     6889     6816     6809     6878     6951     6949     6880 
    6822     6812     6821     6808     6770     6777     6864     6928 
    6906     6903     6964     7025     7013     6925     6851     6821 
    6786     6754     6747     6781     6882     6976     6993     6975 
    6945     6898     6852     6843     6897     6974     7010     6957 
    6828     6732     6710     6706     6720     6751     6782     6878 
    7037     7105     6983     6778     6662     6620     6547     6519 
    6636     6822     6970     7006     6926     6833     6798     6804 
    6833     6902     6987     7020     7003     7002     6957     6836 
    6797     6909     7038     7076     7022     6940     6901     6864 
    6750     6619     6586     6644     6752     6897     7021     7047 
    6947     6791     6705     6733     6828     6920     6921     6839 
    6782     6755     6754     6866     7022     7056     7030     7068 
    7079     6984     6898     6930     7040     7111     7134     7163 
    7203     7256     7295     7217     6986     6712     6531     6554 
    6786     7051     7191     7245     7227     7092     6959     6984 
    7091     7128     7126     7134     7098     7007     6948     6979 
    7091     7190     7159     7010     6817     6606     6430     6363 
    6405     6496     6621     6799     6961     7014     7017     7079 
    7198     7312     7345     7254     7123     7061     7048     6986 
    6876     6775     6731     6774     6859     6928     6997     7045 
    7026     6940     6789     6602     6450     6380     6404     6454 
    6484     6565     6755     6975     7092     7056     6944     6855 
    6829     6847     6833     6743     6619     6534     6471     6376 
    6296     6334     6484     6650     6760     6797     6804     6855 
    6971     7138     7295     7356     7295     7126     6955     6924 
    7021     7130     7236     7329     7326     7203     7033     6894 
    6817     6733     6633     6652     6832     7015     7075     7032 
    6913     6741     6621     6655     6860     7096     7137     6956 
    6716     6550     6500     6531     6586     6647     6704     6710 
    6613     6444     6308     6264     6332     6509     6758     7072 
    7462     7866     8139     8193     8100     7950     7770     7612 
    7560     7591     7614     7580     7427     7099     6659     6274 
    6083     6114     6336     6664     6993     7285     7481     7488 
    7369     7246     7132     7030     6991     7001     6990     6937 
    6852     6693     6480     6346     6323     6285     6146     5946 
    5779     5711     5736     5751     5772     5948     6234     6434 
    6548     6701     6909     7119     7271     7398     7595     7770 
    7730     7530     7365     7196     6894     6550     6404     6525 
    6768     7037     7357     7655     7804     7773     7589     7376 
    7280     7272     7264     7294     7338     7238     7010     6871 
    6887     6844     6617     6372     6268     6255     6231     6173 
    6124     6139     6180     6170     6139     6147     6158     6137 
    6095     6034     5981     6022     6230     6596     7045     7454 
    7673     7670     7566     7412     7146     6840     6675     6725 
    6967     7304     7646     7986     8235     8216     7985     7805 
    7784     7800     7707     7469     7149     6829     6552     6376 
    6400     6637     6983     7310     7501     7479     7242     6859 
    6388     5876     5420     5117     4999     5098     5441     5960 
    6534     7045     7414     7663     7844     7935     7862     7585 
    7190     6867     6720     6662     6651     6794     7076     7299 
    7341     7299     7303     7311     7233     7122     7053     7036 
    7096     7196     7218     7144     7038     6979     7048     7203 
    7231     7007     6664     6420     6346     6370     6450     6585 
    6712     6741     6644     6458     6297     6282     6384     6475 
    6511     6507     6467     6389     6270     6102     5904     5751 
    5699     5791     6088     6556     7033     7389     7619     7744 
    7786     7843     8008     8259     8523     8742     8881     8918 
    8769     8353     7738     7048     6336     5661     5135     4885 
    4938     5154     5445     5876     6409     6858     7107     7173 
    7138     7098     7102     7164     7364     7701     7898     7682 
    7164     6602     6096     5676     5422     5405     5579     5822 
    6056     6254     6435     6658     6933     7280     7701     8024 
    8074     7971     7917     7896     7805     7645     7431     7160 
    6853     6561     6362     6336     6493     6781     7133     7468 
    7742     7924     7946     7778     7492     7254     7300     7658 
    8008     8041     7743     7217     6511     5698     4935     4423 
    4301     4572     5130     5799     6373     6721     6839     6802 
    6693     6563     6507     6596     6779     6988     7234     7516 
    7753     7821     7686     7468     7348     7434     7650     7796 
    7746     7511     7211     7024     7028     7164     7346     7458 
    7356     7055     6767     6623     6559     6490     6407     6353 
    6345     6357     6381     6421     6482     6563     6636     6683 
    6720     6750     6723     6586     6386     6297     6453     6789 
    7107     7246     7183     6982     6662     6253     5903     5725 
    5726     5922     6272     6664     7076     7539     7994     8306 
    8391     8282     8104     8023     8060     8089     8058     8000 
    7842     7474     6951     6448     6119     5994     5979     5962 
    5985     6149     6440     6702     6767     6602     6322     6041 
    5859     5850     6014     6261     6451     6471     6384     6378 
    6565     6882     7204     7492     7805     8171     8540     8822 
    8893     8707     8325     7812     7252     6748     6327     6021 
    5917     6002     6134     6222     6305     6448     6639     6797 
    6897     7028     7230     7400     7469     7487     7511     7510 
    7414     7217     6991     6763     6505     6255     6077     5891 
    5595     5312     5260     5490     5877     6277     6637     6986 
    7331     7641     7952     8278     8446     8295     7886     7431 
    7075     6868     6813     6835     6809     6740     6750     6883 
    7048     7156     7163     7055     6909     6818     6799     6878 
    7040     7199     7345     7514     7619     7510     7179     6767 
    6388     6049     5753     5593     5690     6039     6496     6920 
    7225     7350     7264     6991     6620     6253     5981     5921 
    6139     6548     6983     7364     7655     7793     7704     7379 
    6974     6755     6875     7245     7636     7900     8052     8106 
    7977     7654     7258     6894     6598     6319     5953     5580 
    5390     5375     5422     5539     5783     6146     6573     6978 
    7257     7358     7322     7311     7429     7565     7555     7388 
    7164     6960     6758     6523     6316     6230     6246     6274 
    6251     6245     6401     6758     7196     7601     7924     8167 
    8364     8486     8382     7981     7408     6836     6370     6108 
    6079     6183     6307     6405     6423     6334     6170     5987 
    5891     6008     6285     6521     6664     6859     7196     7618 
    7992     8148     7987     7628     7271     7036     6943     6944 
    7021     7136     7126     6885     6488     6077     5800     5806 
    6142     6713     7315     7746     7950     8009     7985     7866 
    7661     7433     7195     6929     6741     6794     7069     7360 
    7454     7280     6928     6588     6372     6269     6269     6336 
    6397     6419     6400     6380     6470     6678     6870     6999 
    7074     7007     6785     6534     6382     6419     6642     6920 
    7111     7163     7071     6895     6740     6678     6705     6809 
    6999     7252     7458     7557     7574     7454     7114     6633 
    6157     5815     5733     5942     6326     6767     7169     7408 
    7434     7349     7277     7311     7491     7732     7906     7959 
    7862     7582     7165     6723     6346     6064     5877     5817 
    5946     6282     6732     7140     7399     7530     7607     7599 
    7430     7138     6856     6708     6732     6820     6802     6613 
    6232     5682     5155     4918     5074     5501     5988     6413 
    6723     6867     6930     7059     7234     7318     7261     7129 
    7051     7140     7415     7777     8136     8479     8761     8904 
    8920     8816     8476     7835     7015     6151     5333     4726 
    4445     4468     4795     5406     6118     6732     7132     7241 
    7161     7140     7311     7607     7855     7921     7747     7348 
    6833     6315     5865     5559     5455     5595     5960     6377 
    6627     6637     6459     6208     6079     6257     6772     7464 
    8110     8577     8842     8918     8812     8572     8270     7956 
    7700     7582     7608     7632     7481     7126     6674     6227 
    5860     5609     5474     5440     5459     5485     5568     5784 
    6083     6362     6577     6683     6723     6883     7238     7597 
    7788     7785     7589     7241     6826     6381     5913     5458 
    5101     4970     5132     5517     5935     6218     6339     6367 
    6373     6459     6720     7129     7570     7947     8210     8382 
    8522     8646     8703     8650     8517     8303     7970     7558 
    7186     6889     6636     6424     6250     6108     6014     5968 
    5971     6035     6158     6299     6413     6493     6534     6559 
    6655     6890     7217     7503     7649     7619     7453     7254 
    7138     7092     6999     6768     6432     6133     5992     6046 
    6316     6814     7412     7854     7977     7780     7380     7002 
    6759     6559     6366     6242     6226     6345     6574     6808 
    6944     6895     6628     6231     5853     5637     5676     5923 
    6266     6617     6886     7015     7057     7110     7238     7452 
    7743     8073     8314     8336     8121     7773     7426     7173 
    6991     6829     6704     6639     6691     6932     7317     7709 
    8010     8147     8079     7900     7755     7673     7566     7454 
    7488     7701     7965     8168     8280     8266     8074     7704 
    7257     6882     6597     6286     5948     5702     5568     5425 
    5206     4981     4823     4760     4819     4978     5124     5138 
    5003     4870     4980     5447     6172     6909     7426     7643 
    7578     7295     6941     6632     6316     5915     5483     5209 
    5233     5502     5853     6111     6143     6026     5995     6204 
    6721     7503     8367     9216    10069    10866    11475    11766 
   11626    11060    10319     9717     9360     9216     9202     9119 
    8829     8406     7963     7547     7198     6906     6609     6291 
    6066     6033     6162     6424     6826     7364     8020     8691 
    9140     9201     8891     8266     7349     6249     5107     4012 
    3091     2492     2286     2474     2924     3419     3851     4260 
    4710     5250     5883     6507     6956     7126     7021     6748 
    6486     6415     6631     7133     7804     8449     8931     9235 
    9443     9634     9788     9868     9927    10000    10048    10022 
    9915     9756     9524     9135     8619     8156     7902     7936 
    8276     8818     9335     9543     9220     8372     7284     6362 
    5907     6029     6621     7346     7805     7732     7001     5687 
    4068     2465     1121      253        4      351     1139     2193 
    3311     4221     4639     4419     3663     2682     1794     1139 
     695      479      608     1150     2138     3619     5516     7631 
    9738    11635    13173    14226    14686    14485    13643    12417 
   11284    10612    10439    10532    10524    10068     8950     7165 
    4973     2821     1220      589     1131     2808     5313     8131 
   10708    12494    13034    12326    10867     9236     7871     7051 
    6775     6822     6913     6824     6453     5761     4634     2895 
     548    -2065    -4371    -5802    -5958    -4715    -2223     1165 
    4976     8626    11523    13188    13475    12638    11063     9188 
    7522     6497     6362     7117     8544    10351    12186    13625 
   14260    13771    12164     9880     7553     5736     4693     4352 
    4567     5217     5938     6220     5929     5420     5186     5572 
    6720     8638    11226    14112    16501    17450    16524    14027 
   10647     7176     4259     2118      712       29       17      457 
     994     1231      931      232     -446     -607      166     1942 
    4414     7334    10605    13987    17064    19160    19392    17394 
   13749     9568     5923     3422     2015     1275      901      939 
    1680     3219     5116     6694     7501     7437     6824     6390 
    6858     8411    10592    12645    14095    14991    15682    16397 
   16965    16938    15994    14192    11863     9277     6400     3071 
    -643    -4255    -6947    -8156    -7982    -6721    -4599    -1948 
     874     3495     5707     7665     9544    11367    12988    14220 
   15082    15750    16283    16499    16210    15500    14497    13112 
   11237     8995     6782     5062     3933     3102     2290     1317 
      54    -1393    -2628    -3213    -2957    -1938     -345     1552 
    3512     5337     6856     8230     9853    11631    13104    13967 
   13990    12965    10912     8117     5093     2455      720      147 
     777     2535     5074     7711     9734    10561     9699     7113 
    3541       87    -2154    -2224      156     4423     9630    14527 
   17830    18925    17872    14974    10804     6342     2681      757 
    1208     3843     7553    11014    13296    14100    13667    12309 
   10368     8425     7053     6474     6646     7398     8353     8941 
    8719     7807     6840     6496     7063     8360     9853    10945 
   11288    10808     9566     7646     5088     2058     -962    -3325 
   -4448    -4078    -2351      364     3546     6592     8978    10431 
   11026    11063    10785    10253     9456     8480     7472     6450 
    5401     4517     4152     4525     5479     6520     7082     6809 
    5610     3750     1962     1177     2008     4471     8014    11730 
   14507    15421    14311    11813     8810     6139     4567     4479 
    5645     7508     9603    11565    12904    13081    11934     9775 
    7186     4864     3420     3078     3595     4531     5464     6056 
    6212     6201     6340     6706     7325     8214     9242    10199 
   10874    11107    10868    10197     9231     8340     7936     8032 
    8205     8024     7360     6195     4417     1993     -804    -3443 
   -5196    -5306    -3427       93     4355     8352    11492    13656 
   14781    14729    13531    11425     8862     6509     4926     4264 
    4290     4509     4487     4176     3793     3491     3254     2984 
    2651     2392     2529     3387     4961     6831     8372     9124 
    9085     8552     7831     7311     7352     7874     8537     9205 
    9942    10779    11738    12789    13728    14258    14197    13537 
   12483    11306     9995     8279     6021     3238       33    -3161 
   -5593    -6555    -5682    -3123      440     4099     7221     9753 
   11893    13521    14355    14355    13636    12306    10497     8272 
    5682     3094     1161      383      827     2076     3460     4433 
    4648     3981     2737     1615     1255     1858     3222     4968 
    6704     8151     9212     9910    10234    10077     9441     8602 
    7896     7511     7457     7700     8322     9379    10686    12033 
   13435    14982    16661    18276    19449    19823    19226    17716 
   15495    12868    10089     7238     4419     1999      337     -515 
    -695     -261      800     2376     4099     5472     6153     6154 
    5709     5020     4297     3777     3638     3936     4637     5578 
    6461     7069     7483     7905     8320     8471     8209     7696 
    7227     6998     7055     7314     7618     7827     7819     7508 
    6978     6419     5802     4874     3561     2138      999      425 
     588     1540     3137     5036     6824     8228     9185     9660 
    9679     9437     9093     8737     8607     8966     9849    11045 
   12124    12573    12117    10736     8532     5902     3657     2502 
    2533     3366     4473     5382     5849     5830     5375     4737 
    4320     4347     4752     5331     5941     6562     7128     7472 
    7488     7159     6432     5351     4274     3717     4047     5351 
    7375     9522    11188    12060    12104    11511    10594     9494 
    8191     6821     5703     5059     4872     5070     5579     6249 
    6963     7742     8607     9387     9864    10048    10044     9833 
    9445     9045     8722     8451     8143     7716     7242     6863 
    6489     5827     4700     3125     1275     -469    -1606    -1752 
    -826      882     2918     4997     7037     8954    10638    12094 
   13400    14449    15001    14893    13953    12035     9327     6270 
    3234      476    -1652    -2752    -2694    -1782     -614      328 
    1059     1945     3315     5290     7678    10050    11951    13028 
   13127    12314    10843     9173     7800     6952     6640     6843 
    7480     8384     9339    10073    10471    10716    11016    11415 
   11790    11754    10859     8978     6459     3912     1868      696 
     669     1749     3419     5035     6224     6890     7123     7141 
    7156     7353     7828     8494     9185     9792    10211    10264 
    9823     8939     7790     6639     5868     5841     6644     8016 
    9413    10215    10073     9078     7632     6340     5780     6170 
    7237     8384     9030     8922     8077     6470     4148     1526 
    -768    -2286    -3007    -3146    -2678    -1443      375     2388 
    4340     6183     8071    10172    12366    14273    15495    15800 
   15138    13590    11419     9117     7192     5883     5169     4895 
    4680     4171     3396     2612     2072     1953     2253     2917 
    3952     5364     7140     9240    11541    13757    15512    16556 
   16854    16476    15539    14196    12517    10449     7998     5362 
    2859      835     -449     -926     -720      -71      791     1687 
    2519     3280     4029     4764     5408     5913     6293     6585 
    6824     7013     7132     7230     7431     7727     7992     8128 
    8089     7863     7528     7136     6633     5938     5009     3886 
    2789     2107     2188     3207     5067     7399     9726    11523 
   12410    12480    12228    12199    12752    13945    15627    17532 
   19256    20275    20097    18455    15476    11700     7809     4268 
    1318     -832    -2073    -2506    -2338    -1746     -881      160 
