Origin Time       2026/01/15 07:13:00
Lat.              42.7
Long.             145.4
Depth. (km)       30
Mag.              5.7
Station Code      HKD077
Station Lat.      42.9845
Station Long.     144.3824
Station Height(m) 3
Record Time       2026/01/15 07:13:42
Sampling Freq(Hz) 100Hz
Duration Time(s)  67
Dir.              E-W
Scale Factor      7845(gal)/8223790
Max. Acc. (gal)   7.646
Last Correction   2026/01/15 07:13:43
Memo.             
[...]
   -1632    -2018    -2158    -2097    -1968    -1757    -1435    -1100 
    -838     -807    -1177    -1745    -2103    -2062    -1659    -1098 
    -777    -1046    -1827    -2656    -3109    -3125    -2855    -2465 
   -2122    -1938    -1944    -2151    -2467    -2658    -2519    -1998 
   -1242     -571     -414    -1020    -2038    -2762    -2880    -2609 
   -2300    -2197    -2370    -2613    -2590    -2293    -2038    -1848 
   -1485     -942     -400      -25       28     -361    -1078    -1676 
   -1821    -1599    -1387    -1551    -1995    -2280    -2292    -2165 
   -1881    -1507    -1344    -1510    -1769    -1872    -1877    -1927 
   -1877    -1590    -1267    -1208    -1622    -2452    -3127    -3157 
   -2778    -2446    -2319    -2459    -2744    -2767    -2389    -1926 
   -1609    -1354    -1204    -1328    -1510    -1444    -1286    -1320 
   -1432    -1325    -1073     -965     -989    -1088    -1348    -1595 
   -1626    -1652    -1881    -2160    -2263    -2177    -1923    -1470 
   -1007     -874    -1144    -1603    -2060    -2459    -2675    -2485 
   -1935    -1366    -1009     -982    -1424    -2195    -2689    -2408 
   -1582     -981    -1228    -2232    -3277    -3765    -3627    -3140 
   -2566    -1923    -1243     -839     -839     -820     -382      306 
     738      522     -402    -1629    -2570    -3055    -3218    -3103 
   -2772    -2362    -2068    -2034    -2112    -2030    -1831    -1745 
   -1780    -1683    -1287     -830     -704    -1074    -1817    -2478 
   -2643    -2488    -2523    -2911    -3335    -3491    -3370    -2978 
   -2338    -1683    -1248    -1148    -1327    -1613    -1952    -2249 
   -2182    -1637     -958     -610     -780    -1170    -1391    -1476 
   -1514    -1389    -1255    -1420    -1761    -1827    -1355     -685 
    -580    -1148    -1605    -1529    -1251    -1051     -985    -1062 
   -1185    -1341    -1717    -2401    -3187    -3778    -4050    -3874 
   -3110    -2127    -1576    -1464    -1355    -1150    -1004    -1021 
   -1229    -1553    -1858    -2015    -1972    -1891    -1968    -2107 
   -2091    -1912    -1638    -1348    -1273    -1545    -1849    -1713 
   -1142     -592     -441     -738    -1312    -1890    -2226    -2309 
   -2319    -2332    -2408    -2579    -2440    -1645     -766     -526 
    -837    -1363    -1984    -2496    -2681    -2567    -2390    -2401 
   -2602    -2697    -2397    -1895    -1711    -1871    -1884    -1664 
   -1564    -1701    -1898    -2019    -1961    -1647    -1271    -1098 
   -1140    -1333    -1547    -1603    -1674    -1969    -2155    -1871 
   -1337     -985     -967    -1267    -1898    -2648    -2948    -2475 
   -1528     -684     -486    -1008    -1719    -2178    -2304    -2192 
   -2122    -2293    -2528    -2536    -2280    -1972    -1846    -1975 
   -2176    -2234    -2166    -1996    -1741    -1549    -1455    -1475 
   -1715    -2006    -2045    -1811    -1439    -1097    -1005    -1201 
   -1510    -1799    -1966    -1907    -1575    -1097     -781     -791 
   -1009    -1263    -1526    -1840    -2091    -2155    -2089    -2003 
   -2015    -2154    -2223    -2095    -1817    -1417    -1047    -1026 
   -1486    -2065    -2188    -1782    -1310    -1174    -1390    -1719 
   -1992    -2216    -2350    -2228    -1779    -1235     -946     -990 
   -1192    -1413    -1611    -1771    -1950    -2182    -2349    -2336 
   -2149    -1818    -1472    -1354    -1584    -2070    -2477    -2463 
   -2127    -1869    -1906    -2104    -2107    -1809    -1625    -1904 
   -2438    -2764    -2679    -2423    -2270    -2149    -1857    -1433 
   -1177    -1360    -1846    -2157    -2122    -2002    -1945    -1917 
   -1838    -1664    -1548    -1540    -1453    -1314    -1356    -1638 
   -1908    -1960    -1921    -1840    -1579    -1175     -804     -626 
    -781    -1273    -1918    -2481    -2783    -2731    -2416    -2081 
   -1917    -1895    -1813    -1586    -1271     -936     -815    -1065 
   -1478    -1773    -1854    -1814    -1881    -2118    -2266    -2080 
   -1665    -1387    -1456    -1776    -2103    -2193    -1954    -1576 
   -1375    -1439    -1532    -1544    -1634    -1804    -1912    -1979 
   -2004    -1884    -1687    -1610    -1684    -1806    -1915    -1980 
   -2011    -2089    -2245    -2444    -2597    -2463    -1904    -1124 
    -568     -550     -918    -1260    -1390    -1464    -1733    -2169 
   -2513    -2517    -2118    -1624    -1363    -1301    -1402    -1644 
   -1729    -1475    -1043     -693     -693    -1098    -1699    -2303 
   -2695    -2716    -2448    -2023    -1606    -1464    -1684    -2087 
   -2359    -2330    -2137    -1949    -1846    -1931    -2160    -2307 
   -2308    -2439    -2860    -3214    -3088    -2528    -1931    -1661 
   -1699    -1701    -1362     -812     -549     -811    -1355    -1849 
   -2154    -2257    -2147    -1868    -1479    -1108     -978    -1116 
   -1296    -1422    -1493    -1463    -1431    -1490    -1537    -1563 
   -1680    -1784    -1718    -1633    -1695    -1809    -1829    -1734 
   -1572    -1440    -1483    -1680    -1803    -1830    -1880    -1880 
   -1838    -1949    -2223    -2485    -2593    -2432    -2057    -1698 
   -1464    -1360    -1452    -1694    -1858    -1809    -1599    -1371 
   -1310    -1483    -1732    -1868    -1788    -1487    -1169    -1109 
   -1329    -1628    -1796    -1761    -1628    -1541    -1609    -1840 
   -2056    -2108    -2110    -2172    -2150    -1933    -1696    -1683 
   -1867    -2010    -2014    -2039    -2199    -2413    -2597    -2706 
   -2594    -2204    -1813    -1680    -1718    -1777    -1881    -2018 
   -2073    -2045    -1961    -1755    -1510    -1398    -1397    -1385 
   -1266    -1023     -807     -822    -1088    -1355    -1336    -1129 
   -1069    -1233    -1559    -1996    -2394    -2619    -2710    -2701 
   -2461    -2002    -1533    -1132     -866     -874    -1082    -1382 
   -1755    -2054    -2176    -2235    -2288    -2307    -2381    -2590 
   -2836    -2901    -2716    -2486    -2479    -2791    -3214    -3388 
   -3156    -2600    -1988    -1575    -1305     -999     -602     -240 
     -91     -105     -184     -438     -824    -1102    -1174    -1151 
   -1237    -1458    -1659    -1825    -1879    -1630    -1162     -722 
    -472     -484     -715    -1148    -1692    -2100    -2335    -2552 
   -2785    -3026    -3280    -3391    -3231    -2986    -2832    -2743 
   -2678    -2423    -1841    -1294     -990     -812     -878    -1228 
   -1642    -1998    -2224    -2268    -2138    -1873    -1655    -1656 
   -1759    -1755    -1624    -1460    -1363    -1340    -1323    -1215 
    -986     -822     -909    -1121    -1229    -1278    -1485    -1877 
   -2285    -2624    -2952    -3222    -3271    -3013    -2489    -1885 
   -1463    -1324    -1341    -1401    -1467    -1489    -1495    -1594 
   -1773    -1969    -2138    -2200    -2176    -2203    -2361    -2566 
   -2619    -2393    -2007    -1605    -1182     -761     -409     -152 
     -86     -280     -666    -1134    -1587    -1949    -2177    -2324 
   -2444    -2428    -2170    -1718    -1181     -773     -753    -1028 
   -1240    -1321    -1532    -1985    -2548    -3060    -3372    -3395 
   -3180    -2817    -2370    -1971    -1755    -1719    -1755    -1726 
   -1574    -1366    -1240    -1336    -1628    -1902    -2087    -2327 
   -2608    -2679    -2424    -2014    -1661    -1410    -1224    -1166 
   -1225    -1204    -1051     -861     -653     -500     -533     -791 
   -1152    -1378    -1412    -1445    -1699    -2282    -2952    -3229 
   -2956    -2382    -1722    -1020     -333      132      144     -245 
    -739    -1171    -1564    -1957    -2274    -2430    -2652    -3240 
   -3986    -4471    -4646    -4768    -4993    -5205    -5128    -4511 
   -3299    -1840     -612      264      874     1193     1250     1044 
     457     -373     -970    -1040     -788     -538     -471     -633 
    -884    -1035    -1115    -1285    -1572    -1752    -1661    -1455 
   -1350    -1433    -1694    -2003    -2312    -2678    -3014    -3267 
   -3550    -3888    -4079    -3835    -3100    -2268    -1814    -1873 
   -2232    -2659    -3084    -3396    -3491    -3496    -3472    -3252 
   -2817    -2317    -1838    -1462    -1308    -1424    -1680    -1865 
   -1849    -1567     -981     -128      835     1675     2161     2211 
    1995     1752     1587     1441     1171      785      445      125 
    -379    -1074    -1809    -2555    -3222    -3566    -3615    -3613 
   -3547    -3200    -2625    -2191    -2207    -2691    -3447    -4147 
   -4455    -4217    -3596    -2971    -2682    -2795    -3025    -3028 
   -2822    -2664    -2706    -2925    -3113    -3022    -2690    -2389 
   -2249    -2189    -2061    -1740    -1277     -859     -573     -437 
    -585    -1007    -1343    -1347    -1243    -1359    -1698    -2049 
   -2284    -2461    -2675    -2874    -2871    -2497    -1811    -1182 
   -1034    -1395    -1885    -2153    -2073    -1683    -1166     -722 
    -398     -186     -117     -147     -216     -373     -630     -843 
    -915     -932    -1081    -1532    -2336    -3215    -3713    -3674 
   -3304    -2992    -3063    -3408    -3677    -3716    -3434    -2767 
   -1888    -1124     -805    -1053    -1709    -2412    -2690    -2363 
   -1791    -1591    -2104    -3010    -3672    -3883    -3762    -3385 
   -2890    -2443    -2193    -2235    -2477    -2741    -2903    -2870 
   -2617    -2173    -1647    -1250    -1166    -1382    -1691    -1937 
   -2069    -1991    -1791    -1714    -1802    -2010    -2301    -2500 
   -2435    -2127    -1620     -951     -303      168      453      511 
     388      367      583      801      750      398      -67     -441 
    -666     -799     -967    -1390    -2084    -2717    -3022    -3037 
   -2965    -3053    -3392    -3775    -3893    -3546    -2766    -1780 
    -878     -356     -324     -503     -588     -571     -567     -731 
   -1244    -2087    -2967    -3496    -3484    -3021    -2331    -1644 
   -1057     -565     -278     -259     -321     -337     -360     -315 
     -45      440      911     1063      718     -172    -1483    -2774 
   -3619    -3983    -4005    -3735    -3221    -2570    -1900    -1250 
    -562      110      503      367     -216     -893    -1447    -1872 
   -2222    -2590    -2987    -3241    -3276    -3245    -3262    -3269 
   -3153    -2754    -1865     -588      579     1194     1150      580 
    -206     -903    -1441    -1904    -2363    -2857    -3291    -3493 
   -3437    -3218    -2924    -2629    -2417    -2301    -2166    -1806 
   -1142     -373      268      743     1089     1285     1264      850 
    -151    -1653    -3225    -4298    -4445    -3682    -2432    -1192 
    -367     -234     -773    -1617    -2312    -2592    -2397    -1915 
   -1611    -1809    -2382    -3003    -3447    -3707    -3888    -4018 
   -4032    -3946    -3848    -3715    -3365    -2647    -1711     -940 
    -469      -86      409      978     1359     1282      805      194 
    -425    -1023    -1543    -2022    -2511    -2948    -3207    -3092 
   -2473    -1551     -857     -841    -1522    -2717    -4276    -5898 
   -6998    -7061    -6103    -4739    -3689    -3218    -3183    -3381 
   -3596    -3630    -3469    -3164    -2713    -2162    -1483     -402 
    1223     2941     4008     4109     3541     2836     2358     2178 
    2157     2074     1703      950     -103    -1354    -2574    -3447 
   -3975    -4318    -4336    -3661    -2092       24     1672     1849 
     456    -1706    -3736    -5281    -6520    -7669    -8592    -8878 
   -8241    -6902    -5383    -4010    -2970    -2467    -2525    -2965 
   -3549    -3939    -3727    -2666     -873     1057     2226     2116 
    1183      459      560     1240     1780     1657      931       94 
    -355     -294      -49      -31     -423    -1170    -1935    -2401 
   -2694    -3107    -3557    -3588    -2924    -1880    -1019     -681 
    -826    -1062    -1047     -708      -95      567      828      313 
   -1039    -2836    -4311    -4853    -4368    -3160    -1806     -935 
    -815    -1317    -2141    -2878    -3256    -3345    -3453    -3850 
   -4417    -4722    -4461    -3618    -2363     -980      210      831 
     508     -738    -2286    -3383    -3763    -3640    -3213    -2592 
   -2026    -1690    -1609    -1729    -1777    -1568    -1254    -1001 
    -808     -625     -481     -514     -741     -954     -931     -634 
    -241       51      144     -125     -881    -1980    -3007    -3468 
   -3186    -2490    -1825    -1328     -838     -310     -125     -757 
   -2257    -4183    -5787    -6482    -6357    -5962    -5638    -5289 
   -4789    -4251    -3792    -3418    -3075    -2674    -2192    -1748 
   -1468    -1308    -1011     -290      861     2101     2937     3002 
    2319     1192      -95    -1166    -1548    -1115      -95     1228 
    2471     3218     3283     2586     1189     -436    -1721    -2450 
   -2695    -2782    -3207    -4205    -5467    -6405    -6717    -6686 
   -6805    -7267    -8039    -8938    -9405    -8866    -7226    -4850 
   -2454     -685      326      854     1254     1791     2574     3535 
    4386     4733     4403     3574     2538     1432      220    -1055 
   -2173    -2963    -3299    -3130    -2573    -1674     -535      499 
    1165     1458     1476     1135      205    -1305    -3194    -5200 
   -6866    -7960    -8797    -9490    -9786    -9474    -8409    -6728 
   -4768    -2716     -814      637     1440     1553     1174      540 
    -109     -592     -916     -982     -642       45      955     2007 
    3208     4513     5607     6048     5609     4533     3260     2053 
    1050      264     -575    -1871    -3750    -5931    -7906    -9224 
   -9734    -9536    -8776    -7541    -5913    -4278    -3341    -3497 
   -4468    -5675    -6528    -6492    -5414    -3635    -1715     -132 
    1000     1787     2263     2400     2072     1136     -283    -1711 
   -2616    -2778    -2261    -1264     -166      642     1071     1233 
    1096      608       17     -418     -572     -346       99      387 
     193     -603    -1688    -2641    -3377    -3963    -4530    -5167 
   -5734    -6049    -5894    -5098    -3846    -2382     -804      691 
    1914     2708     2812     2023      333    -1860    -3646    -4298 
   -3909    -3237    -2953    -2964    -2810    -2419    -1989    -1746 
   -1803    -1956    -1917    -1610    -1109     -548     -228     -540 
   -1543    -2911    -4198    -4881    -4681    -3844    -2876    -2191 
   -2060    -2455    -2848    -2616    -1707     -510      661     1560 
    1883     1603     1042      396     -279     -976    -1772    -2592 
   -3240    -3636    -3619    -3041    -2174    -1582    -1559    -1944 
   -2417    -2689    -2462    -1715     -789     -121     -102     -797 
   -1877    -2961    -3740    -4113    -4290    -4448    -4541    -4401 
   -3813    -2754    -1632    -1005    -1063    -1512    -1772    -1432 
    -533      629     1725     2479     2778     2766     2639     2357 
    1845     1183      413     -427    -1078    -1235     -977     -882 
   -1530    -2864    -4337    -5535    -6326    -6667    -6424    -5618 
   -4746    -4352    -4533    -5027    -5356    -5212    -4743    -4295 
   -4033    -3839    -3391    -2444     -955      866     2409     3065 
    2832     2170     1553     1394     1949     2841     3273     3044 
    2701     2570     2249     1259     -459    -2720    -4963    -6528 
   -7264    -7304    -6724    -5925    -5599    -5859    -6099    -5856 
   -5302    -4874    -4477    -3650    -2434    -1182      -99      576 
     646      226     -392    -1080    -1791    -2342    -2546    -2390 
   -2084    -1892    -1730    -1220     -357      467      999     1148 
    1057     1055     1132     1048      750      341       16     -128 
    -280     -760    -1634    -2535    -3068    -3194    -3129    -3157 
   -3427    -3882    -4313    -4456    -4160    -3483    -2639    -2023 
   -1939    -2033    -1803    -1489    -1512    -1841    -2301    -2786 
   -3311    -4028    -4923    -5698    -6060    -5888    -5089    -3678 
   -1910      -32     1757     3148     3937     4182     3998     3559 
    3005     2305     1424      436     -526    -1354    -1979    -2347 
   -2577    -2863    -3141    -3300    -3411    -3370    -2870    -1927 
    -959     -436     -631    -1405    -2369    -3404    -4504    -5394 
   -5892    -6142    -6230    -6046    -5599    -5117    -4768    -4486 
   -4016    -3118    -1763     -179     1275     2408     3180     3483 
    3207     2370     1186       87     -591     -874    -1009    -1275 
   -1822    -2469    -2860    -2816    -2431    -2049    -1984    -2149 
   -2209    -1879    -1093      -59      831     1154      715     -371 
   -1771    -3042    -3870    -4191    -4125    -3812    -3380    -3030 
   -2963    -3242    -3775    -4336    -4654    -4575    -4101    -3326 
   -2438    -1671    -1113     -699     -449     -495     -846    -1345 
   -1807    -2002    -1745    -1178     -537      141      814     1339 
    1552     1345      830      303       72      298      805     1071 
     676     -315    -1576    -2841    -3994    -4992    -5726    -6108 
   -6184    -6039    -5728    -5239    -4544    -3670    -2701    -1773 
   -1007     -406       39      352      650      955     1144     1147 
     908      322     -569    -1586    -2616    -3568    -4170    -4153 
   -3530    -2485    -1198      136     1336     2219     2616     2520 
    2004     1138      122     -900    -1976    -3079    -4067    -4823 
   -5325    -5674    -5954    -6069    -5814    -5148    -4275    -3384 
   -2511    -1709    -1088     -670     -521     -769    -1339    -2007 
   -2658    -3229    -3667    -3963    -4135    -4237    -4251    -4085 
   -3827    -3604    -3346    -2937    -2234    -1059      492     1969 
    2870     3056     2781     2326     1755      974      -68    -1206 
   -2108    -2556    -2685    -2759    -2832    -2820    -2806    -3033 
   -3491    -3878    -4028    -3861    -3206    -2161    -1121     -307 
     267      587      681      540      -40    -1135    -2390    -3377 
   -3894    -3902    -3473    -2830    -2234    -1769    -1416    -1244 
   -1279    -1366    -1387    -1321    -1004     -249      800     1726 
    2145     1877     1001     -241    -1620    -2887    -3759    -4106 
   -4037    -3808    -3700    -3889    -4356    -4818    -4922    -4630 
   -4082    -3330    -2512    -1850    -1378     -997     -723     -637 
    -778    -1178    -1777    -2432    -2995    -3200    -2749    -1722 
    -527      484     1040      984      553      249      311      612 
     963     1271     1475     1418      930       70     -927    -1884 
   -2779    -3586    -4122    -4293    -4229    -4135    -4175    -4445 
   -4916    -5387    -5648    -5622    -5350    -4992    -4621    -4093 
   -3365    -2598    -1931    -1374     -932     -650     -561     -662 
    -814     -788     -494      -32      464      977     1541     2096 
    2394     2207     1674     1156      804      569      421      351 
     255      -67     -700    -1563    -2620    -3851    -5044    -5872 
   -6173    -6012    -5541    -4888    -4148    -3424    -2867    -2571 
