Origin Time       2026/01/15 07:13:00
Lat.              42.7
Long.             145.4
Depth. (km)       30
Mag.              5.7
Station Code      HKD053
Station Lat.      43.7849
Station Long.     143.6072
Station Height(m) 208
Record Time       2026/01/15 07:13:46
Sampling Freq(Hz) 100Hz
Duration Time(s)  77
Dir.              U-D
Scale Factor      7845(gal)/8223790
Max. Acc. (gal)   1.678
Last Correction   2026/01/15 07:13:46
Memo.             
[...]
   -4965    -4963    -4958    -4958    -4962    -4962    -4962    -4963 
   -4965    -4966    -4962    -4962    -4966    -4965    -4962    -4961 
   -4962    -4968    -4966    -4961    -4962    -4961    -4961    -4965 
   -4961    -4962    -4966    -4961    -4961    -4968    -4966    -4963 
   -4962    -4961    -4965    -4962    -4958    -4962    -4963    -4961 
   -4962    -4961    -4962    -4968    -4962    -4961    -4965    -4965 
   -4965    -4965    -4962    -4963    -4963    -4959    -4959    -4962 
   -4963    -4963    -4962    -4963    -4963    -4961    -4962    -4965 
   -4965    -4965    -4963    -4959    -4962    -4965    -4961    -4962 
   -4965    -4963    -4961    -4959    -4961    -4963    -4962    -4962 
   -4965    -4965    -4965    -4962    -4959    -4966    -4966    -4961 
   -4966    -4968    -4962    -4963    -4962    -4962    -4969    -4966 
   -4963    -4965    -4962    -4965    -4965    -4962    -4968    -4968 
   -4961    -4961    -4961    -4959    -4963    -4962    -4959    -4965 
   -4965    -4961    -4962    -4962    -4961    -4965    -4963    -4962 
   -4962    -4959    -4959    -4963    -4962    -4963    -4962    -4959 
   -4966    -4962    -4955    -4962    -4962    -4963    -4970    -4969 
   -4965    -4965    -4959    -4958    -4962    -4963    -4965    -4965 
   -4963    -4966    -4963    -4961    -4963    -4962    -4962    -4965 
   -4962    -4961    -4963    -4961    -4959    -4962    -4962    -4965 
   -4965    -4962    -4963    -4963    -4958    -4959    -4963    -4963 
   -4965    -4962    -4961    -4963    -4962    -4962    -4963    -4963 
   -4965    -4962    -4962    -4968    -4965    -4958    -4962    -4963 
   -4962    -4963    -4963    -4965    -4965    -4963    -4966    -4965 
   -4959    -4961    -4963    -4961    -4961    -4962    -4961    -4962 
   -4962    -4962    -4966    -4965    -4963    -4968    -4963    -4959 
   -4962    -4961    -4961    -4963    -4962    -4963    -4966    -4963 
   -4966    -4966    -4962    -4962    -4959    -4959    -4965    -4959 
   -4955    -4965    -4965    -4963    -4963    -4959    -4961    -4965 
   -4965    -4963    -4961    -4959    -4963    -4963    -4962    -4966 
   -4963    -4961    -4965    -4962    -4962    -4965    -4959    -4962 
   -4968    -4959    -4961    -4966    -4962    -4962    -4966    -4965 
   -4963    -4963    -4962    -4963    -4963    -4962    -4959    -4958 
   -4963    -4968    -4963    -4963    -4966    -4963    -4963    -4965 
   -4963    -4966    -4963    -4958    -4962    -4962    -4962    -4966 
   -4962    -4962    -4963    -4959    -4962    -4968    -4962    -4959 
   -4962    -4963    -4968    -4966    -4959    -4961    -4965    -4963 
   -4965    -4963    -4962    -4965    -4962    -4961    -4963    -4959 
   -4959    -4965    -4966    -4965    -4962    -4959    -4965    -4968 
   -4965    -4963    -4961    -4962    -4963    -4958    -4959    -4965 
   -4961    -4961    -4962    -4959    -4963    -4965    -4961    -4962 
   -4963    -4959    -4959    -4961    -4962    -4966    -4962    -4959 
   -4961    -4961    -4961    -4963    -4963    -4963    -4959    -4957 
   -4963    -4962    -4958    -4962    -4963    -4965    -4968    -4962 
   -4959    -4962    -4961    -4962    -4963    -4962    -4965    -4963 
   -4958    -4959    -4961    -4961    -4965    -4962    -4958    -4961 
   -4961    -4959    -4962    -4963    -4966    -4966    -4962    -4965 
   -4966    -4961    -4963    -4965    -4962    -4965    -4965    -4965 
   -4966    -4962    -4961    -4963    -4962    -4962    -4963    -4961 
   -4965    -4969    -4961    -4959    -4963    -4962    -4962    -4961 
   -4961    -4965    -4963    -4962    -4966    -4963    -4962    -4965 
   -4962    -4965    -4966    -4962    -4963    -4965    -4961    -4961 
   -4962    -4963    -4970    -4966    -4959    -4961    -4959    -4963 
   -4965    -4959    -4965    -4969    -4958    -4959    -4965    -4963 
   -4968    -4965    -4959    -4966    -4965    -4958    -4962    -4965 
   -4962    -4963    -4961    -4959    -4965    -4965    -4965    -4968 
   -4963    -4962    -4962    -4961    -4963    -4963    -4961    -4963 
   -4961    -4959    -4966    -4966    -4965    -4968    -4962    -4958 
   -4963    -4965    -4966    -4963    -4959    -4966    -4968    -4959 
   -4961    -4962    -4962    -4966    -4966    -4965    -4965    -4962 
   -4962    -4963    -4962    -4963    -4963    -4958    -4961    -4966 
   -4963    -4965    -4968    -4963    -4962    -4961    -4962    -4968 
   -4965    -4961    -4966    -4962    -4959    -4963    -4962    -4963 
   -4968    -4962    -4962    -4966    -4963    -4963    -4965    -4963 
   -4963    -4961    -4959    -4966    -4966    -4968    -4968    -4961 
   -4963    -4968    -4962    -4962    -4963    -4959    -4965    -4966 
   -4961    -4963    -4966    -4965    -4966    -4965    -4961    -4961 
   -4961    -4965    -4965    -4959    -4961    -4963    -4961    -4965 
   -4968    -4963    -4968    -4968    -4962    -4965    -4963    -4959 
   -4965    -4965    -4965    -4965    -4961    -4963    -4968    -4963 
   -4962    -4963    -4962    -4965    -4963    -4962    -4965    -4962 
   -4961    -4963    -4962    -4965    -4968    -4961    -4962    -4966 
   -4962    -4962    -4966    -4963    -4961    -4959    -4961    -4965 
   -4965    -4962    -4962    -4961    -4963    -4968    -4961    -4959 
   -4965    -4968    -4968    -4961    -4955    -4962    -4968    -4961 
   -4959    -4965    -4966    -4963    -4959    -4958    -4962    -4962 
   -4962    -4966    -4966    -4968    -4966    -4959    -4958    -4958 
   -4958    -4963    -4966    -4966    -4969    -4963    -4959    -4963 
   -4961    -4957    -4959    -4962    -4966    -4969    -4962    -4959 
   -4962    -4962    -4965    -4965    -4963    -4965    -4961    -4958 
   -4963    -4961    -4959    -4966    -4966    -4966    -4968    -4962 
   -4965    -4970    -4962    -4959    -4965    -4962    -4961    -4965 
   -4963    -4966    -4965    -4959    -4962    -4963    -4965    -4965 
   -4961    -4962    -4966    -4959    -4961    -4966    -4965    -4966 
   -4966    -4963    -4963    -4962    -4958    -4962    -4968    -4965 
   -4961    -4961    -4963    -4965    -4961    -4961    -4966    -4961 
   -4959    -4962    -4962    -4965    -4965    -4959    -4962    -4961 
   -4961    -4968    -4966    -4959    -4962    -4962    -4959    -4962 
   -4962    -4963    -4965    -4961    -4959    -4962    -4961    -4961 
   -4959    -4958    -4965    -4966    -4962    -4968    -4968    -4958 
   -4957    -4961    -4966    -4968    -4962    -4963    -4966    -4963 
   -4962    -4963    -4963    -4966    -4965    -4962    -4966    -4963 
   -4959    -4963    -4963    -4962    -4966    -4965    -4963    -4963 
   -4959    -4963    -4966    -4962    -4966    -4968    -4963    -4965 
   -4966    -4959    -4959    -4963    -4962    -4963    -4962    -4962 
   -4966    -4965    -4961    -4961    -4961    -4962    -4966    -4962 
   -4961    -4963    -4962    -4963    -4963    -4961    -4963    -4962 
   -4961    -4965    -4961    -4961    -4966    -4966    -4966    -4966 
   -4959    -4959    -4965    -4963    -4962    -4959    -4961    -4972 
   -4968    -4961    -4966    -4965    -4961    -4963    -4962    -4959 
   -4961    -4963    -4966    -4965    -4961    -4961    -4961    -4959 
   -4966    -4965    -4957    -4963    -4968    -4962    -4963    -4965 
   -4962    -4962    -4962    -4965    -4963    -4957    -4961    -4966 
   -4959    -4959    -4965    -4963    -4966    -4966    -4961    -4961 
   -4959    -4958    -4963    -4962    -4961    -4966    -4963    -4958 
   -4961    -4961    -4962    -4965    -4966    -4969    -4963    -4957 
   -4962    -4963    -4958    -4965    -4966    -4962    -4963    -4961 
   -4958    -4963    -4965    -4963    -4963    -4961    -4961    -4962 
   -4959    -4961    -4962    -4962    -4965    -4963    -4962    -4968 
   -4962    -4957    -4962    -4961    -4961    -4966    -4962    -4961 
   -4965    -4959    -4958    -4963    -4961    -4962    -4965    -4962 
   -4965    -4965    -4959    -4963    -4965    -4962    -4963    -4961 
   -4962    -4966    -4961    -4961    -4968    -4962    -4961    -4965 
   -4961    -4959    -4959    -4958    -4962    -4965    -4965    -4969 
   -4966    -4963    -4963    -4959    -4959    -4965    -4963    -4966 
   -4965    -4959    -4965    -4969    -4963    -4961    -4962    -4963 
   -4962    -4959    -4965    -4970    -4963    -4957    -4962    -4961 
   -4955    -4959    -4962    -4961    -4962    -4961    -4961    -4963 
   -4963    -4963    -4959    -4959    -4966    -4965    -4958    -4961 
   -4963    -4965    -4965    -4962    -4962    -4962    -4959    -4961 
   -4963    -4963    -4962    -4958    -4961    -4968    -4965    -4959 
   -4966    -4968    -4965    -4963    -4958    -4962    -4968    -4963 
   -4965    -4966    -4961    -4963    -4966    -4962    -4963    -4963 
   -4958    -4959    -4963    -4968    -4966    -4962    -4965    -4966 
   -4958    -4961    -4968    -4962    -4961    -4966    -4963    -4965 
   -4968    -4966    -4968    -4963    -4958    -4959    -4963    -4966 
   -4969    -4962    -4958    -4966    -4968    -4966    -4963    -4958 
   -4962    -4965    -4959    -4965    -4968    -4962    -4965    -4965 
   -4961    -4963    -4965    -4963    -4962    -4961    -4965    -4968 
   -4962    -4963    -4966    -4959    -4961    -4966    -4963    -4962 
   -4963    -4965    -4968    -4966    -4965    -4963    -4961    -4965 
   -4968    -4961    -4959    -4966    -4965    -4962    -4966    -4965 
   -4962    -4962    -4962    -4965    -4962    -4959    -4962    -4962 
   -4965    -4969    -4966    -4965    -4969    -4966    -4961    -4961 
   -4962    -4965    -4965    -4961    -4961    -4963    -4961    -4963 
   -4966    -4965    -4968    -4966    -4962    -4962    -4963    -4962 
   -4966    -4968    -4965    -4966    -4965    -4963    -4965    -4963 
   -4965    -4966    -4966    -4966    -4965    -4962    -4962    -4963 
   -4963    -4965    -4965    -4965    -4963    -4961    -4962    -4966 
   -4961    -4961    -4963    -4962    -4965    -4968    -4963    -4966 
   -4966    -4962    -4963    -4963    -4962    -4965    -4962    -4962 
   -4969    -4965    -4962    -4963    -4959    -4962    -4966    -4962 
   -4963    -4966    -4962    -4961    -4957    -4958    -4965    -4962 
   -4959    -4968    -4966    -4959    -4965    -4965    -4962    -4966 
   -4963    -4962    -4966    -4962    -4962    -4961    -4959    -4965 
   -4963    -4961    -4965    -4962    -4959    -4965    -4965    -4965 
   -4966    -4961    -4961    -4965    -4962    -4961    -4962    -4962 
   -4963    -4962    -4961    -4966    -4966    -4962    -4962    -4962 
   -4963    -4965    -4961    -4959    -4963    -4962    -4962    -4966 
   -4962    -4962    -4966    -4963    -4963    -4966    -4963    -4962 
   -4963    -4963    -4965    -4963    -4962    -4966    -4965    -4962 
   -4965    -4963    -4962    -4963    -4959    -4962    -4966    -4961 
   -4961    -4963    -4963    -4969    -4969    -4963    -4965    -4962 
   -4959    -4963    -4963    -4959    -4961    -4962    -4966    -4969 
   -4966    -4966    -4968    -4963    -4963    -4966    -4963    -4965 
   -4969    -4968    -4969    -4969    -4965    -4968    -4969    -4968 
   -4970    -4968    -4965    -4968    -4962    -4958    -4961    -4962 
   -4963    -4965    -4961    -4963    -4966    -4966    -4973    -4974 
   -4977    -4988    -4992    -4990    -4997    -5004    -5012    -5020 
   -5026    -5032    -5035    -5031    -5028    -5026    -5019    -5009 
   -4993    -4973    -4955    -4930    -4904    -4888    -4876    -4869 
   -4869    -4868    -4870    -4885    -4903    -4931    -4965    -4993 
   -5016    -5035    -5055    -5081    -5101    -5120    -5144    -5154 
   -5151    -5144    -5124    -5090    -5057    -5022    -4989    -4942 
   -4861    -4769    -4696    -4654    -4650    -4677    -4716    -4760 
   -4804    -4858    -4926    -5000    -5069    -5111    -5100    -5062 
   -5031    -5009    -4988    -4974    -4982    -5012    -5030    -5007 
   -4953    -4887    -4864    -4915    -4962    -4909    -4761    -4592 
   -4483    -4475    -4568    -4738    -4897    -4962    -4963    -4980 
   -5031    -5113    -5209    -5270    -5267    -5223    -5173    -5105 
   -4982    -4854    -4804    -4808    -4833    -4866    -4864    -4797 
   -4699    -4587    -4515    -4560    -4685    -4777    -4803    -4806 
   -4810    -4837    -4930    -5067    -5179    -5278    -5443    -5640 
   -5729    -5633    -5422    -5269    -5323    -5540    -5726    -5733 
   -5544    -5209    -4818    -4540    -4475    -4514    -4549    -4548 
   -4448    -4283    -4233    -4395    -4712    -5050    -5293    -5416 
   -5381    -5177    -4955    -4887    -4981    -5097    -5070    -4938 
   -4827    -4711    -4646    -4849    -5310    -5722    -5786    -5502 
   -5151    -4938    -4843    -4815    -4858    -4941    -4965    -4930 
   -4951    -5107    -5359    -5626    -5869    -6021    -5915    -5494 
   -4931    -4469    -4183    -3946    -3709    -3537    -3410    -3327 
   -3388    -3672    -4190    -4815    -5336    -5684    -5888    -6012 
   -6161    -6284    -6222    -5964    -5593    -5169    -4753    -4345 
   -3931    -3655    -3678    -3910    -4151    -4340    -4546    -4830 
   -5152    -5463    -5756    -5968    -5994    -5873    -5773    -5791 
   -5854    -5757    -5454    -5178    -4970    -4561    -3928    -3400 
   -3204    -3294    -3545    -3898    -4324    -4718    -4935    -5071 
   -5367    -5844    -6326    -6613    -6647    -6536    -6338    -6022 
   -5603    -5142    -4693    -4334    -4164    -4183    -4198    -4013 
   -3738    -3690    -4004    -4541    -5057    -5327    -5358    -5368 
   -5467    -5587    -5706    -5787    -5665    -5331    -5030    -4903 
   -4861    -4842    -4938    -5209    -5503    -5595    -5425    -5055 
   -4568    -4124    -3924    -4043    -4336    -4573    -4625    -4517 
   -4461    -4698    -5178    -5602    -5768    -5682    -5545    -5529 
   -5505    -5269    -4858    -4486    -4314    -4299    -4364    -4525 
   -4708    -4885    -5128    -5377    -5532    -5593    -5529    -5309 
   -5023    -4815    -4698    -4561    -4456    -4500    -4614    -4652 
   -4644    -4687    -4793    -4928    -5067    -5208    -5321    -5294 
   -5138    -5047    -5057    -5003    -4855    -4754    -4839    -5076 
   -5269    -5324    -5296    -5238    -5146    -5001    -4855    -4777 
   -4664    -4483    -4456    -4665    -4876    -4901    -4795    -4718 
   -4777    -4934    -5046    -5023    -4869    -4693    -4683    -4868 
   -5103    -5304    -5444    -5487    -5463    -5410    -5293    -5148 
   -5081    -5062    -4999    -4882    -4743    -4588    -4523    -4672 
   -4943    -5154    -5236    -5190    -5039    -4872    -4791    -4850 
   -4946    -4918    -4766    -4634    -4615    -4723    -4904    -5089 
   -5266    -5410    -5428    -5282    -5105    -5059    -5119    -5143 
   -5092    -5016    -4942    -4865    -4838    -4922    -5080    -5198 
   -5227    -5186    -5058    -4865    -4714    -4614    -4510    -4422 
   -4398    -4455    -4545    -4587    -4600    -4650    -4776    -4965 
   -5142    -5279    -5397    -5452    -5475    -5557    -5622    -5556 
   -5420    -5274    -5062    -4826    -4712    -4723    -4723    -4668 
   -4634    -4680    -4788    -4900    -4965    -4972    -4911    -4827 
   -4807    -4862    -4911    -4904    -4837    -4729    -4681    -4796 
   -4990    -5113    -5155    -5148    -5123    -5132    -5165    -5182 
   -5163    -5084    -5020    -5049    -5063    -4955    -4773    -4633 
   -4610    -4665    -4719    -4757    -4849    -5051    -5258    -5310 
   -5240    -5117    -4968    -4878    -4888    -4926    -4966    -5016 
   -5024    -4974    -4927    -4945    -5020    -5090    -5097    -5046 
   -4970    -4905    -4861    -4787    -4658    -4573    -4604    -4708 
   -4891    -5163    -5371    -5363    -5220    -5108    -5077    -5123 
   -5212    -5244    -5196    -5119    -5011    -4936    -4995    -5107 
   -5115    -5004    -4861    -4739    -4629    -4564    -4617    -4735 
   -4776    -4719    -4658    -4641    -4669    -4745    -4880    -5077 
   -5265    -5351    -5323    -5212    -5092    -5034    -5036    -5069 
   -5111    -5134    -5098    -4992    -4877    -4823    -4789    -4708 
   -4604    -4527    -4526    -4635    -4853    -5101    -5294    -5387 
   -5395    -5370    -5368    -5406    -5454    -5459    -5395    -5262 
   -5081    -4905    -4774    -4677    -4573    -4469    -4417    -4455 
   -4571    -4725    -4860    -4934    -4981    -5053    -5136    -5188 
   -5192    -5166    -5177    -5246    -5258    -5121    -4918    -4769 
   -4687    -4625    -4564    -4549    -4623    -4770    -4924    -5059 
   -5182    -5265    -5290    -5300    -5274    -5190    -5116    -5134 
   -5216    -5243    -5150    -4970    -4725    -4453    -4260    -4197 
   -4225    -4314    -4440    -4557    -4662    -4770    -4839    -4891 
   -5011    -5213    -5452    -5649    -5728    -5710    -5621    -5447 
   -5267    -5196    -5217    -5221    -5152    -5054    -4978    -4911 
   -4864    -4895    -4958    -4946    -4841    -4735    -4716    -4769 
   -4828    -4888    -4936    -4923    -4851    -4779    -4764    -4837 
   -4927    -4938    -4904    -4928    -5017    -5069    -4997    -4880 
   -4837    -4857    -4880    -4914    -4989    -5089    -5165    -5221 
   -5292    -5323    -5258    -5150    -5084    -5058    -4965    -4760 
   -4590    -4577    -4648    -4714    -4788    -4878    -4943    -4941 
   -4874    -4823    -4855    -4959    -5067    -5086    -4981    -4828 
   -4695    -4614    -4623    -4711    -4827    -4919    -4943    -4919 
   -4905    -4934    -5017    -5130    -5211    -5252    -5282    -5298 
   -5273    -5181    -5080    -5086    -5163    -5169    -5092    -4997 
   -4893    -4803    -4797    -4911    -5047    -5061    -4928    -4770 
   -4720    -4833    -4997    -5065    -5055    -5084    -5157    -5209 
   -5217    -5202    -5170    -5086    -4957    -4822    -4711    -4665 
   -4664    -4637    -4606    -4639    -4756    -4927    -5073    -5115 
   -5080    -5028    -4992    -4985    -5032    -5108    -5139    -5112 
   -5085    -5100    -5135    -5159    -5157    -5120    -5058    -4958 
   -4835    -4772    -4807    -4896    -4946    -4896    -4800    -4779 
   -4837    -4892    -4941    -5008    -5063    -5097    -5124    -5128 
   -5089    -5000    -4911    -4861    -4819    -4768    -4729    -4730 
   -4777    -4842    -4905    -4968    -5019    -5030    -4990    -4920 
   -4860    -4837    -4845    -4880    -4927    -4932    -4893    -4862 
   -4857    -4865    -4884    -4922    -4980    -5040    -5088    -5130 
   -5162    -5184    -5201    -5220    -5240    -5227    -5117    -4936 
   -4783    -4692    -4637    -4594    -4552    -4500    -4441    -4403 
   -4446    -4602    -4826    -5031    -5155    -5215    -5262    -5305 
   -5332    -5359    -5387    -5391    -5356    -5274    -5139    -4989 
   -4900    -4914    -4988    -5040    -5022    -4919    -4787    -4700 
   -4725    -4855    -4989    -5062    -5116    -5151    -5109    -4995 
   -4850    -4712    -4639    -4675    -4800    -4953    -5034    -5023 
   -4993    -5012    -5082    -5158    -5163    -5104    -5067    -5078 
