Origin Time       2026/01/15 07:13:00
Lat.              42.7
Long.             145.4
Depth. (km)       30
Mag.              5.7
Station Code      HKD094
Station Lat.      43.1692
Station Long.     143.2410
Station Height(m) 204
Record Time       2026/01/15 07:14:13
Sampling Freq(Hz) 100Hz
Duration Time(s)  60
Dir.              E-W
Scale Factor      7845(gal)/8223790
Max. Acc. (gal)   1.175
Last Correction   2026/01/15 07:14:14
Memo.             
  -13784   -13759   -13701   -13693   -13721   -13751   -13797   -13828 
  -13814   -13792   -13791   -13798   -13826   -13879   -13917   -13927 
  -13925   -13890   -13853   -13869   -13926   -13950   -13934   -13936 
  -13972   -13999   -14000   -13994   -13994   -14013   -14029   -13998 
  -13933   -13894   -13890   -13891   -13896   -13898   -13878   -13845 
  -13848   -13883   -13883   -13875   -13940   -13990   -13926   -13868 
  -13896   -13918   -13913   -13956   -14014   -14034   -14011   -13944 
  -13887   -13899   -13917   -13884   -13846   -13811   -13749   -13690 
  -13664   -13670   -13689   -13706   -13752   -13860   -13968   -14019 
  -14061   -14103   -14106   -14103   -14111   -14111   -14125   -14153 
  -14139   -14068   -13964   -13828   -13693   -13637   -13655   -13672 
  -13687   -13724   -13743   -13744   -13764   -13807   -13844   -13864 
  -13856   -13838   -13840   -13838   -13825   -13834   -13844   -13828 
  -13824   -13842   -13851   -13863   -13879   -13863   -13840   -13853 
  -13872   -13875   -13888   -13913   -13919   -13925   -13953   -13996 
  -14040   -14089   -14122   -14103   -14053   -14017   -14025   -14073 
  -14084   -14029   -13964   -13913   -13860   -13829   -13814   -13782 
  -13757   -13749   -13718   -13684   -13676   -13671   -13687   -13753 
  -13803   -13776   -13728   -13718   -13716   -13697   -13721   -13833 
  -13946   -13983   -13990   -14000   -13998   -14013   -14021   -13975 
  -13932   -13934   -13909   -13832   -13774   -13747   -13743   -13771 
  -13788   -13744   -13656   -13586   -13571   -13618   -13691   -13756 
  -13809   -13844   -13882   -13906   -13867   -13826   -13865   -13917 
  -13902   -13859   -13846   -13883   -13930   -13956   -13967   -13965 
  -13919   -13852   -13837   -13856   -13855   -13855   -13852   -13826 
  -13826   -13856   -13841   -13786   -13752   -13767   -13811   -13840 
  -13825   -13824   -13873   -13929   -13981   -14054   -14094   -14073 
  -14037   -13972   -13856   -13760   -13729   -13718   -13709   -13713 
  -13710   -13698   -13702   -13718   -13718   -13695   -13684   -13713 
  -13745   -13772   -13837   -13914   -13914   -13867   -13865   -13871 
  -13825   -13787   -13803   -13848   -13882   -13873   -13867   -13930 
  -14003   -13991   -13959   -13995   -14042   -14044   -14027   -14011 
  -13991   -13959   -13895   -13844   -13867   -13895   -13865   -13841 
  -13814   -13724   -13659   -13701   -13756   -13780   -13825   -13873 
  -13887   -13888   -13888   -13892   -13925   -13973   -13984   -13925 
  -13844   -13807   -13797   -13778   -13776   -13787   -13768   -13751 
  -13763   -13745   -13699   -13711   -13778   -13822   -13846   -13879 
  -13913   -13936   -13942   -13940   -13950   -13980   -14004   -14029 
  -14069   -14080   -14006   -13925   -13933   -13963   -13926   -13887 
  -13905   -13934   -13934   -13910   -13888   -13917   -14000   -14072 
  -14104   -14137   -14165   -14160   -14157   -14191   -14208   -14175 
  -14118   -14031   -13907   -13805   -13767   -13749   -13732   -13728 
  -13705   -13666   -13683   -13759   -13813   -13841   -13884   -13906 
  -13863   -13803   -13774   -13756   -13765   -13806   -13819   -13782 
  -13749   -13767   -13814   -13853   -13896   -13980   -14089   -14169 
  -14203   -14212   -14204   -14170   -14106   -14044   -14002   -13942 
  -13861   -13792   -13726   -13659   -13614   -13606   -13652   -13752 
  -13840   -13856   -13840   -13868   -13911   -13888   -13848   -13864 
  -13865   -13813   -13772   -13751   -13717   -13706   -13718   -13713 
  -13714   -13775   -13861   -13905   -13930   -13980   -13999   -13941 
  -13867   -13813   -13761   -13741   -13778   -13802   -13772   -13749 
  -13740   -13698   -13693   -13771   -13821   -13794   -13768   -13757 
  -13736   -13732   -13729   -13720   -13745   -13772   -13767   -13814 
  -13917   -13950   -13913   -13891   -13871   -13837   -13833   -13832 
  -13815   -13841   -13887   -13888   -13896   -13929   -13905   -13832 
  -13805   -13810   -13775   -13729   -13733   -13751   -13740   -13730 
  -13751   -13771   -13759   -13748   -13783   -13830   -13836   -13830 
  -13833   -13814   -13809   -13872   -13957   -13990   -13979   -13963 
  -13950   -13938   -13926   -13940   -13996   -14057   -14079   -14054 
  -13990   -13915   -13883   -13875   -13851   -13826   -13799   -13734 
  -13653   -13617   -13640   -13680   -13724   -13788   -13826   -13778 
  -13725   -13751   -13798   -13836   -13899   -13932   -13883   -13834 
  -13840   -13851   -13869   -13938   -13998   -13976   -13929   -13927 
  -13965   -14007   -14021   -13977   -13884   -13791   -13734   -13711 
  -13737   -13842   -13976   -14044   -14040   -14021   -14018   -14017 
  -14000   -13995   -14023   -14004   -13891   -13810   -13828   -13855 
  -13846   -13819   -13753   -13687   -13679   -13702   -13734   -13811 
  -13918   -13990   -14017   -14029   -14046   -14081   -14118   -14107 
  -14049   -13987   -13948   -13936   -13917   -13864   -13791   -13706 
  -13621   -13579   -13583   -13605   -13676   -13783   -13832   -13811 
  -13797   -13806   -13837   -13905   -13979   -14002   -13987   -13969 
  -13944   -13942   -13996   -14049   -14050   -14013   -13954   -13895 
  -13871   -13895   -13949   -14002   -14038   -14048   -13984   -13890 
  -13849   -13821   -13759   -13725   -13740   -13753   -13782   -13828 
  -13852   -13878   -13922   -13922   -13887   -13918   -14002   -14050 
  -14072   -14111   -14153   -14175   -14189   -14197   -14176   -14119 
  -14073   -14062   -14056   -14040   -14037   -14031   -14004   -13954 
  -13876   -13782   -13732   -13736   -13726   -13705   -13718   -13743 
  -13730   -13709   -13711   -13720   -13734   -13770   -13806   -13830 
  -13871   -13937   -13981   -13984   -13983   -13984   -13961   -13942 
  -13961   -13984   -13968   -13953   -13983   -14003   -13988   -14010 
  -14027   -13950   -13865   -13872   -13886   -13832   -13775   -13770 
  -13756   -13693   -13641   -13633   -13641   -13659   -13676   -13691 
  -13738   -13775   -13747   -13734   -13797   -13842   -13842   -13859 
  -13887   -13887   -13883   -13884   -13871   -13863   -13875   -13869 
  -13860   -13884   -13910   -13886   -13829   -13778   -13729   -13698 
  -13717   -13770   -13817   -13849   -13848   -13798   -13761   -13783 
  -13811   -13829   -13879   -13952   -14004   -14056   -14110   -14142 
  -14168   -14193   -14193   -14164   -14111   -14030   -13934   -13848 
  -13787   -13745   -13691   -13624   -13582   -13547   -13489   -13463 
  -13497   -13537   -13574   -13628   -13644   -13624   -13652   -13713 
  -13737   -13757   -13803   -13865   -13960   -14054   -14084   -14087 
  -14095   -14060   -13994   -13941   -13875   -13795   -13753   -13729 
  -13694   -13698   -13753   -13790   -13797   -13829   -13890   -13919 
  -13898   -13888   -13937   -14003   -14033   -14008   -13926   -13836 
  -13797   -13778   -13755   -13775   -13799   -13771   -13737   -13702 
  -13645   -13647   -13734   -13802   -13799   -13757   -13695   -13674 
  -13734   -13814   -13891   -14004   -14106   -14161   -14219   -14276 
  -14278   -14245   -14211   -14149   -14029   -13898   -13833   -13807 
  -13743   -13655   -13582   -13512   -13463   -13458   -13451   -13441 
  -13482   -13548   -13603   -13653   -13676   -13655   -13630   -13633 
  -13656   -13703   -13788   -13884   -13936   -13910   -13863   -13869 
  -13906   -13941   -14002   -14065   -14108   -14129   -14080   -13980 
  -13929   -13940   -13941   -13913   -13900   -13934   -13980   -13991 
  -13986   -14011   -14085   -14170   -14187   -14118   -14060   -14067 
  -14068   -14019   -13965   -13894   -13786   -13672   -13558   -13482 
  -13537   -13662   -13728   -13774   -13833   -13840   -13837   -13896 
  -13961   -13990   -13990   -13932   -13817   -13697   -13595   -13513 
  -13462   -13451   -13464   -13473   -13482   -13505   -13520   -13501 
  -13479   -13529   -13651   -13784   -13899   -13994   -14092   -14184 
  -14200   -14170   -14200   -14296   -14391   -14411   -14337   -14224 
  -14131   -14058   -14003   -13968   -13921   -13832   -13734   -13662 
  -13598   -13537   -13533   -13605   -13660   -13644   -13617   -13639 
  -13717   -13849   -13984   -14054   -14080   -14087   -14034   -13967 
  -14013   -14175   -14323   -14404   -14434   -14393   -14304   -14266 
  -14264   -14203   -14143   -14146   -14131   -14080   -14052   -14038 
  -14029   -14037   -13998   -13872   -13717   -13567   -13450   -13410 
  -13392   -13327   -13266   -13208   -13095   -12992   -12980   -13034 
  -13123   -13219   -13279   -13328   -13413   -13521   -13632   -13782 
  -13956   -14092   -14193   -14299   -14435   -14628   -14844   -15002 
  -15083   -15099   -15044   -14931   -14770   -14562   -14351   -14168 
  -13987   -13838   -13757   -13686   -13603   -13564   -13549   -13510 
  -13462   -13439   -13470   -13535   -13572   -13593   -13641   -13679 
  -13703   -13771   -13867   -13954   -14044   -14111   -14102   -14046 
  -14021   -14048   -14081   -14081   -14048   -14007   -13954   -13872 
  -13784   -13724   -13687   -13701   -13759   -13792   -13778   -13760 
  -13761   -13798   -13892   -14013   -14103   -14143   -14145   -14135 
  -14127   -14153   -14250   -14332   -14287   -14179   -14108   -14048 
  -13995   -13999   -13999   -13953   -13907   -13851   -13765   -13711 
  -13694   -13659   -13617   -13593   -13544   -13459   -13383   -13336 
  -13288   -13240   -13244   -13305   -13354   -13374   -13424   -13501 
  -13548   -13570   -13636   -13790   -14031   -14291   -14476   -14592 
  -14693   -14786   -14856   -14886   -14850   -14764   -14686   -14598 
  -14438   -14249   -14114   -14018   -13915   -13809   -13699   -13605 
  -13537   -13446   -13315   -13209   -13170   -13147   -13107   -13092 
  -13088   -13018   -12906   -12850   -12888   -13024   -13244   -13479 
  -13656   -13765   -13852   -13956   -14115   -14338   -14567   -14716 
  -14759   -14733   -14690   -14673   -14700   -14779   -14905   -15002 
  -14989   -14897   -14832   -14839   -14887   -14917   -14871   -14736 
  -14530   -14288   -14081   -13972   -13949   -13948   -13899   -13737 
  -13506   -13354   -13316   -13306   -13301   -13302   -13242   -13119 
  -13047   -13077   -13173   -13306   -13433   -13520   -13562   -13594 
  -13674   -13807   -13961   -14103   -14192   -14197   -14193   -14239 
  -14257   -14247   -14292   -14318   -14268   -14239   -14216   -14073 
  -13841   -13630   -13437   -13252   -13139   -13107   -13104   -13123 
  -13171   -13225   -13277   -13340   -13431   -13535   -13620   -13672 
  -13722   -13792   -13869   -13959   -14061   -14142   -14162   -14118 
  -14081   -14139   -14220   -14179   -14013   -13822   -13662   -13514 
  -13386   -13355   -13414   -13443   -13400   -13338   -13292   -13306 
  -13431   -13601   -13728   -13802   -13822   -13805   -13829   -13915 
  -13969   -13965   -13981   -14017   -13998   -13961   -13999   -14052 
  -14035   -13996   -13992   -14000   -14026   -14076   -14092   -14061 
  -14011   -13919   -13790   -13706   -13713   -13714   -13622   -13518 
  -13468   -13409   -13347   -13342   -13323   -13225   -13128   -13066 
  -13018   -13047   -13165   -13293   -13437   -13630   -13838   -14058 
  -14280   -14443   -14555   -14636   -14639   -14534   -14386   -14270 
  -14199   -14150   -14121   -14088   -14048   -14050   -14111   -14166 
  -14195   -14202   -14160   -14052   -13919   -13810   -13745   -13709 
  -13684   -13657   -13602   -13549   -13544   -13574   -13624   -13689 
  -13717   -13682   -13652   -13691   -13797   -13930   -14046   -14091 
  -14064   -14034   -14003   -13923   -13872   -13937   -14041   -14098 
  -14104   -14035   -13861   -13633   -13406   -13234   -13193   -13279 
  -13419   -13540   -13616   -13679   -13776   -13873   -13950   -14068 
  -14231   -14362   -14457   -14540   -14544   -14447   -14345   -14299 
  -14278   -14245   -14202   -14185   -14187   -14162   -14089   -14008 
  -13979   -14007   -14017   -13940   -13792   -13613   -13410   -13234 
  -13151   -13128   -13089   -13061   -13113   -13211   -13269   -13297 
  -13331   -13328   -13279   -13257   -13298   -13413   -13621   -13888 
  -14131   -14278   -14335   -14364   -14419   -14486   -14526   -14548 
  -14563   -14484   -14284   -14107   -14042   -14027   -14025   -14029 
  -14017   -14017   -14014   -13921   -13756   -13630   -13544   -13439 
  -13343   -13285   -13242   -13262   -13413   -13612   -13751   -13869 
  -13996   -14068   -14080   -14068   -14044   -14038   -14049   -14002 
  -13890   -13811   -13822   -13896   -14002   -14102   -14130   -14094 
  -14068   -14071   -14079   -14127   -14231   -14292   -14239   -14138 
  -14044   -13929   -13828   -13818   -13894   -13990   -14064   -14088 
  -14061   -13995   -13894   -13792   -13724   -13663   -13630   -13674 
  -13782   -13922   -14045   -14067   -13971   -13855   -13795   -13801 
  -13868   -13977   -14053   -14045   -13984   -13880   -13748   -13666 
  -13613   -13464   -13232   -13076   -13035   -13042   -13097   -13212 
  -13333   -13458   -13598   -13707   -13801   -13956   -14175   -14339 
  -14341   -14234   -14157   -14126   -14102   -14119   -14168   -14176 
  -14152   -14135   -14091   -14014   -13984   -14034   -14107   -14131 
  -14085   -14026   -14006   -13992   -13926   -13841   -13799   -13790 
  -13787   -13821   -13911   -14033   -14134   -14202   -14285   -14377 
  -14430   -14462   -14507   -14542   -14542   -14492   -14413   -14343 
  -14266   -14160   -14083   -14035   -13891   -13617   -13348   -13171 
  -13061   -13020   -13096   -13254   -13378   -13401   -13363   -13342 
  -13375   -13448   -13541   -13652   -13753   -13784   -13699   -13591 
  -13614   -13745   -13863   -13956   -14060   -14149   -14200   -14229 
  -14257   -14315   -14401   -14490   -14569   -14629   -14640   -14588 
  -14503   -14430   -14384   -14327   -14231   -14148   -14099   -14027 
  -13938   -13886   -13838   -13748   -13659   -13594   -13516   -13456 
  -13490   -13609   -13752   -13886   -14021   -14166   -14261   -14272 
  -14264   -14261   -14226   -14211   -14254   -14269   -14207   -14129 
  -14053   -13973   -13938   -13979   -14054   -14134   -14195   -14193 
  -14118   -14002   -13856   -13691   -13535   -13362   -13166   -12984 
  -12818   -12714   -12765   -12964   -13239   -13543   -13807   -13998 
  -14156   -14292   -14392   -14457   -14459   -14384   -14291   -14218 
  -14141   -14057   -13975   -13884   -13783   -13695   -13632   -13586 
  -13559   -13594   -13668   -13706   -13756   -13872   -13959   -13968 
  -13979   -13996   -13961   -13890   -13830   -13806   -13813   -13807 
  -13763   -13679   -13547   -13381   -13212   -13032   -12903   -12901 
  -13001   -13146   -13321   -13500   -13641   -13755   -13846   -13884 
  -13888   -13945   -14046   -14079   -14037   -14025   -14052   -14061 
  -14026   -13927   -13801   -13721   -13660   -13559   -13473   -13451 
  -13428   -13367   -13312   -13305   -13377   -13514   -13668   -13822 
  -13938   -13984   -14033   -14098   -14127   -14157   -14212   -14211 
  -14154   -14107   -14045   -13963   -13922   -13884   -13775   -13655 
  -13570   -13479   -13409   -13421   -13497   -13591   -13680   -13753 
  -13817   -13892   -13973   -14006   -13984   -13957   -13942   -13909 
  -13876   -13865   -13837   -13778   -13740   -13744   -13788   -13878 
  -13960   -13990   -13995   -13972   -13905   -13859   -13856   -13845 
  -13848   -13871   -13867   -13855   -13861   -13849   -13822   -13855 
  -13957   -14083   -14216   -14358   -14474   -14548   -14601   -14639 
  -14623   -14553   -14546   -14643   -14686   -14573   -14403   -14257 
  -14081   -13892   -13774   -13714   -13699   -13751   -13821   -13875 
  -13946   -14013   -14031   -14064   -14157   -14206   -14164   -14154 
  -14197   -14170   -14060   -13940   -13817   -13690   -13622   -13613 
  -13613   -13618   -13629   -13625   -13612   -13591   -13547   -13485 
  -13419   -13339   -13255   -13246   -13355   -13504   -13643   -13805 
  -13976   -14118   -14214   -14256   -14283   -14339   -14368   -14314 
  -14203   -14046   -13882   -13795   -13756   -13687   -13606   -13521 
  -13397   -13292   -13274   -13343   -13479   -13613   -13664   -13632 
  -13554   -13495   -13497   -13531   -13590   -13691   -13819   -13926 
  -13994   -14048   -14126   -14237   -14370   -14485   -14511   -14439 
  -14324   -14199   -14085   -14004   -13960   -13969   -14021   -14058 
  -14085   -14135   -14202   -14277   -14345   -14334   -14233   -14089 
  -13905   -13716   -13589   -13459   -13258   -13059   -12923   -12806 
  -12706   -12688   -12756   -12868   -12980   -13038   -13069   -13157 
  -13289   -13389   -13464   -13583   -13751   -13900   -14038   -14195 
  -14328   -14404   -14439   -14440   -14405   -14346   -14287   -14292 
  -14359   -14381   -14314   -14222   -14122   -14003   -13934   -13950 
  -13995   -14049   -14102   -14084   -13999   -13932   -13903   -13880 
  -13864   -13869   -13876   -13867   -13851   -13818   -13759   -13717 
  -13729   -13751   -13756   -13770   -13792   -13797   -13790   -13791 
  -13784   -13792   -13865   -13972   -14065   -14173   -14288   -14339 
  -14318   -14295   -14291   -14260   -14177   -14046   -13878   -13698 
  -13524   -13358   -13269   -13316   -13397   -13409   -13413   -13427 
  -13417   -13435   -13487   -13514   -13502   -13473   -13429   -13396 
  -13394   -13409   -13429   -13458   -13464   -13464   -13532   -13663 
  -13788   -13883   -13910   -13855   -13784   -13726   -13655   -13614 
  -13622   -13597   -13517   -13463   -13471   -13508   -13536   -13536 
  -13554   -13668   -13845   -13994   -14152   -14353   -14499   -14536 
  -14544   -14588   -14648   -14673   -14642   -14562   -14420   -14264 
  -14185   -14193   -14243   -14314   -14345   -14293   -14214   -14141 
  -14072   -14040   -14064   -14085   -14033   -13936   -13886   -13890 
  -13888   -13871   -13849   -13788   -13697   -13637   -13590   -13509 
  -13419   -13331   -13251   -13234   -13292   -13379   -13493   -13637 
  -13788   -13918   -14021   -14102   -14158   -14204   -14257   -14303 
  -14318   -14291   -14239   -14192   -14161   -14131   -14111   -14126 
  -14153   -14165   -14160   -14116   -14054   -14035   -14034   -13992 
  -13936   -13892   -13867   -13879   -13910   -13914   -13921   -13967 
  -14023   -14085   -14179   -14283   -14364   -14404   -14395   -14337 
  -14242   -14133   -14061   -14011   -13930   -13860   -13845   -13838 
  -13806   -13749   -13645   -13504   -13369   -13250   -13158   -13105 
  -13093   -13122   -13169   -13224   -13309   -13405   -13487   -13586 
  -13710   -13815   -13899   -14014   -14135   -14185   -14207   -14254 
  -14251   -14187   -14130   -14044   -13899   -13792   -13775   -13795 
  -13829   -13863   -13851   -13806   -13760   -13686   -13601   -13605 
  -13697   -13770   -13799   -13803   -13761   -13710   -13726   -13790 
  -13859   -13976   -14157   -14314   -14392   -14430   -14453   -14467 
  -14489   -14485   -14401   -14270   -14173   -14130   -14118   -14129 
  -14146   -14142   -14115   -14065   -13981   -13895   -13837   -13780 
  -13732   -13740   -13765   -13768   -13805   -13872   -13919   -13980 
  -14046   -14044   -14014   -14000   -13936   -13830   -13772   -13756 
  -13720   -13671   -13662   -13693   -13729   -13759   -13783   -13768 
