Origin Time       2026/01/15 07:13:00
Lat.              42.7
Long.             145.4
Depth. (km)       30
Mag.              5.7
Station Code      HKD085
Station Lat.      42.9581
Station Long.     144.0698
Station Height(m) 5
Record Time       2026/01/15 07:13:40
Sampling Freq(Hz) 100Hz
Duration Time(s)  114
Dir.              U-D
Scale Factor      7845(gal)/8223790
Max. Acc. (gal)   2.767
Last Correction   2026/01/15 07:13:41
Memo.             
[...]
    -253     -342       12      426      621      526      299      145 
      95       64       71      145      179      152      156      207 
     286      318      170     -126     -260       20      569      982 
    1021      801      526      255        2     -116      -17      205 
     342      333      313      356      405      430      406      295 
     224      351      513      459      309      302      375      332 
     199      120       86       78      163      325      479      658 
     912     1117     1113      935      774      756      803      814 
     880     1031     1053      919      843      837      814      815 
     808      689      494      247     -124     -508     -661     -641 
    -741    -1027    -1269    -1264    -1030     -684     -333      -97 
     -49      -54      166      616      918      787      421      263 
     480      768      785      634      630      749      657      261 
     -98     -140      -48      -78      -68      182      410      309 
      66      -60     -132     -151      108      600      965     1135 
    1420     1841     1960     1564     1069      976     1212     1290 
     980      552      414      603      814      874      818      704 
     619      561      388       95     -141     -328     -546     -598 
    -313        8       13     -210     -326     -166      178      541 
     804      885      765      634      753     1032     1117      881 
     527      398      687     1125     1240      996      727      571 
     410      189      -76     -338     -469     -329       64      460 
     553      288      -56     -175      -70      -16     -114     -139 
      66      372      631      757      641      398      344      544 
     720      589      162     -222     -229      139      577      773 
     712      598      413        4     -380     -383     -145       37 
     214      484      654      486       86     -230     -297     -148 
     102      406      750      927      726      390      297      382 
     459      646      922      919      576      263      179      253 
     365      365      252      330      750     1159     1136      745 
     378      229      189      179      271      460      585      513 
     307      216      351      565      723      828      886      874 
     722      326     -170     -321       29      434      414       10 
    -383     -503     -426     -356     -307     -143      187      589 
     884      866      472      -82     -452     -394       59      567 
     800      777      634      386       82      -33      270      820 
    1039      665      203      193      394      309        2     -171 
    -106      133      409      526      480      437      481      587 
     649      540      321      201      229      365      608      737 
     457       21       29      569     1120     1258     1011      631 
     360      306      363      303      103      -29       43      265 
     503      627      575      440      373      427      553      629 
     562      434      430      600      723      573      222     -118 
    -302     -213      167      660     1016     1096      972      811 
     615      290      -56     -191     -116      -58      -56      -10 
      37      102      317      595      700      606      437      290 
     301      506      738      851      808      553      159      -64 
      63      325      425      342      220      168      224      292 
     280      306      480      622      573      442      252      -43 
    -209      -37      267      406      355      270      256      337 
     488      627      623      411      137       48      221      495 
     627      554      526      681      699      326     -147     -290 
     -49      305      519      565      585      619      514      259 
      99      128      216      399      733      958      855      531 
     260      225      379      450      259      -59     -314     -437 
    -321       60      440      562      506      450      460      479 
     390      184       60      145      299      351      290      251 
     430      768      918      808      714      622      310       17 
     152      518      612      406      221      171      193      294 
     437      517      479      311      125       99      236      399 
     531      735     1139     1547     1509      951      324       35 
      39       45      -62     -153     -129      -62      -71     -190 
    -376     -576     -707     -637     -399     -283     -426     -571 
    -449      -81      344      661      865     1047     1224     1339 
    1451     1688     1929     1856     1426     1013      930      959 
     722      317      143      309      599      741      517      -48 
    -614     -824     -699     -552     -513     -419     -228      -43 
     153      396      503      288      -40      -35      417      891 
     928      554      144        1      244      735     1096     1139 
    1030      885      621      264       -9     -118      -37      298 
     791     1139     1171     1013      865      826      969     1300 
    1624     1663     1371      985      730      635      583      414 
     175      167      527      930      976      650      313      253 
     290       29     -471     -776     -672     -391     -282     -410 
    -568     -675     -783     -785     -572     -265      -72     -108 
    -282     -286       13      245       41     -319     -364     -130 
     112      284      382      392      360      349      400      523 
     652      735      927     1359     1819     1973     1755     1308 
     864      653      672      733      770      830      892      904 
     800      530      202       -1      -33        4       56      149 
     203       93      -59     -129     -284     -602     -788     -567 
     -63      407      727      961     1084      974      704      552 
     689     1013     1190      892       97     -778    -1155     -805 
    -128      261      179      -12       60      291      344      217 
     211      449      711      757      618      463      399      481 
     661      788      811      808      784      676      603      735 
     951      955      664      245      -66     -178     -206     -330 
    -537     -614     -467     -247      -60      145      402      681 
     957     1117     1063      877      664      405      171       82 
      17     -125      -95      186      274     -117     -639     -851 
    -750     -641     -689     -792     -810     -735     -630     -448 
     -44      657     1448     1908     1902     1749     1707     1686 
    1560     1412     1402     1532     1601     1468     1246     1138 
    1167     1225     1256     1192      947      615      410      406 
     452      298     -125     -552     -592     -174      418      900 
    1128     1015      580       64     -140      174      685      819 
     425     -125     -481     -629     -734     -897    -1000     -865 
    -533     -149      187      306       83     -297     -576     -762 
    -935    -1026     -965     -760     -418       22      479      876 
    1144     1194     1086     1058     1178     1186      870      344 
    -106     -252      -89      145      211      128       86      178 
     322      405      415      436      502      584      626      623 
     723     1019     1312     1371     1252     1142     1089     1000 
     795      550      454      554      665      631      475      182 
    -275     -677     -692     -299      110      148     -125     -373 
    -413     -260      -54       81      135      112      -32     -267 
    -467     -552     -573     -580     -500     -286      -29      140 
     236      371      631     1004     1394     1642     1584     1205 
     719      372      290      480      869     1302     1483     1208 
     799      769     1015     1003      666      429      465      550 
     371     -167     -731     -861     -544     -118      139      163 
      71       36       81      106       75       52      140      414 
     810     1063      876      270     -288     -295      265      912 
    1177     1003      615      217      -70     -174      -87       91 
     194      135        8      -85     -121      -62      125      410 
     784     1148     1200      939      911     1304     1628     1626 
    1537     1491     1335      888      268      -79       66      342 
     373      272      198       55     -117     -126       22      253 
     599     1069     1576     1930     1887     1480     1100     1008 
    1100     1213     1251     1139      930      734      585      584 
     876     1335     1630     1560     1109      400     -268     -585 
    -510     -233       98      429      657      716      702      687 
     546      260      157      430      803     1050     1167     1001 
     469     -136     -473     -461     -247      -86     -153     -434 
    -770    -1020    -1201    -1414    -1621    -1568    -1084     -434 
     -56       27       87      224      396      631      986     1340 
    1466     1316      981      508       74        2      317      649 
     754      658      426      170       17      -51     -143     -267 
    -384     -479     -498     -438     -413     -417     -292       25 
     409      622      535      369      394      450      282       82 
     139      405      733     1043     1290     1502     1661     1659 
    1482     1239      963      598      241      120      232      282 
      81     -132       -4      400      695      677      429      152 
     101      449     1069     1541     1416      676     -201     -823 
   -1165    -1231    -1031     -826     -908    -1202    -1416    -1464 
   -1382    -1046     -399      290      711      908     1125     1306 
    1171      826      692      854     1035     1019      807      577 
     531      595      549      463      562      807     1008     1120 
    1142      907      249     -646    -1287    -1320     -855     -236 
     306      665      832      927     1044     1146     1181     1167 
    1107      953      722      506      349      228      126       66 
      51       94      205      367      545      727      923     1063 
     990      683      315       72       29      149      391      700 
     896      796      419      -37     -351     -386     -137      243 
     504      546      541      679      838      773      575      614 
     969     1201      946      463      268      472      793      951 
     801      388      -32     -245     -301     -348     -357     -264 
    -199     -220     -102      159      145     -228     -346      226 
    1038     1398     1266     1023      814      552      306      217 
     202       98      -17       25      136      102      -35      -58 
     135      480      818      950      804      491      155     -102 
    -259     -419     -662     -915    -1036     -926     -600     -261 
     -79       20      226      600     1021     1314     1381     1198 
     876      616      517      500      523      664      908     1070 
    1070     1021     1070     1298     1606     1748     1615     1306 
     981      737      585      572      724      882      826      503 
      49     -344     -595     -747     -742     -427      135      649 
     903      897      741      648      754      864      688      286 
      13       86      307      334       94     -202     -286     -109 
      31      -98     -282     -202       67      257      302      315 
     387      457      378      144      -54     -124     -149     -125 
      62      387      630      616      427      318      423      641 
     803      885      989     1181     1372     1440     1502     1794 
    2157     2182     1802     1278      757      268      -99     -287 
    -356     -376     -386     -363     -197      120      371      405 
     409      648      993     1071      855      633      403     -117 
    -882    -1397    -1344     -938     -552     -290       -6      368 
     608      477      106     -229     -486     -793    -1156    -1381 
   -1406    -1453    -1605    -1574    -1094     -303      432      928 
    1282     1618     1926     2093     2066     1956     1923     1979 
    2027     1984     1786     1363      718       41     -427     -669 
    -764     -658     -275      255      683      896      850      548 
     199       13      -93     -332     -758    -1200    -1432    -1412 
   -1251     -988     -508      168      685      702      315      -62 
    -118      159      603     1030     1289     1327     1213     1065 
    1000     1078     1232     1350     1426     1506     1560     1563 
    1506     1258      783      346      174      226      405      591 
     666      666      634      391     -130     -619     -751     -546 
    -189      137      271      217      113        1     -113     -160 
    -130     -145     -233     -298     -361     -549     -760     -703 
    -322      129      444      600      630      596      612      808 
    1190     1507     1468     1165      965      981      969      793 
     664      804     1136     1425     1499     1343     1116      967 
     874      724      407      -74     -546     -916    -1251    -1513 
   -1518    -1301    -1163    -1260    -1389    -1339    -1192    -1066 
    -876     -483       39      471      796     1188     1642     2038 
    2376     2658     2867     3067     3256     3260     2965     2475 
    1923     1375      927      604      221     -348     -928    -1252 
   -1279    -1183    -1147    -1228    -1267    -1057     -670     -371 
    -244     -157       54      441      946     1479     1954     2280 
    2334     2085     1692     1318      953      546      218       86 
      66       45       21      -51     -234     -525     -882    -1235 
   -1506    -1698    -1765    -1524     -965     -508     -499     -668 
    -562     -114      446      889     1165     1420     1736     1961 
    1921     1688     1468     1283     1075      877      687      436 
     122     -171     -386     -542     -638     -607     -530     -500 
    -353       16      396      564      519      396      321      359 
     461      561      739     1067     1467     1846     2130     2242 
    2201     2045     1725     1281      886      629      419      152 
    -202     -558     -720     -661     -589     -548     -386     -157 
      -4       99      180      176       54     -176     -444     -585 
    -494     -282     -124       20      315      760     1147     1331 
    1395     1417     1223      689      -36     -773    -1320    -1432 
   -1148     -805     -584     -372      -76      244      496      603 
     602      675      892     1107     1193     1163     1043      900 
     877      981      996      722      191     -346     -697     -884 
   -1008    -1081    -1026     -843     -670     -591     -556     -567 
    -639     -538       25      862     1467     1656     1634     1630 
    1706     1748     1626     1482     1567     1773     1749     1456 
    1188     1181     1440     1764     1872     1726     1572     1502 
    1352     1084      808      591      476      438      333      124 
     -17     -113     -417     -903    -1228    -1250    -1123     -984 
    -857     -785     -783     -768     -697     -604     -490     -357 
    -240     -116       31      114      113      160      299      425 
     533      650      616      364      133       81       86      102 
     237      527      918     1298     1567     1752     1937     2107 
    2212     2276     2317     2204     1777     1154      595      182 
    -152     -471     -807    -1119    -1304    -1355    -1336    -1258 
   -1097     -872     -610     -367     -211     -193     -244     -229 
    -129      -17       98      232      353      421      483      685 
    1034     1347     1547     1699     1822     1887     1917     1944 
    1957     1879     1626     1285     1051      932      777      544 
     284      -18     -295     -328      -66      294      614      847 
     888      672      400      372      588      757      753      805 
    1093     1389     1348      996      696      722      997     1263 
    1347     1250     1038      796      591      382      110     -189 
    -508     -911    -1323    -1529    -1471    -1387    -1445    -1471 
   -1223     -718     -166      243      471      653      928     1231 
    1360     1259     1089     1008      988      897      643      226 
    -309     -862    -1263    -1416    -1421    -1378    -1231     -920 
    -506      -43      472     1004     1417     1560     1421     1201 
    1058      895      616      313       78      -22       71      245 
     324      368      504      664      749      805      907      967 
     873      724      684      684      544      210     -174     -384 
    -305     -102      -59     -201     -379     -594     -869    -1082 
   -1166    -1189    -1169    -1030     -726     -260      271      630 
     649      460      322      341      468      630      739      704 
     503      267      207      355      521      552      437      259 
     175      319      681     1143     1568     1880     2065     2188 
    2366     2546     2500     2164     1750     1459     1224      907 
     496       27     -438     -791     -999    -1046     -866     -479 
     -51      302      595      854     1040     1112     1100     1092 
    1102     1075     1032      988      854      596      315      105 
     -25     -132     -255     -326     -268     -135      -36       36 
     148      279      369      425      427      305       94      -52 
    -113     -170     -234     -284     -332     -403     -533     -707 
    -816     -739     -479     -149      112      243      264      257 
     257      209       35     -207     -368     -387     -356     -353 
    -326     -220      -74       90      369      778     1175     1464 
    1683     1881     2108     2386     2608     2639     2559     2532 
    2552     2463     2122     1559      988      584      292        9 
    -253     -527     -899    -1305    -1575    -1656    -1633    -1551 
   -1375    -1104     -831     -684     -669     -672     -591     -379 
     -31      345      619      764      818      812      773      695 
     519      238        2      -36       94      283      461      614 
     760      899      978     1009     1096     1242     1282     1146 
     973      930     1050     1206     1208     1004      675      272 
    -148     -480     -648     -649     -592     -596     -604     -477 
    -230        4      183      378      658      978     1165     1151 
    1113     1227     1471     1709     1869     1968     1945     1703 
    1277      850      599      519      421      125     -337     -720 
    -816     -684     -518     -371     -216     -103      -13      221 
     648     1092     1375     1468     1405     1196      854      425 
      -8     -360     -594     -711     -770     -896    -1144    -1386 
   -1412    -1174     -841     -561     -338     -122      130      487 
     913     1252     1436     1518     1517     1439     1358     1297 
    1188      957      608      216     -108     -288     -341     -328 
