Origin Time       2026/01/15 07:13:00
Lat.              42.7
Long.             145.4
Depth. (km)       30
Mag.              5.7
Station Code      HKD069
Station Lat.      43.3941
Station Long.     145.1168
Station Height(m) 25
Record Time       2026/01/15 07:13:40
Sampling Freq(Hz) 100Hz
Duration Time(s)  115
Dir.              E-W
Scale Factor      7845(gal)/8223790
Max. Acc. (gal)   6.077
Last Correction   2026/01/15 07:13:40
Memo.             
[...]
   -2376    -2378    -2362    -2320    -2342    -2452    -2492    -2373 
   -2289    -2374    -2486    -2478    -2366    -2247    -2249    -2398 
   -2513    -2397    -2185    -2211    -2493    -2656    -2490    -2231 
   -2174    -2326    -2490    -2501    -2370    -2270    -2309    -2421 
   -2455    -2361    -2290    -2361    -2465    -2465    -2365    -2277 
   -2288    -2388    -2494    -2498    -2351    -2176    -2170    -2365 
   -2558    -2555    -2358    -2164    -2199    -2440    -2605    -2524 
   -2313    -2197    -2254    -2362    -2425    -2448    -2466    -2471 
   -2382    -2205    -2146    -2319    -2563    -2659    -2521    -2251 
   -2088    -2211    -2497    -2610    -2440    -2227    -2185    -2309 
   -2482    -2547    -2416    -2195    -2137    -2311    -2463    -2389 
   -2254    -2335    -2583    -2654    -2428    -2224    -2278    -2417 
   -2389    -2249    -2245    -2469    -2718    -2701    -2385    -2114 
   -2203    -2513    -2605    -2355    -2116    -2168    -2369    -2470 
   -2444    -2413    -2455    -2512    -2416    -2173    -2073    -2290 
   -2574    -2602    -2388    -2204    -2285    -2562    -2648    -2404 
   -2224    -2359    -2511    -2427    -2272    -2253    -2373    -2513 
   -2548    -2436    -2274    -2236    -2330    -2342    -2228    -2191 
   -2305    -2454    -2504    -2385    -2235    -2270    -2413    -2409 
   -2272    -2258    -2451    -2627    -2594    -2419    -2315    -2427 
   -2619    -2593    -2347    -2203    -2299    -2454    -2515    -2489 
   -2374    -2236    -2249    -2398    -2417    -2228    -2131    -2269 
   -2308    -2092    -2043    -2392    -2689    -2594    -2371    -2327 
   -2367    -2316    -2263    -2330    -2389    -2361    -2404    -2585 
   -2722    -2678    -2524    -2380    -2258    -2141    -2146    -2380 
   -2617    -2616    -2540    -2610    -2687    -2535    -2259    -2177 
   -2292    -2335    -2330    -2436    -2529    -2494    -2450    -2440 
   -2388    -2289    -2241    -2288    -2322    -2278    -2247    -2263 
   -2273    -2299    -2377    -2501    -2660    -2724    -2536    -2227 
   -2111    -2241    -2373    -2396    -2423    -2500    -2542    -2482 
   -2344    -2236    -2276    -2376    -2359    -2288    -2320    -2412 
   -2459    -2479    -2531    -2629    -2702    -2651    -2482    -2313 
   -2277    -2401    -2563    -2616    -2505    -2326    -2323    -2554 
   -2673    -2409    -2039    -1977    -2169    -2301    -2323    -2311 
   -2187    -1973    -1935    -2166    -2384    -2385    -2374    -2523 
   -2577    -2392    -2311    -2481    -2528    -2276    -2093    -2301 
   -2654    -2689    -2436    -2269    -2354    -2558    -2636    -2515 
   -2412    -2481    -2610    -2583    -2365    -2246    -2439    -2728 
   -2812    -2582    -2205    -2046    -2176    -2272    -2180    -2108 
   -2215    -2354    -2327    -2182    -2095    -2116    -2214    -2268 
   -2160    -2060    -2251    -2631    -2816    -2627    -2231    -2022 
   -2230    -2612    -2718    -2459    -2189    -2187    -2316    -2347 
   -2311    -2354    -2470    -2489    -2320    -2137    -2141    -2359 
   -2663    -2766    -2508    -2158    -2066    -2199    -2334    -2479 
   -2697    -2758    -2474    -2103    -2019    -2239    -2502    -2614 
   -2479    -2138    -1906    -2064    -2400    -2469    -2228    -2080 
   -2250    -2513    -2609    -2577    -2546    -2521    -2417    -2242 
   -2169    -2312    -2535    -2652    -2602    -2416    -2265    -2324 
   -2479    -2415    -2112    -1966    -2254    -2771    -3111    -3034 
   -2593    -2174    -2192    -2582    -2857    -2662    -2187    -1962 
   -2209    -2610    -2791    -2686    -2425    -2220    -2268    -2451 
   -2373    -1969    -1706    -1879    -2193    -2266    -2162    -2134 
   -2226    -2396    -2659    -2951    -3069    -2902    -2590    -2336 
   -2216    -2234    -2366    -2512    -2548    -2500    -2544    -2718 
   -2745    -2431    -2057    -2054    -2390    -2654    -2624    -2425 
   -2205    -2023    -2010    -2218    -2438    -2496    -2527    -2671 
   -2776    -2691    -2527    -2359    -2154    -1991    -1972    -2043 
   -2101    -2151    -2269    -2436    -2448    -2150    -1792    -1871 
   -2367    -2655    -2506    -2440    -2717    -2830    -2403    -1848 
   -1744    -2114    -2539    -2614    -2269    -1925    -2066    -2493 
   -2443    -1791    -1441    -2061    -3056    -3353    -2821    -2340 
   -2455    -2722    -2640    -2405    -2408    -2627    -2774    -2695 
   -2515    -2498    -2752    -3009    -2876    -2336    -1861    -1908 
   -2339    -2560    -2332    -2014    -1858    -1671    -1444    -1597 
   -2246    -2859    -3002    -2929    -2955    -2817    -2242    -1613 
   -1478    -1838    -2288    -2498    -2397    -2214    -2297    -2647 
   -2826    -2593    -2289    -2334    -2616    -2710    -2519    -2425 
   -2700    -3053    -3065    -2781    -2632    -2837    -3121    -3115 
   -2782    -2363    -2106    -2114    -2308    -2466    -2504    -2563 
   -2613    -2442    -2126    -1929    -1914    -2004    -2146    -2288 
   -2404    -2550    -2744    -2812    -2562    -2127    -1772    -1530 
   -1348    -1354    -1633    -2000    -2249    -2404    -2509    -2412 
   -1989    -1436    -1116    -1250    -1792    -2458    -2868    -2894 
   -2782    -2798    -2901    -2926    -2848    -2793    -2874    -3003 
   -2964    -2778    -2735    -2936    -3092    -2905    -2492    -2273 
   -2404    -2511    -2166    -1563    -1318    -1609    -1993    -2073 
   -1908    -1804    -1972    -2369    -2689    -2581    -2115    -1779 
   -1807    -1911    -1837    -1784    -2007    -2378    -2628    -2682 
   -2621    -2516    -2431    -2446    -2536    -2562    -2523    -2624 
   -2948    -3268    -3260    -2867    -2417    -2255    -2355    -2533 
   -2733    -2909    -2933    -2816    -2729    -2758    -2751    -2531 
   -2165    -1833    -1583    -1497    -1773    -2344    -2721    -2620 
   -2459    -2724    -3134    -3123    -2721    -2334    -2142    -2123 
   -2246    -2385    -2378    -2236    -2111    -2047    -1946    -1827 
   -1883    -2093    -2165    -2019    -2011    -2350    -2560    -2143 
   -1552    -1629    -2300    -2786    -2810    -2704    -2670    -2682 
   -2781    -2998    -3152    -3080    -2936    -2841    -2610    -2226 
   -2027    -2155    -2320    -2278    -2168    -2192    -2261    -2189 
   -2053    -2077    -2234    -2290    -2257    -2313    -2405    -2343 
   -2234    -2313    -2508    -2547    -2380    -2146    -1925    -1794 
   -1917    -2292    -2650    -2754    -2612    -2438    -2438    -2592 
   -2728    -2778    -2810    -2790    -2533    -2133    -1999    -2282 
   -2660    -2791    -2679    -2554    -2542    -2547    -2404    -2087 
   -1777    -1717    -1956    -2293    -2451    -2319    -2043    -1871 
   -1881    -1999    -2215    -2560    -2871    -2895    -2655    -2462 
   -2529    -2714    -2722    -2493    -2259    -2235    -2370    -2525 
   -2636    -2609    -2462    -2424    -2551    -2555    -2263    -1929 
   -1872    -2073    -2353    -2678    -2941    -2818    -2317    -1961 
   -2065    -2412    -2686    -2759    -2624    -2313    -1956    -1732 
   -1653    -1688    -1917    -2326    -2771    -3098    -3156    -2978 
   -2805    -2771    -2806    -2814    -2740    -2558    -2326    -2185 
   -2245    -2378    -2326    -2080    -1877    -1822    -1852    -1956 
   -2173    -2436    -2602    -2639    -2624    -2613    -2570    -2381 
   -1976    -1517    -1294    -1431    -1848    -2423    -2956    -3208 
   -3137    -2891    -2612    -2417    -2438    -2567    -2508    -2268 
   -2120    -2087    -2053    -2123    -2349    -2515    -2459    -2370 
   -2504    -2763    -2835    -2609    -2236    -1956    -1934    -2181 
   -2524    -2721    -2708    -2628    -2565    -2471    -2367    -2355 
   -2403    -2374    -2228    -2031    -1906    -1922    -1973    -1917 
   -1769    -1690    -1822    -2085    -2251    -2274    -2326    -2485 
   -2608    -2570    -2473    -2459    -2527    -2694    -2992    -3215 
   -3090    -2659    -2219    -2034    -2160    -2439    -2714    -2902 
   -2901    -2727    -2573    -2573    -2666    -2712    -2637    -2520 
   -2465    -2443    -2346    -2127    -1872    -1755    -1845    -2022 
   -2112    -2128    -2276    -2562    -2640    -2363    -2103    -2115 
   -2138    -1938    -1728    -1806    -2216    -2756    -3109    -3032 
   -2631    -2278    -2214    -2351    -2486    -2558    -2695    -2971 
   -3191    -3092    -2695    -2280    -1995    -1764    -1524    -1293 
   -1142    -1235    -1674    -2262    -2652    -2695    -2623    -2816 
   -3279    -3577    -3393    -2855    -2300    -1976    -1917    -1938 
   -1881    -1911    -2332    -3065    -3600    -3651    -3368    -2843 
   -2004    -1046     -491     -621    -1213    -1965    -2616    -2882 
   -2802    -2731    -2839    -3036    -3279    -3627    -3955    -3979 
   -3726    -3469    -3276    -3075    -2876    -2717    -2647    -2654 
   -2497    -1957    -1305    -1071    -1367    -1829    -2181    -2439 
   -2586    -2475    -2045    -1367     -666     -288     -346     -518 
    -538     -645    -1124    -1711    -1842    -1309     -398      345 
     523      359      399      718      866      556      -47     -715 
   -1460    -2272    -2901    -3069    -2721    -1966    -1019     -184 
     205       39     -417     -900    -1518    -2448    -3566    -4557 
   -5173    -5435    -5578    -5684    -5617    -5337    -5044    -5001 
   -5304    -5744    -5911    -5463    -4553    -3815    -3580    -3584 
   -3658    -3955    -4345    -4391    -4025    -3600    -3303    -3055 
   -2752    -2204    -1224     -170      137     -554    -1568    -2254 
   -2663    -3024    -3275    -3369    -3433    -3508    -3492    -3300 
   -2947    -2536    -2320    -2655    -3600    -4579    -4754    -3788 
   -2208     -895     -259     -230     -766    -1842    -3059    -3680 
   -3138    -1421      766     2224     2141      761    -1043    -2708 
   -4113    -5166    -5784    -6026    -5980    -5674    -4999    -3862 
   -2583    -1804    -1831    -2332    -2758    -2835    -2543    -1929 
   -1170     -641     -707    -1529    -3113    -5115    -6663    -6872 
   -5532    -3245    -1074       55     -108    -1075    -2083    -2697 
   -2947    -2916    -2644    -2266    -1898    -1605    -1441    -1204 
    -494      700     1858     2425     2027      387    -2407    -5556 
   -7835    -8465    -7623    -5998    -4120    -2277     -702      448 
    1035      874      103     -716    -1194    -1507    -2030    -2666 
   -2820    -2122    -1009     -476    -1300    -3381    -5686    -6975 
   -6725    -5333    -3601    -2164    -1169     -440      -10     -280 
   -1489    -3289    -5011    -5980    -5571    -3649    -1058      945 
    1711     1331      222    -1092    -2218    -3188    -4278    -5379 
   -5926    -5501    -4156    -2269     -426      696      715     -209 
   -1628    -3191    -4652    -5714    -6123    -5752    -4465    -2235 
     297     1881     1730      186    -1791    -3404    -4271    -4287 
   -3559    -2486    -1555     -935     -476      -59      164     -153 
   -1154    -2508    -3661    -4209    -4125    -3715    -3163    -2377 
   -1431     -657     -295     -348     -772    -1725    -3294    -4891 
   -5566    -4845    -2984     -800      696      931      105    -1266 
   -2899    -4576    -5764    -5803    -4557    -2660    -1030     -295 
    -571    -1426    -2081    -2052    -1605    -1267    -1240    -1459 
   -1849    -2405    -3114    -3936    -4761    -5250    -5063    -4322 
   -3524    -2982    -2548    -2027    -1486     -945     -220      573 
     947      789      541      322     -321    -1584    -3123    -4463 
   -5035    -4328    -2475     -330     1231     1722      946     -881 
   -2937    -4384    -5151    -5598    -5637    -4903    -3584    -2377 
   -1841    -2126    -2976    -3685    -3500    -2443    -1367     -996 
   -1424    -2394    -3446    -4125    -4395    -4492    -4598    -4796 
   -4927    -4635    -3829    -2803    -1885    -1194     -814     -916 
   -1462    -2093    -2525    -2604    -2211    -1609    -1471    -2085 
   -2901    -3177    -2594    -1224      495     1717     1664      303 
   -1551    -2867    -3169    -2751    -2273    -2257    -2720    -3221 
   -3388    -3244    -3055    -2995    -2991    -2876    -2621    -2438 
   -2629    -3258    -4024    -4423    -3982    -2685    -1178     -206 
      43     -211     -835    -1586    -1803    -1073        0      403 
    -228    -1413    -2362    -2731    -2857    -3180    -3748    -4444 
   -5275    -6120    -6497    -5934    -4428    -2448     -723      206 
     284     -251    -1166    -2224    -3052    -3245    -2718    -1880 
   -1350    -1455    -1861    -1892    -1331     -623     -238     -257 
    -561    -1096    -1915    -3056    -4267    -4962    -4731    -3724 
   -2412    -1286     -723     -935    -2007    -3816    -5773    -6932 
   -6597    -4882    -2673    -1066     -824    -1946    -3588    -4776 
   -5150    -4831    -4105    -3353    -2785    -2309    -1881    -1686 
   -1818    -1937    -1563     -734      -83     -178    -1021    -2106 
   -2822    -2961    -2735    -2320    -1655     -600      670     1456 
    1067     -352    -1950    -2956    -3146    -2754    -2214    -1881 
   -1813    -1814    -1765    -1900    -2751    -4533    -6585    -7757 
   -7433    -5996    -4388    -3354    -3045    -3123    -3130    -2955 
   -2848    -2843    -2420    -1082      962     2920     3991     3659 
    1873     -839    -3667    -5811    -6544    -5335    -2459      583 
    2074     1453     -556    -2685    -3998    -4352    -4040    -3495 
   -3235    -3534    -4216    -4872    -5103    -4693    -3588    -1939 
    -275      747      837      178     -874    -2062    -3148    -3770 
   -3647    -2760    -1260      376     1242      627    -1210    -3125 
   -4048    -3906    -3291    -2579    -1826    -1020     -194      375 
     197     -892    -2392    -3561    -4063    -4021    -3767    -3699 
   -3970    -4303    -4437    -4557    -4901    -5251    -5211    -4753 
   -4202    -3869    -3896    -4237    -4563    -4545    -4257    -3928 
   -3489    -2774    -2052    -1810    -1985    -2018    -1692    -1271 
    -885     -418        1      -31     -680    -1683    -2668    -3437 
   -3848    -3755    -3322    -3087    -3307    -3642    -3740    -3659 
   -3501    -3095    -2343    -1611    -1441    -2027    -3198    -4716 
   -6234    -7188    -7138    -6107    -4437    -2586    -1061     -197 
     155      556     1447     2745     3839     3973     2793      622 
   -1572    -2683    -2374    -1371     -666     -608     -739     -448 
     317      988      835     -444    -2479    -4618    -6342    -7296 
   -7295    -6400    -4868    -3203    -2182    -2386    -3646    -5116 
   -5926    -5692    -4471    -2623     -776      449      761      272 
    -720    -1952    -3161    -4187    -5024    -5572    -5476    -4490 
   -2884    -1297     -180      387      479      156     -457    -1139 
   -1790    -2579    -3599    -4486    -4733    -4278    -3636    -3442 
   -3846    -4433    -4660    -4315    -3716    -3454    -3724    -3994 
   -3531    -2207     -589      629     1098      889      301     -364 
    -876    -1069     -967     -842     -977    -1406    -1944    -2415 
   -2940    -3780    -4773    -5329    -5125    -4469    -3943    -3736 
   -3489    -2879    -2089    -1568    -1625    -2203    -2913    -3254 
   -2867    -1691      -12     1696     2983     3497     3060     1860 
     460     -606    -1147    -1227    -1027     -913    -1339    -2442 
   -3877    -5017    -5271    -4515    -3289    -2431    -2529    -3457 
   -4463    -4901    -4761    -4388    -3978    -3489    -2918    -2311 
   -1624     -907     -460     -553    -1096    -1686    -1891    -1570 
   -1039     -807     -989    -1129     -805     -228       18     -272 
    -723     -958    -1094    -1462    -2124    -2793    -3063    -2789 
   -2236    -1783    -1510    -1289    -1139    -1259    -1745    -2463 
   -3214    -3883    -4463    -4908    -5059    -4784    -4178    -3477 
   -2895    -2616    -2776    -3277    -3751    -3883    -3696    -3456 
   -3392    -3441    -3295    -2824    -2249    -1773    -1337     -861 
    -486     -515    -1108    -1958    -2454    -2161    -1181     -106 
     484      452      -22     -754    -1701    -2830    -3910    -4630 
   -4888    -4801    -4644    -4746    -5231    -5799    -5975    -5512 
   -4507    -3246    -2120    -1537    -1659    -2334    -3226    -3834 
   -3682    -2762    -1564     -602        5      384      554      445 
     145     -198     -604    -1135    -1676    -2011    -2088    -2172 
   -2538    -3123    -3678    -4114    -4449    -4639    -4650    -4486 
   -4129    -3657    -3246    -3042    -3068    -3273    -3616    -3912 
   -3777    -3017    -1948    -1165    -1035    -1359    -1636    -1630 
   -1501    -1428    -1435    -1495    -1657    -2030    -2639    -3307 
   -3843    -4191    -4236    -3771    -2874    -2054    -1813    -2168 
   -2828    -3593    -4333    -4878    -5184    -5271    -4955    -3974 
   -2447     -926       56      438      576      828     1255     1629 
    1613     1078      299     -360     -841    -1298    -1786    -2166 
   -2363    -2542    -2916    -3551    -4383    -5123    -5274    -4553 
   -3245    -2038    -1512    -1773    -2605    -3734    -4797    -5363 
   -5267    -4814    -4382    -4039    -3743    -3599    -3678    -3800 
   -3667    -3134    -2274    -1270     -279      581     1202     1510 
    1441      982      334     -125     -186       12      159       68 
    -248     -730    -1339    -1968    -2504    -2980    -3530    -4195 
   -4897    -5513    -5908    -5941    -5620    -5194    -4873    -4612 
   -4337    -4164    -4226    -4436    -4552    -4417    -4047    -3595 
   -3267    -3145    -3084    -2925    -2683    -2465    -2301    -2072 
   -1641    -1123     -816     -881    -1170    -1271     -800      180 
    1094     1347      830     -140    -1205    -2137    -2814    -3289 
   -3713    -4072    -4120    -3651    -2755    -1806    -1209    -1120 
   -1443    -2061    -2882    -3740    -4413    -4758    -4784    -4513 
   -3908    -3083    -2394    -2137    -2269    -2471    -2394    -1912 
   -1244     -827     -970    -1599    -2313    -2721    -2741    -2592 
   -2527    -2547    -2388    -1872    -1113     -359      160      268 
     -27     -450     -672     -565     -147      534     1262     1702 
    1653     1075      -32    -1578    -3298    -4849    -6068    -7056 
   -7916    -8515    -8606    -8062    -7001    -5738    -4615    -3797 
   -3191    -2612    -1945    -1208     -583     -248     -162     -116 
      68      452      865     1011      722        6    -1055    -2284 
   -3404    -4164    -4378    -3986    -3208    -2493    -2193    -2403 
   -3015    -3765    -4214    -4025    -3269    -2289    -1385     -737 
    -426     -437     -695    -1069    -1420    -1663    -1829    -2085 
   -2587    -3256    -3823    -4058    -3920    -3600    -3319    -3086 
   -2718    -2123    -1459     -978     -747     -600     -310      179 
     602      456     -599    -2413    -4409    -5950    -6690    -6714 
   -6342    -5854    -5425    -5063    -4722    -4552    -4766    -5247 
