Origin Time       2026/01/15 07:13:00
Lat.              42.7
Long.             145.4
Depth. (km)       30
Mag.              5.7
Station Code      HKD099
Station Lat.      43.0736
Station Long.     142.8392
Station Height(m) 177
Record Time       2026/01/15 07:14:13
Sampling Freq(Hz) 100Hz
Duration Time(s)  78
Dir.              U-D
Scale Factor      7845(gal)/8223790
Max. Acc. (gal)   2.251
Last Correction   2026/01/15 07:14:13
Memo.             
[...]
   34098    33966    33831    33760    33868    34005    33937    33970 
   34311    34545    34473    34373    34362    34281    34084    33968 
   34015    34032    33894    33754    33685    33646    33721    33843 
   33859    33901    34092    34306    34352    34279    34265    34276 
   34213    34098    33986    33956    33980    33874    33655    33629 
   33828    33956    33971    34040    34219    34377    34385    34331 
   34279    34114    33953    33975    33917    33700    33736    33982 
   34025    33929    33937    34091    34246    34206    34179    34361 
   34435    34254    34038    33979    34051    34045    33936    33845 
   33790    33821    33902    33941    34005    34037    33952    33952 
   34125    34275    34307    34358    34496    34568    34522    34415 
   34253    34183    34273    34268    34022    33783    33706    33659 
   33625    33636    33654    33740    33868    33903    33879    33959 
   34133    34269    34265    34059    33839    33841    33943    33976 
   34021    34094    34103    34165    34304    34325    34252    34199 
   34110    33922    33767    33812    33899    33902    33987    34138 
   34179    34157    34242    34385    34380    34203    33974    33870 
   33998    34150    34156    34074    34007    34084    34257    34283 
   34146    34159    34435    34608    34434    34161    33999    33951 
   34076    34194    34033    33840    33910    34060    33983    33720 
   33555    33552    33628    33724    33798    33943    34045    33882 
   33752    33984    34307    34422    34357    34252    34279    34366 
   34280    34083    33995    34055    34079    33941    33774    33766 
   33944    34096    34017    33897    33916    33941    33920    33961 
   34021    33914    33686    33616    33752    33906    34018    34122 
   34219    34269    34250    34280    34364    34361    34319    34337 
   34310    34172    34075    34086    34098    34103    34173    34264 
   34237    34122    34122    34190    34145    34088    34098    34045 
   33991    34025    33887    33577    33581    33859    33918    33906 
   34156    34450    34551    34461    34249    34057    33961    33939 
   33964    33930    33789    33745    33855    33866    33808    33903 
   34074    34183    34283    34375    34380    34339    34326    34288 
   34209    34153    34137    34188    34277    34218    34055    34083 
   34190    34033    33810    33883    34115    34175    34036    33918 
   33899    33862    33777    33709    33643    33547    33504    33604 
   33791    33997    34204    34326    34327    34380    34524    34555 
   34426    34261    34128    34018    33868    33826    34051    34149 
   33883    33705    33818    33941    33998    34061    34132    34215 
   34258    34257    34326    34406    34295    34049    33901    33871 
   33821    33758    33747    33752    33733    33747    33902    34171 
   34383    34441    34384    34300    34295    34345    34330    34244 
   34156    34079    34032    34048    34099    34101    34018    33951 
   33952    33914    33799    33763    33860    33920    33848    33762 
   33837    34084    34267    34275    34280    34369    34420    34354 
   34253    34241    34272    34199    34121    34192    34209    34010 
   33836    33832    33858    33845    33828    33795    33818    33898 
   33826    33658    33674    33806    33910    33994    34014    33999 
   33974    33926    33976    34103    34199    34333    34465    34445 
   34288    34157    34186    34281    34249    34102    33998    33994 
   33997    33947    33901    33862    33894    34114    34281    34167 
   34033    34082    34134    34091    34072    34088    34071    34092 
   34160    34134    34064    34056    34038    34030    34119    34176 
   34144    34188    34281    34256    34182    34180    34138    33997 
   33940    33998    33957    33764    33604    33623    33701    33732 
   33836    33957    33936    33961    34164    34346    34393    34368 
   34311    34240    34176    34110    33978    33831    33868    34036 
   34072    33974    33898    33821    33720    33756    33921    33998 
   33987    34034    34165    34335    34461    34449    34303    34165 
   34136    34138    34033    33826    33697    33764    33875    33941 
   34084    34204    34204    34265    34360    34354    34318    34237 
   34056    33851    33636    33455    33493    33751    33971    34024 
   34007    33987    33961    34020    34144    34128    34029    34106 
   34323    34476    34523    34507    34458    34406    34337    34179 
   33966    33876    33976    34092    34103    34042    33932    33870 
   33994    34155    34130    33949    33762    33728    33860    33983 
   33998    33920    33797    33785    33941    34149    34242    34182 
   34146    34194    34195    34217    34334    34408    34358    34237 
   34123    34040    33956    33891    33852    33732    33551    33561 
   33756    33871    33928    34032    34044    34005    34099    34167 
   34042    33971    34032    33988    33926    34068    34227    34188 
   34113    34194    34334    34365    34354    34392    34353    34269 
   34315    34339    34168    33952    33818    33766    33804    33862 
   33898    33963    33951    33852    33891    34011    33998    33916 
   33849    33824    33933    34075    34106    34138    34202    34150 
   34021    33994    34026    33972    33967    34136    34260    34237 
   34222    34226    34150    34041    33993    33974    33918    33883 
   33933    34009    34045    34060    34130    34276    34371    34284 
   34140    34168    34277    34222    34051    33982    34026    34045 
   34052    34146    34260    34265    34175    34041    33932    33867 
   33758    33687    33818    33976    33986    34053    34310    34462 
   34248    33925    33926    34138    34160    34033    33982    33902 
   33778    33868    34134    34245    34161    34109    34126    34098 
   34060    34045    33937    33759    33691    33743    33797    33851 
   33894    33845    33775    33837    33963    33980    33961    34026 
   34071    34021    33972    33978    34010    34049    34072    34061 
   34106    34288    34508    34638    34682    34663    34596    34533 
   34503    34473    34372    34194    34025    33917    33855    33770 
   33593    33417    33377    33477    33647    33787    33868    33922 
   33978    34047    34095    34145    34229    34231    34152    34130 
   34068    33893    33791    33824    33870    33909    34005    34118 
   34195    34325    34483    34497    34406    34337    34292    34231 
   34111    33912    33685    33521    33562    33774    33903    33924 
   34005    34113    34172    34244    34276    34233    34242    34295 
   34204    34038    34006    34048    34041    34091    34203    34192 
   34113    34184    34314    34223    34037    34056    34163    34136 
   34075    34034    33895    33693    33624    33763    33930    33974 
   34042    34240    34373    34391    34402    34383    34312    34268 
   34260    34222    34149    34051    33870    33629    33490    33527 
   33664    33798    33822    33778    33790    33767    33739    33987 
   34310    34304    34190    34258    34362    34344    34288    34339 
   34422    34346    34202    34187    34219    34169    34110    34111 
   34133    34153    34186    34194    34096    33912    33781    33750 
   33740    33754    33799    33835    33858    33890    33995    34152 
   34226    34265    34342    34281    34099    34057    34138    34132 
   34044    33998    33983    33975    34024    34083    34065    34028 
   34096    34241    34265    34153    34115    34110    33998    33890 
   33848    33813    33806    33833    33872    33926    33995    34092 
   34179    34199    34169    34063    33872    33781    33894    34034 
   34053    34072    34226    34369    34342    34277    34318    34348 
   34254    34167    34169    34194    34217    34203    34157    34156 
   34142    34113    34133    34099    33984    33926    33937    33952 
   33918    33821    33756    33787    33858    33952    34087    34153 
   34068    33997    34106    34195    34032    33840    33897    34075 
   34182    34215    34221    34196    34109    33937    33836    33930 
   34021    33956    33891    33882    33844    33839    33983    34187 
   34246    34204    34246    34277    34169    34053    34005    33937 
   33883    33939    34010    33983    34053    34256    34229    34051 
   34114    34248    34206    34192    34252    34190    34021    33909 
   33922    33926    33831    33840    33963    33930    33843    33903 
   33926    33859    33916    34045    34098    34249    34534    34554 
   34223    33997    34080    34242    34379    34551    34604    34360 
   34005    33797    33664    33509    33475    33617    33678    33563 
   33559    33752    33840    33801    33893    34037    34034    34063 
   34268    34395    34294    34244    34380    34450    34457    34639 
   34844    34839    34740    34689    34645    34550    34422    34327 
   34230    34084    33988    33963    33864    33639    33471    33538 
   33674    33679    33643    33652    33720    33914    34190    34335 
   34257    34086    34002    34025    34006    33901    33813    33685 
   33511    33507    33646    33705    33705    33775    33929    34090 
   34187    34276    34385    34410    34345    34308    34318    34310 
   34222    34028    33852    33835    33913    34010    34099    34122 
   34155    34312    34500    34611    34643    34569    34404    34285 
   34225    34083    33903    33798    33658    33466    33416    33467 
   33467    33500    33664    33879    34055    34219    34344    34296 
   34140    34068    34080    34061    34022    34041    34014    33831 
   33725    33867    34014    34065    34146    34182    34192    34375 
   34591    34558    34414    34430    34484    34395    34376    34465 
   34377    34169    34067    34011    33936    33871    33812    33714 
   33583    33565    33700    33775    33751    33799    33848    33710 
   33531    33574    33758    33862    33920    34005    34076    34176 
   34331    34418    34398    34395    34400    34264    34005    33805 
   33772    33848    33916    33961    34055    34229    34412    34453 
   34327    34204    34168    34136    34063    33980    33899    33837 
   33856    33907    33863    33821    33924    34025    34029    34047 
   34028    33921    33909    34041    34117    34036    33894    33799 
   33764    33763    33828    34015    34207    34256    34306    34506 
   34666    34643    34608    34670    34638    34477    34383    34373 
   34445    34626    34705    34596    34480    34330    34033    33790 
   33771    33806    33698    33534    33434    33324    33156    33031 
   33077    33261    33389    33396    33373    33335    33345    33543 
   33844    34022    34095    34223    34360    34460    34576    34568 
   34361    34226    34265    34323    34362    34388    34461    34668 
   34859    34900    34932    35029    35060    34977    34850    34676 
   34504    34450    34410    34257    34045    33843    33737    33721 
   33651    33519    33415    33411    33524    33643    33650    33577 
   33513    33416    33228    33135    33232    33285    33277    33403 
   33613    33814    34032    34206    34276    34298    34295    34264 
   34229    34146    33988    33898    33957    34087    34260    34480 
   34669    34744    34720    34677    34651    34591    34423    34125 
   33781    33567    33631    33879    34068    34192    34388    34568 
   34560    34406    34246    34109    33930    33810    33886    33957 
   33832    33667    33592    33588    33640    33710    33808    33940 
   33972    33851    33723    33670    33606    33565    33687    33822 
   33781    33799    34040    34258    34364    34495    34577    34460 
   34294    34312    34398    34294    34098    34078    34140    34082 
   34011    33979    33941    34011    34117    34086    34044    34068 
   34065    34125    34291    34419    34510    34641    34716    34662 
   34635    34788    35035    35185    35152    34921    34522    34125 
   33883    33671    33355    33115    33124    33280    33389    33362 
   33208    33002    32892    33010    33318    33646    33871    34010 
   34072    34053    34132    34350    34468    34506    34662    34739 
   34585    34501    34636    34739    34724    34738    34754    34620 
   34384    34215    34088    33875    33619    33453    33419    33408 
   33292    33172    33191    33293    33411    33523    33596    33704 
   33885    34026    34114    34277    34489    34551    34457    34400 
   34410    34414    34441    34488    34462    34287    34051    33941 
   33957    33998    34084    34186    34152    33994    33914    33971 
   34032    34011    33905    33782    33772    33825    33774    33682 
   33712    33799    33826    33806    33785    33778    33768    33762 
   33886    34160    34434    34692    34909    34846    34538    34350 
   34314    34196    34099    34223    34387    34395    34366    34357 
   34210    33936    33795    33880    34026    34129    34238    34422 
   34553    34433    34167    33994    33875    33654    33397    33273 
   33227    33143    33118    33187    33197    33183    33334    33571 
   33698    33766    33870    33894    33791    33708    33585    33316 
   33196    33396    33663    33939    34356    34781    35079    35297 
   35428    35472    35565    35796    36089    36321    36416    36313 
   35954    35380    34794    34348    33957    33504    33106    32923 
   32819    32663    32609    32699    32744    32707    32752    32957 
   33219    33466    33809    34194    34302    34111    33970    34030 
   34198    34385    34473    34372    34199    34171    34311    34411 
   34349    34179    33991    33866    33789    33696    33636    33690 
   33818    33994    34277    34612    34813    34844    34875    34936 
   34771    34257    33673    33334    33230    33122    32910    32794 
   32899    33093    33339    33650    33952    34269    34607    34830 
   34913    34951    34928    34793    34663    34616    34535    34410 
   34354    34369    34345    34190    34051    34113    34183    34052 
   33771    33373    32996    32911    33033    33066    33120    33405 
   33700    33817    33943    34121    34269    34480    34731    34904 
   35032    35121    35140    35155    35181    35162    35052    34852 
   34620    34411    34225    34048    33863    33631    33331    33073 
   32992    32985    32945    32941    32942    32884    32891    32995 
   33081    33130    33215    33432    33772    34078    34288    34501 
   34716    34865    34983    35106    35193    35237    35222    35106 
   34942    34815    34684    34461    34188    33917    33585    33243 
   33089    33164    33288    33359    33489    33710    33843    33793 
   33694    33619    33496    33330    33251    33361    33631    33966 
   34312    34635    34873    35113    35480    35766    35769    35657 
   35537    35347    35159    35039    34817    34380    33943    33682 
   33462    33241    33118    33057    32992    33011    33250    33648 
   34032    34403    34762    34921    34854    34746    34585    34271 
   34002    33871    33662    33400    33362    33475    33412    33173 
   33039    33052    33102    33261    33559    33913    34295    34634 
   34909    35186    35334    35208    34928    34641    34273    33751 
   33247    33010    33050    33216    33367    33442    33492    33520 
   33550    33716    34011    34337    34641    34821    34889    34925 
   34861    34680    34480    34254    34080    34079    34110    34013 
   33947    34068    34273    34510    34825    35083    35145    35127 
   35113    34960    34597    34268    34168    34165    34113    34064 
   34053    33953    33763    33644    33504    33189    32846    32630 
   32540    32595    32795    33077    33373    33608    33798    34029 
   34194    34119    33960    33968    34018    33916    33840    33945 
   34064    34119    34211    34335    34437    34543    34655    34665 
   34507    34335    34281    34198    34003    33867    33839    33802 
   33775    33864    34001    34091    34203    34354    34437    34441 
   34400    34227    33893    33561    33362    33243    33149    33157 
   33242    33266    33365    33705    34119    34503    34902    35182 
   35274    35309    35275    35101    34946    34909    34763    34410 
   34082    33912    33818    33716    33558    33412    33440    33610 
   33782    33928    34013    34040    34107    34177    34101    33905 
   33794    33837    33913    33941    33880    33745    33662    33656 
   33636    33659    33828    34051    34269    34605    34989    35178 
   35175    35093    34858    34404    33885    33492    33197    32823 
   32355    31969    31858    32094    32528    32915    33239    33590 
   33945    34357    34857    35267    35478    35587    35692    35768 
   35762    35681    35527    35268    34944    34619    34272    33952 
   33801    33802    33779    33647    33513    33492    33551    33562 
   33408    33184    33135    33235    33278    33318    33424    33447 
   33313    33173    33166    33319    33594    33907    34191    34389 
   34496    34623    34770    34807    34805    34915    35077    35166 
   35097    34879    34661    34501    34304    33998    33609    33201 
   32850    32674    32692    32775    32857    33018    33281    33602 
   33948    34300    34619    34847    35002    35156    35270    35291 
   35263    35159    34987    34882    34919    35071    35135    34847 
   34381    34068    33862    33643    33457    33336    33265    33235 
   33276    33304    33219    33178    33276    33399    33527    33640 
   33729    33878    34047    34149    34175    34109    34055    34157 
   34337    34476    34618    34743    34734    34649    34682    34823 
   34905    34886    34781    34531    34136    33748    33523    33444 
   33366    33218    33120    33184    33367    33606    33816    33860 
   33831    33902    33976    33956    33968    34029    34001    33918 
   33968    34179    34362    34420    34433    34388    34226    34080 
   34059    34045    33949    33818    33708    33701    33841    33986 
   33976    33862    33791    33794    33814    33933    34244    34635 
   34943    35132    35229    35212    35074    34913    34801    34654 
   34412    34173    33986    33801    33623    33475    33374    33393 
   33529    33623    33597    33570    33656    33779    33822    33756 
   33652    33651    33750    33786    33783    33851    33939    34083 
   34387    34722    34929    35023    35019    34916    34762    34599 
   34430    34294    34188    34020    33758    33496    33253    33048 
   33008    33100    33150    33187    33320    33562    33860    34128 
   34327    34496    34612    34631    34519    34253    33890    33508 
   33147    32914    32913    33096    33362    33620    33818    34021 
   34284    34574    34854    35078    35205    35257    35355    35509 
   35534    35372    35141    34858    34578    34435    34345    34165 
   33925    33682    33535    33523    33529    33579    33774    33974 
   34074    34150    34198    34202    34258    34311    34171    33905 
