Origin Time       2026/01/15 07:13:00
Lat.              42.7
Long.             145.4
Depth. (km)       30
Mag.              5.7
Station Code      HKD038
Station Lat.      43.1666
Station Long.     142.5662
Station Height(m) 353
Record Time       2026/01/15 07:14:19
Sampling Freq(Hz) 100Hz
Duration Time(s)  60
Dir.              U-D
Scale Factor      7845(gal)/8223790
Max. Acc. (gal)   1.206
Last Correction   2026/01/15 07:14:19
Memo.             
[...]
   -2953    -2998    -3019    -3019    -3036    -3053    -3042    -3010 
   -3001    -3024    -3029    -3013    -3019    -3044    -3045    -3028 
   -3025    -3057    -3083    -3060    -3029    -3021    -3009    -2991 
   -2980    -2971    -2971    -2986    -2998    -2997    -2979    -2948 
   -2924    -2914    -2901    -2872    -2849    -2848    -2867    -2899 
   -2938    -2955    -2933    -2906    -2917    -2938    -2922    -2906 
   -2938    -2974    -2972    -2965    -2972    -2971    -2948    -2929 
   -2945    -2980    -2992    -2984    -2990    -3018    -3051    -3057 
   -3034    -2995    -2959    -2949    -2974    -3005    -3022    -3022 
   -3014    -3017    -3028    -3018    -2980    -2941    -2929    -2937 
   -2947    -2967    -3006    -3046    -3064    -3061    -3065    -3082 
   -3071    -3026    -2983    -2937    -2891    -2882    -2911    -2933 
   -2903    -2849    -2820    -2817    -2812    -2818    -2843    -2852 
   -2857    -2902    -2955    -2979    -3005    -3041    -3063    -3076 
   -3092    -3103    -3103    -3099    -3094    -3084    -3079    -3076 
   -3053    -3013    -2979    -2930    -2879    -2882    -2914    -2910 
   -2890    -2894    -2890    -2872    -2872    -2874    -2852    -2830 
   -2844    -2898    -2965    -3002    -2994    -2978    -2961    -2943 
   -2943    -2947    -2934    -2948    -2992    -3014    -3017    -3044 
   -3071    -3061    -3045    -3030    -3001    -2986    -3001    -3001 
   -2975    -2983    -3014    -3010    -2979    -2963    -2952    -2967 
   -3024    -3049    -3007    -2971    -2963    -2944    -2930    -2945 
   -2953    -2951    -2944    -2929    -2925    -2941    -2948    -2940 
   -2938    -2940    -2934    -2928    -2925    -2924    -2918    -2907 
   -2910    -2940    -2961    -2964    -2991    -3053    -3088    -3064 
   -3024    -3019    -3037    -3025    -2994    -2997    -3019    -3022 
   -3007    -2984    -2963    -2949    -2948    -2965    -2995    -3006 
   -3002    -2994    -2978    -2967    -2971    -2957    -2920    -2879 
   -2840    -2822    -2862    -2930    -2955    -2936    -2918    -2917 
   -2944    -2988    -3006    -2994    -2991    -3007    -3021    -3024 
   -3024    -3046    -3078    -3072    -3040    -3019    -3009    -2988 
   -2955    -2921    -2906    -2921    -2941    -2930    -2899    -2889 
   -2895    -2894    -2897    -2933    -2978    -2979    -2949    -2928 
   -2918    -2922    -2955    -3001    -3018    -3002    -2987    -2991 
   -2998    -2999    -2992    -2982    -2955    -2913    -2891    -2894 
   -2884    -2860    -2837    -2824    -2840    -2894    -2961    -3019 
   -3064    -3094    -3115    -3142    -3157    -3141    -3129    -3145 
   -3159    -3149    -3133    -3111    -3072    -3025    -2988    -2970 
   -2956    -2933    -2920    -2926    -2928    -2922    -2938    -2967 
   -2965    -2941    -2934    -2937    -2926    -2938    -2984    -3009 
   -3007    -3013    -2991    -2937    -2911    -2909    -2883    -2872 
   -2916    -2949    -2944    -2929    -2911    -2895    -2878    -2856 
   -2853    -2874    -2874    -2849    -2855    -2891    -2916    -2911 
   -2902    -2894    -2882    -2895    -2959    -3022    -3026    -2994 
   -2998    -3061    -3146    -3194    -3177    -3159    -3180    -3200 
   -3171    -3123    -3109    -3111    -3095    -3072    -3055    -3026 
   -2998    -2991    -2990    -2963    -2922    -2893    -2878    -2867 
   -2835    -2786    -2772    -2814    -2851    -2875    -2914    -2930 
   -2901    -2898    -2945    -2970    -2956    -2937    -2936    -2960 
   -2982    -2978    -2980    -2998    -2984    -2941    -2910    -2897 
   -2864    -2808    -2766    -2766    -2789    -2790    -2771    -2776 
   -2809    -2844    -2894    -2970    -3032    -3059    -3069    -3073 
   -3068    -3080    -3109    -3102    -3046    -2992    -2976    -2980 
   -2975    -2960    -2956    -2960    -2970    -2994    -3041    -3091 
   -3126    -3137    -3132    -3126    -3125    -3119    -3125    -3150 
   -3165    -3152    -3149    -3159    -3134    -3084    -3042    -3001 
   -2967    -2960    -2956    -2930    -2886    -2837    -2806    -2825 
   -2874    -2898    -2889    -2874    -2857    -2843    -2843    -2848 
   -2844    -2855    -2907    -2979    -3040    -3068    -3079    -3092 
   -3091    -3055    -2999    -2960    -2953    -2965    -2976    -2971 
   -2943    -2902    -2884    -2886    -2872    -2849    -2848    -2878 
   -2922    -2970    -3013    -3037    -3045    -3052    -3052    -3033 
   -3019    -3018    -3007    -2987    -2975    -2964    -2937    -2905 
   -2890    -2890    -2889    -2889    -2907    -2955    -3003    -2999 
   -2960    -2944    -2963    -2968    -2936    -2907    -2909    -2920 
   -2932    -2955    -2971    -2988    -3022    -3042    -3030    -3022 
   -3040    -3067    -3090    -3115    -3146    -3157    -3141    -3110 
   -3069    -3029    -2991    -2932    -2857    -2810    -2787    -2768 
   -2781    -2828    -2871    -2891    -2907    -2940    -2986    -3014 
   -3001    -2964    -2951    -2965    -2979    -2991    -3019    -3038 
   -3032    -3017    -2997    -2968    -2965    -2974    -2963    -2957 
   -2979    -2987    -2959    -2938    -2953    -2967    -2961    -2975 
   -3021    -3063    -3076    -3078    -3091    -3091    -3044    -2987 
   -2982    -2999    -2980    -2945    -2947    -2970    -2963    -2943 
   -2957    -2999    -3009    -2971    -2930    -2911    -2893    -2867 
   -2862    -2886    -2906    -2907    -2902    -2909    -2924    -2940 
   -2948    -2948    -2948    -2959    -2967    -2957    -2953    -2971 
   -2979    -2975    -2987    -3010    -3032    -3059    -3063    -3024 
   -2976    -2940    -2903    -2902    -2938    -2959    -2947    -2944 
   -2951    -2945    -2947    -2953    -2937    -2916    -2926    -2971 
   -3003    -2998    -2987    -2986    -2975    -2960    -2961    -2975 
   -2978    -2956    -2918    -2903    -2930    -2955    -2948    -2938 
   -2913    -2849    -2806    -2836    -2890    -2916    -2938    -2974 
   -2998    -3002    -3009    -3010    -2986    -2960    -2974    -3010 
   -3029    -3025    -3021    -3028    -3037    -3051    -3063    -3065 
   -3063    -3071    -3078    -3055    -3021    -3010    -2999    -2972 
   -2959    -2959    -2948    -2938    -2940    -2930    -2901    -2875 
   -2876    -2895    -2914    -2918    -2911    -2914    -2936    -2957 
   -2968    -2984    -3007    -3028    -3044    -3042    -3022    -3010 
   -3015    -3009    -2990    -2983    -2995    -3030    -3063    -3053 
   -3029    -3040    -3052    -3040    -3053    -3100    -3121    -3088 
   -3034    -2991    -2978    -2965    -2922    -2875    -2860    -2849 
   -2840    -2852    -2876    -2886    -2886    -2883    -2879    -2890 
   -2916    -2926    -2905    -2862    -2833    -2837    -2849    -2855 
   -2880    -2911    -2899    -2891    -2961    -3048    -3051    -3015 
   -3034    -3083    -3130    -3171    -3160    -3109    -3067    -3038 
   -3033    -3061    -3092    -3114    -3140    -3140    -3103    -3072 
   -3064    -3040    -2984    -2928    -2887    -2847    -2809    -2795 
   -2805    -2808    -2798    -2793    -2787    -2783    -2794    -2824 
   -2863    -2903    -2934    -2934    -2921    -2924    -2922    -2914 
   -2933    -2987    -3034    -3055    -3061    -3065    -3069    -3076 
   -3076    -3049    -3002    -2967    -2967    -2983    -2970    -2930 
   -2920    -2928    -2914    -2899    -2914    -2930    -2926    -2924 
   -2941    -2964    -2979    -2992    -3013    -3029    -3028    -3015 
   -3028    -3064    -3072    -3051    -3040    -3037    -3018    -2991 
   -2992    -3045    -3107    -3115    -3098    -3125    -3161    -3137 
   -3080    -3057    -3060    -3063    -3068    -3065    -3053    -3038 
   -3014    -2979    -2947    -2913    -2866    -2814    -2770    -2733 
   -2733    -2790    -2837    -2806    -2752    -2762    -2814    -2860 
   -2901    -2938    -2956    -2944    -2905    -2879    -2903    -2938 
   -2936    -2930    -2961    -3002    -3028    -3061    -3110    -3145 
   -3156    -3150    -3136    -3106    -3063    -3032    -3015    -2983 
   -2936    -2901    -2874    -2860    -2870    -2883    -2894    -2924 
   -2982    -3048    -3076    -3038    -2976    -2951    -2943    -2925 
   -2924    -2945    -2960    -2944    -2921    -2943    -2983    -2992 
   -2988    -2991    -2980    -2959    -2957    -2980    -3024    -3078 
   -3090    -3038    -2984    -2970    -2971    -2963    -2970    -3013 
   -3069    -3096    -3072    -3033    -3036    -3061    -3038    -2988 
   -2980    -2990    -2963    -2922    -2901    -2876    -2829    -2793 
   -2791    -2799    -2799    -2818    -2860    -2894    -2906    -2911 
   -2945    -3006    -3041    -3040    -3048    -3068    -3067    -3037 
   -3017    -3011    -2982    -2933    -2920    -2959    -2999    -2994 
   -2956    -2949    -2995    -3032    -3007    -2955    -2945    -2987 
   -3021    -3037    -3072    -3098    -3079    -3063    -3083    -3096 
   -3072    -3033    -2987    -2940    -2913    -2906    -2902    -2911 
   -2926    -2914    -2882    -2867    -2871    -2863    -2821    -2782 
   -2790    -2829    -2863    -2886    -2907    -2918    -2914    -2917 
   -2952    -3011    -3056    -3060    -3059    -3088    -3125    -3137 
   -3129    -3115    -3118    -3144    -3156    -3134    -3102    -3069 
   -3030    -2998    -2994    -3006    -3015    -3030    -3046    -3019 
   -2941    -2867    -2839    -2833    -2814    -2789    -2798    -2856 
   -2916    -2938    -2943    -2944    -2941    -2940    -2944    -2944 
   -2928    -2906    -2905    -2924    -2943    -2934    -2906    -2895 
   -2913    -2930    -2953    -3001    -3053    -3086    -3106    -3114 
   -3102    -3072    -3049    -3045    -3034    -2995    -2949    -2944 
   -2976    -3005    -3007    -2995    -2978    -2976    -2987    -2978 
   -2951    -2922    -2883    -2847    -2837    -2824    -2770    -2717 
   -2705    -2701    -2682    -2689    -2732    -2781    -2840    -2921 
   -2990    -3040    -3099    -3173    -3223    -3242    -3253    -3249 
   -3225    -3202    -3169    -3117    -3071    -3042    -3011    -2980 
   -2968    -2957    -2933    -2902    -2872    -2849    -2849    -2872 
   -2893    -2910    -2941    -2959    -2945    -2933    -2937    -2933 
   -2922    -2948    -3003    -3025    -2995    -2955    -2924    -2890 
   -2859    -2849    -2848    -2837    -2835    -2871    -2944    -3022 
   -3068    -3090    -3127    -3188    -3219    -3191    -3149    -3152 
   -3172    -3156    -3119    -3090    -3052    -2983    -2893    -2809 
   -2771    -2802    -2872    -2926    -2948    -2956    -2961    -2959 
   -2940    -2921    -2926    -2943    -2949    -2976    -3034    -3073 
   -3075    -3069    -3065    -3037    -2991    -2957    -2936    -2909 
   -2886    -2883    -2890    -2871    -2825    -2785    -2755    -2720 
   -2705    -2741    -2812    -2864    -2878    -2878    -2891    -2928 
   -2984    -3032    -3030    -3005    -2998    -2999    -2999    -3007 
   -3024    -3053    -3102    -3134    -3110    -3064    -3057    -3083 
   -3095    -3087    -3065    -3021    -2957    -2899    -2864    -2840 
   -2822    -2829    -2855    -2876    -2895    -2917    -2953    -3014 
   -3063    -3051    -3040    -3088    -3114    -3061    -3013    -3025 
   -3061    -3095    -3125    -3134    -3099    -3029    -2959    -2909 
   -2884    -2868    -2841    -2832    -2866    -2905    -2914    -2922 
   -2951    -2970    -2976    -2976    -2952    -2907    -2884    -2893 
   -2886    -2857    -2848    -2876    -2929    -2979    -2992    -2974 
   -2975    -3007    -3032    -3038    -3038    -3034    -3048    -3065 
   -3010    -2876    -2771    -2768    -2832    -2890    -2916    -2929 
   -2938    -2940    -2948    -2968    -2978    -2978    -2983    -2976 
   -2964    -2975    -3010    -3057    -3106    -3136    -3114    -3055 
   -2995    -2948    -2898    -2848    -2806    -2768    -2737    -2712 
   -2674    -2602    -2523    -2484    -2493    -2539    -2620    -2700 
   -2747    -2776    -2795    -2795    -2798    -2813    -2825    -2857 
   -2929    -2994    -3040    -3114    -3207    -3264    -3294    -3334 
   -3353    -3312    -3256    -3237    -3261    -3302    -3335    -3373 
   -3424    -3465    -3468    -3429    -3352    -3268    -3219    -3230 
   -3283    -3348    -3402    -3429    -3430    -3404    -3350    -3275 
   -3186    -3102    -3065    -3080    -3094    -3076    -3046    -3017 
   -2990    -2955    -2902    -2862    -2849    -2826    -2778    -2724 
   -2683    -2654    -2637    -2654    -2708    -2778    -2847    -2928 
   -3007    -3064    -3113    -3160    -3188    -3195    -3169    -3115 
   -3082    -3076    -3046    -2979    -2907    -2839    -2755    -2664 
   -2593    -2548    -2511    -2474    -2430    -2357    -2270    -2224 
   -2238    -2278    -2343    -2434    -2516    -2589    -2689    -2814 
   -2944    -3068    -3157    -3221    -3306    -3418    -3507    -3528 
   -3500    -3466    -3422    -3372    -3352    -3339    -3292    -3222 
   -3165    -3134    -3107    -3048    -2947    -2835    -2751    -2681 
   -2571    -2444    -2350    -2276    -2209    -2189    -2234    -2322 
   -2431    -2533    -2601    -2662    -2760    -2899    -3049    -3188 
   -3296    -3375    -3454    -3551    -3651    -3739    -3798    -3805 
   -3796    -3821    -3863    -3869    -3867    -3898    -3890    -3769 
   -3588    -3414    -3215    -2952    -2660    -2411    -2224    -2058 
   -1900    -1792    -1736    -1706    -1709    -1790    -1960    -2155 
   -2324    -2516    -2768    -3010    -3179    -3299    -3416    -3526 
   -3589    -3605    -3612    -3618    -3611    -3609    -3626    -3623 
   -3566    -3493    -3442    -3380    -3280    -3175    -3084    -3009 
   -2924    -2797    -2643    -2516    -2442    -2419    -2443    -2496 
   -2547    -2581    -2614    -2673    -2758    -2848    -2902    -2918 
   -2925    -2932    -2925    -2924    -2932    -2918    -2890    -2894 
   -2941    -3003    -3049    -3082    -3137    -3225    -3319    -3389 
   -3397    -3325    -3196    -3065    -2953    -2839    -2733    -2701 
   -2767    -2864    -2926    -3014    -3188    -3370    -3468    -3505 
   -3515    -3493    -3473    -3465    -3449    -3427    -3396    -3343 
   -3310    -3299    -3235    -3107    -2990    -2899    -2787    -2647 
   -2511    -2377    -2226    -2080    -1998    -1996    -2025    -2047 
   -2097    -2184    -2280    -2398    -2550    -2705    -2872    -3051 
   -3211    -3360    -3515    -3639    -3696    -3699    -3665    -3581 
   -3461    -3345    -3241    -3134    -3018    -2886    -2739    -2614 
   -2539    -2493    -2484    -2525    -2592    -2650    -2706    -2775 
   -2839    -2863    -2855    -2844    -2845    -2847    -2857    -2906 
   -2986    -3052    -3105    -3167    -3238    -3325    -3426    -3519 
   -3593    -3657    -3716    -3730    -3666    -3551    -3415    -3268 
   -3137    -3045    -2963    -2887    -2847    -2835    -2826    -2832 
   -2837    -2806    -2748    -2706    -2689    -2668    -2632    -2579 
   -2508    -2442    -2419    -2439    -2493    -2585    -2677    -2713 
   -2728    -2774    -2843    -2906    -2976    -3056    -3123    -3163 
   -3180    -3210    -3283    -3383    -3460    -3495    -3511    -3512 
   -3470    -3375    -3267    -3199    -3163    -3115    -3061    -3014 
   -2960    -2921    -2925    -2929    -2897    -2856    -2809    -2706 
   -2570    -2474    -2424    -2378    -2334    -2315    -2330    -2367 
   -2407    -2455    -2517    -2586    -2674    -2801    -2960    -3132 
   -3298    -3453    -3616    -3773    -3890    -3962    -3979    -3944 
   -3863    -3723    -3543    -3380    -3257    -3146    -3018    -2894 
   -2786    -2687    -2598    -2521    -2454    -2412    -2413    -2452 
   -2501    -2517    -2501    -2527    -2621    -2716    -2772    -2816 
   -2855    -2886    -2911    -2921    -2909    -2926    -3002    -3078 
   -3105    -3072    -2998    -2928    -2872    -2810    -2767    -2781 
   -2835    -2902    -2968    -3030    -3088    -3152    -3237    -3343 
   -3419    -3411    -3342    -3269    -3219    -3171    -3106    -3044 
   -2994    -2938    -2860    -2789    -2762    -2786    -2847    -2918 
   -2982    -3032    -3034    -2979    -2929    -2916    -2901    -2889 
   -2924    -2982    -3003    -2984    -2964    -2970    -2994    -3009 
   -3007    -3028    -3076    -3102    -3098    -3115    -3149    -3133 
   -3086    -3078    -3100    -3091    -3032    -2964    -2924    -2909 
   -2897    -2893    -2903    -2907    -2902    -2909    -2936    -2964 
   -3002    -3049    -3083    -3088    -3075    -3069    -3092    -3125 
   -3127    -3086    -3033    -2997    -2965    -2955    -2991    -3037 
   -3038    -3002    -2957    -2902    -2852    -2813    -2754    -2668 
   -2610    -2600    -2614    -2635    -2654    -2679    -2713    -2745 
   -2766    -2771    -2774    -2798    -2868    -2960    -3045    -3107 
   -3148    -3168    -3179    -3200    -3252    -3311    -3339    -3327 
   -3277    -3213    -3163    -3119    -3067    -3026    -3019    -3037 
   -3059    -3064    -3056    -3072    -3122    -3163    -3149    -3099 
   -3060    -3030    -2988    -2940    -2883    -2818    -2774    -2749 
   -2724    -2698    -2677    -2656    -2666    -2721    -2778    -2790 
   -2767    -2736    -2706    -2667    -2613    -2552    -2504    -2475 
   -2473    -2502    -2548    -2579    -2597    -2627    -2664    -2722 
   -2840    -2986    -3091    -3188    -3331    -3464    -3537    -3570 
   -3592    -3605    -3609    -3609    -3622    -3627    -3591    -3535 
   -3480    -3377    -3231    -3098    -2998    -2951    -2947    -2924 
   -2875    -2851    -2843    -2789    -2694    -2631    -2627    -2646 
   -2675    -2708    -2728    -2752    -2778    -2778    -2764    -2754 
   -2743    -2767    -2828    -2879    -2917    -2983    -3076    -3161 
   -3222    -3268    -3300    -3311    -3294    -3257    -3223    -3191 
   -3150    -3113    -3080    -3030    -2967    -2914    -2871    -2818 
   -2752    -2683    -2627    -2600    -2617    -2654    -2695    -2755 
   -2833    -2930    -3041    -3127    -3175    -3194    -3196    -3210 
   -3233    -3233    -3208    -3171    -3105    -3025    -2963    -2897 
   -2808    -2735    -2693    -2663    -2673    -2732    -2781    -2789 
   -2801    -2847    -2901    -2928    -2926    -2913    -2907    -2907 
   -2898    -2886    -2891    -2926    -2975    -3007    -3025    -3049 
   -3088    -3136    -3169    -3179    -3175    -3165    -3164    -3176 
   -3167    -3115    -3052    -2991    -2934    -2907    -2905    -2886 
   -2857    -2860    -2872    -2829    -2744    -2690    -2687    -2721 
   -2803    -2926    -3053    -3165    -3262    -3331    -3352    -3326 
   -3287    -3260    -3242    -3227    -3194    -3121    -3017    -2917 
   -2828    -2736    -2659    -2628    -2617    -2590    -2565    -2586 
   -2643    -2705    -2759    -2794    -2822    -2862    -2901    -2941 
   -2987    -3030    -3076    -3133    -3175    -3192    -3202    -3202 
   -3200    -3217    -3240    -3246    -3225    -3177    -3123    -3080 
   -3057    -3064    -3106    -3150    -3173    -3203    -3246    -3265 
   -3268    -3280    -3294    -3298    -3272    -3190    -3099    -3036 
   -2955    -2843    -2764    -2735    -2702    -2656    -2636    -2641 
