Origin Time       2026/01/15 07:13:00
Lat.              42.7
Long.             145.4
Depth. (km)       30
Mag.              5.7
Station Code      HKD038
Station Lat.      43.1666
Station Long.     142.5662
Station Height(m) 353
Record Time       2026/01/15 07:14:19
Sampling Freq(Hz) 100Hz
Duration Time(s)  60
Dir.              E-W
Scale Factor      7845(gal)/8223790
Max. Acc. (gal)   2.230
Last Correction   2026/01/15 07:14:19
Memo.             
[...]
    6466     6442     6408     6399     6416     6436     6453     6478 
    6504     6509     6496     6478     6471     6484     6516     6565 
    6602     6602     6582     6583     6608     6636     6674     6750 
    6851     6928     6952     6934     6891     6836     6804     6829 
    6912     7003     7061     7060     7009     6949     6926     6960 
    7022     7064     7078     7068     7018     6924     6820     6745 
    6701     6660     6609     6546     6490     6466     6482     6516 
    6536     6528     6489     6453     6481     6585     6705     6771 
    6744     6651     6552     6482     6448     6443     6434     6401 
    6359     6331     6319     6327     6366     6417     6448     6448 
    6451     6498     6592     6691     6758     6790     6806     6821 
    6832     6814     6750     6658     6582     6556     6578     6613 
    6648     6691     6735     6764     6777     6771     6771     6809 
    6874     6914     6899     6843     6775     6733     6740     6795 
    6862     6902     6920     6944     6998     7068     7107     7080 
    7011     6925     6822     6725     6658     6605     6555     6488 
    6393     6299     6246     6239     6261     6299     6334     6358 
    6382     6413     6477     6592     6716     6795     6822     6806 
    6760     6714     6708     6739     6763     6732     6652     6542 
    6411     6295     6247     6286     6369     6444     6486     6480 
    6439     6420     6458     6536     6617     6669     6690     6709 
    6740     6772     6805     6843     6890     6936     6993     7074 
    7134     7134     7086     7002     6906     6837     6813     6828 
    6852     6859     6844     6821     6789     6740     6694     6687 
    6721     6771     6835     6897     6925     6891     6806     6720 
    6678     6690     6725     6741     6704     6615     6508     6420 
    6376     6366     6366     6369     6377     6389     6427     6504 
    6583     6615     6592     6543     6496     6478     6512     6581 
    6629     6631     6602     6565     6547     6569     6623     6689 
    6740     6763     6764     6750     6716     6670     6628     6601 
    6588     6570     6535     6482     6439     6432     6458     6498 
    6562     6662     6789     6901     6975     7026     7048     7026 
    6994     6997     7036     7076     7080     7044     6983     6894 
    6783     6686     6636     6640     6674     6697     6682     6632 
    6566     6500     6457     6440     6450     6484     6512     6508 
    6496     6509     6563     6652     6740     6793     6797     6755 
    6683     6605     6538     6497     6505     6561     6624     6655 
    6639     6583     6512     6480     6529     6632     6704     6702 
    6646     6593     6579     6608     6659     6708     6727     6713 
    6713     6768     6860     6933     6957     6933     6882     6833 
    6801     6779     6767     6754     6724     6679     6644     6628 
    6608     6552     6457     6359     6311     6316     6358     6431 
    6527     6619     6693     6762     6840     6906     6937     6956 
    6979     6993     6975     6925     6853     6787     6736     6687 
    6644     6597     6540     6486     6448     6426     6413     6415 
    6435     6469     6507     6546     6597     6652     6697     6736 
    6778     6812     6817     6790     6741     6689     6643     6610 
    6592     6590     6605     6628     6648     6656     6655     6669 
    6678     6667     6664     6667     6652     6623     6594     6586 
    6597     6612     6644     6702     6774     6839     6875     6870 
    6824     6759     6700     6660     6629     6602     6582     6566 
    6554     6563     6598     6633     6624     6582     6566     6590 
    6640     6702     6758     6783     6778     6766     6768     6805 
    6860     6906     6937     6956     6951     6910     6845     6766 
    6678     6601     6551     6527     6524     6523     6504     6470 
    6455     6496     6594     6700     6762     6763     6731     6700 
    6691     6723     6787     6845     6855     6812     6731     6642 
    6581     6548     6538     6547     6550     6525     6480     6430 
    6412     6446     6525     6623     6708     6775     6817     6814 
    6799     6809     6837     6851     6816     6739     6659     6594 
    6536     6501     6490     6481     6486     6542     6640     6741 
    6802     6790     6708     6610     6552     6548     6585     6648 
    6718     6768     6779     6764     6759     6768     6778     6798 
    6837     6883     6913     6901     6844     6764     6682     6608 
    6569     6579     6635     6701     6740     6729     6686     6650 
    6646     6679     6731     6775     6802     6804     6777     6725 
    6670     6633     6617     6601     6582     6552     6519     6502 
    6508     6509     6474     6411     6363     6370     6397     6401 
    6393     6392     6396     6412     6466     6548     6620     6663 
    6689     6725     6794     6875     6939     6980     6979     6932 
    6876     6841     6813     6775     6733     6702     6698     6713 
    6740     6790     6849     6866     6817     6736     6681     6679 
    6731     6822     6910     6945     6916     6847     6744     6625 
    6544     6544     6605     6664     6687     6686     6666     6619 
    6571     6567     6612     6660     6673     6650     6609     6565 
    6523     6496     6486     6488     6493     6490     6484     6492 
    6520     6543     6544     6532     6542     6598     6682     6754 
    6814     6871     6903     6903     6876     6843     6821     6798 
    6755     6693     6606     6493     6372     6281     6246     6265 
    6346     6475     6585     6613     6573     6527     6538     6621 
    6743     6856     6925     6949     6949     6939     6917     6879 
    6831     6801     6782     6748     6700     6640     6569     6512 
    6494     6512     6552     6617     6705     6790     6840     6847 
    6848     6890     6955     6991     6993     6976     6932     6832 
    6691     6559     6459     6384     6336     6330     6354     6394 
    6440     6489     6547     6623     6727     6852     6955     6983 
    6918     6797     6681     6608     6597     6637     6689     6704 
    6652     6552     6462     6428     6448     6493     6543     6590 
    6616     6610     6594     6594     6633     6696     6744     6763 
    6766     6752     6723     6697     6716     6774     6814     6794 
    6716     6631     6586     6567     6556     6552     6546     6534 
    6546     6600     6662     6682     6654     6621     6639     6720 
    6829     6926     6966     6924     6839     6767     6733     6743 
    6794     6848     6867     6844     6802     6766     6755     6763 
    6774     6767     6732     6708     6718     6721     6673     6585 
    6498     6459     6488     6562     6635     6679     6685     6650 
    6586     6521     6500     6554     6673     6802     6883     6886 
    6817     6712     6601     6517     6475     6478     6504     6527 
    6543     6551     6538     6512     6490     6480     6466     6448 
    6458     6511     6589     6673     6743     6781     6793     6801 
    6806     6805     6814     6840     6851     6810     6708     6578 
    6473     6430     6458     6512     6525     6486     6436     6417 
    6439     6500     6594     6705     6818     6916     6975     6990 
    6964     6910     6862     6849     6882     6933     6966     6966 
    6937     6893     6863     6864     6871     6844     6770     6671 
    6583     6540     6535     6532     6507     6469     6427     6389 
    6381     6400     6442     6502     6548     6562     6570     6588 
    6609     6629     6650     6662     6633     6566     6504     6496 
    6556     6659     6744     6770     6733     6677     6655     6674 
    6704     6731     6758     6777     6777     6763     6751     6736 
    6713     6691     6691     6724     6777     6813     6798     6755 
    6732     6723     6689     6639     6598     6573     6565     6555 
    6536     6539     6600     6690     6740     6709     6613     6496 
    6394     6355     6411     6540     6671     6731     6709     6660 
    6637     6669     6755     6867     6947     6959     6925     6890 
    6879     6897     6916     6893     6818     6745     6747     6836 
    6937     6964     6907     6826     6764     6714     6652     6597 
    6585     6627     6690     6721     6697     6619     6500     6359 
    6234     6169     6189     6268     6339     6351     6313     6288 
    6318     6386     6470     6563     6658     6727     6729     6671 
    6596     6544     6548     6636     6805     7001     7150     7223 
    7241     7225     7186     7136     7071     6955     6772     6561 
    6353     6151     5976     5879     5904     6046     6261     6515 
    6783     7010     7125     7110     7038     7013     7071     7159 
    7196     7152     7063     6984     6933     6902     6906     6937 
    6934     6841     6675     6498     6372     6326     6336     6353 
    6343     6307     6268     6247     6262     6308     6355     6380 
    6376     6331     6258     6211     6215     6264     6353     6455 
    6525     6559     6617     6763     6999     7277     7539     7730 
    7812     7781     7668     7523     7376     7214     7037     6871 
    6741     6659     6613     6570     6492     6384     6284     6230 
    6245     6318     6412     6500     6570     6615     6633     6652 
    6677     6669     6619     6581     6613     6716     6831     6916 
    6975     7020     7045     7057     7044     6970     6795     6554 
    6322     6141     5989     5849     5713     5578     5454     5378 
    5382     5474     5634     5834     6065     6327     6620     6933 
    7233     7485     7661     7749     7776     7780     7769     7711 
    7555     7291     6983     6718     6529     6384     6208     5964 
    5671     5404     5240     5235     5382     5591     5733     5760 
    5726     5734     5853     6076     6322     6509     6629     6739 
    6878     7045     7234     7446     7673     7886     8051     8141 
    8158     8132     8074     7977     7843     7680     7496     7321 
    7194     7134     7111     7088     7060     7036     7024     7049 
    7134     7261     7392     7491     7535     7526     7464     7326 
    7102     6843     6596     6339     6060     5803     5645     5636 
    5744     5888     6000     6034     6006     5996     6053     6141 
    6201     6192     6112     6000     5925     5935     6035     6195 
    6385     6563     6690     6774     6835     6882     6920     6924 
    6855     6674     6365     5965     5602     5417     5451     5629 
    5849     6031     6164     6301     6512     6832     7226     7580 
    7805     7921     7985     8010     7979     7894     7780     7643 
    7481     7314     7183     7109     7049     6944     6778     6586 
    6392     6176     5927     5667     5425     5259     5220     5325 
    5539     5802     6062     6281     6450     6606     6813     7099 
    7426     7705     7847     7828     7705     7550     7396     7246 
    7092     6925     6737     6554     6426     6386     6419     6458 
    6465     6461     6471     6519     6612     6732     6837     6886 
    6843     6710     6515     6318     6191     6158     6196     6257 
    6288     6259     6178     6092     6056     6083     6137     6168 
    6160     6106     6015     5940     5940     6029     6195     6427 
    6717     7028     7323     7593     7838     8059     8241     8352 
    8374     8272     8014     7635     7231     6905     6691     6566 
    6494     6455     6443     6457     6501     6585     6700     6820 
    6918     6982     7029     7091     7169     7250     7312     7317 
    7225     7032     6737     6363     6012     5800     5736     5764 
    5807     5795     5722     5648     5638     5732     5938     6211 
    6432     6520     6493     6407     6278     6118     5950     5815 
    5759     5802     5927     6133     6397     6663     6876     7014 
    7090     7138     7180     7226     7268     7283     7249     7169 
    7094     7091     7180     7335     7508     7642     7705     7722 
    7728     7734     7728     7685     7588     7457     7322     7203 
    7087     6936     6732     6500     6297     6180     6145     6147 
    6137     6066     5918     5725     5557     5464     5455     5521 
    5641     5792     5954     6107     6249     6390     6529     6650 
    6727     6736     6693     6652     6674     6767     6913     7067 
    7167     7173     7092     6991     6964     7042     7167     7249 
    7226     7072     6822     6556     6365     6299     6324     6350 
    6304     6176     6019     5925     5962     6138     6389     6628 
    6795     6894     6964     7032     7079     7079     7060     7068 
    7102     7137     7172     7198     7177     7094     6986     6907 
    6890     6918     6933     6852     6658     6408     6166     5964 
    5802     5664     5547     5471     5449     5502     5683     5999 
    6363     6675     6875     6963     6995     7026     7069     7126 
    7186     7222     7215     7161     7068     6979     6983     7134 
    7399     7690     7932     8093     8171     8164     8051     7839 
    7566     7249     6870     6419     5902     5344     4830     4471 
    4333     4391     4588     4862     5155     5458     5798     6191 
    6620     7014     7290     7416     7399     7268     7105     7006 
    7020     7102     7159     7141     7094     7076     7096     7137 
    7204     7287     7323     7253     7074     6822     6547     6312 
    6165     6108     6108     6110     6083     6066     6115     6264 
    6507     6799     7080     7288     7376     7369     7373     7457 
    7596     7719     7762     7684     7468     7145     6766     6374 
    6018     5749     5594     5529     5517     5548     5628     5760 
    5929     6100     6246     6385     6550     6768     7036     7292 
    7479     7570     7585     7577     7620     7738     7870     7908 
    7763     7408     6893     6359     5979     5809     5782     5787 
    5737     5610     5429     5248     5161     5260     5545     5923 
    6315     6677     6932     7026     7003     6961     6971     7049 
    7160     7233     7223     7149     7057     6979     6918     6863 
    6795     6705     6592     6480     6419     6431     6493     6554 
    6590     6612     6652     6741     6852     6943     6995     7010 
    6994     6947     6872     6791     6737     6713     6690     6663 
    6642     6627     6624     6639     6650     6631     6593     6578 
    6590     6621     6667     6735     6849     7021     7214     7385 
    7518     7596     7597     7512     7366     7196     7017     6839 
    6675     6515     6340     6154     5983     5865     5826     5852 
    5925     6027     6116     6139     6108     6073     6054     6035 
    6025     6046     6110     6196     6262     6274     6227     6146 
    6088     6123     6258     6463     6702     6928     7092     7176 
    7190     7186     7225     7330     7454     7528     7516     7414 
    7226     6970     6673     6413     6278     6282     6396     6578 
    6778     6945     7057     7130     7202     7276     7326     7333 
    7285     7196     7103     7026     6937     6817     6693     6601 
    6556     6556     6588     6633     6659     6650     6624     6593 
    6551     6498     6444     6417     6459     6567     6677     6741 
    6755     6743     6718     6666     6561     6426     6300     6185 
    6076     5988     5931     5902     5903     5933     6000     6127 
    6316     6548     6801     7038     7238     7380     7452     7464 
    7430     7338     7198     7038     6885     6762     6685     6650 
    6632     6604     6551     6481     6419     6382     6362     6349 
    6336     6320     6288     6234     6161     6079     5998     5949 
    5973     6085     6284     6547     6833     7133     7439     7705 
    7865     7896     7843     7762     7665     7524     7337     7110 
    6848     6569     6305     6087     5942     5875     5850     5860 
    5922     6041     6178     6288     6355     6404     6451     6505 
    6571     6646     6696     6694     6656     6612     6569     6529 
    6508     6521     6569     6639     6704     6729     6705     6651 
    6600     6605     6710     6875     7013     7068     7057     7037 
    7055     7111     7195     7268     7295     7268     7203     7146 
    7126     7119     7084     6991     6829     6613     6394     6234 
    6174     6224     6346     6478     6586     6659     6709     6785 
    6912     7059     7169     7210     7163     7003     6760     6531 
    6408     6419     6520     6631     6685     6679     6646     6625 
    6660     6754     6853     6905     6885     6791     6635     6457 
    6324     6292     6377     6538     6690     6750     6694     6555 
    6399     6304     6292     6309     6292     6223     6120     6006 
    5911     5891     5969     6111     6269     6412     6523     6590 
    6601     6589     6610     6710     6886     7071     7194     7249 
    7258     7242     7218     7186     7141     7075     6970     6806 
    6594     6381     6218     6141     6154     6226     6303     6351 
    6400     6489     6596     6671     6721     6787     6897     7042 
    7204     7338     7400     7375     7292     7204     7126     7055 
    7007     6988     6960     6886     6755     6593     6453     6393 
    6438     6540     6631     6678     6693     6716     6771     6841 
    6890     6898     6855     6766     6640     6471     6269     6075 
    5931     5857     5842     5848     5854     5869     5894     5922 
    5960     6019     6111     6239     6412     6629     6852     7033 
    7164     7256     7319     7368     7404     7430     7452     7472 
    7477     7460     7389     7222     6978     6732     6536     6404 
    6326     6277     6237     6193     6145     6111     6119     6185 
    6309     6453     6579     6683     6756     6789     6795     6813 
    6864     6939     7007     7040     7034     6991     6890     6743 
    6602     6523     6507     6520     6554     6620     6701     6766 
    6802     6831     6871     6933     7029     7136     7199     7202 
    7159     7074     6955     6812     6650     6473     6299     6146 
    6037     5976     5940     5910     5902     5958     6096     6297 
    6513     6678     6750     6739     6671     6577     6504     6475 
    6475     6477     6457     6400     6331     6289     6324     6470 
    6694     6921     7091     7186     7219     7218     7215     7231 
    7242     7206     7113     6997     6910     6880     6889     6894 
    6876     6835     6771     6685     6592     6528     6507     6529 
    6592     6666     6713     6714     6674     6621     6601     6627 
    6679     6720     6708     6639     6542     6453     6416     6457 
    6543     6617     6655     6677     6706     6774     6894     7029 
    7125     7156     7121     7049     6980     6933     6922     6955 
    6991     6967     6839     6628     6397     6191     6037     5953 
