Origin Time       2026/01/15 07:13:00
Lat.              42.7
Long.             145.4
Depth. (km)       30
Mag.              5.7
Station Code      HKD058
Station Lat.      44.0242
Station Long.     144.2637
Station Height(m) 4
Record Time       2026/01/15 07:14:06
Sampling Freq(Hz) 100Hz
Duration Time(s)  60
Dir.              U-D
Scale Factor      7845(gal)/8223790
Max. Acc. (gal)   0.970
Last Correction   2026/01/15 07:14:06
Memo.             
[...]
  -10300   -10331   -10330   -10303   -10345   -10405   -10373   -10314 
  -10355   -10444   -10471   -10482   -10552   -10604   -10535   -10404 
  -10330   -10299   -10238   -10179   -10192   -10246   -10235   -10149 
  -10106   -10172   -10242   -10215   -10204   -10301   -10377   -10368 
  -10385   -10461   -10482   -10396   -10280   -10210   -10201   -10226 
  -10218   -10184   -10195   -10216   -10176   -10157   -10239   -10314 
  -10265   -10214   -10273   -10316   -10234   -10169   -10257   -10358 
  -10320   -10282   -10378   -10440   -10336   -10247   -10305   -10353 
  -10270   -10197   -10257   -10330   -10295   -10242   -10295   -10372 
  -10349   -10305   -10381   -10474   -10415   -10296   -10269   -10281 
  -10247   -10210   -10196   -10187   -10188   -10207   -10245   -10299 
  -10316   -10253   -10195   -10233   -10277   -10237   -10203   -10234 
  -10239   -10183   -10156   -10224   -10331   -10373   -10376   -10442 
  -10517   -10462   -10339   -10324   -10385   -10370   -10307   -10334 
  -10409   -10354   -10224   -10228   -10323   -10323   -10234   -10181 
  -10191   -10174   -10087   -10025   -10054   -10080   -10039   -10034 
  -10134   -10235   -10234   -10206   -10235   -10242   -10168   -10149 
  -10255   -10351   -10359   -10336   -10334   -10342   -10334   -10316 
  -10339   -10374   -10331   -10261   -10297   -10401   -10447   -10453 
  -10505   -10605   -10650   -10574   -10466   -10400   -10334   -10288 
  -10314   -10346   -10319   -10276   -10280   -10312   -10309   -10288 
  -10288   -10274   -10227   -10185   -10154   -10125   -10107   -10073 
   -9995    -9937    -9949    -9992   -10014   -10044   -10123   -10172 
  -10123   -10104   -10206   -10315   -10327   -10305   -10335   -10374 
  -10372   -10412   -10539   -10605   -10536   -10461   -10463   -10470 
  -10399   -10326   -10358   -10423   -10409   -10388   -10419   -10427 
  -10376   -10320   -10304   -10314   -10297   -10254   -10247   -10295 
  -10323   -10296   -10272   -10260   -10216   -10166   -10158   -10180 
  -10208   -10246   -10288   -10312   -10316   -10305   -10287   -10282 
  -10324   -10385   -10422   -10446   -10488   -10508   -10461   -10386 
  -10343   -10311   -10261   -10265   -10370   -10457   -10413   -10354 
  -10373   -10368   -10295   -10269   -10316   -10324   -10262   -10226 
  -10264   -10261   -10133    -9979    -9925    -9938    -9945    -9963 
  -10035   -10145   -10230   -10253   -10262   -10307   -10307   -10216 
  -10158   -10193   -10192   -10079    -9992   -10076   -10245   -10320 
  -10347   -10458   -10542   -10446   -10308   -10287   -10311   -10311 
  -10316   -10373   -10488   -10566   -10531   -10461   -10404   -10303 
  -10185   -10127   -10106   -10080   -10081   -10152   -10242   -10297 
  -10347   -10415   -10486   -10573   -10658   -10696   -10663   -10559 
  -10453   -10430   -10459   -10476   -10484   -10489   -10465   -10430 
  -10397   -10341   -10274   -10226   -10166   -10071    -9983    -9983 
  -10068   -10125   -10129   -10152   -10162   -10075    -9960    -9973 
  -10075   -10100   -10120   -10260   -10420   -10490   -10516   -10536 
  -10498   -10436   -10458   -10512   -10461   -10349   -10323   -10359 
  -10349   -10353   -10462   -10563   -10574   -10606   -10710   -10763 
  -10723   -10704   -10739   -10719   -10632   -10557   -10455   -10287 
  -10115    -9984    -9888    -9819    -9748    -9674    -9628    -9613 
   -9617    -9622    -9632    -9717    -9913   -10123   -10246   -10293 
  -10335   -10389   -10427   -10427   -10415   -10444   -10478   -10459 
  -10471   -10570   -10625   -10563   -10503   -10492   -10399   -10242 
  -10192   -10206   -10162   -10156   -10261   -10359   -10368   -10369 
  -10422   -10431   -10339   -10218   -10095    -9926    -9767    -9721 
   -9749    -9759    -9821   -10000   -10177   -10295   -10408   -10493 
  -10532   -10584   -10650   -10696   -10717   -10725   -10716   -10677 
  -10616   -10574   -10573   -10557   -10492   -10444   -10466   -10473 
  -10335   -10134   -10085   -10145   -10083    -9921    -9900   -10045 
  -10122   -10084   -10141   -10327   -10412   -10330   -10292   -10363 
  -10365   -10255   -10191   -10206   -10180   -10083   -10026   -10095 
  -10219   -10297   -10378   -10535   -10696   -10767   -10794   -10862 
  -10912   -10832   -10679   -10574   -10496   -10390   -10274   -10188 
  -10153   -10146   -10153   -10184   -10207   -10164   -10091   -10053 
  -10039   -10006    -9948    -9911    -9919    -9933    -9936    -9991 
  -10120   -10243   -10324   -10411   -10485   -10486   -10457   -10466 
  -10454   -10341   -10210   -10188   -10239   -10250   -10237   -10296 
  -10404   -10465   -10507   -10551   -10511   -10377   -10264   -10220 
  -10215   -10216   -10197   -10157   -10123   -10123   -10193   -10335 
  -10462   -10515   -10548   -10584   -10573   -10540   -10525   -10507 
  -10489   -10512   -10554   -10569   -10548   -10524   -10490   -10459 
  -10467   -10507   -10548   -10597   -10632   -10612   -10532   -10428 
  -10331   -10239   -10135   -10030    -9944    -9856    -9780    -9803 
   -9907    -9948    -9922    -9933    -9953    -9926    -9927    -9969 
   -9973    -9973   -10026   -10064   -10084   -10169   -10266   -10276 
  -10243   -10280   -10376   -10413   -10362   -10327   -10345   -10330 
  -10260   -10218   -10258   -10319   -10336   -10319   -10319   -10363 
  -10405   -10405   -10411   -10467   -10498   -10413   -10280   -10222 
  -10196   -10125   -10068   -10083   -10111   -10098   -10066   -10071 
  -10126   -10203   -10254   -10276   -10326   -10451   -10586   -10652 
  -10689   -10750   -10779   -10728   -10683   -10705   -10694   -10609 
  -10552   -10567   -10535   -10378   -10226   -10169   -10118   -10027 
   -9979    -9999   -10038   -10034    -9981    -9925    -9873    -9810 
   -9756    -9756    -9813    -9860    -9869    -9895    -9957   -10023 
  -10084   -10173   -10299   -10395   -10442   -10524   -10613   -10588 
  -10493   -10455   -10443   -10353   -10228   -10199   -10253   -10285 
  -10282   -10330   -10426   -10488   -10523   -10577   -10611   -10589 
  -10543   -10474   -10372   -10269   -10183   -10134   -10164   -10230 
  -10249   -10235   -10234   -10218   -10189   -10201   -10257   -10339 
  -10434   -10530   -10640   -10735   -10759   -10727   -10675   -10642 
  -10619   -10566   -10512   -10485   -10417   -10288   -10185   -10160 
  -10142   -10057    -9968    -9936    -9895    -9832    -9809    -9802 
   -9757    -9724    -9776    -9899   -10023   -10111   -10189   -10293 
  -10396   -10462   -10511   -10561   -10604   -10633   -10677   -10746 
  -10787   -10778   -10767   -10752   -10694   -10640   -10655   -10693 
  -10700   -10696   -10697   -10708   -10744   -10774   -10733   -10650 
  -10561   -10417   -10234   -10116   -10065    -9977    -9859    -9809 
   -9817    -9765    -9652    -9551    -9471    -9381    -9292    -9277 
   -9391    -9540    -9614    -9679    -9844   -10048   -10154   -10188 
  -10276   -10409   -10496   -10563   -10696   -10862   -10943   -10933 
  -10941   -10986   -10998   -10995   -11057   -11136   -11114   -11014 
  -10914   -10825   -10728   -10629   -10543   -10444   -10334   -10231 
  -10108    -9972    -9887    -9840    -9792    -9819    -9953   -10064 
  -10096   -10166   -10299   -10374   -10376   -10399   -10466   -10512 
  -10507   -10488   -10482   -10458   -10386   -10293   -10250   -10247 
  -10184   -10083   -10062   -10092   -10042    -9921    -9872    -9931 
   -9954    -9877    -9842    -9904    -9938    -9872    -9807    -9844 
   -9940    -9999   -10010   -10054   -10166   -10208   -10112   -10052 
  -10107   -10114   -10017    -9988   -10095   -10192   -10235   -10341 
  -10512   -10619   -10646   -10721   -10854   -10912   -10878   -10864 
  -10891   -10885   -10822   -10793   -10840   -10868   -10806   -10746 
  -10746   -10724   -10628   -10508   -10420   -10353   -10272   -10207 
  -10230   -10299   -10276   -10173   -10133   -10149   -10095    -9984 
   -9963   -10042   -10076   -10022   -10010   -10071   -10076   -10006 
   -9973    -9994    -9964    -9882    -9855    -9891    -9917    -9937 
  -10007   -10084   -10112   -10112   -10110   -10098   -10081   -10083 
  -10116   -10150   -10143   -10123   -10142   -10207   -10284   -10341 
  -10392   -10466   -10528   -10515   -10467   -10501   -10602   -10656 
  -10682   -10782   -10918   -10978   -10960   -10943   -10924   -10871 
  -10812   -10758   -10673   -10527   -10353   -10215   -10123   -10033 
   -9923    -9834    -9807    -9796    -9732    -9645    -9605    -9626 
   -9675    -9714    -9749    -9817    -9900    -9933    -9910    -9952 
  -10071   -10130   -10160   -10303   -10471   -10517   -10555   -10706 
  -10851   -10878   -10903   -11013   -11078   -10994   -10885   -10863 
  -10841   -10741   -10655   -10632   -10569   -10415   -10266   -10177 
  -10108   -10042    -9992    -9995   -10048   -10050    -9967    -9913 
   -9957   -10006   -10002    -9995   -10012   -10021    -9990    -9950 
   -9980   -10080   -10134   -10098   -10073   -10139   -10204   -10200 
  -10223   -10322   -10386   -10361   -10347   -10396   -10407   -10355 
  -10335   -10342   -10281   -10184   -10158   -10176   -10133   -10061 
  -10077   -10154   -10197   -10222   -10299   -10422   -10504   -10532 
  -10609   -10736   -10790   -10759   -10777   -10867   -10902   -10855 
  -10844   -10914   -10952   -10890   -10809   -10756   -10663   -10515 
  -10390   -10326   -10251   -10119    -9998    -9954    -9942    -9906 
   -9882    -9922    -9996   -10037   -10035   -10035   -10076   -10120 
  -10106   -10069   -10089   -10111   -10039    -9968   -10023   -10123 
  -10153   -10177   -10273   -10366   -10390   -10389   -10408   -10409 
  -10357   -10299   -10273   -10284   -10326   -10343   -10320   -10299 
  -10258   -10170   -10093   -10053    -9985    -9875    -9828    -9873 
   -9887    -9845    -9875    -9967    -9984    -9948    -9973   -10039 
  -10042    -9977    -9958   -10027   -10077   -10054   -10080   -10223 
  -10368   -10447   -10540   -10682   -10816   -10887   -10910   -10968 
  -11075   -11099   -11022   -11001   -11074   -11099   -11033   -11029 
  -11133   -11179   -11090   -11002   -10980   -10905   -10716   -10535 
  -10443   -10343   -10153    -9977    -9917    -9873    -9780    -9721 
   -9695    -9618    -9528    -9482    -9441    -9391    -9359    -9351 
   -9382    -9472    -9618    -9784    -9960   -10133   -10262   -10347 
  -10466   -10627   -10733   -10754   -10764   -10794   -10798   -10779 
  -10766   -10756   -10740   -10700   -10627   -10579   -10617   -10642 
  -10557   -10500   -10548   -10525   -10368   -10278   -10291   -10212 
  -10072   -10060   -10118   -10084    -9988    -9945    -9965    -9956 
   -9888    -9840    -9850    -9868    -9890    -9977   -10103   -10179 
  -10224   -10327   -10490   -10631   -10704   -10774   -10895   -11002 
  -11028   -11038   -11098   -11137   -11095   -11010   -10939   -10845 
  -10671   -10471   -10327   -10226   -10100    -9973    -9910    -9869 
   -9774    -9659    -9585    -9513    -9405    -9328    -9331    -9382 
   -9437    -9463    -9495    -9618    -9782    -9855    -9841    -9865 
   -9980   -10072   -10065   -10096   -10242   -10342   -10336   -10388 
  -10536   -10615   -10571   -10567   -10687   -10793   -10767   -10736 
  -10824   -10914   -10889   -10858   -10918   -10939   -10810   -10635 
  -10547   -10501   -10372   -10188   -10089   -10061    -9988    -9907 
   -9904    -9958   -10019   -10072   -10137   -10239   -10342   -10389 
  -10424   -10503   -10565   -10566   -10582   -10652   -10697   -10682 
  -10669   -10692   -10682   -10589   -10486   -10449   -10440   -10370 
  -10269   -10257   -10281   -10195   -10076   -10069   -10087   -10002 
   -9898    -9882    -9907    -9882    -9825    -9818    -9880    -9936 
   -9945    -9956   -10008   -10065   -10095   -10147   -10258   -10370 
  -10450   -10524   -10617   -10709   -10755   -10759   -10795   -10881 
  -10935   -10933   -10933   -10936   -10905   -10836   -10760   -10685 
  -10550   -10355   -10207   -10125   -10022    -9904    -9850    -9840 
   -9779    -9684    -9666    -9707    -9699    -9643    -9640    -9703 
   -9726    -9697    -9722    -9802    -9830    -9809    -9822    -9884 
   -9937    -9969   -10038   -10168   -10308   -10404   -10477   -10567 
  -10652   -10692   -10720   -10793   -10894   -10955   -10963   -10968 
  -10994   -11005   -10990   -10975   -10966   -10932   -10859   -10790 
  -10744   -10675   -10559   -10420   -10304   -10242   -10203   -10164 
  -10154   -10164   -10134   -10083   -10080   -10096   -10068   -10030 
  -10034   -10050   -10048   -10039   -10062   -10110   -10122   -10073 
  -10026   -10038   -10049    -9983    -9942   -10006   -10052    -9994 
   -9942    -9965    -9969    -9941    -9971   -10039   -10072   -10104 
  -10191   -10282   -10346   -10408   -10478   -10534   -10552   -10539 
  -10516   -10512   -10524   -10528   -10534   -10542   -10557   -10590 
  -10616   -10636   -10685   -10723   -10697   -10652   -10639   -10617 
  -10548   -10512   -10554   -10600   -10588   -10554   -10548   -10524 
  -10427   -10336   -10331   -10338   -10253   -10119   -10044   -10011 
   -9918    -9788    -9744    -9740    -9648    -9536    -9517    -9516 
   -9455    -9417    -9462    -9505    -9499    -9528    -9636    -9734 
   -9794    -9894   -10025   -10115   -10237   -10444   -10613   -10686 
  -10786   -10935   -11001   -11005   -11091   -11217   -11238   -11203 
  -11242   -11307   -11283   -11219   -11221   -11227   -11134   -11009 
  -10953   -10902   -10764   -10629   -10577   -10520   -10385   -10234 
  -10142   -10069    -9954    -9830    -9753    -9695    -9597    -9481 
   -9405    -9350    -9301    -9296    -9325    -9359    -9397    -9437 
   -9482    -9539    -9593    -9643    -9732    -9848    -9915    -9965 
  -10087   -10239   -10346   -10442   -10573   -10692   -10758   -10831 
  -10935   -11010   -11045   -11086   -11124   -11110   -11067   -11056 
  -11036   -10975   -10924   -10903   -10886   -10840   -10775   -10737 
  -10706   -10633   -10557   -10503   -10423   -10295   -10162   -10085 
  -10053   -10014    -9963    -9931    -9917    -9890    -9873    -9884 
   -9865    -9810    -9772    -9744    -9693    -9657    -9686    -9740 
   -9768    -9784    -9818    -9838    -9829    -9846    -9909    -9948 
   -9958   -10004   -10089   -10162   -10227   -10318   -10409   -10478 
  -10543   -10611   -10656   -10701   -10754   -10797   -10831   -10874 
  -10902   -10895   -10867   -10828   -10764   -10686   -10621   -10555 
  -10455   -10334   -10224   -10145   -10102   -10068   -10022    -9998 
  -10014   -10002    -9954    -9952    -9980    -9965    -9927    -9921 
   -9952   -10004   -10073   -10168   -10276   -10347   -10388   -10442 
  -10485   -10493   -10481   -10478   -10521   -10571   -10562   -10552 
  -10619   -10677   -10658   -10654   -10712   -10740   -10693   -10652 
  -10677   -10713   -10673   -10575   -10523   -10520   -10470   -10363 
  -10297   -10303   -10287   -10214   -10174   -10201   -10216   -10203 
  -10222   -10253   -10243   -10242   -10277   -10296   -10288   -10312 
  -10365   -10370   -10345   -10349   -10377   -10380   -10361   -10353 
  -10343   -10318   -10305   -10315   -10303   -10250   -10203   -10174 
  -10112   -10035   -10015   -10035   -10044   -10035   -10027   -10035 
  -10050   -10054   -10046   -10049   -10079   -10098   -10079   -10053 
  -10039   -10031   -10033   -10048   -10064   -10083   -10088   -10073 
  -10075   -10135   -10227   -10278   -10296   -10341   -10409   -10435 
  -10427   -10476   -10574   -10639   -10671   -10686   -10685   -10681 
  -10624   -10505   -10443   -10454   -10400   -10274   -10204   -10201 
  -10153   -10081   -10108   -10193   -10188   -10130   -10174   -10272 
  -10280   -10276   -10357   -10389   -10303   -10249   -10270   -10249 
  -10177   -10152   -10176   -10179   -10150   -10153   -10212   -10253 
  -10242   -10253   -10301   -10320   -10301   -10308   -10359   -10411 
  -10422   -10428   -10497   -10559   -10551   -10569   -10636   -10647 
  -10585   -10548   -10532   -10459   -10380   -10377   -10392   -10349 
  -10277   -10230   -10193   -10139   -10103   -10122   -10154   -10161 
  -10174   -10207   -10235   -10254   -10261   -10258   -10272   -10299 
  -10303   -10276   -10255   -10247   -10219   -10180   -10161   -10147 
  -10096   -10010    -9936    -9899    -9883    -9865    -9845    -9848 
   -9872    -9880    -9876    -9882    -9892    -9903    -9931    -9983 
  -10057   -10160   -10245   -10288   -10330   -10380   -10409   -10428 
  -10450   -10462   -10463   -10462   -10462   -10485   -10542   -10598 
  -10625   -10644   -10685   -10719   -10709   -10692   -10710   -10727 
  -10682   -10604   -10578   -10571   -10493   -10392   -10365   -10350 
  -10280   -10224   -10223   -10216   -10181   -10153   -10158   -10189 
  -10234   -10274   -10299   -10326   -10363   -10386   -10400   -10431 
  -10438   -10408   -10405   -10420   -10392   -10343   -10341   -10350 
  -10295   -10223   -10226   -10257   -10241   -10204   -10199   -10222 
  -10226   -10208   -10214   -10253   -10287   -10278   -10258   -10253 
  -10249   -10246   -10257   -10289   -10342   -10370   -10349   -10320 
  -10318   -10323   -10331   -10338   -10345   -10361   -10347   -10315 
  -10336   -10397   -10432   -10455   -10498   -10527   -10521   -10535 
  -10586   -10624   -10619   -10600   -10589   -10570   -10513   -10450 
  -10426   -10405   -10342   -10297   -10296   -10253   -10189   -10176 
  -10158   -10114   -10110   -10118   -10062    -9977    -9945    -9972 
   -9992    -9977    -9985   -10027   -10027    -9981    -9958    -9976 
   -9996    -9985    -9954    -9961   -10010   -10039   -10041   -10076 
  -10138   -10141   -10095   -10111   -10181   -10203   -10192   -10237 
  -10289   -10276   -10268   -10324   -10378   -10411   -10457   -10497 
  -10519   -10548   -10574   -10592   -10632   -10652   -10608   -10570 
  -10590   -10624   -10616   -10585   -10584   -10600   -10582   -10535 
  -10485   -10451   -10435   -10401   -10343   -10311   -10308   -10278 
  -10203   -10134   -10116   -10123   -10099   -10073   -10093   -10103 
  -10061   -10037   -10081   -10110   -10066   -10049   -10091   -10092 
  -10057   -10103   -10204   -10238   -10235   -10274   -10326   -10361 
  -10405   -10457   -10488   -10517   -10569   -10598   -10575   -10571 
  -10592   -10573   -10544   -10536   -10517   -10480   -10438   -10412 
  -10388   -10334   -10281   -10261   -10233   -10177   -10137   -10118 
  -10076   -10031   -10017   -10000    -9960    -9923    -9917    -9931 
   -9936    -9911    -9890    -9890    -9880    -9887    -9942    -9994 
  -10019   -10084   -10183   -10261   -10326   -10393   -10443   -10498 
  -10574   -10623   -10643   -10677   -10705   -10698   -10692   -10701 
  -10701   -10697   -10692   -10683   -10681   -10675   -10631   -10562 
  -10544   -10574   -10551   -10474   -10462   -10511   -10508   -10440 
  -10411   -10447   -10458   -10381   -10311   -10303   -10273   -10191 
  -10135   -10131   -10111   -10057   -10012   -10011   -10034   -10018 
   -9958    -9958   -10014   -10003    -9937    -9926    -9960    -9971 
   -9975    -9995   -10012   -10027   -10052   -10071   -10077   -10098 
  -10141   -10162   -10112   -10068   -10107   -10135   -10076   -10052 
