Origin Time       2026/01/15 07:13:00
Lat.              42.7
Long.             145.4
Depth. (km)       30
Mag.              5.7
Station Code      HKD084
Station Lat.      43.1141
Station Long.     144.1230
Station Height(m) 30
Record Time       2026/01/15 07:13:48
Sampling Freq(Hz) 100Hz
Duration Time(s)  67
Dir.              U-D
Scale Factor      7845(gal)/8223790
Max. Acc. (gal)   2.558
Last Correction   2026/01/15 07:13:49
Memo.             
[...]
  -13085   -13041   -12862   -12654   -12515   -12633   -12938   -12981 
  -12658   -12429   -12361   -12125   -11832   -11700   -11651   -11769 
  -12054   -12181   -12141   -12189   -12251   -12264   -12376   -12542 
  -12665   -12856   -13086   -13142   -12931   -12538   -12204   -12120 
  -12241   -12421   -12472   -12376   -12301   -12124   -11723   -11403 
  -11394   -11657   -11961   -12031   -12010   -12001   -11840   -11734 
  -11854   -12042   -12228   -12290   -12287   -12565   -12897   -12900 
  -12834   -12866   -12808   -12700   -12564   -12372   -12262   -12260 
  -12409   -12694   -12646   -12206   -12013   -12208   -12391   -12409 
  -12268   -12074   -11971   -12024   -12291   -12580   -12590   -12475 
  -12463   -12418   -12282   -12154   -12036   -11996   -12047   -12078 
  -12226   -12515   -12644   -12645   -12690   -12715   -12756   -12737 
  -12509   -12306   -12268   -12190   -12116   -12239   -12340   -12225 
  -12240   -12461   -12459   -12260   -12174   -12147   -12186   -12347 
  -12382   -12205   -12147   -12402   -12695   -12810   -12923   -13046 
  -13041   -13073   -13082   -12721   -12289   -12303   -12513   -12631 
  -12810   -12896   -12721   -12494   -12286   -12046   -11848   -11734 
  -11705   -11777   -11917   -12066   -12129   -12102   -12087   -12086 
  -12123   -12289   -12460   -12530   -12580   -12602   -12582   -12540 
  -12386   -12239   -12291   -12318   -12098   -11792   -11541   -11457 
  -11654   -11871   -11902   -12021   -12310   -12564   -12784   -12970 
  -12995   -12860   -12754   -12877   -13089   -13107   -13023   -12949 
  -12765   -12536   -12434   -12407   -12249   -11951   -11813   -11912 
  -11943   -11880   -11992   -12164   -12139   -12039   -12042   -12110 
  -12104   -11969   -11961   -12140   -12201   -12225   -12379   -12407 
  -12397   -12587   -12700   -12673   -12745   -12806   -12771   -12722 
  -12583   -12474   -12546   -12550   -12468   -12560   -12680   -12668 
  -12714   -12818   -12665   -12218   -11873   -11902   -12083   -12112 
  -12048   -11973   -11865   -11989   -12337   -12434   -12268   -12063 
  -11790   -11708   -11978   -12233   -12363   -12563   -12680   -12494 
  -12170   -12060   -12266   -12563   -12714   -12687   -12650   -12703 
  -12622   -12349   -12243   -12353   -12355   -12244   -12191   -12102 
  -11923   -11813   -11890   -12105   -12240   -12160   -12056   -12100 
  -12197   -12285   -12386   -12451   -12455   -12421   -12361   -12386 
  -12488   -12487   -12318   -12039   -11793   -11730   -11778   -11920 
  -12248   -12548   -12582   -12475   -12363   -12193   -11990   -11908 
  -12019   -12205   -12314   -12329   -12314   -12333   -12413   -12600 
  -12838   -12924   -12924   -13086   -13282   -13266   -13049   -12739 
  -12426   -12167   -11958   -11773   -11655   -11749   -12013   -12112 
  -11905   -11651   -11607   -11869   -12256   -12372   -12224   -12166 
  -12252   -12394   -12546   -12671   -12841   -12972   -12866   -12613 
  -12376   -12280   -12387   -12467   -12366   -12236   -12158   -12175 
  -12351   -12563   -12707   -12718   -12538   -12356   -12297   -12270 
  -12218   -12175   -12318   -12673   -12935   -13028   -13027   -12792 
  -12455   -12290   -12201   -12060   -11950   -12000   -12237   -12463 
  -12590   -12691   -12664   -12542   -12484   -12407   -12312   -12258 
  -12166   -12067   -12042   -12105   -12293   -12480   -12540   -12521 
  -12460   -12434   -12444   -12240   -11834   -11654   -11831   -12066 
  -12186   -12233   -12225   -12171   -12102   -12109   -12333   -12652 
  -12723   -12592   -12559   -12564   -12506   -12475   -12399   -12282 
  -12334   -12433   -12294   -12078   -12025   -12040   -12069   -12141 
  -12197   -12278   -12357   -12317   -12361   -12588   -12703   -12615 
  -12451   -12272   -12162   -12136   -12163   -12206   -12212   -12262 
  -12349   -12262   -12164   -12386   -12672   -12640   -12475   -12509 
  -12652   -12683   -12641   -12636   -12625   -12506   -12287   -12183 
  -12347   -12599   -12775   -12865   -12795   -12565   -12344   -12268 
  -12260   -12112   -11901   -11902   -12046   -12054   -11873   -11668 
  -11578   -11616   -11723   -11844   -11990   -12158   -12248   -12262 
  -12398   -12699   -12873   -12772   -12630   -12567   -12495   -12438 
  -12374   -12279   -12357   -12617   -12800   -12839   -12877   -12981 
  -13007   -12843   -12637   -12472   -12252   -12004   -11843   -11855 
  -12046   -12190   -12190   -12272   -12471   -12625   -12649   -12464 
  -12212   -12039   -11828   -11693   -11844   -12042   -12063   -11981 
  -11862   -11807   -11862   -11969   -12121   -12264   -12337   -12414 
  -12490   -12441   -12212   -11955   -11974   -12353   -12893   -13297 
  -13251   -12915   -12788   -12789   -12696   -12671   -12580   -12267 
  -12025   -11989   -12046   -12162   -12278   -12356   -12433   -12498 
  -12526   -12513   -12422   -12298   -12285   -12378   -12506   -12622 
  -12594   -12505   -12549   -12525   -12287   -12116   -12085   -11990 
  -11842   -11809   -11946   -12074   -11992   -11831   -11796   -11888 
  -12090   -12332   -12564   -12831   -12945   -12798   -12661   -12667 
  -12712   -12768   -12803   -12772   -12688   -12625   -12595   -12499 
  -12328   -12210   -12210   -12185   -12035   -12010   -12121   -11961 
  -11701   -11811   -12031   -12040   -12025   -12075   -12113   -12163 
  -12267   -12406   -12395   -12201   -12178   -12401   -12592   -12766 
  -12969   -13032   -12938   -12808   -12766   -12777   -12648   -12517 
  -12550   -12452   -12245   -12287   -12417   -12488   -12622   -12667 
  -12548   -12425   -12310   -12147   -11928   -11755   -11734   -11773 
  -11862   -12009   -12013   -11994   -12226   -12529   -12761   -12969 
  -12899   -12457   -12037   -11875   -11874   -11981   -12141   -12235 
  -12316   -12501   -12610   -12532   -12467   -12451   -12391   -12391 
  -12471   -12521   -12536   -12507   -12447   -12375   -12206   -12052 
  -12035   -11896   -11658   -11715   -11994   -12241   -12436   -12460 
  -12352   -12330   -12293   -12224   -12333   -12418   -12280   -12202 
  -12337   -12564   -12745   -12654   -12349   -12247   -12391   -12471 
  -12449   -12445   -12378   -12255   -12290   -12414   -12330   -12121 
  -12015   -11936   -11897   -11974   -12048   -12127   -12233   -12202 
  -12158   -12357   -12645   -12806   -12908   -12957   -12889   -12772 
  -12561   -12245   -12046   -11982   -11878   -11781   -11780   -11746 
  -11688   -11811   -12083   -12343   -12625   -12893   -12961   -12879 
  -12829   -12819   -12837   -12865   -12826   -12761   -12723   -12636 
  -12518   -12471   -12434   -12349   -12324   -12361   -12417   -12522 
  -12586   -12537   -12546   -12598   -12501   -12382   -12434   -12567 
  -12610   -12425   -12120   -12043   -12194   -12357   -12596   -12838 
  -12864   -12792   -12675   -12372   -12054   -11851   -11759   -11944 
  -12222   -12244   -12214   -12255   -12128   -11971   -12024   -12186 
  -12413   -12737   -12993   -12992   -12850   -12841   -12860   -12690 
  -12540   -12544   -12457   -12271   -12170   -12104   -12063   -12170 
  -12387   -12603   -12752   -12768   -12723   -12723   -12613   -12270 
  -11907   -11715   -11715   -11940   -12301   -12456   -12237   -11938 
  -11797   -11641   -11415   -11358   -11496   -11715   -12010   -12235 
  -12137   -11785   -11584   -11724   -11946   -12021   -12020   -12075 
  -12210   -12398   -12598   -12727   -12748   -12752   -12808   -12783 
  -12496   -12052   -11788   -11920   -12260   -12444   -12472   -12533 
  -12633   -12754   -12842   -12866   -12930   -12906   -12685   -12567 
  -12719   -12995   -13162   -13049   -12730   -12355   -11993   -11851 
  -12009   -12247   -12456   -12626   -12658   -12548   -12325   -12033 
  -11817   -11716   -11665   -11654   -11693   -11805   -11923   -11974 
  -12039   -12154   -12302   -12532   -12719   -12708   -12611   -12606 
  -12831   -13289   -13672   -13795   -13791   -13659   -13325   -12910 
  -12428   -11905   -11549   -11414   -11487   -11769   -12009   -12123 
  -12347   -12528   -12401   -12256   -12264   -12164   -11988   -11956 
  -11934   -11754   -11639   -11730   -11851   -11921   -12040   -12305 
  -12717   -12989   -12893   -12690   -12610   -12542   -12432   -12344 
  -12240   -12110   -12096   -12213   -12229   -12135   -12177   -12302 
  -12258   -12064   -11916   -11875   -11850   -11789   -11826   -11944 
  -11979   -12042   -12209   -12303   -12395   -12615   -12783   -12843 
  -12922   -12934   -12830   -12715   -12579   -12480   -12569   -12684 
  -12717   -12858   -12995   -12874   -12658   -12417   -12066   -11827 
  -11782   -11844   -12069   -12290   -12309   -12286   -12287   -12255 
  -12322   -12550   -12779   -12900   -12912   -12773   -12532   -12383 
  -12424   -12602   -12833   -13004   -13008   -12816   -12528   -12312 
  -12256   -12283   -12314   -12430   -12644   -12829   -12973   -13143 
  -13216   -12997   -12615   -12318   -12075   -11889   -11875   -11911 
  -11886   -11909   -12031   -12287   -12596   -12673   -12511   -12367 
  -12318   -12332   -12401   -12552   -12745   -12861   -12880   -12719 
  -12264   -11724   -11389   -11299   -11371   -11497   -11587   -11622 
  -11678   -11896   -12258   -12521   -12533   -12313   -11996   -11816 
  -11828   -11886   -11925   -11824   -11522   -11277   -11221   -11291 
  -11604   -12131   -12565   -12653   -12321   -11865   -11726   -11877 
  -12004   -12010   -11954   -11875   -11773   -11592   -11448   -11618 
  -12067   -12536   -12915   -13000   -12650   -12209   -12012   -11989 
  -11928   -11701   -11446   -11518   -11965   -12459   -12748   -12758 
  -12584   -12388   -12131   -11809   -11703   -11936   -12274   -12526 
  -12734   -12927   -13036   -13012   -12957   -13038   -13107   -12942 
  -12761   -12761   -12888   -13157   -13398   -13358   -13162   -12954 
  -12653   -12317   -12121   -12085   -12129   -12148   -11973   -11672 
  -11591   -11755   -11932   -12133   -12268   -12118   -11858   -11780 
  -11900   -12127   -12415   -12838   -13288   -13373   -13054   -12677 
  -12460   -12463   -12586   -12664   -12712   -12671   -12391   -12066 
  -11944   -11898   -11751   -11630   -11781   -12235   -12719   -13019 
  -13200   -13294   -13189   -12993   -12889   -12757   -12476   -12145 
  -11936   -11924   -11967   -12066   -12437   -12865   -13051   -13231 
  -13373   -13122   -12710   -12560   -12648   -12807   -12835   -12582 
  -12307   -12328   -12602   -12938   -13097   -13054   -13012   -12841 
  -12499   -12374   -12402   -12241   -12075   -12098   -12179   -12263 
  -12307   -12270   -12270   -12291   -12222   -12140   -12047   -11936 
  -12010   -12235   -12282   -11983   -11434   -10999   -10895   -10871 
  -10828   -10979   -11408   -12054   -12611   -12762   -12734   -12806 
  -12791   -12717   -12802   -12899   -13061   -13441   -13664   -13581 
  -13425   -13084   -12603   -12370   -12378   -12321   -12054   -11668 
  -11404   -11338   -11326   -11388   -11616   -11862   -11982   -12060 
  -12171   -12239   -12147   -11901   -11753   -11932   -12268   -12448 
  -12479   -12442   -12195   -11793   -11491   -11288   -11129   -11084 
  -11178   -11421   -11685   -11773   -11878   -12283   -12802   -13163 
  -13406   -13598   -13572   -13200   -12629   -12125   -12046   -12536 
  -13220   -13806   -14308   -14569   -14474   -14153   -13667   -12993 
  -12218   -11681   -11731   -12151   -12436   -12644   -13051   -13377 
  -13230   -12792   -12364   -11885   -11449   -11325   -11395   -11492 
  -11705   -11904   -11840   -11627   -11473   -11387   -11398   -11572 
  -11815   -11951   -11993   -12137   -12401   -12560   -12583   -12683 
  -12895   -13015   -12916   -12672   -12433   -12272   -12210   -12224 
  -12214   -12193   -12310   -12544   -12580   -12222   -11782   -11670 
  -11738   -11655   -11465   -11288   -11151   -11257   -11691   -12132 
  -12422   -12706   -13020   -13331   -13589   -13540   -13053   -12483 
  -12174   -12031   -12019   -12266   -12687   -13180   -13666   -13917 
  -13861   -13514   -12850   -12098   -11457   -10951   -10800   -10987 
  -11114   -11303   -11946   -12735   -13173   -13230   -13014   -12617 
  -12187   -11811   -11599   -11657   -11823   -11928   -12047   -12121 
  -12085   -12167   -12375   -12499   -12599   -12654   -12449   -12024 
  -11604   -11425   -11662   -12247   -12907   -13348   -13436   -13277 
  -13027   -12699   -12322   -12032   -11762   -11400   -11169   -11232 
  -11442   -11785   -12293   -12835   -13365   -13811   -13959   -13794 
  -13516   -13186   -12866   -12711   -12658   -12595   -12638   -12800 
  -12906   -12876   -12672   -12270   -11785   -11321   -10912   -10721 
  -10878   -11334   -11936   -12376   -12440   -12205   -11784   -11326 
  -11101   -11250   -11655   -12139   -12719   -13398   -13878   -13876 
  -13401   -12669   -12004   -11524   -11173   -11105   -11362   -11718 
  -12133   -12530   -12658   -12698   -12954   -13312   -13570   -13582 
  -13378   -13309   -13547   -13788   -13724   -13401   -13073   -12783 
  -12507   -12375   -12240   -11912   -11645   -11595   -11619   -11718 
  -11809   -11732   -11738   -11936   -11951   -11826   -11896   -12020 
  -12013   -11966   -11948   -11989   -12104   -12352   -12785   -13215 
  -13389   -13240   -12775   -12168   -11796   -11821   -12048   -12236 
  -12267   -12185   -12199   -12375   -12475   -12383   -12251   -12190 
  -12248   -12453   -12730   -12962   -13104   -13208   -13275   -13192 
  -12943   -12576   -12006   -11257   -10559   -10033    -9694    -9660 
   -9988   -10565   -11250   -11913   -12318   -12421   -12594   -12968 
  -13242   -13338   -13267   -12980   -12793   -12901   -13063   -13261 
  -13581   -13906   -14189   -14411   -14469   -14241   -13690   -13034 
  -12390   -11650   -11010   -10764   -10719   -10620   -10696   -11148 
  -11716   -12156   -12514   -12815   -12965   -12922   -12835   -12815 
  -12803   -12903   -13230   -13474   -13450   -13331   -13059   -12488 
  -11738   -11006   -10532   -10408   -10508   -10818   -11277   -11722 
  -12171   -12603   -12822   -12816   -12771   -12749   -12671   -12486 
  -12262   -12093   -12054   -12226   -12642   -13174   -13591   -13701 
  -13504   -13150   -12694   -12216   -11924   -11792   -11708   -11778 
  -11911   -11858   -11676   -11477   -11225   -10914   -10652   -10724 
  -11296   -12087   -12704   -13018   -13198   -13405   -13510   -13506 
  -13597   -13694   -13683   -13651   -13441   -12900   -12214   -11614 
  -11354   -11576   -11990   -12364   -12712   -12949   -13074   -13188 
  -13246   -13371   -13721   -14015   -14075   -14019   -13732   -13207 
  -12780   -12537   -12318   -12046   -11772   -11680   -11736   -11691 
  -11468   -11065   -10721   -10863   -11302   -11620   -11954   -12409 
  -12810   -13026   -12951   -12711   -12619   -12652   -12552   -12229 
  -11668   -10916   -10359   -10349   -10656   -10909   -11114   -11369 
  -11658   -11998   -12305   -12387   -12280   -12213   -12282   -12442 
  -12690   -13061   -13478   -13814   -14058   -14172   -14095   -13913 
  -13684   -13400   -13086   -12660   -12116   -11643   -11264   -10910 
  -10678   -10589   -10546   -10593   -10829   -11241   -11799   -12452 
  -13038   -13474   -13873   -14254   -14423   -14230   -13747   -13224 
  -12827   -12537   -12359   -12357   -12550   -12810   -12842   -12586 
  -12280   -12023   -11851   -11847   -11892   -11916   -12051   -12264 
  -12379   -12397   -12371   -12190   -11838   -11576   -11543   -11588 
  -11668   -11836   -12019   -12158   -12316   -12555   -12799   -12934 
  -12933   -12673   -12087   -11558   -11403   -11395   -11303   -11238 
  -11349   -11650   -12058   -12453   -12775   -13050   -13297   -13429 
  -13343   -13085   -12749   -12376   -12081   -11975   -12019   -12100 
  -12097   -11939   -11731   -11626   -11599   -11604   -11661   -11709 
  -11730   -11762   -11730   -11691   -11859   -12185   -12495   -12796 
  -13096   -13427   -13830   -14121   -14129   -13946   -13666   -13373 
  -13170   -12972   -12756   -12658   -12538   -12183   -11692   -11233 
  -10987   -11021   -10995   -10679   -10412   -10490   -10795   -11156 
  -11524   -11847   -12085   -12253   -12181   -11700   -11151   -10912 
  -10976   -11394   -12067   -12545   -12750   -12845   -12704   -12465 
  -12453   -12519   -12507   -12627   -12941   -13257   -13458   -13533 
  -13551   -13602   -13737   -13954   -14187   -14299   -14246   -14071 
  -13826   -13571   -13230   -12712   -12139   -11570   -11028   -10698 
  -10709   -10930   -11151   -11295   -11469   -11801   -12237   -12586 
  -12872   -13205   -13377   -13170   -12679   -12063   -11489   -11084 
  -10825   -10755   -10990   -11395   -11767   -12087   -12314   -12329 
  -12191   -12083   -12043   -12047   -12163   -12486   -12962   -13358 
  -13555   -13687   -13803   -13813   -13718   -13521   -13184   -12785 
  -12407   -11955   -11418   -10997   -10733   -10525   -10419   -10449 
  -10505   -10497   -10412   -10369   -10551   -11005   -11665   -12499 
  -13420   -14183   -14558   -14547   -14300   -13986   -13722   -13467 
  -13127   -12780   -12505   -12276   -12132   -12062   -12056   -12221 
  -12426   -12421   -12256   -12093   -12037   -12150   -12293   -12291 
  -12178   -12063   -12024   -12096   -12232   -12313   -12263   -12086 
  -11820   -11584   -11503   -11632   -11981   -12413   -12735   -12961 
  -13134   -13074   -12594   -11844   -11226   -10930   -10916   -11133 
  -11458   -11727   -11996   -12352   -12685   -12946   -13193   -13333 
  -13347   -13369   -13304   -13035   -12754   -12712   -12901   -13082 
  -13105   -13049   -12980   -12850   -12614   -12380   -12336   -12451 
  -12588   -12764   -12973   -13142   -13248   -13285   -13294   -13250 
  -13014   -12746   -12698   -12718   -12700   -12700   -12545   -12143 
  -11726   -11560   -11688   -11898   -12019   -12047   -12027   -11994 
  -11889   -11666   -11534   -11669   -11973   -12299   -12582   -12803 
  -12989   -13228   -13468   -13417   -13150   -13115   -13221   -13126 
  -12930   -12714   -12474   -12370   -12283   -11978   -11562   -11195 
  -10945   -10886   -10876   -10713   -10543   -10670   -11172   -11850 
  -12321   -12415   -12403   -12486   -12561   -12584   -12627   -12687 
  -12711   -12691   -12594   -12394   -12118   -11823   -11634   -11635 
  -11735   -11866   -12064   -12322   -12598   -12915   -13232   -13409 
  -13394   -13271   -13190   -13257   -13356   -13319   -13162   -12978 
  -12841   -12761   -12600   -12280   -11911   -11601   -11389   -11353 
  -11649   -12236   -12808   -13243   -13548   -13621   -13466   -13170 
  -12808   -12556   -12499   -12603   -12837   -13068   -13177   -13178 
  -13126   -13086   -13024   -12768   -12321   -11871   -11515   -11279 
  -11234   -11410   -11762   -12210   -12627   -12858   -12815   -12557 
  -12152   -11650   -11169   -10840   -10752   -10870   -11014   -11182 
  -11461   -11700   -11797   -11865   -11909   -11828   -11653   -11558 
  -11661   -11854   -12035   -12270   -12550   -12725   -12680   -12448 
  -12202   -12100   -12174   -12398   -12667   -12874   -13080   -13319 
  -13428   -13273   -12972   -12768   -12765   -12868   -12970   -13055 
  -13090   -12960   -12648   -12274   -11948   -11734   -11657   -11738 
  -11951   -12162   -12316   -12475   -12626   -12745   -12833   -12808 
