Origin Time       2026/01/15 07:13:00
Lat.              42.7
Long.             145.4
Depth. (km)       30
Mag.              5.7
Station Code      HKD053
Station Lat.      43.7849
Station Long.     143.6072
Station Height(m) 208
Record Time       2026/01/15 07:13:46
Sampling Freq(Hz) 100Hz
Duration Time(s)  77
Dir.              E-W
Scale Factor      7845(gal)/8223790
Max. Acc. (gal)   1.519
Last Correction   2026/01/15 07:13:46
Memo.             
[...]
    2335     2320     2285     2235     2169     2070     1950     1850 
    1780     1733     1707     1690     1663     1611     1532     1470 
    1487     1606     1799     2006     2150     2195     2173     2134 
    2106     2091     2080     2079     2108     2165     2201     2174 
    2089     1989     1915     1875     1856     1857     1876     1899 
    1908     1890     1863     1865     1904     1958     2010     2062 
    2119     2147     2120     2054     1972     1892     1838     1833 
    1876     1939     1989     2002     1984     1960     1946     1961 
    1998     2019     2031     2057     2068     2022     1926     1834 
    1788     1796     1837     1877     1902     1914     1919     1915 
    1912     1930     1966     2004     2049     2092     2111     2111 
    2111     2120     2141     2141     2093     2015     1930     1864 
    1827     1804     1799     1827     1868     1896     1927     1983 
    2065     2149     2211     2261     2292     2272     2205     2119 
    2030     1965     1938     1938     1929     1869     1784     1734 
    1740     1788     1857     1918     1957     1976     1973     1950 
    1915     1884     1853     1825     1825     1875     1968     2060 
    2112     2147     2185     2224     2247     2259     2261     2228 
    2147     2060     2016     2023     2035     2019     1960     1881 
    1822     1788     1767     1759     1748     1728     1709     1709 
    1745     1811     1868     1895     1922     1985     2077     2146 
    2153     2111     2049     1979     1925     1912     1939     1972 
    1971     1949     1949     1975     1993     1984     1939     1880 
    1834     1798     1748     1706     1721     1795     1877     1914 
    1927     1954     1973     1976     1996     2053     2128     2189 
    2218     2222     2205     2157     2096     2045     1999     1949 
    1892     1821     1730     1628     1561     1584     1680     1795 
    1898     1969     1993     1987     1999     2052     2115     2151 
    2172     2184     2168     2124     2091     2072     2047     2019 
    2004     1998     1979     1946     1906     1856     1791     1725 
    1668     1634     1630     1668     1746     1836     1887     1899 
    1925     1985     2058     2141     2249     2347     2393     2400 
    2405     2405     2369     2284     2180     2087     2008     1939 
    1865     1760     1649     1588     1579     1601     1638     1680 
    1721     1772     1846     1960     2095     2200     2268     2323 
    2376     2431     2451     2392     2288     2207     2168     2134 
    2065     1968     1881     1817     1761     1717     1702     1705 
    1674     1598     1549     1595     1705     1829     1961     2095 
    2191     2215     2174     2120     2089     2079     2074     2070 
    2061     2054     2049     2042     2042     2047     2039     2022 
    1996     1965     1930     1883     1833     1809     1804     1807 
    1821     1837     1849     1860     1881     1921     1960     1992 
    2025     2050     2060     2076     2112     2142     2143     2107 
    2042     1987     1973     1962     1903     1810     1733     1694 
    1688     1710     1761     1818     1842     1853     1887     1933 
    1965     1987     2039     2142     2234     2251     2204     2150 
    2115     2079     2022     1972     1941     1890     1815     1767 
    1763     1788     1827     1876     1929     1985     2034     2064 
    2076     2096     2131     2155     2166     2176     2176     2135 
    2053     1972     1912     1860     1806     1763     1764     1829 
    1922     1996     2019     1996     1958     1937     1960     2039 
    2139     2216     2247     2245     2241     2241     2214     2180 
    2158     2118     2047     1973     1918     1892     1879     1857 
    1837     1819     1791     1776     1799     1837     1867     1877 
    1880     1904     1939     1952     1954     1956     1950     1957 
    1985     2026     2049     2026     1972     1899     1818     1749 
    1715     1729     1787     1852     1888     1906     1927     1975 
    2057     2153     2223     2249     2223     2158     2080     2007 
    1966     1979     2014     2019     1979     1903     1822     1759 
    1717     1705     1736     1777     1796     1810     1823     1815 
    1784     1760     1777     1842     1919     1973     1991     1977 
    1944     1902     1883     1906     1956     2027     2128     2216 
    2254     2253     2245     2243     2245     2262     2290     2285 
    2222     2120     1996     1863     1760     1719     1732     1765 
    1809     1854     1884     1891     1883     1868     1852     1841 
    1848     1871     1895     1933     1988     2039     2080     2111 
    2108     2062     2006     1988     2019     2068     2106     2134 
    2142     2115     2068     2018     1991     2000     2023     2026 
    2015     2020     2038     2041     2018     1985     1977     2000 
    2038     2061     2060     2037     1998     1949     1907     1896 
    1903     1910     1902     1873     1827     1794     1790     1827 
    1891     1942     1979     2010     2034     2034     2004     1968 
    1956     1949     1931     1917     1907     1891     1865     1834 
    1813     1823     1871     1945     2034     2103     2130     2127 
    2116     2096     2062     2031     2029     2022     1971     1880 
    1800     1769     1779     1783     1777     1794     1827     1853 
    1879     1911     1944     1975     1998     2016     2049     2080 
    2083     2064     2047     2041     2046     2057     2062     2054 
    2027     1992     1944     1877     1818     1788     1784     1818 
    1884     1949     1995     2014     2012     2008     2016     2054 
    2118     2180     2232     2258     2222     2120     1981     1846 
    1737     1653     1613     1630     1683     1738     1777     1807 
    1856     1935     2027     2116     2215     2305     2344     2327 
    2277     2204     2126     2057     2019     2030     2061     2069 
    2046     2004     1964     1915     1860     1831     1838     1852 
    1858     1864     1869     1888     1935     1996     2046     2076 
    2083     2072     2053     2034     2008     1973     1926     1873 
    1822     1780     1772     1800     1848     1896     1921     1917 
    1914     1934     1979     2056     2155     2246     2305     2326 
    2309     2261     2197     2142     2107     2080     2046     2019 
    2006     1995     1965     1914     1860     1804     1742     1702 
    1706     1726     1733     1744     1786     1850     1884     1872 
    1856     1858     1857     1842     1825     1826     1840     1833 
    1807     1799     1825     1872     1923     1973     2022     2064 
    2096     2116     2114     2088     2069     2084     2135     2193 
    2224     2230     2211     2164     2114     2096     2110     2138 
    2160     2153     2108     2022     1896     1768     1667     1597 
    1564     1575     1618     1679     1732     1763     1780     1795 
    1817     1846     1888     1949     2022     2084     2123     2133 
    2127     2137     2158     2164     2161     2178     2212     2235 
    2238     2230     2204     2147     2069     1995     1949     1937 
    1937     1925     1903     1900     1915     1927     1931     1931 
    1942     1976     2004     2002     1966     1906     1841     1795 
    1773     1764     1750     1737     1742     1763     1786     1815 
    1841     1856     1884     1939     2016     2097     2155     2178 
    2193     2208     2218     2220     2218     2211     2196     2154 
    2081     1989     1887     1799     1763     1788     1853     1923 
    1984     2047     2099     2114     2116     2127     2124     2091 
    2030     1958     1906     1869     1826     1788     1771     1771 
    1800     1872     1980     2089     2151     2158     2131     2093 
    2074     2077     2066     2033     1987     1942     1902     1875 
    1868     1900     1966     2037     2087     2116     2134     2134 
    2111     2080     2045     2007     1977     1949     1923     1907 
    1892     1864     1836     1834     1863     1888     1868     1821 
    1783     1741     1675     1617     1598     1610     1642     1692 
    1744     1792     1844     1898     1953     2010     2070     2138 
    2200     2236     2251     2268     2301     2342     2367     2365 
    2328     2238     2118     2008     1912     1830     1782     1745 
    1683     1614     1583     1602     1645     1706     1790     1879 
    1953     2010     2047     2056     2035     2000     1972     1938 
    1892     1857     1854     1871     1875     1860     1842     1831 
    1844     1875     1918     1985     2068     2131     2157     2149 
    2139     2142     2120     2058     1980     1910     1881     1896 
    1919     1935     1952     1968     1980     1977     1972     1995 
    2035     2064     2076     2079     2074     2058     2033     2012 
    2002     2000     2015     2029     2023     2018     2027     2037 
    2050     2061     2049     2015     1973     1937     1904     1868 
    1836     1825     1836     1869     1919     1962     1993     2031 
    2077     2118     2147     2160     2177     2207     2214     2172 
    2091     1998     1908     1796     1665     1575     1536     1514 
    1506     1522     1544     1537     1490     1433     1408     1435 
    1510     1607     1714     1849     2000     2147     2295     2439 
    2562     2658     2717     2739     2747     2737     2681     2571 
    2435     2308     2201     2085     1957     1856     1792     1744 
    1734     1803     1925     2038     2104     2108     2056     1969 
    1875     1791     1713     1629     1532     1426     1339     1296 
    1302     1352     1458     1617     1784     1926     2050     2165 
    2254     2324     2384     2413     2390     2322     2257     2243 
    2290     2377     2479     2556     2562     2506     2428     2344 
    2247     2127     1992     1845     1676     1494     1332     1200 
    1111     1077     1073     1086     1119     1173     1260     1382 
    1547     1776     2057     2335     2579     2767     2902     3006 
    3065     3059     2995     2891     2739     2527     2270     2019 
    1818     1675     1582     1516     1464     1421     1385     1359 
    1347     1355     1406     1512     1633     1722     1763     1760 
    1737     1722     1728     1748     1791     1856     1931     2002 
    2052     2074     2070     2050     2033     2031     2053     2091 
    2131     2160     2192     2277     2444     2678     2930     3149 
    3310     3391     3377     3299     3187     3046     2882     2695 
    2477     2227     1949     1656     1363     1093      872      718 
     626      584      599      699      882     1117     1370     1624 
    1856     2019     2095     2103     2069     2000     1911     1822 
    1768     1780     1863     2010     2212     2421     2590     2697 
    2729     2694     2600     2443     2228     1979     1733     1525 
    1372     1275     1221     1196     1179     1183     1247     1386 
    1568     1749     1898     2003     2062     2080     2095     2158 
    2278     2412     2516     2581     2614     2609     2551     2466 
    2394     2351     2331     2320     2323     2349     2367     2339 
    2266     2176     2072     1960     1867     1814     1787     1759 
    1718     1661     1566     1420     1263     1140     1057     1019 
    1042     1127     1274     1482     1726     1989     2261     2536 
    2783     2947     2983     2894     2716     2485     2259     2077 
    1939     1854     1814     1783     1763     1767     1800     1860 
    1914     1925     1890     1838     1802     1800     1831     1871 
    1885     1853     1792     1728     1665     1611     1557     1479 
    1368     1251     1174     1179     1270     1428     1641     1891 
    2145     2374     2567     2709     2809     2878     2895     2839 
    2732     2600     2434     2273     2187     2180     2205     2228 
    2216     2147     2041     1927     1823     1749     1730     1764 
    1818     1871     1934     2015     2095     2147     2137     2057 
    1944     1800     1625     1456     1339     1294     1312     1355 
    1417     1514     1645     1804     1980     2146     2281     2380 
    2413     2351     2219     2069     1938     1838     1782     1807 
    1938     2134     2332     2490     2593     2640     2620     2536 
    2430     2334     2265     2238     2251     2278     2277     2220 
    2123     2002     1845     1656     1458     1269     1085      891 
     716      627      630      711      859     1051     1267     1509 
    1776     2057     2338     2583     2763     2871     2903     2871 
    2805     2725     2627     2506     2376     2257     2161     2073 
    1964     1841     1753     1728     1746     1795     1863     1923 
    1950     1926     1840     1732     1645     1591     1583     1633 
    1732     1853     1969     2066     2143     2188     2228     2289 
    2334     2326     2274     2203     2142     2120     2143     2207 
    2297     2389     2484     2562     2590     2552     2446     2261 
    2012     1738     1476     1258     1104     1020      988      973 
     973     1015     1117     1293     1543     1868     2273     2717 
    3117     3408     3561     3554     3399     3121     2751     2336 
    1912     1510     1156      868      672      591      626      776 
    1034     1360     1730     2120     2471     2717     2817     2799 
    2720     2623     2523     2431     2331     2199     2041     1880 
    1734     1607     1506     1426     1378     1389     1460     1549 
    1628     1702     1777     1848     1923     2035     2189     2357 
    2497     2601     2663     2663     2583     2435     2230     1985 
    1752     1568     1456     1420     1421     1420     1399     1371 
    1367     1424     1568     1810     2107     2390     2602     2709 
    2708     2633     2516     2358     2193     2096     2095     2157 
    2239     2286     2278     2238     2220     2266     2355     2440 
    2486     2463     2346     2122     1823     1501     1193      935 
     768      706      741      857     1042     1267     1487     1667 
    1807     1914     1976     2019     2077     2158     2262     2382 
    2488     2559     2604     2627     2644     2659     2648     2597 
    2506     2380     2214     2014     1806     1637     1543     1521 
    1549     1615     1699     1775     1838     1911     1995     2070 
    2127     2141     2084     1984     1881     1780     1691     1640 
    1644     1705     1786     1844     1863     1856     1850     1898 
    2018     2188     2384     2571     2704     2755     2720     2604 
    2430     2205     1933     1618     1289      988      765      649 
     633      702      842     1053     1327     1633     1946     2258 
    2546     2782     2951     3036     3024     2940     2833     2718 
    2578     2411     2228     2027     1817     1624     1474     1389 
    1377     1425     1498     1548     1561     1568     1603     1671 
    1765     1890     2010     2097     2150     2182     2214     2251 
    2282     2312     2362     2417     2462     2494     2508     2488 
    2411     2280     2126     1976     1846     1741     1657     1586 
    1528     1495     1495     1513     1551     1614     1690     1772 
    1864     1942     1989     2015     2035     2045     2034     2019 
    2019     2025     2014     2006     2037     2097     2165     2239 
    2323     2393     2421     2386     2295     2164     2002     1840 
    1721     1672     1695     1756     1819     1864     1881     1863 
    1811     1728     1601     1443     1285     1154     1084     1109 
    1231     1424     1652     1876     2057     2189     2289     2385 
    2489     2581     2650     2704     2728     2708     2674     2662 
    2667     2668     2625     2501     2319     2127     1952     1804 
    1688     1590     1505     1435     1379     1360     1389     1455 
    1539     1613     1661     1695     1732     1764     1775     1771 
    1750     1701     1645     1614     1633     1715     1856     2026 
    2196     2354     2496     2619     2731     2839     2925     2961 
    2921     2799     2612     2380     2145     1953     1818     1723 
    1661     1628     1620     1622     1615     1593     1551     1489 
    1431     1398     1391     1414     1479     1572     1659     1736 
    1819     1903     1972     2025     2073     2110     2096     2011 
    1876     1736     1638     1636     1752     1977     2258     2516 
    2697     2783     2772     2693     2585     2465     2335     2201 
    2064     1931     1836     1784     1749     1701     1648     1625 
    1633     1653     1695     1767     1845     1911     1962     2008 
    2056     2115     2180     2245     2305     2353     2378     2381 
    2361     2312     2243     2172     2097     1995     1860     1699 
    1525     1362     1232     1155     1155     1232     1354     1506 
    1686     1876     2068     2239     2358     2428     2474     2493 
    2473     2421     2359     2273     2145     2006     1907     1876 
    1898     1937     1975     2004     2029     2061     2106     2153 
    2187     2201     2193     2153     2085     2014     1977     2002 
    2058     2114     2134     2091     2011     1934     1872     1818 
    1755     1664     1560     1463     1383     1335     1331     1370 
    1422     1485     1575     1684     1777     1834     1863     1876 
    1884     1896     1933     2004     2089     2153     2193     2220 
    2243     2281     2343     2403     2432     2417     2358     2263 
    2141     1989     1837     1711     1613     1530     1475     1470 
    1522     1628     1771     1944     2139     2332     2484     2581 
    2609     2566     2485     2400     2317     2254     2238     2265 
    2315     2357     2365     2332     2272     2182     2064     1919 
    1749     1570     1412     1309     1300     1393     1555     1755 
    1966     2149     2258     2282     2223     2103     1949     1783 
    1628     1502     1413     1363     1350     1350     1352     1354 
    1351     1363     1405     1475     1583     1729     1884     2027 
    2153     2269     2382     2492     2606     2720     2799     2824 
    2789     2718     2639     2555     2471     2394     2317     2235 
    2146     2060     1998     1976     1984     2003     2011     2011 
    2019     2038     2047     2035     1998     1925     1811     1679 
    1571     1509     1479     1476     1505     1568     1656     1750 
    1830     1904     1989     2066     2134     2215     2305     2378 
    2403     2365     2285     2187     2092     2012     1938     1869 
    1817     1776     1750     1725     1679     1618     1574     1560 
    1584     1649     1756     1900     2042     2143     2192     2197 
    2191     2196     2209     2232     2273     2304     2292     2224 
    2118     2008     1922     1861     1815     1776     1726     1660 
    1593     1537     1501     1483     1490     1547     1667     1818 
