Origin Time       2026/01/15 07:13:00
Lat.              42.7
Long.             145.4
Depth. (km)       30
Mag.              5.7
Station Code      HKD078
Station Lat.      43.1488
Station Long.     144.4976
Station Height(m) 25
Record Time       2026/01/15 07:13:31
Sampling Freq(Hz) 100Hz
Duration Time(s)  107
Dir.              E-W
Scale Factor      7845(gal)/8223790
Max. Acc. (gal)   13.496
Last Correction   2026/01/15 07:13:31
Memo.             
[...]
     765      757      751      749      754      762      764      762 
     762      762      757      745      741      753      765      768 
     765      764      766      768      764      761      768      774 
     774      774      776      773      768      765      760      750 
     741      741      750      760      765      762      754      751 
     750      749      753      760      766      772      773      770 
     768      762      762      769      778      781      774      760 
     745      743      750      758      765      768      762      756 
     753      754      756      757      760      757      754      757 
     761      760      756      764      769      760      750      756 
     766      772      769      764      766      768      764      761 
     768      780      780      764      749      747      754      754 
     749      750      754      750      746      753      766      772 
     769      765      761      753      750      760      776      780 
     769      765      768      768      761      756      754      758 
     764      761      751      749      749      753      757      757 
     761      766      768      765      761      756      750      749 
     761      780      789      778      756      745      753      761 
     764      769      772      764      749      745      754      768 
     774      773      764      751      742      742      745      753 
     768      778      772      762      762      765      762      764 
     766      764      758      754      751      753      760      765 
     762      756      750      747      753      760      769      780 
     780      770      764      764      764      762      768      772 
     765      751      745      745      747      750      758      765 
     762      754      754      761      769      776      773      765 
     764      768      770      773      780      785      788      788 
     788      797      814      820      815      815      830      830 
     801      787      791      769      707      662      695      749 
     718      626      616      707      777      751      689      711 
     789      826      878      938      845      685      734      961 
    1084      970      780      764      901      969      923      807 
     602      515      672      702      454      359      459      464 
     603      980     1067      801      741      970     1108     1089 
    1026      869      650      576      703      814      757      697 
     746      808      854      832      715      692      742      714 
     791      858      594      334      403      589      751      950 
    1183     1181      830      626      781      857      791      777 
     623      340      305      463      440      467      878     1113 
     930     1061     1385     1123      722      851     1067     1009 
     880      638      324      344      800     1296     1401     1120 
     819      661      608      758     1024      923      477      527 
    1152     1366      835      252      234      638      928     1081 
    1189      949      549      508      731      873      850      745 
     666      608      517      349       41      -85      202      430 
     546      982     1367     1116      621      788     1505     1674 
    1231     1047     1169      999      562      662     1318     1487 
    1158     1077      943      367      -16      340      878      712 
     141       67      297      248       41      -95     -217     -225 
     244     1089     1609     1579     1393     1255     1080      916 
     936      878      477      283      675     1040      990      889 
     880      859     1166     1842     2092     1551      796      121 
    -542     -580      244      942     1225     1480     1085     -109 
    -830     -398      568     1223     1329     1274     1088      486 
      71      612     1447     1387      440     -449     -650     -133 
     876     1815     2296     2593     2529     1672      743      550 
     550      121       -6      835     1728     1620      795      233 
     363      668      727      726      672      507      564      662 
     259     -206     -209       79      664     1144      818      220 
     376     1124     1539     1379     1206     1107      685      286 
     375      594      811     1335     1737     1372      703      449 
     291      -83     -178      248      743      827      525      199 
      71      163      359      345      122      294      886     1217 
    1318     1517     1568     1378     1059      618      236      201 
     573      939      774      351       -6     -442     -406      417 
    1196     1487     1383      935      398      118      342      656 
     415      147      534     1159     1636     1815     1344      643 
     450      641      982     1321     1418     1424     1436     1401 
    1512     1734     1579      851      166      -13      -29      -70 
     132      658     1175     1170      770      573      503      221 
    -174     -538     -608     -170      427      762      892     1020 
    1013      680      411      715     1491     2223     2396     2095 
    1950     2177     2497     2529     2149     1815     1729     1399 
     820      569      670      656      330     -106     -492     -818 
    -841     -442     -124     -116     -210     -534     -830     -421 
     363      700      579      361      321      785     1609     2089 
    2043     1904     1815     1826     2116     2533     2617     2016 
     993      368      351      237       -2      369     1179     1564 
    1144      126     -743     -739     -216     -136     -425     -241 
     535     1345     1830     1975     1549      602      205      637 
     764      437      365      491      668      876      702      164 
     -83      209      685      931      935      990     1093      920 
     531      422      533      436      486      951     1116      823 
     808     1054     1055     1069     1478     2101     2602     2776 
    2582     2142     1695     1177      271     -623    -1088    -1648 
   -2276    -2091    -1003      205      816      754      672      893 
     791      344      517     1236     1638     1807     2043     2022 
    1622     1298     1390     1549     1526     1799     2347     2359 
    1875     1750     1841     1296      581      756     1196      741 
    -137     -406     -248     -369     -696     -770     -610     -502 
    -321      106      449      637     1003     1431     1613     1532 
    1233      878      758      986     1424     1845     2016     1651 
     677     -228     -265      229      445      361      322      241 
     -27       22      837     1710     1740     1108      587      332 
    -101     -430       48      834      858      176     -178      344 
    1181     1799     2218     2110     1112     -124     -560     -284 
    -194     -290      139      974     1517     1606     1525     1451 
    1263      820      480      626      984     1194     1173      970 
     797      751      837      985      922      611      230        4 
     346     1008     1173     1112     1514     1945     1829     1371 
     989      858      615     -137     -962    -1216     -977     -618 
     -86      737     1382     1468     1351     1409     1489     1348 
    1255     1449     1579     1509     1628     1964     1962     1401 
     903      949     1297     1582     1507     1092      607       89 
    -324     -326     -129     -279     -747    -1034     -915     -625 
    -546     -521      -41      662     1224     1875     2660     3206 
    3073     2201     1162      465       72     -274     -618     -654 
    -334       58      484      810      965     1432     2224     2509 
    1827      622     -251     -224      544     1332     1337      517 
     -86      209      742     1016     1393     1506      653     -166 
     217      770      363     -282     -283      191      488      226 
    -191     -162      232      639     1042     1394     1543     1580 
    1679     1849     2000     2015     1949     1890     1756     1756 
    2154     2451     2065     1178      220     -481     -702     -621 
    -554     -537     -522     -475     -372     -143      375     1057 
    1572     1858     2097     2390     2457     2033     1351      739 
     334       74     -226     -378       94      839      804      -32 
    -367      518     1695     2173     2184     1956     1233      390 
      -9     -214     -533     -731     -565      -51      553      993 
    1181      994      689      947     1756     2411     2578     2389 
    1925     1179      356     -148     -240     -291     -635    -1119 
   -1281    -1070     -749      -98      858     1285      915      400 
     189      342      812     1356     1669     1524      923      415 
     615     1428     2297     2955     3504     3678     2889     1416 
     183     -414     -372      302     1343     2106     1918      896 
    -147     -882    -1243     -762      291      687      135     -314 
     -52      380      338     -105     -244      425     1480     2177 
    2331     2007     1223      409      139      422      760      849 
    1047     1474     1480      908      427      527     1115     1667 
    1881     1803     1232      276     -298     -217      298     1034 
    1417     1359     1364     1246      749      179     -398     -845 
    -656      228     1316     2065     2216     1838      966     -195 
    -930     -978     -900     -967     -846     -265      449      835 
     996     1216     1507     1686     1680     1750     1894     1819 
    1733     1885     1972     1584      666     -121       82     1026 
    1698     1755     1594     1309      706      222      386      820 
     962      876      615     -162    -1088    -1275     -827     -325 
     292     1310     2404     2778     2124      900      -83     -252 
     159      518      733      966      800       17     -471     -147 
     198      201      345      730     1069     1189     1356     1885 
    2330     2214     1840     1753     2064     2193     1741     1205 
     981      778      552      691     1182     1389      700     -589 
   -1601    -2123    -2365    -2166    -1536     -772       43      849 
    1223      926      568      934     1881     2533     2448     2025 
    1840     2053     2196     1813     1250     1013     1201     1733 
    2196     2106     1304      -17    -1225    -1837    -1753    -1111 
    -554     -448     -433     -434     -515     -251      843     2708 
    4361     4550     3319     2007     1516     1499     1391     1306 
    1340     1093      649      456      438      475      807     1703 
    2835     3045     1895      588      184      311      122     -413 
    -653     -396      166      816      915      147     -625     -465 
     645     2077     3002     2882     1883      795      348      604 
    1173     1497     1279      943      816      684      473      230 
     183      580      904      548     -261     -970    -1209     -765 
     191     1142     1791     2134     2108     1796     1683     1854 
    1456      256     -622     -630     -297       41      305      351 
     203      -31     -234     -102      580     1467     1728     1015 
      10     -724    -1267    -1390     -870     -265      -28      251 
     830     1209     1159      905      423     -182     -382      -52 
     314      301     -183     -783     -845     -303      179       17 
    -567     -558      437     1489     1625     1023      634      942 
    1691     2597     3304     3384     3060     2806     2602     2500 
    2459     1842      662     -280     -576       16     1134     1475 
     706      -98     -236      130      544      727      811      822 
     507     -136     -880    -1517    -1706    -1070      415     2195 
    3325     3248     2299     1186      270     -490     -947     -637 
     298      947      866      454     -162    -1252    -2471    -3122 
   -2959    -2323    -1849    -1636    -1328    -1016     -965     -970 
    -513      591     1914     2891     2999     1944      263     -978 
   -1004      241     1817     2577     2471     2037     1445      905 
     756      853      507     -422    -1020     -691      220     1177 
    1667     1443      837      479      918     2091     3294     4086 
    4307     3838     3376     3551     3751     3435     2830     2276 
    1879     1229       10    -1476    -2709    -2999    -1914     -137 
     959      616     -807    -2126    -2269    -1494     -754       48 
    1725     4020     5572     5663     4765     3361     1881     1113 
    1279     1800     2241     2500     2619     2878     3372     3468 
    2335       16    -2451    -3947    -4013    -2945    -1651    -1212 
   -1876    -2371    -1011     2338     5872     7877     8559     8715 
    7979     5938     3122      467     -965     -708      654     2066 
    2266      668    -1907    -4268    -5472    -5035    -3790    -3154 
   -3483    -3888    -3138     -972     1547     3325     4341     5394 
    7018     8766     9995    10590    10396     9373     8110     7037 
    6015     4704     2793      503    -1394    -2226    -1927    -1387 
   -1844    -3812    -6790    -9315    -9849    -8386    -6254    -4580 
   -3991    -4712    -5678    -4912    -1552     3581     8912    12958 
   14910    14450    11848     8407     5231     2631     1502     2679 
    4982     6165     4977     1714    -2133    -4907    -5803    -5030 
   -3435    -2031    -1645    -2532    -3973    -4827    -4735    -4202 
   -3747    -3607    -3735    -3742    -3206    -1869      399     3354 
    6188     7816     7526     5711     3678     2538     2756     3920 
    4325     2814      588     -819    -1445    -1779    -1737    -1101 
    -230      360      716      832      290     -810    -1410     -795 
      20     -506    -2142    -3420    -3797    -3389    -1946      361 
    2625     4360     5694     6008     3904     -217    -3294    -3002 
    -390     1863     2327     1244     -417    -1197     -159     1426 
    1517      140    -1101    -1309     -999    -1267    -2173    -2104 
      43     2924     4388     3859     2357     1286     1611     3285 
    5047     5413     4059     1942      184     -800    -1227    -1370 
    -876     1005     3893     6025     5985     4018     1371    -1386 
   -4189    -6309    -6882    -5718    -3551    -1854    -1123      -81 
    2346     5629     8197     8576     6825     4618     3214     2367 
    1359      -68    -1647    -2731    -2745    -1692     -213      854 
    1107      583     -634    -2195    -3126    -2521     -454     2119 
    3927     4122     2990     1489      415       17     -210     -729 
   -1320    -1804    -2266    -2654    -2882    -2786    -1938     -220 
    1553     2143     1105     -604    -1274      102     2671     4581 
    4745     3144      473    -2251    -4272    -4936    -3720     -888 
    2509     5174     5935     4417     1575     -805    -1360     -244 
    1285     2319     2458     1552       67    -1487    -3507    -6297 
   -8500    -8445    -6330    -3407     -174     3650     7904    11323 
   12710    12058     9981     6944     3272     -310    -2551    -2654 
   -1071      963     2254     2139      788    -1194    -3429    -5502 
   -6679    -6428    -4720    -2141       64      747     -109    -1231 
   -1200      141     2039     4153     6474     8333     8521     6650 
    3827     1651     1047     1861     2992     3474     3358     3007 
    2127       94    -2754    -4814    -5012    -4104    -3511    -4013 
   -5444    -6912    -7530    -6521    -3362     1144     5001     6671 
    6169     4810     3827     3281     2695     2043     1578     1694 
    2852     4644     5938     6401     6447     6035     4500     1287 
   -3022    -6596    -8144    -8033    -6995    -5265    -3118    -1008 
     552     1359     1965     2949     4171     5278     6276     7481 
    8968    10154    10485    10211     9880     9474     8649     7306 
    5400     3025      612    -1470    -2959    -3608    -3624    -3586 
   -3855    -4496    -5562    -7164    -8920    -9672    -8845    -7337 
   -5868    -3778     -519     3040     5679     6998     7167     6787 
    6627     6914     7415     7766     7611     6820     5379     3492 
    1630       31    -1317    -2208    -2458    -2363    -2540    -3244 
   -3802    -3211    -1259     1237     2884     2722     1277     -125 
    -843     -737      548     2906     5321     6975     7766     7661 
    6932     6300     5840     4922     3376     1759      504     -571 
   -1725    -2797    -3392    -3204    -2543    -2208    -2528    -3045 
   -3132    -2563    -1661    -1003     -837     -639      329     1988 
    3437     4051     3821     2706      715    -1547    -3318    -4440 
   -5182    -5609    -5417    -4418    -2709     -349     2324     4278 
    4696     3771     2263     1119     1208     2573     4213     4892 
    4091     2552     1640     2034     3348     4579     4861     4009 
    2054     -884    -4166    -7098    -9289   -10303    -9798    -7966 
   -5637    -3539    -1506      581     2039     2940     4352     6189 
    7302     7304     6512     5185     3790     3015     2866     2454 
    1291        9     -596     -268      805     2029     2598     2095 
     762    -1017    -3192    -5432    -6940    -7321    -6759    -5143 
   -1780     3269     8056    10388     9934     7611     4495     1892 
     689      480      256     -329     -735     -529     -211     -441 
    -974    -1367    -1576    -1350     -643     -209     -557    -1255 
   -1575    -1116       33     1152     1274      135    -1984    -4766 
   -7383    -8841    -9073    -8634    -7730    -6066    -3441     -191 
    3149     6282     9005    11079    12447    13317    13792    13394 
   11593     8783     5902     3379     1358      183      -91       -4 
    -216     -869    -1231     -607      392      634        9     -780 
   -1354    -1954    -2762    -3635    -4622    -5652    -5911    -4606 
   -1773     1968     5660     8461    10266    11377    11978    11875 
   10643     8480     6165     4040     1927     -318    -2488    -3859 
   -3873    -3213    -3242    -4261    -5439    -6141    -6026    -4599 
   -2087      113      850      120    -1287    -2219    -1817       85 
    2963     5725     7531     8191     7713     6407     4850     3261 
    1566     -140    -1699    -3063    -4261    -5255    -5937    -6413 
   -6871    -7180    -6975    -6003    -4498    -3121    -2420    -2455 
   -2570    -1750      414     3573     7159    10598    13217    14260 
   13383    11005     7912     4887     2536      942     -399    -1849 
   -3122    -3789    -3674    -2833    -1713     -834     -207      309 
     472     -202    -1904    -4171    -6083    -6855    -6315    -4707 
   -2230      876     4039     6551     8141     9151     9833     9954 
    9377     8176     6133     3069     -261    -2583    -3354    -3024 
   -2359    -2037    -2560    -3883    -5227    -5806    -5443    -4199 
   -2232       58     2311     4298     5787     6516     6362     5725 
    5248     5065     5062     5313     5574     5483     5200     4734 
