Origin Time       2026/01/15 07:13:00
Lat.              42.7
Long.             145.4
Depth. (km)       30
Mag.              5.7
Station Code      HKD084
Station Lat.      43.1141
Station Long.     144.1230
Station Height(m) 30
Record Time       2026/01/15 07:13:48
Sampling Freq(Hz) 100Hz
Duration Time(s)  67
Dir.              E-W
Scale Factor      7845(gal)/8223790
Max. Acc. (gal)   8.904
Last Correction   2026/01/15 07:13:49
Memo.             
[...]
    4101     3919     3649     3461     3492     3627     3701     3736 
    3832     3989     4153     4274     4207     3920     3646     3565 
    3608     3667     3771     3993     4247     4387     4441     4477 
    4444     4251     3978     3883     4128     4515     4673     4432 
    3883     3246     2832     2836     3094     3304     3362     3368 
    3456     3616     3740     3777     3773     3862     4168     4591 
    4830     4708     4368     4059     3878     3788     3761     3747 
    3634     3483     3522     3780     4023     4091     4000     3870 
    3917     4233     4572     4585     4209     3693     3331     3276 
    3565     4109     4588     4626     4243     3885     3905     4193 
    4387     4313     4167     4172     4201     4048     3793     3592 
    3492     3539     3738     3954     3974     3685     3249     2956 
    2898     2992     3198     3454     3708     3993     4307     4537 
    4617     4625     4650     4676     4614     4456     4260     4036 
    3785     3555     3454     3569     3858     4128     4183     4048 
    3964     4058     4198     4214     4128     4075     4072     3993 
    3750     3407     3148     3154     3373     3530     3537     3613 
    3906     4280     4580     4768     4799     4677     4459     4145 
    3731     3245     2847     2817     3172     3597     3825     3828 
    3739     3666     3615     3632     3778     4023     4248     4329 
    4302     4302     4293     4243     4310     4553     4800     4907 
    4837     4637     4406     4191     4027     3959     3933     3851 
    3684     3451     3233     3088     2956     2836     2820     2891 
    3034     3299     3591     3762     3831     3862     3867     3935 
    4141     4426     4665     4768     4772     4745     4625     4410 
    4236     4153     4094     3997     3904     3909     4008     4051 
    3921     3657     3420     3343     3430     3584     3747     3940 
    4129     4225     4249     4259     4205     4064     3913     3811 
    3759     3723     3672     3645     3690     3812     3959     3990 
    3807     3547     3419     3470     3628     3796     3909     3954 
    3943     3901     3812     3717     3770     3974     4129     4167 
    4202     4266     4295     4307     4367     4511     4687     4715 
    4491     4151     3867     3663     3561     3647     3873     4085 
    4186     4118     3886     3661     3608     3649     3643     3591 
    3516     3441     3423     3446     3435     3383     3316     3288 
    3372     3581     3874     4182     4423     4565     4635     4679 
    4745     4843     4905     4837     4634     4395     4190     3979 
    3731     3499     3354     3326     3360     3349     3329     3414 
    3599     3821     3983     3979     3893     3913     4066     4229 
    4284     4218     4132     4095     4108     4221     4432     4542 
    4448     4251     4041     3842     3615     3334     3121     3126 
    3308     3508     3634     3658     3645     3676     3693     3642 
    3630     3763     4017     4248     4284     4153     4051     4068 
    4131     4163     4160     4116     4032     4006     4104     4213 
    4229     4266     4441     4650     4703     4529     4180     3805 
    3604     3654     3821     3946     3978     3960     3952     3944 
    3861     3690     3523     3439     3429     3430     3419     3397 
    3387     3406     3462     3618     3910     4210     4345     4311 
    4225     4205     4271     4334     4286     4131     3955     3816 
    3709     3618     3570     3601     3662     3731     3840     3966 
    4052     4105     4139     4220     4469     4846     5131     5173 
    4988     4712     4463     4234     4000     3763     3534     3341 
    3214     3144     3141     3237     3362     3407     3338     3177 
    2982     2868     2961     3260     3626     3942     4121     4108 
    3991     3929     3989     4166     4388     4575     4677     4611 
    4368     4133     4064     4132     4251     4326     4293     4137 
    3900     3690     3596     3653     3886     4232     4565     4772 
    4764     4576     4344     4139     3962     3793     3613     3453 
    3314     3159     3042     3064     3230     3449     3613     3723 
    3839     3973     4085     4117     4060     4037     4143     4283 
    4338     4311     4286     4314     4360     4375     4334     4218 
    3990     3650     3284     3014     2889     2899     3045     3284 
    3514     3669     3744     3808     3993     4345     4722     4911 
    4847     4630     4414     4301     4232     4054     3753     3484 
    3370     3406     3503     3511     3391     3364     3568     3854 
    4102     4253     4190     3960     3773     3728     3793     3925 
    4110     4320     4487     4612     4739     4801     4695     4468 
    4278     4179     4120     4025     3870     3690     3561     3545 
    3622     3663     3550     3330     3140     3022     3013     3203 
    3541     3846     4041     4207     4410     4561     4517     4278 
    4012     3869     3844     3842     3789     3684     3596     3638 
    3835     4066     4191     4179     4051     3832     3599     3462 
    3469     3573     3707     3843     3929     3920     3877     3917 
    4064     4252     4409     4525     4584     4506     4317     4155 
    4066     4000     3966     4037     4206     4341     4342     4216 
    4021     3835     3701     3628     3654     3784     3909     3940 
    3854     3655     3454     3380     3420     3508     3653     3847 
    4016     4095     4089     4009     3863     3721     3653     3659 
    3774     3993     4148     4114     3969     3863     3866     3908 
    3959     4101     4307     4456     4487     4418     4282     4105 
    3940     3902     4054     4248     4284     4149     3966     3842 
    3847     3981     4152     4241     4210     4137     4105     4099 
    4071     3997     3847     3586     3249     2957     2874     3001 
    3153     3234     3327     3511     3808     4174     4484     4646 
    4665     4634     4622     4573     4446     4313     4232     4175 
    4116     4116     4212     4290     4202     3936     3615     3383 
    3264     3241     3343     3541     3727     3819     3773     3658 
    3611     3673     3762     3777     3699     3670     3840     4190 
    4568     4808     4858     4820     4745     4598     4406     4218 
    4075     4009     3958     3852     3686     3408     3052     2808 
    2771     2891     3100     3353     3643     3948     4232     4492 
    4652     4623     4492     4405     4394     4383     4251     3962 
    3592     3250     3067     3110     3307     3537     3692     3766 
    3883     4091     4256     4261     4114     3902     3750     3728 
    3780     3824     3856     3935     4089     4306     4534     4708 
    4827     4865     4695     4338     3982     3735     3618     3596 
    3559     3514     3604     3843     4081     4180     4094     3858 
    3568     3353     3325     3484     3738     4010     4272     4480 
    4602     4618     4510     4307     4077     3852     3670     3588 
    3604     3620     3547     3404     3260     3163     3168     3272 
    3430     3643     3886     4097     4298     4517     4681     4688 
    4526     4268     4002     3774     3600     3500     3545     3750 
    4016     4210     4263     4167     4016     3933     3947     4004 
    4043     4054     4094     4197     4310     4396     4414     4288 
    4050     3836     3676     3505     3345     3310     3446     3654 
    3778     3781     3751     3727     3623     3407     3196     3087 
    3136     3397     3784     4036     4035     3889     3766     3778 
    3913     4093     4294     4471     4511     4387     4141     3862 
    3732     3867     4147     4405     4536     4479     4301     4147 
    4124     4214     4267     4178     4005     3807     3605     3483 
    3485     3589     3800     4125     4504     4842     5069     5136 
    5057     4942     4889     4873     4835     4747     4546     4176 
    3699     3229     2812     2501     2371     2403     2481     2551 
    2666     2940     3438     4060     4603     4912     4973     4857 
    4635     4352     4078     3982     4189     4545     4776     4746 
    4440     3916     3306     2754     2405     2355     2543     2816 
    3060     3180     3145     3061     3083     3256     3539     3897 
    4287     4594     4710     4653     4584     4706     5042     5397 
    5611     5566     5155     4509     3927     3613     3605     3794 
    4002     4066     3888     3487     2971     2467     2110     1985 
    2060     2208     2366     2627     3063     3576     4018     4342 
    4491     4426     4260     4175     4251     4417     4540     4560 
    4538     4554     4591     4526     4248     3742     3109     2513 
    2087     1838     1744     1852     2185     2636     3075     3480 
    3915     4405     4843     5058     4990     4746     4455     4197 
    4032     3983     4016     4089     4221     4410     4556     4592 
    4558     4483     4340     4124     3898     3731     3642     3588 
    3485     3345     3292     3383     3538     3611     3514     3343 
    3265     3325     3501     3805     4155     4364     4321     4155 
    4066     4041     3958     3827     3719     3622     3454     3171 
    2859     2716     2879     3312     3805     4158     4395     4580 
    4595     4337     3906     3474     3137     2947     2924     3117 
    3586     4199     4679     4903     4928     4869     4880     5027 
    5224     5387     5503     5563     5485     5115     4414     3603 
    2974     2687     2798     3253     3865     4445     4919     5266 
    5474     5548     5516     5398     5232     5017     4684     4217 
    3723     3369     3330     3657     4145     4504     4631     4587 
    4436     4251     4094     3923     3699     3504     3449     3615 
    3994     4398     4584     4410     3910     3314     2862     2652 
    2666     2833     3090     3380     3646     3797     3753     3615 
    3643     3955     4461     5019     5513     5840     6000     6115 
    6276     6413     6384     6130     5676     5055     4320     3576 
    2917     2409     2122     2114     2313     2548     2745     2984 
    3358     3869     4402     4808     4978     4857     4494     4078 
    3770     3592     3562     3736     4064     4390     4594     4606 
    4394     4032     3635     3303     3118     3069     3055     3026 
    3009     3029     3122     3319     3609     3951     4189     4104 
    3677     3169     2837     2799     3148     3892     4804     5528 
    5838     5755     5413     4926     4405     3954     3628     3458 
    3423     3454     3488     3451     3327     3244     3315     3469 
    3570     3609     3642     3726     3908     4180     4490     4801 
    5042     5086     4877     4463     4006     3707     3592     3553 
    3550     3608     3738     3909     4009     3951     3827     3788 
    3871     4063     4349     4687     5009     5240     5289     5100 
    4708     4147     3477     2940     2772     2910     3117     3288 
    3397     3318     2971     2540     2301     2327     2493     2690 
    2872     2891     2593     2157     1996     2338     3096     4093 
    5158     6091     6640     6648     6243     5748     5389     5177 
    5022     4935     5049     5367     5714     5938     5968     5737 
    5254     4623     3971     3454     3217     3237     3308     3227 
    3032     2920     2884     2712     2322     1771     1143      612 
     367      508     1030     1844     2851     3829     4388     4351 
    3996     3805     4089     4820     5678     6295     6523     6390 
    5965     5354     4666     4047     3616     3295     2916     2473 
    2081     1852     1854     2087     2550     3322     4374     5424 
    6205     6671     6862     6786     6443     5857     5119     4348 
    3597     2894     2301     1822     1328      658     -194     -940 
   -1140     -573      661     2277     3962     5516     6770     7516 
    7695     7493     7236     7165     7213     7107     6683     5956 
    5105     4388     3921     3647     3457     3246     2859     2180 
    1350      607       66     -225     -207      145      847     1833 
    2872     3662     4033     4089     4124     4371     4814     5231 
    5441     5506     5575     5661     5752     5976     6408     6852 
    7014     6762     6112     5098     3865     2791     2226     2191 
    2485     2957     3541     4156     4669     4922     4858     4525 
    3936     3103     2191     1463     1094     1132     1522     2131 
    2809     3457     4018     4365     4375     4164     4037     4193 
    4588     5039     5408     5688     5879     5846     5475     4885 
    4310     3813     3291     2704     2177     1875     1885     2214 
    2799     3512     4112     4430     4553     4612     4648     4712 
    4872     5115     5405     5709     5971     6204     6521     6901 
    7138     7028     6470     5547     4518     3564     2650     1790 
    1142      693      209     -481    -1266    -1821    -1898    -1437 
    -418     1220     3430     5861     7960     9358    10072    10282 
   10120     9744     9391     9150     8887     8471     7850     6930 
    5595     3881     2023      251    -1305    -2592    -3670    -4611 
   -5279    -5405    -4874    -3775    -2274     -567     1125     2574 
    3591     4199     4671     5300     6215     7381     8676     9883 
   10723    10913    10401     9585     8980     8769     8718     8395 
    7588     6516     5543     4830     4336     3958     3653     3464 
    3383     3277     3053     2791     2679     2814     3072     3138 
    2799     2158     1352      372     -580    -1069     -911     -306 
     440     1078     1520     1934     2571     3462     4441     5381 
    6238     6978     7516     7663     7271     6473     5580     4803 
    4284     4167     4433     4857     5112     4973     4572     4247 
    4122     4094     3971     3604     3014     2382     1915     1767 
    1989     2539     3292     4050     4623     4955     5097     5073 
    4845     4473     4198     4251     4621     5130     5620     5954 
    5960     5528     4719     3757     2925     2436     2361     2583 
    2874     3129     3469     3964     4421     4536     4195     3538 
    2786     2154     1788     1726     1933     2355     2905     3451 
    3913     4271     4533     4648     4529     4194     3782     3492 
    3601     4267     5235     5989     6122     5622     4874     4255 
    3850     3495     3003     2435     1995     1749     1661     1745 
    2026     2450     2906     3280     3524     3723     3973     4247 
    4510     4854     5441     6331     7318     8075     8436     8425 
    8097     7470     6575     5537     4558     3781     3299     3132 
    3153     3149     2976     2697     2477     2303     1999     1514 
    1021      789      978     1480     2000     2326     2504     2737 
    3164     3739     4294     4649     4722     4567     4287     3989 
    3805     3844     4131     4676     5509     6542     7443     7778 
    7383     6453     5239     3962     2860     2050     1530     1314 
    1404     1723     2150     2577     2929     3165     3352     3599 
    3931     4390     5034     5757     6405     6889     7055     6812 
    6291     5655     4962     4279     3709     3377     3375     3619 
    3839     3800     3492     3113     2829     2610     2401     2216 
    2004     1707     1345      973      665      508      562      896 
    1513     2300     3153     4036     4936     5863     6744     7381 
    7585     7321     6671     5751     4720     3773     2976     2326 
    1949     2018     2496     3183     3924     4653     5221     5420 
    5220     4796     4317     3828     3338     2965     2884     3092 
    3415     3709     3921     4041     4163     4415     4796     5147 
    5343     5418     5513     5728     6006     6166     6066     5645 
    4909     3937     2884     1919     1148      722      846     1532 
    2565     3696     4691     5367     5653     5575     5293     4984 
    4653     4241     3790     3430     3298     3491     4041     4818 
    5526     5937     6068     6096     6142     6130     5938     5552 
    5040     4515     4125     3927     3829     3673     3376     2987 
    2579     2200     1941     1887     2054     2389     2783     3202 
    3688     4190     4567     4773     4872     4882     4733     4433 
    4159     4047     4059     4090     4081     4095     4283     4698 
    5171     5404     5161     4482     3636     2856     2185     1607 
    1196     1057     1201     1536     2022     2717     3613     4533 
    5219     5526     5503     5314     5115     5004     5019     5144 
    5313     5420     5324     4907     4167     3221     2195     1196 
     359     -122     -112      279      716      904      834      770 
     927     1233     1568     1948     2392     2820     3160     3472 
    3905     4563     5422     6370     7253     7915     8203     8094 
    7774     7430     7080     6708     6295     5827     5362     4901 
    4355     3713     3067     2489     2046     1748     1486     1161 
     845      735     1073     1988     3318     4673     5741     6374 
    6547     6293     5714     5005     4384     4009     3954     4186 
    4513     4752     4882     4943     4936     4896     4827     4687 
    4437     4040     3495     2895     2412     2212     2386     2871 
    3477     4018     4396     4561     4542     4513     4676     5032 
    5312     5201     4611     3682     2658     1777     1233     1112 
    1371     1887     2533     3222     3893     4459     4872     5178 
    5351     5259     4841     4178     3468     2947     2771     2976 
    3474     4104     4720     5256     5679     5994     6230     6361 
    6312     6014     5387     4432     3364     2552     2236     2316 
    2494     2562     2531     2571     2826     3285     3805     4187 
    4294     4102     3659     3105     2646     2488     2779     3480 
    4345     5065     5391     5286     4857     4171     3391     2852 
    2786     3132     3650     4104     4342     4391     4396     4444 
    4527     4665     4900     5171     5297     5154     4773     4261 
    3735     3342     3181     3242     3488     3851     4166     4338 
    4440     4540     4602     4576     4453     4206     3797     3276 
    2749     2335     2201     2493     3184     4079     4953     5621 
    5953     5925     5684     5494     5520     5715     5894     5826 
    5440     4893     4388     4012     3730     3449     3118     2759 
    2459     2307     2277     2282     2288     2301     2295     2165 
    1900     1721     1891     2443     3130     3728     4272     4808 
    5204     5393     5435     5385     5332     5368     5459     5462 
    5327     5212     5310     5629     5984     6146     6014     5652 
    5186     4649     3998     3264     2579     2114     1983     2173 
    2571     3056     3527     3870     4002     3974     3919     3901 
    3906     3893     3847     3774     3620     3306     2852     2428 
