Origin Time       2026/01/15 07:13:00
Lat.              42.7
Long.             145.4
Depth. (km)       30
Mag.              5.7
Station Code      HKD087
Station Lat.      43.1502
Station Long.     143.8916
Station Height(m) 170
Record Time       2026/01/15 07:13:52
Sampling Freq(Hz) 100Hz
Duration Time(s)  60
Dir.              U-D
Scale Factor      7845(gal)/8223790
Max. Acc. (gal)   1.030
Last Correction   2026/01/15 07:13:53
Memo.             
[...]
   -2357    -2500    -2655    -2558    -2431    -2641    -2994    -3052 
   -2803    -2520    -2420    -2560    -2824    -2979    -2824    -2486 
   -2355    -2436    -2400    -2214    -2180    -2394    -2477    -2295 
   -2282    -2519    -2637    -2612    -2592    -2555    -2538    -2577 
   -2582    -2586    -2629    -2542    -2359    -2351    -2488    -2566 
   -2605    -2679    -2740    -2693    -2532    -2484    -2698    -2853 
   -2686    -2463    -2448    -2597    -2724    -2643    -2473    -2427 
   -2392    -2288    -2290    -2465    -2677    -2708    -2517    -2393 
   -2543    -2774    -2759    -2536    -2502    -2736    -2844    -2709 
   -2667    -2751    -2616    -2404    -2575    -2932    -2903    -2489 
   -2189    -2285    -2578    -2767    -2686    -2322    -1983    -2074 
   -2469    -2697    -2709    -2760    -2751    -2542    -2454    -2690 
   -2890    -2735    -2439    -2427    -2714    -2889    -2685    -2319 
   -2204    -2416    -2651    -2632    -2378    -2169    -2268    -2604 
   -2812    -2617    -2154    -1876    -2095    -2529    -2666    -2506 
   -2397    -2444    -2586    -2724    -2758    -2720    -2689    -2744 
   -2933    -3044    -2875    -2674    -2698    -2802    -2760    -2585 
   -2450    -2467    -2554    -2533    -2374    -2277    -2434    -2681 
   -2666    -2407    -2336    -2546    -2687    -2720    -2817    -2855 
   -2731    -2596    -2560    -2597    -2662    -2733    -2798    -2762 
   -2516    -2205    -2155    -2398    -2581    -2497    -2305    -2193 
   -2230    -2381    -2519    -2533    -2484    -2558    -2702    -2668 
   -2555    -2582    -2556    -2336    -2276    -2558    -2785    -2766 
   -2794    -2882    -2729    -2398    -2258    -2392    -2469    -2257 
   -2010    -2089    -2440    -2694    -2670    -2496    -2347    -2373 
   -2619    -2785    -2565    -2261    -2385    -2814    -3007    -2843 
   -2559    -2312    -2222    -2328    -2448    -2438    -2408    -2500 
   -2660    -2754    -2794    -2871    -2965    -2980    -2847    -2633 
   -2525    -2606    -2801    -2936    -2848    -2616    -2523    -2586 
   -2536    -2381    -2354    -2415    -2408    -2390    -2439    -2513 
   -2600    -2706    -2652    -2299    -2029    -2201    -2486    -2484 
   -2401    -2502    -2604    -2538    -2457    -2417    -2338    -2311 
   -2401    -2438    -2388    -2471    -2691    -2789    -2731    -2700 
   -2737    -2754    -2694    -2621    -2594    -2574    -2563    -2614 
   -2679    -2682    -2612    -2497    -2421    -2439    -2447    -2380 
   -2376    -2498    -2571    -2501    -2427    -2427    -2459    -2612 
   -2835    -2821    -2658    -2737    -2957    -2940    -2697    -2524 
   -2552    -2629    -2554    -2386    -2331    -2376    -2384    -2398 
   -2465    -2473    -2403    -2370    -2404    -2451    -2475    -2478 
   -2524    -2631    -2694    -2666    -2636    -2652    -2641    -2570 
   -2538    -2589    -2586    -2517    -2560    -2694    -2721    -2567 
   -2339    -2222    -2315    -2492    -2569    -2527    -2512    -2639 
   -2818    -2876    -2845    -2864    -2940    -3006    -3005    -2921 
   -2808    -2714    -2714    -2844    -2898    -2663    -2366    -2353 
   -2489    -2394    -2091    -1968    -2166    -2390    -2392    -2295 
   -2334    -2511    -2610    -2524    -2389    -2388    -2563    -2745 
   -2712    -2582    -2656    -2876    -2909    -2604    -2211    -2145 
   -2435    -2679    -2659    -2600    -2714    -2882    -2889    -2733 
   -2536    -2386    -2386    -2559    -2655    -2461    -2234    -2261 
   -2290    -2122    -2064    -2246    -2377    -2346    -2300    -2288 
   -2322    -2440    -2558    -2560    -2566    -2679    -2697    -2506 
   -2381    -2481    -2631    -2700    -2721    -2744    -2775    -2776 
   -2698    -2608    -2635    -2685    -2613    -2586    -2755    -2889 
   -2759    -2533    -2543    -2820    -3057    -3014    -2758    -2532 
   -2523    -2727    -2938    -2891    -2614    -2475    -2590    -2647 
   -2474    -2312    -2351    -2443    -2392    -2238    -2118    -2104 
   -2170    -2177    -2058    -1948    -1984    -2145    -2326    -2477 
   -2624    -2713    -2651    -2544    -2604    -2849    -3053    -2980 
   -2740    -2631    -2695    -2766    -2772    -2764    -2737    -2623 
   -2470    -2384    -2377    -2424    -2457    -2412    -2425    -2606 
   -2752    -2705    -2646    -2708    -2766    -2755    -2760    -2739 
   -2560    -2336    -2320    -2515    -2647    -2512    -2234    -2138 
   -2323    -2489    -2394    -2192    -2126    -2215    -2362    -2517 
   -2633    -2683    -2713    -2745    -2732    -2632    -2486    -2450 
   -2617    -2816    -2782    -2555    -2419    -2521    -2747    -2855 
   -2718    -2492    -2428    -2524    -2600    -2625    -2658    -2686 
   -2679    -2596    -2455    -2412    -2506    -2569    -2533    -2466 
   -2357    -2272    -2349    -2484    -2475    -2373    -2357    -2462 
   -2614    -2720    -2716    -2643    -2585    -2570    -2597    -2647 
   -2718    -2817    -2868    -2781    -2625    -2575    -2709    -2902 
   -2937    -2774    -2616    -2635    -2743    -2716    -2531    -2389 
   -2397    -2430    -2378    -2351    -2444    -2533    -2465    -2344 
   -2408    -2585    -2593    -2415    -2235    -2182    -2305    -2489 
   -2525    -2450    -2462    -2542    -2527    -2467    -2477    -2493 
   -2461    -2457    -2496    -2492    -2438    -2421    -2469    -2536 
   -2621    -2704    -2747    -2793    -2849    -2786    -2590    -2474 
   -2516    -2560    -2533    -2532    -2574    -2560    -2478    -2466 
   -2589    -2670    -2566    -2435    -2439    -2478    -2482    -2525 
   -2579    -2578    -2614    -2720    -2735    -2619    -2552    -2598 
   -2596    -2532    -2582    -2725    -2785    -2737    -2659    -2601 
   -2614    -2660    -2673    -2658    -2600    -2506    -2466    -2470 
   -2440    -2404    -2388    -2377    -2376    -2390    -2436    -2508 
   -2536    -2524    -2562    -2652    -2674    -2529    -2319    -2242 
   -2362    -2551    -2613    -2478    -2331    -2389    -2592    -2744 
   -2808    -2836    -2840    -2808    -2737    -2646    -2562    -2531 
   -2574    -2633    -2604    -2496    -2415    -2417    -2478    -2533 
   -2519    -2428    -2335    -2330    -2419    -2509    -2512    -2434 
   -2392    -2463    -2554    -2542    -2448    -2380    -2439    -2633 
   -2813    -2848    -2787    -2747    -2743    -2677    -2524    -2407 
   -2401    -2439    -2425    -2357    -2328    -2420    -2552    -2581 
   -2496    -2420    -2452    -2604    -2817    -2955    -2895    -2728 
   -2670    -2749    -2793    -2718    -2658    -2729    -2816    -2722 
   -2536    -2457    -2430    -2369    -2369    -2405    -2354    -2299 
   -2377    -2488    -2473    -2362    -2281    -2280    -2376    -2570 
   -2754    -2809    -2783    -2779    -2810    -2810    -2791    -2820 
   -2868    -2848    -2721    -2547    -2473    -2598    -2812    -2894 
   -2789    -2636    -2565    -2581    -2612    -2601    -2550    -2505 
   -2513    -2550    -2538    -2474    -2459    -2551    -2710    -2801 
   -2662    -2361    -2226    -2393    -2621    -2652    -2515    -2386 
   -2315    -2219    -2103    -2084    -2161    -2184    -2100    -2062 
   -2216    -2455    -2566    -2563    -2613    -2698    -2663    -2531 
   -2463    -2494    -2512    -2455    -2369    -2340    -2454    -2662 
   -2771    -2736    -2717    -2749    -2725    -2670    -2677    -2683 
   -2635    -2654    -2808    -2932    -2880    -2762    -2748    -2771 
   -2671    -2513    -2447    -2478    -2528    -2523    -2435    -2354 
   -2362    -2394    -2359    -2281    -2228    -2230    -2346    -2509 
   -2523    -2407    -2344    -2382    -2493    -2617    -2647    -2589 
   -2533    -2508    -2513    -2509    -2455    -2434    -2501    -2531 
   -2469    -2461    -2496    -2443    -2400    -2469    -2520    -2509 
   -2562    -2674    -2720    -2689    -2701    -2848    -3053    -3129 
   -2999    -2830    -2812    -2875    -2833    -2650    -2471    -2421 
   -2431    -2338    -2172    -2107    -2170    -2204    -2169    -2203 
   -2339    -2484    -2608    -2725    -2817    -2866    -2886    -2922 
   -2968    -2961    -2897    -2813    -2682    -2475    -2304    -2308 
   -2459    -2578    -2581    -2562    -2543    -2401    -2207    -2201 
   -2354    -2407    -2338    -2350    -2504    -2648    -2658    -2609 
   -2668    -2841    -2936    -2862    -2770    -2774    -2794    -2778 
   -2732    -2643    -2544    -2469    -2390    -2357    -2407    -2413 
   -2312    -2258    -2305    -2299    -2173    -2085    -2177    -2380 
   -2516    -2544    -2573    -2625    -2636    -2668    -2778    -2847 
   -2766    -2608    -2569    -2716    -2883    -2918    -2844    -2728 
   -2570    -2400    -2351    -2465    -2579    -2562    -2482    -2442 
   -2443    -2463    -2494    -2528    -2554    -2551    -2536    -2617 
   -2787    -2871    -2816    -2732    -2710    -2776    -2853    -2783 
   -2594    -2497    -2562    -2659    -2650    -2525    -2411    -2407 
   -2443    -2415    -2332    -2280    -2289    -2351    -2469    -2565 
   -2478    -2316    -2404    -2687    -2806    -2712    -2606    -2513 
   -2394    -2351    -2424    -2501    -2466    -2307    -2153    -2135 
   -2214    -2293    -2378    -2474    -2529    -2498    -2420    -2336 
   -2204    -2072    -2093    -2239    -2346    -2381    -2407    -2438 
   -2458    -2448    -2393    -2322    -2311    -2384    -2511    -2664 
   -2774    -2752    -2666    -2698    -2801    -2739    -2556    -2505 
   -2635    -2845    -3018    -3052    -3010    -2991    -2957    -2932 
   -2972    -2998    -2957    -2857    -2687    -2563    -2647    -2826 
   -2832    -2590    -2288    -2173    -2323    -2523    -2562    -2520 
   -2551    -2677    -2851    -2952    -2876    -2739    -2748    -2880 
   -2910    -2787    -2664    -2609    -2565    -2540    -2543    -2492 
   -2380    -2330    -2398    -2536    -2643    -2624    -2505    -2419 
   -2448    -2574    -2625    -2447    -2200    -2184    -2363    -2408 
   -2241    -2147    -2266    -2407    -2443    -2434    -2439    -2508 
   -2632    -2673    -2536    -2312    -2228    -2358    -2425    -2255 
   -2116    -2215    -2342    -2315    -2276    -2376    -2529    -2566 
   -2475    -2451    -2627    -2863    -2924    -2816    -2772    -2897 
   -3038    -3030    -2890    -2739    -2632    -2581    -2579    -2570 
   -2562    -2636    -2759    -2798    -2775    -2794    -2816    -2752 
   -2647    -2577    -2570    -2644    -2795    -2949    -2988    -2835 
   -2589    -2484    -2523    -2473    -2319    -2304    -2451    -2540 
   -2486    -2380    -2317    -2335    -2376    -2357    -2305    -2359 
   -2577    -2798    -2810    -2651    -2542    -2605    -2798    -2957 
   -2930    -2782    -2689    -2678    -2690    -2716    -2735    -2735 
   -2743    -2741    -2717    -2771    -2930    -3007    -2829    -2519 
   -2350    -2392    -2462    -2435    -2350    -2304    -2388    -2592 
   -2810    -2934    -2895    -2722    -2555    -2547    -2724    -2878 
   -2871    -2843    -2833    -2675    -2405    -2259    -2277    -2261 
   -2139    -2079    -2181    -2303    -2265    -2169    -2250    -2475 
   -2636    -2663    -2560    -2393    -2359    -2517    -2656    -2641 
   -2551    -2485    -2512    -2605    -2592    -2454    -2362    -2322 
   -2293    -2369    -2496    -2504    -2392    -2323    -2378    -2420 
   -2316    -2166    -2097    -2123    -2232    -2425    -2624    -2664 
   -2517    -2412    -2508    -2617    -2573    -2488    -2492    -2558 
   -2656    -2759    -2747    -2589    -2435    -2416    -2492    -2585 
   -2675    -2736    -2758    -2786    -2791    -2712    -2674    -2799 
   -2914    -2891    -2876    -2937    -2933    -2862    -2928    -3115 
   -3099    -2808    -2547    -2486    -2511    -2528    -2516    -2434 
   -2268    -2099    -2099    -2284    -2431    -2431    -2435    -2482 
   -2447    -2353    -2307    -2261    -2195    -2178    -2153    -2104 
   -2169    -2285    -2268    -2189    -2207    -2253    -2234    -2249 
   -2381    -2551    -2673    -2708    -2617    -2484    -2467    -2571 
   -2654    -2609    -2474    -2465    -2670    -2820    -2698    -2494 
   -2498    -2708    -2849    -2759    -2620    -2686    -2906    -3046 
   -3014    -2899    -2806    -2770    -2813    -2837    -2660    -2357 
   -2165    -2084    -2006    -1984    -2074    -2223    -2343    -2355 
   -2269    -2232    -2327    -2420    -2388    -2419    -2747    -3132 
   -3163    -2951    -2951    -3213    -3350    -3160    -2857    -2687 
   -2677    -2743    -2760    -2660    -2555    -2575    -2614    -2509 
   -2326    -2227    -2188    -2123    -2072    -2072    -2080    -2107 
   -2247    -2466    -2616    -2721    -2884    -2968    -2841    -2674 
   -2637    -2683    -2697    -2621    -2544    -2592    -2651    -2542 
   -2374    -2344    -2377    -2299    -2115    -1954    -1915    -2035 
   -2262    -2431    -2479    -2550    -2695    -2776    -2721    -2621 
   -2613    -2706    -2813    -2890    -2903    -2806    -2690    -2610 
   -2430    -2143    -1950    -1939    -2018    -2111    -2234    -2393 
   -2547    -2648    -2717    -2786    -2801    -2752    -2802    -3014 
   -3227    -3303    -3265    -3191    -3082    -2868    -2550    -2254 
   -2096    -2070    -2135    -2208    -2103    -1834    -1756    -2027 
   -2296    -2296    -2258    -2432    -2702    -2898    -3046    -3211 
   -3330    -3323    -3287    -3385    -3570    -3632    -3500    -3280 
   -3109    -3011    -2889    -2656    -2367    -2158    -2149    -2282 
   -2303    -2079    -1842    -1879    -2085    -2212    -2292    -2416 
   -2481    -2461    -2528    -2694    -2737    -2602    -2498    -2490 
   -2440    -2323    -2219    -2177    -2222    -2257    -2149    -1968 
   -1933    -2128    -2420    -2597    -2590    -2513    -2531    -2658 
   -2728    -2639    -2478    -2330    -2192    -2110    -2168    -2330 
   -2465    -2509    -2484    -2430    -2365    -2257    -2124    -2114 
   -2319    -2593    -2752    -2809    -2822    -2829    -2837    -2803 
   -2793    -2906    -3007    -2959    -2907    -3006    -3165    -3200 
   -3036    -2762    -2504    -2276    -2101    -2065    -2127    -2184 
   -2277    -2481    -2694    -2733    -2594    -2479    -2533    -2668 
   -2736    -2710    -2625    -2582    -2673    -2839    -2947    -2909 
   -2721    -2513    -2444    -2502    -2567    -2586    -2582    -2616 
   -2709    -2762    -2685    -2512    -2367    -2370    -2459    -2431 
   -2249    -2103    -2093    -2170    -2273    -2357    -2425    -2535 
   -2632    -2632    -2616    -2682    -2755    -2725    -2663    -2681 
   -2695    -2547    -2276    -2045    -1941    -1971    -2100    -2227 
   -2305    -2438    -2639    -2690    -2551    -2546    -2847    -3226 
   -3429    -3410    -3303    -3273    -3319    -3260    -3040    -2851 
   -2783    -2660    -2385    -2093    -1958    -2012    -2115    -2189 
   -2350    -2583    -2675    -2566    -2407    -2331    -2369    -2458 
   -2492    -2506    -2606    -2663    -2498    -2257    -2219    -2438 
   -2744    -2944    -2925    -2718    -2520    -2466    -2497    -2542 
   -2567    -2567    -2650    -2848    -2934    -2751    -2529    -2539 
   -2655    -2617    -2482    -2490    -2614    -2633    -2529    -2448 
   -2428    -2396    -2297    -2182    -2178    -2320    -2502    -2624 
   -2663    -2646    -2631    -2705    -2860    -2991    -3029    -2991 
   -2897    -2754    -2596    -2420    -2272    -2266    -2361    -2370 
   -2288    -2239    -2177    -2006    -1844    -1831    -1919    -2031 
   -2177    -2330    -2428    -2457    -2439    -2412    -2411    -2493 
   -2716    -2979    -3049    -2910    -2797    -2826    -2932    -3036 
   -3068    -3025    -3002    -3013    -2961    -2837    -2790    -2914 
   -3011    -2880    -2662    -2570    -2590    -2612    -2581    -2508 
   -2409    -2317    -2331    -2454    -2532    -2473    -2369    -2335 
   -2366    -2401    -2396    -2331    -2246    -2243    -2374    -2543 
   -2606    -2586    -2602    -2650    -2637    -2544    -2461    -2501 
   -2632    -2709    -2670    -2563    -2498    -2551    -2643    -2633 
   -2554    -2565    -2663    -2702    -2641    -2558    -2517    -2508 
   -2478    -2515    -2662    -2687    -2478    -2312    -2370    -2447 
   -2371    -2282    -2371    -2598    -2778    -2836    -2830    -2801 
   -2791    -2852    -2894    -2806    -2670    -2598    -2536    -2409 
   -2285    -2272    -2343    -2412    -2486    -2587    -2620    -2571 
   -2571    -2635    -2658    -2613    -2543    -2500    -2505    -2547 
   -2656    -2882    -3091    -3040    -2728    -2405    -2276    -2297 
   -2308    -2290    -2349    -2463    -2555    -2621    -2616    -2477 
   -2332    -2347    -2423    -2400    -2346    -2392    -2505    -2548 
   -2427    -2181    -1971    -1956    -2104    -2201    -2204    -2288 
   -2459    -2531    -2454    -2386    -2458    -2625    -2766    -2840 
   -2855    -2814    -2781    -2824    -2891    -2876    -2822    -2876 
   -3001    -3014    -2893    -2752    -2644    -2548    -2459    -2413 
   -2428    -2465    -2481    -2482    -2490    -2470    -2405    -2353 
   -2371    -2431    -2454    -2430    -2396    -2380    -2417    -2470 
   -2397    -2187    -2052    -2106    -2228    -2315    -2354    -2359 
   -2365    -2373    -2408    -2529    -2713    -2890    -3038    -3111 
   -3115    -3153    -3230    -3252    -3160    -2984    -2872    -2901 
   -2901    -2722    -2465    -2255    -2096    -1971    -1902    -1942 
   -2130    -2347    -2469    -2570    -2762    -2961    -2995    -2891 
   -2826    -2864    -2945    -2976    -2891    -2758    -2686    -2671 
   -2650    -2593    -2485    -2296    -2114    -2104    -2239    -2320 
   -2317    -2381    -2544    -2662    -2655    -2586    -2493    -2389 
   -2396    -2554    -2700    -2727    -2739    -2821    -2905    -2934 
   -2924    -2825    -2623    -2498    -2614    -2783    -2712    -2459 
   -2332    -2390    -2400    -2235    -2015    -1895    -1871    -1840 
   -1800    -1829    -1937    -2064    -2172    -2265    -2324    -2313 
   -2261    -2185    -2038    -1888    -1921    -2139    -2370    -2519 
   -2625    -2752    -2911    -3060    -3144    -3145    -3110    -3130 
   -3223    -3246    -3094    -2922    -2921    -2974    -2876    -2697 
   -2659    -2790    -2876    -2791    -2635    -2544    -2543    -2551 
   -2488    -2397    -2354    -2316    -2243    -2201    -2242    -2293 
   -2254    -2205    -2292    -2444    -2505    -2502    -2585    -2781 
   -2975    -3057    -3014    -2880    -2697    -2535    -2440    -2378 
   -2311    -2289    -2316    -2315    -2273    -2236    -2214    -2189 
   -2218    -2370    -2544    -2577    -2544    -2609    -2713    -2745 
   -2722    -2675    -2624    -2619    -2646    -2631    -2594    -2586 
   -2569    -2528    -2551    -2671    -2789    -2797    -2725    -2697 
   -2756    -2859    -2924    -2891    -2803    -2770    -2810    -2841 
   -2830    -2833    -2826    -2759    -2679    -2664    -2681    -2643 
   -2602    -2633    -2654    -2592    -2533    -2555    -2605    -2608 
   -2594    -2579    -2517    -2481    -2592    -2767    -2802    -2658 
   -2511    -2515    -2582    -2523    -2330    -2169    -2149    -2223 
