Origin Time       2026/01/15 07:13:00
Lat.              42.7
Long.             145.4
Depth. (km)       30
Mag.              5.7
Station Code      HKD069
Station Lat.      43.3941
Station Long.     145.1168
Station Height(m) 25
Record Time       2026/01/15 07:13:40
Sampling Freq(Hz) 100Hz
Duration Time(s)  115
Dir.              N-S
Scale Factor      7845(gal)/8223790
Max. Acc. (gal)   6.281
Last Correction   2026/01/15 07:13:40
Memo.             
[...]
   -3295    -3225    -3238    -3237    -3105    -2952    -3040    -3342 
   -3427    -3110    -2889    -3186    -3599    -3553    -3177    -3005 
   -3206    -3438    -3396    -3248    -3269    -3400    -3439    -3342 
   -3198    -3092    -3102    -3242    -3408    -3480    -3451    -3373 
   -3249    -3051    -2862    -2879    -3117    -3334    -3412    -3419 
   -3379    -3370    -3484    -3514    -3277    -3088    -3192    -3265 
   -3091    -3021    -3300    -3620    -3630    -3415    -3223    -3111 
   -3095    -3219    -3361    -3349    -3181    -3014    -3057    -3283 
   -3307    -3095    -3140    -3504    -3647    -3383    -3099    -3086 
   -3246    -3357    -3348    -3352    -3470    -3550    -3380    -3100 
   -3075    -3258    -3273    -3133    -3134    -3253    -3288    -3237 
   -3163    -3096    -3083    -3134    -3229    -3273    -3132    -2924 
   -3030    -3424    -3520    -3084    -2666    -2752    -3057    -3115 
   -3082    -3241    -3358    -3210    -3096    -3246    -3315    -3075 
   -2960    -3234    -3364    -3044    -2867    -3190    -3505    -3474 
   -3380    -3368    -3253    -3129    -3238    -3354    -3140    -2859 
   -2921    -3145    -3208    -3191    -3202    -3163    -3029    -2893 
   -2895    -2997    -3036    -3137    -3497    -3858    -3808    -3377 
   -2960    -2867    -3037    -3230    -3334    -3356    -3334    -3364 
   -3464    -3484    -3294    -2997    -2793    -2737    -2795    -2988 
   -3219    -3279    -3240    -3306    -3318    -3088    -2889    -3024 
   -3343    -3546    -3538    -3388    -3207    -3107    -3149    -3295 
   -3465    -3550    -3451    -3315    -3372    -3515    -3488    -3343 
   -3244    -3154    -3079    -3129    -3221    -3146    -2910    -2737 
   -2843    -3218    -3586    -3658    -3483    -3279    -3037    -2736 
   -2648    -2878    -3021    -2830    -2786    -3279    -3790    -3699 
   -3341    -3353    -3532    -3342    -2992    -3030    -3319    -3400 
   -3356    -3418    -3385    -3125    -2879    -2844    -3002    -3296 
   -3632    -3773    -3530    -3163    -3029    -2988    -2795    -2574 
   -2488    -2574    -2911    -3481    -3910    -3827    -3542    -3630 
   -3932    -3920    -3604    -3256    -2956    -2847    -3028    -3253 
   -3302    -3275    -3279    -3285    -3312    -3387    -3453    -3454 
   -3341    -3038    -2646    -2474    -2662    -3013    -3215    -3096 
   -2886    -2995    -3366    -3539    -3402    -3262    -3257    -3230 
   -3134    -3096    -3215    -3478    -3678    -3573    -3319    -3214 
   -3202    -3258    -3554    -3915    -3936    -3670    -3427    -3215 
   -3024    -3092    -3357    -3300    -2799    -2492    -2825    -3361 
   -3501    -3308    -3076    -2822    -2674    -2862    -3145    -3090 
   -2853    -2922    -3258    -3416    -3285    -3132    -3217    -3545 
   -3824    -3786    -3469    -3150    -3099    -3268    -3284    -3080 
   -3094    -3412    -3555    -3331    -3064    -3025    -3173    -3341 
   -3377    -3246    -3084    -3096    -3330    -3559    -3503    -3171 
   -2941    -3122    -3489    -3628    -3507    -3369    -3341    -3429 
   -3564    -3523    -3191    -2855    -2909    -3226    -3249    -2844 
   -2511    -2582    -2803    -2914    -3115    -3555    -3893    -3839 
   -3539    -3176    -2781    -2443    -2301    -2427    -2825    -3330 
   -3662    -3723    -3657    -3616    -3588    -3468    -3227    -3032 
   -3103    -3334    -3330    -3011    -2775    -2849    -2987    -3057 
   -3335    -3847    -4171    -4126    -3956    -3863    -3820    -3609 
   -3034    -2355    -2230    -2882    -3653    -3778    -3334    -2994 
   -3190    -3707    -3871    -3370    -2916    -3244    -3800    -3708 
   -3306    -3349    -3577    -3334    -2837    -2809    -3327    -3775 
   -3771    -3535    -3275    -2960    -2770    -2951    -3206    -3138 
   -3014    -3168    -3294    -3055    -2716    -2587    -2523    -2361 
   -2317    -2593    -3015    -3302    -3410    -3439    -3423    -3377 
   -3391    -3483    -3558    -3566    -3530    -3447    -3304    -3111 
   -2980    -3075    -3343    -3585    -3859    -4280    -4510    -4178 
   -3554    -3157    -3032    -2864    -2583    -2420    -2438    -2479 
   -2579    -2839    -2997    -2801    -2482    -2335    -2322    -2404 
   -2598    -2758    -2810    -2857    -2883    -2820    -2783    -2879 
   -3033    -3159    -3287    -3437    -3526    -3489    -3298    -3006 
   -2902    -3200    -3595    -3708    -3638    -3591    -3543    -3489 
   -3487    -3419    -3175    -2997    -3214    -3751    -4212    -4391 
   -4386    -4233    -3921    -3685    -3701    -3713    -3496    -3321 
   -3430    -3581    -3520    -3339    -3176    -3068    -2992    -2825 
   -2542    -2412    -2664    -3030    -3026    -2713    -2654    -3019 
   -3335    -3214    -2868    -2786    -3176    -3831    -4333    -4396 
   -4039    -3549    -3268    -3235    -3241    -3283    -3489    -3681 
   -3605    -3416    -3406    -3532    -3634    -3754    -3847    -3623 
   -3069    -2668    -2660    -2725    -2732    -2959    -3321    -3360 
   -3060    -2864    -2997    -3223    -3269    -3146    -2911    -2474 
   -1972    -1946    -2677    -3638    -4064    -3874    -3586    -3519 
   -3568    -3619    -3700    -3755    -3631    -3323    -3090    -3159 
   -3352    -3308    -3094    -3025    -3072    -3003    -2871    -2776 
   -2558    -2289    -2423    -2903    -3102    -2961    -3067    -3438 
   -3555    -3376    -3316    -3539    -3831    -3947    -3920    -3916 
   -3892    -3684    -3315    -2963    -2810    -2983    -3387    -3638 
   -3416    -2925    -2673    -2702    -2631    -2466    -2627    -3115 
   -3451    -3458    -3416    -3404    -3179    -2880    -3024    -3528 
   -3732    -3504    -3353    -3441    -3449    -3269    -3157    -3276 
   -3515    -3703    -3812    -3879    -3886    -3840    -3848    -3946 
   -3955    -3653    -3150    -2855    -2921    -3079    -3082    -2883 
   -2629    -2671    -3067    -3334    -3172    -2805    -2416    -2064 
   -2039    -2509    -3105    -3414    -3418    -3235    -3002    -2964 
   -3208    -3474    -3527    -3423    -3388    -3547    -3794    -3878 
   -3676    -3345    -3142    -3142    -3268    -3383    -3312    -3046 
   -2806    -2722    -2694    -2627    -2556    -2596    -2840    -3180 
   -3356    -3356    -3350    -3303    -3084    -2799    -2677    -2813 
   -3096    -3335    -3468    -3573    -3707    -3867    -4051    -4110 
   -3825    -3329    -3026    -2986    -3036    -3226    -3507    -3642 
   -3712    -3874    -3885    -3531    -3072    -2855    -2894    -3025 
   -3123    -3056    -2743    -2393    -2295    -2428    -2589    -2695 
   -2866    -3241    -3730    -4043    -3955    -3507    -3015    -2860 
   -3129    -3476    -3570    -3476    -3402    -3411    -3423    -3318 
   -3110    -2991    -3040    -3130    -3257    -3500    -3751    -3844 
   -3743    -3437    -2972    -2596    -2485    -2533    -2666    -2956 
   -3375    -3804    -4225    -4530    -4453    -3989    -3474    -3106 
   -2878    -2871    -3052    -3150    -3121    -3192    -3397    -3480 
   -3321    -3219    -3439    -3738    -3709    -3368    -2987    -2668 
   -2477    -2570    -2849    -3033    -3119    -3261    -3376    -3335 
   -3231    -3136    -3033    -3071    -3397    -3811    -3944    -3719 
   -3416    -3213    -2917    -2523    -2448    -2813    -3238    -3523 
   -3769    -3878    -3632    -3207    -3006    -3025    -2938    -2794 
   -2938    -3329    -3624    -3651    -3407    -3030    -2801    -2868 
   -3094    -3233    -3199    -3226    -3547    -3996    -4191    -4018 
   -3662    -3319    -3033    -2774    -2587    -2594    -2833    -3180 
   -3491    -3658    -3605    -3408    -3316    -3392    -3410    -3387 
   -3681    -4198    -4348    -3931    -3246    -2527    -1935    -1784 
   -2212    -2907    -3429    -3650    -3724    -3692    -3483    -3215 
   -3123    -3256    -3446    -3484    -3265    -2860    -2513    -2475 
   -2694    -2906    -3159    -3734    -4518    -5049    -5098    -4774 
   -4280    -3898    -3832    -3958    -4012    -3867    -3464    -2793 
   -2084    -1645    -1459    -1358    -1374    -1557    -1864    -2407 
   -3208    -3738    -3396    -2446    -1603    -1003     -506     -421 
    -895    -1449    -1749    -2077    -2755    -3599    -4155    -4172 
   -3746    -3225    -2984    -3030    -2941    -2513    -2157    -2263 
   -2674    -3052    -3210    -3040    -2635    -2346    -2358    -2570 
   -2943    -3503    -4044    -4275    -4198    -4033    -3893    -3692 
   -3296    -2720    -2185    -1979    -2173    -2608    -3141    -3589 
   -3703    -3508    -3284    -3119    -2894    -2654    -2621    -2879 
   -3187    -3272    -3211    -3285    -3559    -3861    -4021    -3912 
   -3373    -2466    -1599     -992     -402      238      569      325 
    -383    -1224    -1887    -2465    -3315    -4391    -5219    -5630 
   -5872    -5953    -5540    -4507    -3159    -1988    -1486    -1915 
   -3038    -4332    -5494    -6415    -6778    -6411    -5817    -5522 
   -5224    -4382    -3106    -1772     -413      877     1533     1131 
    -186    -2164    -4538    -6579    -7480    -7345    -6991    -6821 
   -6554    -5877    -4718    -3195    -1810    -1337    -2216    -4083 
   -5976    -7188    -7681    -7604    -6952    -5881    -4893    -4364 
   -4195    -4095    -3848    -3295    -2415    -1552    -1283    -1722 
   -2330    -2794    -3221    -3497    -3458    -3187    -2698    -1992 
   -1296     -704       24      954     1590     1196     -618    -3426 
   -5985    -7003    -6270    -4889    -4120    -4399    -5555    -7122 
   -8320    -8453    -7429    -5580    -3352    -1344     -360     -988 
   -3067    -5728    -7927    -8988    -8787    -7512    -5557    -3589 
   -2177    -1418    -1158    -1275    -1584    -1872    -2085    -2332 
   -2731    -3169    -3242    -2662    -1626     -612       41      183 
    -189     -892    -1667    -2192    -2169    -1750    -1602    -2273 
   -3618    -4846    -5209    -4603    -3501    -2517    -2155    -2670 
   -3821    -4926    -5402    -5270    -4972    -4650    -3975    -2822 
   -1699    -1183    -1170    -1173    -1189    -1541    -1984    -2020 
   -1884    -2110    -2506    -2562    -2380    -2513    -3299    -4560 
   -5664    -6068    -5853    -5398    -4700    -3538    -2160    -1291 
   -1374    -2092    -2713    -2752    -2257    -1559    -1051    -1125 
   -1846    -2803    -3549    -3939    -4159    -4449    -4723    -4719 
   -4356    -3743    -3167    -2982    -3213    -3715    -4552    -5583 
   -6222    -5958    -4681    -2812    -1201     -297      133      217 
    -209    -1138    -2349    -3370    -3636    -3082    -2269    -1819 
   -2029    -2859    -3894    -4438    -4008    -2809    -1586     -842 
    -459     -229     -436    -1495    -3285    -5151    -6272    -5991 
   -4206    -1713       28      -12    -1605    -3831    -5876    -7119 
   -7326    -6976    -6853    -7096    -7111    -6527    -5691    -5022 
   -4475    -3780    -2847    -1769     -676      199      484      -17 
   -1183    -2759    -4286    -5088    -4936    -4348    -3708    -2847 
   -1988    -1996    -3040    -4098    -4357    -4141    -4143    -4706 
   -5864    -7175    -7641    -6658    -4792    -2891    -1039      899 
    2484     3137     2702     1220    -1050    -3269    -4534    -4904 
   -5113    -5428    -5591    -5431    -4953    -4261    -3595    -3098 
   -2644    -2114    -1657    -1582    -1927    -2243    -2039    -1336 
    -693     -730    -1544    -2682    -3568    -3798    -3395    -3041 
   -3478    -4534    -5459    -6069    -6725    -7315    -7191    -6130 
   -4594    -3207    -2592    -3153    -4421    -5206    -4831    -3685 
   -2539    -1818    -1491    -1293    -1111    -1262    -2092    -3289 
   -3986    -3657    -2574    -1470    -1030    -1421    -2133    -2617 
   -2979    -3626    -4499    -5093    -5103    -4583    -3659    -2566 
   -1818    -1798    -2187    -2346    -2273    -2614    -3631    -4714 
   -5166    -5003    -4662    -4282    -3636    -2644    -1607     -935 
    -675     -535     -499    -1005    -2324    -4023    -5271    -5653 
   -5574    -5663    -5886    -5709    -4911    -3748    -2709    -2262 
   -2346    -2195    -1215      172      913      375    -1178    -2992 
   -4388    -5035    -5058    -4846    -4522    -3854    -2747    -1549 
    -834     -967    -1767    -2614    -2990    -2820    -2448    -2295 
   -2596    -3491    -4970    -6432    -6894    -5948    -4108    -2209 
    -846     -328     -708    -1686    -2878    -4187    -5405    -5817 
   -4818    -2756     -810       75      -56     -594    -1074    -1333 
   -1410    -1582    -2193    -3318    -4726    -6019    -6813    -7068 
   -7123    -7117    -6733    -5730    -4329    -3045    -2250    -1968 
   -2093    -2594    -3399    -4423    -5576    -6531    -6671    -5424 
   -2824      211     2342     2643     1236     -915    -2814    -3871 
   -4033    -3878    -4108    -4860    -5671    -6060    -5880    -5059 
   -3581    -1796     -148     1140     1838     1599      178    -2257 
   -4915    -6727    -7049    -6174    -5134    -4803    -5248    -5890 
   -6049    -5540    -4792    -4270    -3929    -3469    -2886    -2689 
   -3477    -5134    -6781    -7627    -7450    -6421    -5055    -4052 
   -3639    -3326    -2708    -2115    -2046    -2521    -3271    -4006 
   -4498    -4727    -4837    -4734    -3912    -2010      514     2602 
    3353     2501      596    -1282    -2432    -2965    -3173    -3041 
   -2643    -2389    -2587    -3163    -3959    -4870    -5560    -5560 
   -4815    -3723    -2662    -1894    -1625    -1784    -2065    -2340 
   -2712    -3194    -3651    -3990    -4240    -4444    -4463    -4124 
   -3599    -3268    -3177    -3076    -3005    -3280    -3985    -4905 
   -5736    -6157    -5937    -5077    -3902    -2899    -2303    -1983 
   -1906    -2284    -3115    -3881    -3921    -3082    -1773     -459 
     545      884      364     -670    -1607    -2230    -2771    -3395 
   -4086    -4797    -5287    -5259    -4835    -4386    -4079    -3964 
   -4029    -4002    -3480    -2494    -1633    -1394    -1722    -2353 
   -3172    -4045    -4656    -4558    -3499    -1809     -176      955 
    1559     1779     1652     1035     -124    -1571    -2997    -4216 
   -5050    -5385    -5440    -5678    -6250    -6856    -7152    -6949 
   -6230    -5262    -4527    -4334    -4575    -4918    -5206    -5433 
   -5382    -4739    -3628    -2623    -2118    -2056    -2187    -2371 
   -2641    -3072    -3763    -4850    -6193    -7192    -7308    -6615 
   -5687    -5116    -5054    -5062    -4546    -3348    -1877     -754 
    -251      -91       60      202      214      166      118     -160 
    -893    -1896    -2821    -3456    -3570    -2974    -1854     -727 
     -89     -232    -1138    -2455    -3766    -4911    -5863    -6372 
   -6183    -5544    -5054    -5020    -5113    -4706    -3599    -2334 
   -1629    -1745    -2597    -4054    -5788    -7101    -7234    -5942 
   -3688    -1428      -89       87     -399     -958    -1310    -1344 
    -990     -306      567     1397     1746     1166     -423    -2598 
   -4568    -5621    -5667    -5161    -4467    -3588    -2560    -1746 
   -1564    -2060    -2875    -3572    -3923    -3960    -3925    -4039 
   -4180    -4014    -3515    -3149    -3366    -4128    -5000    -5505 
   -5354    -4603    -3674    -3046    -2878    -3076    -3595    -4399 
   -5252    -5837    -5938    -5479    -4607    -3665    -2963    -2616 
   -2542    -2563    -2538    -2478    -2562    -2895    -3299    -3489 
   -3379    -3161    -3160    -3391    -3415    -2924    -2111    -1314 
    -633      -32      365      299     -342    -1372    -2494    -3411 
   -3808    -3555    -2928    -2405    -2211    -2239    -2396    -2755 
   -3469    -4603    -5949    -7049    -7487    -7175    -6330    -5289 
   -4413    -3971    -3950    -4108    -4356    -4770    -5185    -5359 
   -5408    -5566    -5829    -6104    -6373    -6598    -6643    -6332 
   -5624    -4671    -3676    -2828    -2301    -2170    -2344    -2716 
   -3281    -4029    -4700    -4865    -4383    -3577    -2837    -2367 
   -2174    -2058    -1800    -1352     -850     -614     -905    -1559 
   -2126    -2332    -2197    -1960    -1952    -2304    -2837    -3210 
   -3179    -2767    -2168    -1509     -864     -375     -216     -432 
    -811    -1011    -1015    -1189    -1772    -2563    -3102    -3080 
   -2582    -1925    -1351    -1067    -1275    -1993    -3072    -4275 
   -5275    -5854    -6149    -6457    -6860    -7152    -6998    -6196 
   -4874    -3451    -2367    -1821    -1764    -2155    -2968    -3890 
   -4348    -3982    -2956    -1821    -1111    -1005    -1352    -1877 
   -2317    -2513    -2506    -2525    -2704    -2952    -3262    -3805 
   -4491    -4896    -4866    -4820    -5201    -5902    -6471    -6581 
   -6046    -4822    -3241    -1914    -1212    -1067    -1239    -1483 
   -1617    -1667    -1904    -2565    -3516    -4338    -4752    -4837 
   -4800    -4679    -4415    -4032    -3576    -3102    -2724    -2558 
   -2539    -2479    -2385    -2481    -2851    -3343    -3824    -4167 
   -4206    -3924    -3458    -2874    -2095    -1158     -444     -461 
   -1366    -2857    -4483    -5823    -6481    -6158    -4847    -2903 
    -882      687     1374      939     -441    -2177    -3545    -4078 
   -3838    -3276    -2886    -2984    -3582    -4446    -5310    -5954 
   -6200    -6008    -5466    -4733    -3985    -3312    -2721    -2249 
   -1942    -1756    -1587    -1413    -1296    -1331    -1590    -2089 
   -2802    -3586    -4225    -4607    -4824    -5093    -5601    -6278 
   -6802    -6945    -6785    -6548    -6351    -6081    -5568    -4777 
   -3798    -2943    -2590    -2674    -2737    -2610    -2462    -2358 
   -2155    -1707    -1019     -314       18     -251     -918    -1525 
   -1753    -1532     -943     -252       63     -379    -1432    -2528 
   -3288    -3775    -4137    -4299    -4174    -3900    -3663    -3456 
   -3269    -3273    -3631    -4259    -4888    -5302    -5377    -4953 
   -3994    -2803    -1784    -1097     -693     -457     -329     -467 
   -1100    -2108    -2975    -3267    -3018    -2650    -2608    -3094 
   -3886    -4460    -4502    -4183    -3861    -3686    -3554    -3407 
   -3404    -3705    -4214    -4725    -5142    -5405    -5412    -5161 
   -4854    -4777    -5039    -5502    -5944    -6149    -5960    -5417 
   -4679    -3819    -2916    -2119    -1552    -1286    -1351    -1640 
   -1922    -2039    -2047    -2147    -2455    -2901    -3383    -3843 
   -4190    -4276    -4074    -3734    -3368    -2978    -2673    -2683 
   -3052    -3431    -3430    -3040    -2532    -2054    -1548     -977 
    -442      -31      241      310       60     -549    -1428    -2362 
   -3146    -3778    -4413    -5069    -5589    -5868    -5975    -6022 
   -6016    -5911    -5691    -5329    -4777    -4047    -3308    -2829 
   -2701    -2640    -2324    -1836    -1486    -1382    -1495    -1883 
   -2552    -3316    -4009    -4650    -5190    -5373    -5055    -4487 
   -4074    -3981    -4033    -3963    -3717    -3528    -3628    -3944 
   -4198    -4172    -3875    -3508    -3210    -2924    -2531    -1988 
