Origin Time       2026/01/15 07:13:00
Lat.              42.7
Long.             145.4
Depth. (km)       30
Mag.              5.7
Station Code      HKD055
Station Lat.      43.8244
Station Long.     144.1087
Station Height(m) 23
Record Time       2026/01/15 07:14:00
Sampling Freq(Hz) 100Hz
Duration Time(s)  60
Dir.              N-S
Scale Factor      7845(gal)/8223790
Max. Acc. (gal)   1.255
Last Correction   2026/01/15 07:14:02
Memo.             
[...]
  -18870   -18902   -18987   -19090   -19171   -19197   -19155   -19047 
  -18893   -18748   -18638   -18554   -18508   -18516   -18589   -18706 
  -18801   -18814   -18740   -18611   -18478   -18382   -18318   -18266 
  -18233   -18215   -18222   -18293   -18432   -18586   -18708   -18767 
  -18756   -18698   -18609   -18516   -18476   -18517   -18586   -18611 
  -18566   -18493   -18447   -18441   -18485   -18607   -18775   -18920 
  -18983   -18958   -18881   -18783   -18661   -18524   -18409   -18354 
  -18396   -18531   -18696   -18801   -18804   -18747   -18681   -18616 
  -18578   -18598   -18655   -18709   -18725   -18719   -18732   -18736 
  -18673   -18570   -18466   -18362   -18287   -18283   -18374   -18515 
  -18623   -18666   -18663   -18640   -18592   -18531   -18492   -18486 
  -18486   -18474   -18443   -18416   -18435   -18496   -18571   -18661 
  -18747   -18806   -18837   -18855   -18851   -18823   -18812   -18837 
  -18848   -18810   -18754   -18725   -18731   -18736   -18721   -18678 
  -18609   -18565   -18567   -18586   -18630   -18679   -18682   -18665 
  -18673   -18667   -18635   -18600   -18538   -18451   -18411   -18449 
  -18520   -18596   -18663   -18684   -18639   -18557   -18473   -18423 
  -18431   -18473   -18532   -18589   -18607   -18620   -18670   -18732 
  -18787   -18848   -18893   -18894   -18835   -18723   -18625   -18589 
  -18594   -18616   -18634   -18638   -18630   -18623   -18615   -18598 
  -18580   -18577   -18581   -18566   -18539   -18523   -18513   -18517 
  -18562   -18673   -18814   -18927   -18966   -18913   -18796   -18675 
  -18571   -18484   -18416   -18391   -18434   -18534   -18605   -18598 
  -18544   -18474   -18401   -18373   -18418   -18495   -18561   -18609 
  -18642   -18666   -18685   -18684   -18658   -18620   -18578   -18559 
  -18580   -18601   -18586   -18544   -18495   -18477   -18522   -18627 
  -18756   -18848   -18837   -18721   -18580   -18477   -18430   -18449 
  -18523   -18601   -18654   -18666   -18632   -18590   -18581   -18593 
  -18635   -18731   -18839   -18916   -18970   -19008   -19026   -19022 
  -18978   -18883   -18777   -18727   -18748   -18794   -18832   -18847 
  -18831   -18794   -18750   -18690   -18631   -18592   -18550   -18495 
  -18453   -18455   -18519   -18623   -18706   -18736   -18739   -18719 
  -18651   -18557   -18481   -18424   -18395   -18412   -18455   -18480 
  -18457   -18369   -18241   -18148   -18134   -18200   -18337   -18497 
  -18616   -18665   -18665   -18639   -18592   -18546   -18542   -18573 
  -18596   -18603   -18604   -18600   -18581   -18562   -18582   -18643 
  -18701   -18725   -18706   -18616   -18477   -18389   -18401   -18499 
  -18648   -18794   -18863   -18846   -18787   -18723   -18666   -18638 
  -18669   -18725   -18750   -18732   -18690   -18632   -18578   -18540 
  -18523   -18558   -18625   -18652   -18638   -18609   -18570   -18555 
  -18589   -18642   -18667   -18646   -18619   -18635   -18678   -18701 
  -18684   -18647   -18635   -18657   -18705   -18779   -18831   -18814 
  -18748   -18674   -18627   -18624   -18663   -18739   -18812   -18833 
  -18794   -18701   -18586   -18512   -18522   -18594   -18681   -18725 
  -18725   -18686   -18638   -18639   -18681   -18698   -18684   -18665 
  -18639   -18605   -18573   -18550   -18551   -18576   -18594   -18616 
  -18644   -18627   -18539   -18439   -18369   -18330   -18314   -18293 
  -18254   -18241   -18273   -18333   -18412   -18513   -18611   -18694 
  -18777   -18841   -18848   -18789   -18724   -18697   -18673   -18639 
  -18636   -18665   -18689   -18717   -18786   -18882   -18916   -18843 
  -18719   -18600   -18499   -18426   -18408   -18453   -18505   -18535 
  -18562   -18596   -18589   -18517   -18445   -18439   -18486   -18547 
  -18608   -18643   -18603   -18526   -18520   -18582   -18644   -18716 
  -18810   -18904   -18995   -19064   -19082   -19082   -19064   -18975 
  -18817   -18654   -18512   -18389   -18320   -18350   -18438   -18489 
  -18504   -18540   -18603   -18667   -18738   -18808   -18843   -18833 
  -18794   -18750   -18704   -18643   -18601   -18623   -18684   -18721 
  -18728   -18736   -18717   -18628   -18567   -18624   -18698   -18725 
  -18779   -18819   -18759   -18682   -18655   -18640   -18608   -18585 
  -18607   -18632   -18594   -18517   -18486   -18496   -18499   -18513 
  -18536   -18500   -18411   -18354   -18364   -18399   -18436   -18485 
  -18523   -18530   -18508   -18478   -18482   -18508   -18538   -18621 
  -18708   -18689   -18628   -18589   -18522   -18453   -18470   -18535 
  -18596   -18700   -18802   -18767   -18669   -18659   -18652   -18580 
  -18549   -18554   -18542   -18557   -18603   -18666   -18762   -18783 
  -18662   -18535   -18485   -18422   -18388   -18492   -18647   -18720 
  -18729   -18742   -18813   -18966   -19106   -19159   -19141   -19070 
  -18956   -18871   -18859   -18875   -18846   -18758   -18638   -18516 
  -18445   -18428   -18382   -18318   -18323   -18388   -18465   -18611 
  -18797   -18856   -18758   -18634   -18516   -18382   -18326   -18369 
  -18423   -18476   -18511   -18477   -18414   -18343   -18303   -18311 
  -18291   -18258   -18274   -18308   -18392   -18538   -18670   -18750 
  -18801   -18836   -18841   -18850   -18912   -18979   -18983   -18893 
  -18750   -18666   -18654   -18640   -18658   -18706   -18673   -18535 
  -18392   -18327   -18362   -18457   -18539   -18594   -18605   -18536 
  -18459   -18435   -18415   -18392   -18412   -18451   -18486   -18551 
  -18612   -18609   -18607   -18671   -18751   -18812   -18877   -18925 
  -18910   -18831   -18771   -18824   -18928   -18982   -18995   -19018 
  -19030   -18939   -18786   -18748   -18746   -18620   -18557   -18673 
  -18728   -18647   -18567   -18474   -18369   -18372   -18387   -18287 
  -18207   -18227   -18265   -18291   -18314   -18377   -18488   -18524 
  -18482   -18501   -18558   -18534   -18504   -18621   -18819   -18914 
  -18866   -18797   -18816   -18816   -18721   -18715   -18852   -18939 
  -18964   -19064   -19161   -19103   -18951   -18860   -18817   -18762 
  -18719   -18650   -18562   -18512   -18443   -18400   -18480   -18528 
  -18430   -18338   -18351   -18399   -18385   -18370   -18477   -18612 
  -18646   -18661   -18698   -18605   -18392   -18303   -18393   -18496 
  -18540   -18559   -18547   -18492   -18474   -18558   -18631   -18636 
  -18686   -18774   -18804   -18821   -18867   -18867   -18832   -18821 
  -18814   -18829   -18893   -18887   -18762   -18655   -18635   -18688 
  -18781   -18771   -18603   -18424   -18331   -18331   -18407   -18407 
  -18262   -18129   -18112   -18195   -18312   -18419   -18547   -18648 
  -18652   -18686   -18802   -18858   -18748   -18555   -18490   -18571 
  -18601   -18639   -18773   -18808   -18736   -18747   -18870   -19037 
  -19110   -19074   -19113   -19234   -19284   -19261   -19211   -19116 
  -18987   -18878   -18829   -18827   -18781   -18701   -18720   -18817 
  -18777   -18582   -18422   -18318   -18198   -18184   -18326   -18392 
  -18362   -18407   -18520   -18662   -18743   -18708   -18666   -18644 
  -18634   -18651   -18627   -18554   -18441   -18320   -18318   -18362 
  -18310   -18225   -18215   -18355   -18488   -18389   -18308   -18469 
  -18569   -18447   -18387   -18431   -18354   -18250   -18314   -18418 
  -18436   -18503   -18630   -18586   -18463   -18549   -18684   -18712 
  -18785   -18832   -18689   -18527   -18489   -18445   -18404   -18520 
  -18716   -18835   -18855   -18810   -18773   -18774   -18802   -18898 
  -18991   -18948   -18871   -18871   -18824   -18760   -18796   -18806 
  -18775   -18793   -18779   -18751   -18809   -18860   -18827   -18774 
  -18740   -18729   -18711   -18684   -18678   -18593   -18381   -18239 
  -18300   -18427   -18493   -18512   -18482   -18369   -18270   -18368 
  -18535   -18503   -18428   -18443   -18293   -18073   -18080   -18122 
  -18026   -17975   -18064   -18241   -18353   -18320   -18311   -18419 
  -18530   -18534   -18472   -18476   -18526   -18557   -18546   -18534 
  -18643   -18690   -18598   -18630   -18673   -18646   -18697   -18616 
  -18378   -18257   -18202   -18075   -18009   -18084   -18092   -18019 
  -18067   -18231   -18435   -18590   -18666   -18733   -18765   -18744 
  -18790   -18866   -18797   -18652   -18657   -18732   -18765   -18808 
  -18839   -18886   -18985   -19130   -19404   -19669   -19735   -19715 
  -19761   -19808   -19696   -19530   -19442   -19300   -19191   -19267 
  -19360   -19388   -19399   -19342   -19261   -19259   -19317   -19352 
  -19341   -19294   -19156   -18935   -18725   -18553   -18478   -18523 
  -18520   -18411   -18315   -18345   -18513   -18720   -18841   -18786 
  -18547   -18261   -18076   -18077   -18150   -18117   -17988   -17794 
  -17633   -17641   -17714   -17813   -17961   -18021   -18050   -18204 
  -18411   -18569   -18661   -18669   -18593   -18469   -18368   -18323 
  -18235   -18037   -17883   -17865   -17879   -17910   -17998   -18058 
  -18106   -18212   -18242   -18173   -18177   -18250   -18270   -18218 
  -18157   -18145   -18196   -18256   -18318   -18447   -18597   -18716 
  -18854   -18986   -19113   -19273   -19360   -19326   -19354   -19511 
  -19618   -19597   -19523   -19414   -19283   -19213   -19214   -19209 
  -19144   -19024   -18900   -18773   -18663   -18643   -18647   -18634 
  -18675   -18742   -18798   -18870   -18932   -18975   -18997   -19012 
  -19086   -19188   -19241   -19218   -19102   -18947   -18843   -18748 
  -18597   -18418   -18239   -18068   -17915   -17805   -17747   -17728 
  -17733   -17778   -17899   -18114   -18369   -18589   -18796   -19028 
  -19230   -19352   -19399   -19410   -19376   -19279   -19161   -19060 
  -19021   -19084   -19213   -19349   -19418   -19368   -19252   -19109 
  -19001   -18997   -19082   -19190   -19287   -19371   -19394   -19302 
  -19107   -18804   -18461   -18220   -18071   -17940   -17852   -17813 
  -17802   -17772   -17683   -17644   -17771   -17949   -18117   -18347 
  -18532   -18594   -18615   -18546   -18351   -18083   -17776   -17560 
  -17494   -17517   -17653   -17875   -18083   -18270   -18473   -18684 
  -18796   -18775   -18787   -18810   -18735   -18646   -18538   -18349 
  -18162   -17994   -17790   -17670   -17706   -17767   -17910   -18210 
  -18430   -18531   -18617   -18593   -18542   -18561   -18543   -18535 
  -18573   -18582   -18659   -18866   -19060   -19198   -19325   -19411 
  -19483   -19576   -19572   -19434   -19217   -18906   -18654   -18608 
  -18673   -18798   -18972   -19068   -19086   -19114   -19174   -19294 
  -19444   -19521   -19525   -19494   -19380   -19187   -18964   -18686 
  -18373   -18094   -17876   -17755   -17739   -17851   -18064   -18206 
  -18287   -18427   -18523   -18555   -18666   -18787   -18774   -18657 
  -18493   -18327   -18239   -18229   -18238   -18233   -18220   -18301 
  -18477   -18646   -18804   -18929   -18951   -18954   -19028   -19113 
  -19126   -19076   -19002   -18905   -18829   -18812   -18777   -18673 
  -18555   -18455   -18341   -18214   -18146   -18156   -18202   -18256 
  -18335   -18465   -18551   -18561   -18590   -18631   -18574   -18474 
  -18424   -18354   -18258   -18225   -18181   -18091   -18040   -18011 
  -17948   -17944   -18036   -18112   -18117   -18081   -18104   -18219 
  -18315   -18388   -18472   -18493   -18495   -18577   -18693   -18766 
  -18785   -18787   -18808   -18824   -18906   -19074   -19178   -19178 
  -19141   -19074   -19003   -18990   -19044   -19168   -19344   -19491 
  -19600   -19683   -19681   -19612   -19530   -19350   -19045   -18783 
  -18635   -18516   -18446   -18430   -18381   -18295   -18193   -18090 
  -18069   -18153   -18237   -18303   -18404   -18520   -18631   -18727 
  -18771   -18770   -18751   -18756   -18805   -18814   -18774   -18767 
  -18686   -18470   -18291   -18192   -18084   -17988   -17942   -17896 
  -17815   -17761   -17820   -17980   -18171   -18387   -18652   -18901 
  -19056   -19153   -19230   -19252   -19214   -19147   -19022   -18841 
  -18682   -18589   -18538   -18492   -18443   -18438   -18463   -18532 
  -18736   -19032   -19269   -19421   -19537   -19622   -19660   -19662 
  -19647   -19592   -19437   -19148   -18802   -18486   -18208   -17986 
  -17830   -17722   -17651   -17614   -17604   -17606   -17651   -17767 
  -17913   -18083   -18306   -18538   -18717   -18827   -18864   -18885 
  -18972   -19079   -19128   -19174   -19240   -19260   -19232   -19209 
  -19152   -19041   -18940   -18810   -18613   -18462   -18401   -18331 
  -18225   -18154   -18114   -18013   -17892   -17887   -17992   -18156 
  -18423   -18743   -18952   -18997   -18917   -18736   -18539   -18418 
  -18381   -18422   -18484   -18550   -18659   -18805   -18959   -19090 
  -19155   -19144   -19122   -19164   -19261   -19345   -19350   -19272 
  -19145   -18995   -18854   -18748   -18663   -18597   -18632   -18767 
  -18905   -19012   -19079   -19055   -18935   -18778   -18621   -18489 
  -18399   -18320   -18207   -18072   -17964   -17890   -17801   -17658 
  -17502   -17398   -17370   -17420   -17568   -17821   -18137   -18481 
  -18840   -19133   -19291   -19371   -19421   -19438   -19453   -19457 
  -19407   -19303   -19171   -19071   -19074   -19153   -19211   -19226 
  -19233   -19228   -19184   -19111   -19028   -18931   -18809   -18677 
  -18553   -18459   -18393   -18345   -18323   -18346   -18397   -18439 
  -18453   -18397   -18243   -18037   -17821   -17617   -17462   -17369 
  -17317   -17307   -17369   -17539   -17802   -18096   -18378   -18625 
  -18821   -18947   -18993   -18990   -18954   -18862   -18709   -18531 
  -18393   -18297   -18220   -18191   -18212   -18280   -18415   -18589 
  -18754   -18891   -18958   -18920   -18817   -18698   -18578   -18457 
  -18360   -18310   -18311   -18364   -18442   -18515   -18577   -18616 
  -18638   -18674   -18715   -18727   -18713   -18665   -18601   -18598 
  -18674   -18742   -18751   -18750   -18775   -18827   -18900   -18975 
  -19030   -19041   -18998   -18959   -18985   -19053   -19080   -19016 
  -18909   -18840   -18836   -18900   -19012   -19099   -19126   -19140 
  -19161   -19199   -19242   -19251   -19215   -19144   -19060   -18999 
  -18921   -18773   -18603   -18476   -18401   -18392   -18403   -18385 
  -18341   -18241   -18084   -17940   -17861   -17864   -17940   -18049 
  -18150   -18234   -18306   -18362   -18407   -18453   -18485   -18492 
  -18507   -18522   -18499   -18434   -18322   -18204   -18146   -18149 
  -18227   -18374   -18511   -18601   -18658   -18677   -18690   -18724 
  -18743   -18735   -18716   -18686   -18657   -18640   -18628   -18625 
  -18650   -18671   -18677   -18702   -18751   -18809   -18887   -18941 
  -18936   -18920   -18901   -18854   -18794   -18725   -18644   -18596 
  -18577   -18563   -18588   -18663   -18769   -18883   -18968   -18999 
  -18993   -18967   -18954   -18960   -18964   -18958   -18955   -18978 
  -19012   -19001   -18925   -18824   -18743   -18686   -18632   -18559 
  -18469   -18382   -18318   -18291   -18319   -18420   -18588   -18769 
  -18913   -18986   -18967   -18900   -18833   -18789   -18783   -18810 
  -18833   -18833   -18786   -18667   -18484   -18287   -18145   -18080 
  -18072   -18115   -18196   -18281   -18364   -18430   -18473   -18508 
  -18550   -18608   -18669   -18701   -18704   -18692   -18642   -18561 
  -18481   -18399   -18295   -18183   -18075   -17987   -17945   -17946 
  -17986   -18050   -18133   -18237   -18366   -18542   -18743   -18913 
  -19006   -18997   -18914   -18817   -18735   -18669   -18601   -18534 
  -18489   -18484   -18497   -18503   -18493   -18463   -18392   -18311 
  -18284   -18319   -18397   -18509   -18616   -18693   -18771   -18866 
  -18941   -18981   -18990   -18972   -18925   -18859   -18798   -18747 
  -18709   -18690   -18667   -18634   -18617   -18635   -18685   -18765 
  -18875   -19022   -19192   -19359   -19502   -19596   -19619   -19592 
  -19533   -19442   -19336   -19230   -19117   -18967   -18775   -18571 
  -18380   -18214   -18092   -18026   -17999   -17988   -18007   -18064 
  -18111   -18110   -18091   -18098   -18142   -18218   -18306   -18384 
  -18432   -18466   -18507   -18536   -18530   -18492   -18438   -18376 
  -18303   -18230   -18188   -18198   -18234   -18285   -18373   -18481 
  -18588   -18693   -18777   -18828   -18846   -18836   -18835   -18873 
  -18939   -18997   -19026   -19056   -19080   -19055   -18959   -18831 
  -18728   -18709   -18778   -18871   -18939   -18986   -19003   -18971 
  -18909   -18847   -18794   -18775   -18800   -18844   -18882   -18873 
  -18802   -18700   -18586   -18480   -18400   -18349   -18300   -18246 
  -18212   -18208   -18219   -18247   -18292   -18334   -18382   -18472 
  -18598   -18732   -18848   -18936   -18995   -19035   -19064   -19091 
  -19097   -19063   -19021   -18985   -18940   -18897   -18864   -18821 
  -18775   -18739   -18693   -18615   -18515   -18428   -18377   -18355 
  -18343   -18335   -18331   -18315   -18293   -18276   -18272   -18289 
  -18342   -18426   -18520   -18631   -18742   -18797   -18792   -18777 
  -18762   -18762   -18796   -18847   -18870   -18843   -18797   -18769 
  -18744   -18729   -18738   -18750   -18758   -18756   -18731   -18702 
  -18674   -18619   -18567   -18549   -18540   -18538   -18501   -18387 
  -18222   -18038   -17864   -17757   -17739   -17786   -17905   -18076 
  -18243   -18382   -18504   -18640   -18801   -18955   -19060   -19103 
  -19102   -19066   -18979   -18846   -18693   -18576   -18538   -18567 
  -18605   -18627   -18643   -18623   -18542   -18465   -18451   -18481 
  -18517   -18550   -18569   -18570   -18578   -18601   -18643   -18713 
  -18793   -18868   -18929   -18929   -18860   -18755   -18639   -18547 
  -18496   -18481   -18493   -18500   -18482   -18458   -18436   -18427 
  -18430   -18430   -18418   -18366   -18256   -18118   -17982   -17868 
  -17809   -17805   -17841   -17921   -18038   -18168   -18296   -18411 
  -18509   -18609   -18717   -18843   -18997   -19157   -19294   -19375 
  -19399   -19390   -19364   -19354   -19369   -19375   -19380   -19372 
  -19291   -19136   -18944   -18733   -18536   -18391   -18315   -18307 
  -18337   -18378   -18428   -18482   -18543   -18623   -18713   -18790 
  -18827   -18832   -18824   -18794   -18746   -18713   -18690   -18647 
  -18588   -18520   -18463   -18446   -18455   -18474   -18523   -18611 
  -18706   -18787   -18852   -18916   -18968   -18998   -19009   -19005 
  -18993   -18976   -18944   -18908   -18859   -18756   -18596   -18400 
  -18189   -18007   -17896   -17867   -17890   -17899   -17874   -17855 
  -17880   -17949   -18056   -18195   -18346   -18477   -18597   -18738 
  -18894   -19041   -19174   -19265   -19298   -19284   -19230   -19149 
  -19057   -18948   -18820   -18665   -18490   -18327   -18204   -18135 
  -18111   -18129   -18187   -18279   -18403   -18557   -18700   -18775 
  -18802   -18847   -18929   -19018   -19089   -19117   -19066   -18936 
  -18767   -18608   -18492   -18427   -18395   -18388   -18419   -18477 
  -18542   -18603   -18651   -18678   -18686   -18684   -18685   -18717 
  -18775   -18820   -18825   -18798   -18752   -18704   -18661   -18628 
  -18603   -18576   -18546   -18535   -18542   -18532   -18488   -18428 
  -18369   -18310   -18262   -18252   -18280   -18319   -18351   -18387 
