Origin Time       2026/01/15 07:13:00
Lat.              42.7
Long.             145.4
Depth. (km)       30
Mag.              5.7
Station Code      HKD067
Station Lat.      43.5550
Station Long.     144.9726
Station Height(m) 30
Record Time       2026/01/15 07:13:45
Sampling Freq(Hz) 100Hz
Duration Time(s)  68
Dir.              U-D
Scale Factor      7845(gal)/8223790
Max. Acc. (gal)   4.299
Last Correction   2026/01/15 07:13:46
Memo.             
[...]
    2940     4639     5941     4411     2708     3188     4719     5036 
    3746     2866     3608     4419     4353     4525     4587     3688 
    3882     5973     6555     4032     1634     2010     3735     4384 
    3985     4464     5738     5221     3483     3535     4233     3492 
    3168     4275     4758     4160     4159     4592     3882     2863 
    3666     5474     5566     4028     3365     3848     3537     2646 
    3734     6527     6922     4206     3100     4688     4561     2386 
    2462     4878     5763     4476     3685     4437     5113     4155 
    2868     3407     4600     4889     5162     5178     4314     4132 
    4614     3885     2920     3643     5094     5705     4928     3138 
    2781     4711     5300     3307     2710     4845     5907     3780 
    1691     2987     5530     5518     3996     3959     4533     4044 
    3809     4068     3532     3724     5263     4708     2273     3122 
    6975     7724     4284     1921     3222     4946     4347     3507 
    4680     5624     4089     2743     4361     6559     5908     3483 
    2943     4854     5883     4390     3176     4116     4750     3335 
    2280     3565     5134     4897     4436     4962     4511     2803 
    2481     3973     5004     4348     3300     3767     5049     4990 
    3940     3890     4648     4367     3299     3202     3874     4229 
    4828     5800     5544     4144     3672     4236     4459     4503 
    4880     4757     3832     3514     4803     6168     5401     3295 
    2454     3296     4109     3979     3969     4664     4450     2948 
    2525     3958     5115     4644     3659     3842     4581     3796 
    2509     3663     5698     4816     2774     3855     6249     5167 
    2170     2519     5456     5765     3260     2570     4558     5370 
    3701     2668     3788     4588     3717     3090     4202     6014 
    6177     4280     2995     3832     5108     5266     4567     3893 
    3689     3713     3854     4742     6054     5799     3767     2662 
    3820     5190     4769     3489     3240     3792     3823     3420 
    3642     4608     5198     4675     3809     3642     4302     5188 
    5144     4008     3497     4082     4315     4518     5312     4854 
    2895     2365     3933     4649     3456     2960     4302     5432 
    5144     4253     3905     4342     4461     3820     3591     4114 
    4379     4079     3937     4293     4704     4542     3863     3704 
    4588     5421     4742     3084     2897     4868     6212     4642 
    2450     3199     5537     5564     3584     3219     5066     5737 
    3997     2978     4276     5371     4500     3396     3798     4739 
    4715     3877     3250     3520     4239     4361     4224     4621 
    4676     3832     3615     4610     5057     4467     4210     4222 
    3943     3916     3677     2724     2658     3688     3554     2470 
    2948     4903     5925     5116     4079     4402     5177     4706 
    3821     4075     4409     3711     3133     3257     3333     3555 
    4305     4463     3661     3836     5400     5572     3561     2417 
    3483     4626     4889     4974     4419     3200     3102     4513 
    5351     4591     3681     3744     4159     4170     4139     4708 
    5117     4509     4201     5067     5236     3883     3407     4781 
    5317     3910     3408     5027     5899     4681     4029     4907 
    4800     3669     3975     4938     4272     2836     2779     4153 
    5015     4220     3323     3869     4634     4302     3603     3356 
    3700     4537     4908     4072     3096     3241     4170     4791 
    4519     4112     4668     5470     5200     4342     4039     4365 
    4822     5085     4993     4541     3996     3851     4324     4810 
    4869     5092     5398     4826     4008     4117     4396     4156 
    4009     3780     3117     3061     3975     4671     4637     4271 
    4033     4490     5013     4104     2614     2743     3924     4082 
    3345     3391     4170     4112     3418     3474     4021     4226 
    3996     3468     3508     4457     4700     3780     3624     4598 
    5023     4845     5302     5737     4823     3861     4657     5616 
    4521     3025     3474     4581     4402     3678     3493     3366 
    3375     4307     5298     5104     4521     4733     4986     4320 
    3843     4371     4522     3873     4017     4942     4687     3350 
    3198     4306     4414     3343     3083     3820     4193     4032 
    3874     3981     4124     3792     3711     4666     5373     4761 
    3797     3670     4280     4688     4469     4303     4699     4623 
    3454     3037     4293     5393     5593     5227     3547     1432 
    1444     3269     4352     4303     4531     5104     4857     3797 
    3495     4488     4954     3989     3715     5089     5695     4657 
    4371     5332     5053     3235     2801     4500     5142     3496 
    2706     4039     4761     3585     2516     3335     5196     6089 
    5451     4216     3588     4193     5458     5908     4757     3384 
    3500     4305     4430     4291     4101     3601     3460     3704 
    3566     3519     4043     4382     4436     4278     3249     2497 
    3622     4972     4691     3991     4214     4668     4314     3642 
    3958     4661     3881     2582     3383     5228     4935     2987 
    2506     4016     5190     4868     4522     5158     5189     3705 
    2872     3935     4864     4384     3874     4371     5175     5165 
    4008     2623     2528     3954     5158     4958     4234     3717 
    3258     3450     4633     5401     4672     3321     2797     3381 
    3805     3478     3948     5313     4995     3381     4159     6573 
    6043     3024     2498     5020     5742     3430     2825     5374 
    6663     5196     4086     4174     3954     4078     5506     6189 
    4295     2382     3785     6305     5487     2968     3721     6574 
    6446     3732     2687     3605     3966     3582     3580     3821 
    3697     3350     3663     4742     5217     4469     3505     3152 
    3508     4253     4504     3904     3568     4178     4576     4252 
    4552     5409     4845     3326     3311     4320     4301     3889 
    4475     5128     4645     3910     4028     4295     3975     3709 
    3974     4199     3624     2736     2929     3852     4114     3927 
    3649     3545     4893     6350     4671     1844     2569     5641 
    6158     3840     3107     5292     6404     4276     1979     2443 
    4129     4067     3102     4202     6222     5375     2768     3022 
    5510     5324     2625     2241     4536     5447     4382     4139 
    5003     5059     3912     3090     4095     5837     5476     3389 
    3130     4966     5178     3285     2972     4942     5657     3530 
    1563     2373     4179     4571     4324     4596     4376     3376 
    3496     4807     4901     3786     3843     5158     5687     4777 
    3680     3549     4477     5524     5049     3094     2230     3692 
    5582     5748     4166     2894     3643     5007     4743     4090 
    4907     5332     4027     3327     4178     4719     4642     4526 
    3612     2860     4225     5451     3955     2971     5130     6822 
    5159     2794     2710     3811     3603     2412     2334     3441 
    4175     4268     4638     5375     5765     5853     5969     5576 
    4735     4340     4010     3142     2867     4041     5599     6286 
    5910     5213     5378     5903     4590     2223     2741     5950 
    6608     3484     1984     4521     5915     3021      881     3279 
    6043     5240     2926     2155     3103     3886     2864     1529 
    2760     5408     6061     4999     4536     5016     5281     4193 
    2610     2647     3689     3694     3265     3871     4656     4467 
    4444     5551     6174     4911     3303     3453     4675     4768 
    3508     2901     4175     5971     6089     4496     3388     3823 
    4280     3510     2532     2984     4684     5853     5489     4286 
    3499     3343     3144     3281     4155     4444     3773     3693 
    4203     3807     3057     3878     6065     7327     6274     3933 
    2457     2875     4033     4356     4233     4695     5125     4618 
    3661     3245     3869     4943     5227     5159     5556     4812 
    3088     3883     6471     5942     2732     2141     4788     6228 
    4965     3688     3820     4044     3240     2578     3694     5190 
    4816     3809     4159     4484     3109     2123     3790     5733 
    4757     2471     2272     3537     3627     3076     3811     4887 
    4633     3994     3947     3474     2756     3435     4762     4683 
    3670     3483     4623     6193     6092     3829     2945     5255 
    6246     3103     1102     4394     7813     5946     2454     2718 
    5115     5239     3091     2181     3488     4139     2675     1854 
    4275     7423     7152     4625     3863     4799     4592     3073 
    2637     3901     4604     3716     3661     5601     5999     3253 
    2288     5132     6218     3901     3716     6081     5637     3078 
    2955     4294     4545     4630     5409     6180     6043     4417 
    2542     2694     3969     3692     3007     4449     6412     5919 
    3885     3534     5248     6066     4214     2120     2990     5093 
    4394     1908     1576     3007     3431     3416     4600     5930 
    5994     5231     4611     4621     5274     5572     4128     1682 
     714     1591     2224     2466     4445     7005     6388     3558 
    3215     6052     7987     6381     3646     3457     4943     4652 
    2970     2770     3304     2112     1078     2995     5142     4461 
    3781     5379     6162     4567     3481     3762     3126     1902 
    2668     4644     4652     3032     2978     4974     6574     6640 
    6012     4954     3627     3213     3461     2980     2839     4297 
    5051     3747     3612     6068     7321     5763     4793     5458 
    4839     3003     3470     6254     7117     4498     1931     2289 
    4256     5463     5142     4070     3906     5097     5452     3227 
     907     2119     5506     6613     4846     3507     3985     4288 
    3134     2523     4895     8248     7493     2712      472     3442 
    5979     4071     1860     3379     5358     4054     2444     4222 
    6405     5125     3477     5385     7510     5467     2111     2614 
    5617     5746     3146     2697     4392     3804     1314     1613 
    4387     4540     2181     2620     5964     7105     5517     5281 
    6752     6286     3487     2482     4666     5945     3848     1327 
    1571     3685     4514     3346     2805     4203     5725     5814 
    4259     1914     1248     3056     4623     4588     4225     3546 
    2577     3168     5016     5649     5152     5066     5038     4760 
    4999     5074     3746     2088     2201     3901     4858     4172 
    3854     5105     5522     3753     3065     5228     6809     5629 
    3962     3565     3543     3032     2299     2605     4515     5260 
    3003     1732     3910     5194     3626     3159     4621     4839 
    3781     3689     4503     4853     4457     4060     4353     4749 
    4133     3534     4672     6147     6016     5324     4753     3580 
    3380     5371     6343     4432     3384     5358     7156     6608 
    5314     4837     4695     3611     1989     2108     3894     4066 
    2461     2705     4622     4868     3869     3665     3757     3761 
    4091     3609     1868     1787     4997     7568     6115     3426 
    2934     3742     3916     3427     3275     4083     5165     5445 
    5020     4437     3797     3499     4089     4629     3979     3527 
    4546     5202     3909     2304     2594     4058     4363     3458 
    3242     4121     4722     4380     3956     4383     5100     4483 
    2839     2979     5144     5536     3342     2871     5537     7072 
    5096     2752     2824     3904     4095     3794     4190     5590 
    6312     4446     1926     2205     4214     4484     3411     3654 
    4928     5518     5697     5981     5440     3631     2111     2853 
    4963     5363     3982     3304     3191     2277     1699     2560 
    3709     4588     5647     5902     4899     4585     5776     6575 
    5514     3770     3955     6372     7524     5273     3095     4178 
    5224     2957      981     2544     4224     3260     2299     3271 
    4379     4170     3667     4091     4695     4486     4432     5082 
    4954     4077     4391     5103     3983     2976     4383     4915 
    2344      943     2991     4607     4369     5287     7146     7099 
    5883     5767     6096     5485     4452     4020     4590     5517 
    5400     4352     3592     3060     2720     3478     4645     4361 
    3079     2187     1440     1305     2562     3395     2867     3276 
    4961     5208     3715     3190     4585     5814     5076     3377 
    3338     5366     6586     5572     4661     5108     5293     4791 
    4367     3299     1687     1630     3210     3763     2205      872 
    2239     5335     6862     5663     4095     4446     6093     6647 
    5562     5532     7291     6936     3551     2092     4214     5665 
    4608     3265     2662     2573     3061     3685     4290     5055 
    5217     4741     4873     5154     4649     4990     6593     6615 
    4495     2971     2763     2289     1698     2335     3568     3630 
    2813     3229     4812     4812     3078     3396     6862     8704 
    6061     3497     4711     5837     3773     2284     3869     5130 
    4094     3264     4256     5410     4630     2705     2619     4446 
    4768     3003     2039     2366     2378     2197     2695     3626 
    4328     4888     5841     6801     6712     5657     5038     5433 
    5408     3920     2790     3866     5171     3746     1104     1300 
    3788     4488     3361     3484     4688     4706     4064     4565 
    5262     4671     4159     5163     6300     6146     5624     5557 
    5162     3955     2516     1595     1829     3006     3819     3838 
    4112     4765     4545     3466     3304     4704     6068     6060 
    5208     4355     3638     3514     4407     5271     4818     3684 
    3339     3653     3730     3923     4455     4191     2911     2054 
    2257     2956     3874     4442     3815     3030     3755     4930 
    4807     4388     4642     4114     2936     3385     4468     3564 
    2543     4141     6137     5918     5493     6867     7870     6448 
    4545     4610     5799     6025     5215     4731     4943     4699 
    3636     3418     4610     4752     2641     1509     3515     5108 
    3391     1433     2246     3909     4036     3785     4781     5597 
    4491     3179     3969     5217     4251     2533     2924     4375 
    4232     3219     3846     5682     6030     4626     3990     4828 
    4958     3609     2826     3520     3989     3565     3797     5242 
    6330     5809     4557     4176     4525     4347     3523     2856 
    2708     2905     3005     2648     2339     3109     4592     4865 
    3739     3474     4677     5306     4530     3966     4453     4680 
    3932     3603     4858     6535     6736     5694     5000     4787 
    4151     3338     3453     4452     4803     3854     2959     3138 
    3730     3858     3705     3967     4514     4455     3694     3318 
    3931     4695     4661     4151     4197     4950     5557     5616 
    5292     4554     3624     3138     3010     2685     2596     3195 
    3878     4449     5206     5813     5636     4332     2658     2613 
    4600     5938     4824     3545     4557     5961     4981     2876 
    2231     2920     3433     2957     1975     2218     3951     4941 
    4743     5618     7600     7971     6083     4218     4014     4750 
    4662     3478     2983     3647     3584     2652     2913     4388 
    5084     4665     4406     4480     4062     3244     2817     2906 
    3053     3007     3002     3565     4788     5904     6022     5204 
    4375     4024     3838     3767     4027     4143     3780     3678 
    4122     4257     3956     4207     5211     5699     4776     3449 
    3261     4093     4592     4417     4391     4594     4263     3360 
    2690     2938     3847     4158     3480     3207     3842     4020 
    3596     4101     5489     6012     5386     4826     4816     5062 
    5390     5791     6039     5439     3905     3042     3856     4287 
    2509      834     1949     4171     4865     4820     5363     5400 
    4425     4097     4788     4990     4611     4776     5379     5422 
    4680     4125     4326     4268     3362     2945     3731     4411 
    4544     5062     5189     3762     2729     4033     5729     5606 
    4801     4842     4935     4086     3215     3512     4286     4202 
    3582     3554     3767     3030     1863     2093     3570     3889 
    2693     2698     4448     4997     3817     3881     5661     6397 
    5618     5618     6671     6642     5130     4218     4618     4287 
    2397     1277     2158     2990     2538     2245     2867     3395 
    3406     3576     4337     5170     5127     4306     3946     4483 
    4986     4623     3696     3272     3863     4710     4614     3634 
    3407     4726     6085     6060     5282     5020     5232     5039 
    4313     3559     3204     3632     4541     4768     3889     2795 
    2457     2951     3600     3971     4446     5119     5089     4411 
    4423     4729     4010     3518     4644     5680     5138     4163 
    3708     3562     3742     4068     4164     4278     4475     4472 
    4552     4735     4641     4642     4804     4401     4041     4931 
    6057     5767     4546     3748     3726     3902     3607     3312 
    3975     4741     4229     3310     3318     3547     3138     2976 
    3789     4472     3944     3024     2948     3281     3002     2735 
    3624     4892     4928     4079     4050     4671     4226     3248 
    3739     5074     5151     4290     4364     5501     6318     6331 
    6077     5772     5327     5246     5940     6226     4993     3732 
    3962     4287     3414     2612     2822     3199     3451     4194 
    4989     4727     3593     2829     2835     3034     3187     3473 
    3840     4018     3893     3693     3692     3740     3647     3761 
    4341     4827     4580     3979     4078     4978     5373     4525 
    3505     3592     4345     4141     2775     1999     2589     3387 
    3778     4286     4824     4745     4185     3821     3947     4328 
    4610     4986     5794     6334     5649     4338     4070     5027 
    5493     5015     5274     6062     5009     2801     2639     4309 
    4914     4249     4043     4149     3690     3234     3434     3871 
    3990     3921     4113     4314     3836     3114     3303     4118 
    4233     3744     3944     4905     5416     4989     4631     5314 
    6191     5636     4077     3792     5224     5998     5043     4318 
    4892     5181     4313     3589     3809     4251     4357     4260 
    4087     3809     3383     2893     2689     3034     3298     2664 
    1867     2245     3388     3869     3655     4056     5359     5996 
    4961     3757     4133     5147     5022     4359     4652     5470 
