Origin Time       2026/01/15 07:13:00
Lat.              42.7
Long.             145.4
Depth. (km)       30
Mag.              5.7
Station Code      HKD086
Station Lat.      42.8542
Station Long.     143.8579
Station Height(m) 9
Record Time       2026/01/15 07:13:37
Sampling Freq(Hz) 100Hz
Duration Time(s)  122
Dir.              E-W
Scale Factor      7845(gal)/8223790
Max. Acc. (gal)   8.891
Last Correction   2026/01/15 07:13:37
Memo.             
[...]
     928     1231     1499     1622     1560     1341     1000      634 
     438      577     1046     1692     2320     2743     2853     2675 
    2308     1873     1486     1204     1028      934      881      854 
     846      796      599      228     -216     -606     -868     -943 
    -749     -292      216      506      476      206     -140     -361 
    -306       17      479      930     1244     1318     1127      785 
     419       40     -290     -395     -237       40      321      556 
     697      781      939     1209     1456     1547     1463     1220 
     847      432       99      -43       86      518     1198     1983 
    2647     2936     2709     2061     1262      584      216      216 
     513      970     1439     1786     1984     2068     2056     1984 
    1864     1669     1456     1279     1043      619       62     -453 
    -815     -957     -812     -419       43      379      498      413 
     211       17     -110     -197     -264     -278     -139      189 
     560      766      729      527      310      222      398      851 
    1410     1887     2181     2220     1983     1563     1089      643 
     317      224      365      591      769      870      885      837 
     800      847     1009     1252     1459     1536     1509     1475 
    1480     1506     1557     1652     1782     1937     2069     2060 
    1813     1345      766      233     -121     -241     -163      -43 
     -55     -238     -510     -742     -795     -634     -406     -274 
    -257     -267     -217      -67      198      534      823     1009 
    1169     1341     1472     1541     1557     1503     1429     1449 
    1579     1710     1737     1580     1210      750      402      268 
     313      463      622      676      595      498      518      668 
     885     1117     1329     1486     1564     1526     1347     1094 
     932      961     1128     1329     1455     1377     1074      669 
     306       78       13        2      -93     -286     -479     -556 
    -459     -238      -22       72       16      -97     -116       12 
     261      614     1027     1402     1657     1800     1865     1846 
    1775     1703     1656     1637     1656     1713     1777     1783 
    1676     1466     1147      722      278      -81     -325     -467 
    -542     -607     -680     -718     -692     -607     -417      -44 
     541     1282     2026     2594     2868     2825     2513     2035 
    1529     1169     1107     1370     1807     2168     2270     2101 
    1771     1409     1147     1021      913      675      336       37 
    -176     -356     -500     -557     -545     -472     -207      302 
     841     1139     1105      797      364       25      -71       10 
     147      329      579      851     1090     1247     1243     1050 
     761      541      514      716     1074     1390     1456     1198 
     727      263      -37     -143      -85       79      275      432 
     519      558      591      681      881     1155     1421     1684 
    1973     2203     2234     2041     1732     1439     1246     1182 
    1216     1239     1161      945      558       45     -376     -487 
    -251      216      707     1038     1140     1077     1001     1043 
    1189     1337     1412     1377     1229      974      658      341 
      51     -153     -141      136      549      878      970      787 
     391      -39     -336     -507     -654     -818     -978    -1088 
   -1067     -859     -460       76      669     1221     1633     1811 
    1721     1410      985      607      480      689     1131     1632 
    2026     2209     2191     2083     1965     1840     1695     1510 
    1320     1259     1358     1476     1534     1545     1486     1333 
    1127      924      743      550      355      229      213      315 
     511      704      838      986     1208     1418     1498     1404 
    1186      899      576      326      255      318      423      523 
     588      606      583      546      522      503      479      445 
     356      117     -271     -637     -751     -538     -129      275 
     550      662      664      634      618      649      773     1031 
    1366     1663     1840     1848     1638     1248      865      745 
     990     1449     1876     2151     2296     2354     2346     2288 
    2188     2020     1764     1458     1194     1023      918      845 
     768      664      579      594      689      734      595      284 
     -55     -306     -436     -484     -519     -558     -581     -588 
    -615     -683     -797     -993    -1297    -1630    -1849    -1842 
   -1615    -1259     -804     -193      579     1414     2151     2598 
    2631     2332     1944     1653     1533     1588     1753     1927 
    2070     2196     2312     2407     2434     2363     2234     2119 
    2108     2249     2442     2463     2168     1651     1138      754 
     527      490      618      797      959     1132     1317     1452 
    1503     1498     1468     1394     1189      796      228     -457 
   -1158    -1798    -2335    -2697    -2810    -2674    -2326    -1737 
    -858      230     1317     2153     2519     2327     1694      878 
      58     -687    -1198    -1331    -1127     -697     -109      544 
    1135     1578     1840     1918     1821     1582     1283      997 
     730      502      372      332      324      379      546      780 
    1046     1356     1678     1930     2116     2357     2762     3333 
    3985     4560     4869     4796     4353     3645     2781     1837 
     924      184     -326     -637     -791     -795     -623     -307 
      31      287      422      409      187     -299     -981    -1645 
   -2100    -2277    -2185    -1925    -1630    -1329     -973     -560 
    -110      372      859     1259     1451     1389     1092      634 
     136     -314     -689     -976    -1077     -815     -140      747 
    1602     2349     2976     3408     3603     3634     3570     3361 
    2902     2204     1412      707      245      117      284      643 
    1140     1730     2266     2558     2544     2269     1786     1242 
     822      550      315      105       32      164      492     1035 
    1722     2288     2478     2255     1760     1140      498      -72 
    -554     -974    -1286    -1383    -1209     -826     -376       -6 
     174      130        2      -45      -45     -110     -237     -368 
    -496     -602     -621     -537     -376     -156      110      405 
     729     1073     1354     1421     1225      882      575      399 
     345      369      454      607      822     1058     1216     1174 
     959      777      815     1116     1636     2276     2836     3110 
    3064     2795     2411     2012     1652     1318     1057      945 
     982     1080     1105     1021      918      870      847      795 
     706      625      548      380       87     -225     -514     -838 
   -1201    -1506    -1659    -1598    -1283     -785     -299      -18 
     -33     -306     -650     -827     -700     -276      290      792 
    1062     1024      726      317       -2      -58      221      796 
    1564     2315     2783     2872     2673     2328     1969     1674 
    1512     1534     1733     2031     2290     2388     2277     2012 
    1726     1498     1301     1102      920      758      595      457 
     475      723     1129     1557     1861     1935     1798     1505 
    1063      484     -118     -542     -633     -417     -112       76 
     102       -1     -209     -434     -519     -346       90      638 
    1086     1333     1404     1391     1383     1424     1553     1800 
    2095     2268     2192     1899     1490     1035      573      160 
    -141     -334     -436     -433     -299      -29      313      635 
     870      996     1057     1128     1227     1305     1331     1336 
    1383     1533     1818     2193     2570     2859     2952     2771 
    2392     1987     1653     1350      989      576      225       51 
      14      -41     -217     -480     -710     -697     -298      419 
    1237     1968     2515     2799     2781     2535     2191     1800 
    1387     1040      796      572      342      160       -8     -211 
    -359     -287      -13      221      218      -18     -442     -996 
   -1578    -2118    -2538    -2670    -2420    -1919    -1417    -1023 
    -634     -143      433     1057     1718     2346     2840     3138 
    3213     3088     2870     2714     2735     2906     3169     3522 
    3910     4185     4180     3823     3177     2438     1825     1449 
    1285     1266     1312     1278     1057      683      272      -44 
    -172      -87      149      448      738      935      903      594 
     117     -371     -773    -1088    -1368    -1634    -1863    -2019 
   -2065    -1969    -1719    -1348     -973     -734     -714     -862 
   -1031    -1107    -1036     -753     -218      488     1236     1912 
    2407     2617     2492     2095     1632     1337     1372     1837 
    2652     3518     4097     4216     3943     3493     3109     2992 
    3157     3424     3624     3580     3144     2378     1458      498 
    -380     -977    -1142     -916     -523     -248     -234     -422 
    -656     -760     -573      -86      513      966     1111      892 
     336     -440    -1213    -1790    -2069    -1981    -1551     -997 
    -600     -454     -486     -623     -847    -1086    -1217    -1190 
   -1028     -787     -540     -345     -174       40      330      688 
    1086     1507     1945     2327     2592     2766     2875     2934 
    3025     3207     3399     3445     3285     3014     2778     2689 
    2820     3152     3524     3738     3709     3499     3200     2884 
    2593     2312     2031     1779     1532     1223      788      153 
    -768    -1939    -3092    -3902    -4232    -4128    -3743    -3217 
   -2602    -1981    -1487    -1175    -1044    -1088    -1192    -1140 
    -866     -496     -105      263      504      675     1007     1541 
    2072     2461     2727     2886     2999     3248     3699     4190 
    4557     4752     4672     4202     3408     2498     1633      886 
     315      -52     -276     -490     -807    -1250    -1794    -2326 
   -2632    -2575    -2177    -1555     -884     -290      145      311 
     180     -157     -568     -820     -704     -240      363      832 
     989      869      670      677     1135     2022     3096     4043 
    4515     4325     3600     2643     1722     1026      710      877 
    1425     2130     2803     3241     3265     2924     2434     1960 
    1528     1093      588      -72     -962    -2092    -3316    -4394 
   -5142    -5479    -5336    -4675    -3596    -2363    -1271     -481 
      20      341      629     1086     1861     2911     4086     5158 
    5849     5999     5683     5121     4542     4087     3784     3535 
    3187     2652     1969     1263      672      321      270      409 
     537      525      311     -126     -733    -1356    -1837    -2069 
   -2077    -2002    -1981    -2095    -2370    -2717    -2917    -2721 
   -1969     -689      918     2613     4170     5360     6054     6258 
    5991     5294     4365     3489     2817     2296     1865     1560 
    1370     1247     1193     1190     1115      820      244     -573 
   -1507    -2381    -3037    -3429    -3608    -3620    -3466    -3175 
   -2795    -2382    -2033    -1791    -1548    -1138     -508      202 
     768     1067     1162     1178     1304     1809     2826     4212 
    5679     6949     7800     8105     7846     7105     6022     4741 
    3430     2251     1228      255     -739    -1703    -2559    -3276 
   -3786    -3987    -3875    -3582    -3256    -2975    -2798    -2770 
   -2832    -2862    -2791    -2579    -2131    -1350     -278      885 
    1998     3014     3828     4321     4487     4336     3839     3048 
    2196     1595     1386     1426     1513     1570     1559     1399 
    1071      708      513      591      897     1293     1630     1903 
    2196     2436     2443     2199     1838     1456     1042      581 
     179      -54     -125      -60      172      553      939     1216 
    1439     1726     2168     2847     3689     4355     4417     3666 
    2253      538    -1085    -2311    -3042    -3408    -3576    -3585 
   -3361    -2934    -2538    -2366    -2374    -2420    -2409    -2207 
   -1710     -978     -170      556     1065     1264     1251     1294 
    1505     1734     1867     1969     2172     2569     3152     3798 
    4341     4710     4980     5209     5320     5223     4892     4261 
    3234     1864      364    -1048    -2208    -2991    -3338    -3233 
   -2737    -2056    -1498    -1301    -1498    -1952    -2478    -2920 
   -3125    -2963    -2415    -1648     -903     -274      302      865 
    1414     1968     2457     2740     2714     2382     1865     1386 
    1183     1443     2205     3308     4461     5400     5976     6122 
    5773     4962     3905     2870     2049     1524     1248     1075 
     876      666      527      508      688     1181     1950     2785 
    3501     3973     3996     3415     2293      835     -692    -2026 
   -3036    -3757    -4283    -4681    -4974    -5173    -5258    -5161 
   -4828    -4243    -3416    -2443    -1507     -789     -392     -338 
    -533     -730     -608       51     1281     2948     4803     6523 
    7808     8521     8780     8877     9066     9417     9819    10095 
   10073     9578     8468     6720     4491     2110      -25    -1648 
   -2710    -3303    -3624    -3985    -4638    -5626    -6758    -7716 
   -8283    -8457    -8330    -8029    -7657    -7188    -6552    -5778 
   -4881    -3765    -2308     -548     1313     3068     4567     5667 
    6335     6748     7105     7461     7828     8191     8345     7977 
    6993     5560     3904     2246      797     -330    -1142    -1590 
   -1597    -1240     -668      112     1058     1976     2683     3119 
    3300     3304     3226     3044     2640     1993     1248      575 
       1     -508     -909    -1148    -1275    -1356    -1402    -1499 
   -1794    -2324    -3015    -3736    -4307    -4518    -4166    -3171 
   -1644      139     1795     3040     3804     4085     3894     3345 
    2679     2209     2122     2381     2795     3109     3157     2929 
    2492     1968     1540     1360     1464     1753     2026     2137 
    2084     1914     1617     1174      615       29     -456     -761 
    -903     -967    -1088    -1368    -1786    -2220    -2639    -3091 
   -3593    -4075    -4378    -4317    -3796    -2835    -1555     -186 
     966     1709     2107     2358     2612     2922     3283     3689 
    4124     4500     4691     4588     4194     3623     3018     2567 
    2486     2806     3354     3943     4418     4587     4298     3557 
    2524     1359      151    -1008    -2011    -2802    -3375    -3742 
   -3879    -3759    -3426    -2949    -2423    -2034    -1971    -2247 
   -2682    -3076    -3357    -3493    -3399    -2994    -2259    -1193 
     149     1595     2956     4160     5211     6068     6670     7048 
    7304     7501     7572     7358     6824     6097     5247     4206 
    2943     1598      413     -395     -665     -372      344     1264 
    2088     2505     2327     1506      193    -1306    -2718    -3947 
   -4943    -5537    -5579    -5070    -4082    -2772    -1424     -279 
     630     1412     2134     2766     3262     3564     3519     3032 
    2216     1267      317     -507    -1053    -1209     -912     -137 
    1011     2216     3082     3356     3006     2197     1225      376 
    -209     -515     -535     -210      477     1458     2632     3863 
    4885     5448     5524     5208     4552     3599     2407     1077 
    -159    -1004    -1270    -1007     -519     -182     -206     -581 
   -1089    -1439    -1490    -1316    -1167    -1331    -1834    -2390 
   -2681    -2570    -2139    -1587    -1081     -629     -116      481 
    1031     1475     1881     2238     2469     2633     2883     3260 
    3661     4014     4375     4784     5159     5340     5135     4380 
    3053     1360     -363    -1849    -2951    -3570    -3649    -3271 
   -2718    -2284    -2069    -2033    -2050    -1953    -1695    -1372 
   -1077     -858     -774     -835     -927     -897     -658     -164 
     579     1476     2367     3129     3674     3885     3755     3532 
    3487     3636     3782     3661     3107     2187     1217      645 
     760     1548     2775     4070     5016     5282     4696     3319 
    1421     -596    -2297    -3366    -3728    -3488    -2930    -2457 
   -2327    -2527    -2843    -2987    -2754    -2095    -1053      255 
    1525     2324     2428     1953     1258      785      816     1340 
    2169     3069     3812     4267     4444     4401     4191     3912 
    3697     3627     3678     3750     3751     3570     3009     1972 
     610     -861    -2316    -3677    -4837    -5633    -5921    -5634 
   -4762    -3449    -2053     -936     -287     -137     -394     -873 
   -1352    -1621    -1574    -1213     -571      297     1285     2300 
    3289     4301     5428     6633     7739     8546     8868     8553 
    7612     6239     4731     3419     2539     2088     1890     1705 
    1279      472     -633    -1809    -2832    -3559    -3909    -3893 
   -3740    -3790    -4226    -5074    -6234    -7442    -8313    -8491 
   -7800    -6297    -4299    -2284     -618      621     1501     2039 
    2278     2334     2219     1903     1532     1306     1254     1320 
    1545     2077     3005     4228     5460     6413     6947     7044 
    6739     6156     5513     4996     4695     4650     4846     5151 
    5320     5124     4511     3581     2493     1412      507      -93 
    -382     -507     -662     -905    -1186    -1476    -1761    -1950 
   -1945    -1737    -1339     -739       17      835     1564     2031 
    2122     1841     1252      414     -548    -1445    -2134    -2602 
   -2930    -3161    -3281    -3249    -3009    -2594    -2107    -1591 
   -1044     -508      -32      399      784     1066     1269     1507 
    1869     2394     3086     3865     4565     5047     5324     5470 
    5483     5336     5080     4812     4567     4287     3929     3505 
    3041     2540     1984     1363      706       16     -753    -1572 
   -2323    -2883    -3217    -3392    -3518    -3694    -3951    -4186 
   -4249    -4079    -3699    -3179    -2643    -2173    -1763    -1370 
    -926     -342      419     1337     2322     3289     4203     4995 
    5553     5811     5810     5660     5460     5244     4950     4467 
    3730     2767     1755      970      603      656      980     1301 
    1341      978      256     -769    -2012    -3221    -4054    -4306 
   -3962    -3165    -2162    -1232     -594     -337     -419     -695 
    -978    -1142    -1155     -992     -572      114      943     1741 
    2384     2812     3028     3087     3032     2830     2466     2011 
    1574     1258     1136     1198     1359     1497     1522     1421 
    1173      746      220     -287     -768    -1231    -1564    -1621 
   -1367     -845     -102      816     1844     2852     3667     4141 
