Origin Time       2026/01/15 07:13:00
Lat.              42.7
Long.             145.4
Depth. (km)       30
Mag.              5.7
Station Code      HKD099
Station Lat.      43.0736
Station Long.     142.8392
Station Height(m) 177
Record Time       2026/01/15 07:14:13
Sampling Freq(Hz) 100Hz
Duration Time(s)  78
Dir.              E-W
Scale Factor      7845(gal)/8223790
Max. Acc. (gal)   4.862
Last Correction   2026/01/15 07:14:13
Memo.             
[...]
  -15047   -15203   -15292   -15167   -14990   -14894   -14832   -14814 
  -14893   -15012   -15068   -15040   -14986   -14975   -15026   -15057 
  -14994   -14878   -14755   -14658   -14670   -14742   -14731   -14669 
  -14650   -14612   -14477   -14287   -14127   -14083   -14168   -14208 
  -14193   -14314   -14432   -14413   -14455   -14590   -14740   -14952 
  -15161   -15261   -15263   -15111   -14833   -14644   -14580   -14546 
  -14604   -14715   -14764   -14859   -14999   -14993   -14872   -14775 
  -14708   -14709   -14794   -14828   -14766   -14751   -14804   -14859 
  -14931   -14980   -14978   -14948   -14867   -14732   -14624   -14608 
  -14646   -14655   -14590   -14474   -14399   -14405   -14462   -14548 
  -14634   -14629   -14543   -14494   -14521   -14570   -14625   -14661 
  -14644   -14686   -14874   -15034   -14997   -14810   -14612   -14504 
  -14505   -14559   -14625   -14669   -14694   -14797   -14976   -15115 
  -15217   -15318   -15361   -15325   -15238   -15105   -14941   -14762 
  -14538   -14287   -14116   -14131   -14305   -14515   -14688   -14848 
  -15009   -15064   -14939   -14754   -14646   -14607   -14624   -14667 
  -14692   -14762   -14871   -14909   -14883   -14823   -14715   -14651 
  -14698   -14771   -14831   -14920   -14972   -14874   -14636   -14388 
  -14242   -14212   -14242   -14314   -14424   -14512   -14573   -14662 
  -14794   -14956   -15086   -15094   -14990   -14831   -14635   -14459 
  -14384   -14446   -14608   -14785   -14899   -14952   -14958   -14918 
  -14889   -14908   -14963   -15059   -15202   -15338   -15396   -15348 
  -15207   -15026   -14821   -14601   -14480   -14512   -14574   -14548 
  -14462   -14442   -14601   -14877   -15097   -15217   -15275   -15221 
  -15020   -14781   -14585   -14408   -14264   -14188   -14207   -14362 
  -14598   -14787   -14905   -14976   -14985   -14921   -14821   -14789 
  -14872   -14941   -14914   -14831   -14685   -14536   -14508   -14548 
  -14513   -14407   -14365   -14404   -14423   -14412   -14440   -14557 
  -14739   -14910   -15026   -15060   -14963   -14775   -14588   -14436 
  -14322   -14223   -14112   -14029   -14054   -14210   -14408   -14643 
  -14955   -15223   -15321   -15284   -15183   -15051   -14920   -14793 
  -14636   -14484   -14453   -14553   -14651   -14667   -14616   -14523 
  -14457   -14461   -14505   -14548   -14575   -14604   -14683   -14831 
  -14999   -15107   -15103   -15060   -15057   -15075   -15083   -15076 
  -15048   -15045   -15109   -15182   -15179   -15084   -14956   -14843 
  -14756   -14686   -14642   -14629   -14635   -14686   -14812   -14972 
  -15124   -15213   -15194   -15105   -14971   -14763   -14566   -14531 
  -14634   -14743   -14814   -14858   -14823   -14728   -14635   -14505 
  -14354   -14268   -14218   -14177   -14199   -14289   -14434   -14600 
  -14723   -14808   -14859   -14825   -14723   -14593   -14440   -14285 
  -14172   -14135   -14165   -14247   -14407   -14620   -14777   -14850 
  -14883   -14883   -14859   -14874   -14953   -15052   -15107   -15097 
  -15047   -15036   -15109   -15179   -15136   -15021   -14891   -14728 
  -14594   -14551   -14507   -14392   -14246   -14141   -14183   -14411 
  -14732   -15016   -15151   -15111   -15007   -14978   -15051   -15137 
  -15159   -15091   -14940   -14775   -14706   -14723   -14720   -14665 
  -14596   -14573   -14604   -14631   -14625   -14617   -14608   -14620 
  -14719   -14866   -14960   -14980   -14943   -14828   -14686   -14588 
  -14517   -14450   -14424   -14449   -14478   -14511   -14573   -14658 
  -14735   -14810   -14908   -14962   -14902   -14841   -14859   -14844 
  -14781   -14731   -14658   -14563   -14467   -14353   -14318   -14463 
  -14702   -14926   -15090   -15132   -15068   -14974   -14872   -14850 
  -14962   -15097   -15172   -15205   -15182   -15130   -15101   -15064 
  -14975   -14831   -14642   -14426   -14200   -14015   -13959   -14046 
  -14229   -14461   -14662   -14774   -14804   -14759   -14679   -14663 
  -14717   -14750   -14715   -14611   -14461   -14358   -14373   -14499 
  -14700   -14879   -14913   -14804   -14700   -14709   -14756   -14744 
  -14674   -14604   -14600   -14663   -14755   -14859   -14944   -14995 
  -15009   -14974   -14912   -14824   -14694   -14602   -14631   -14770 
  -14955   -15083   -15114   -15132   -15164   -15132   -15049   -14987 
  -14916   -14794   -14679   -14642   -14696   -14802   -14902   -14953 
  -14949   -14949   -14989   -14993   -14920   -14804   -14683   -14593 
  -14566   -14581   -14613   -14693   -14814   -14904   -14928   -14947 
  -14998   -15007   -14901   -14735   -14623   -14597   -14567   -14442 
  -14258   -14135   -14107   -14108   -14102   -14108   -14139   -14172 
  -14148   -14075   -14050   -14131   -14291   -14489   -14685   -14827 
  -14904   -14978   -15087   -15192   -15236   -15210   -15148   -15111 
  -15114   -15117   -15091   -15036   -14995   -15002   -15043   -15118 
  -15176   -15105   -14925   -14744   -14613   -14558   -14580   -14620 
  -14624   -14600   -14616   -14697   -14786   -14856   -14909   -14904 
  -14829   -14709   -14534   -14316   -14138   -14073   -14129   -14277 
  -14507   -14762   -14940   -15005   -15022   -15029   -14993   -14855 
  -14629   -14409   -14268   -14207   -14165   -14096   -14046   -14068 
  -14133   -14237   -14419   -14656   -14870   -15034   -15172   -15298 
  -15410   -15492   -15552   -15641   -15755   -15803   -15708   -15464 
  -15174   -14990   -14925   -14877   -14808   -14778   -14802   -14828 
  -14824   -14791   -14731   -14632   -14466   -14238   -14017   -13865 
  -13817   -13883   -14026   -14196   -14396   -14607   -14767   -14882 
  -15002   -15093   -15122   -15144   -15165   -15138   -15064   -14991 
  -14985   -15051   -15080   -14975   -14752   -14494   -14257   -14046 
  -13910   -13925   -14046   -14156   -14246   -14359   -14511   -14694 
  -14860   -14952   -14955   -14921   -14945   -15051   -15172   -15279 
  -15338   -15288   -15157   -15006   -14832   -14681   -14623   -14628 
  -14652   -14696   -14742   -14770   -14766   -14723   -14683   -14658 
  -14584   -14504   -14504   -14546   -14573   -14569   -14542   -14580 
  -14731   -14916   -15074   -15183   -15225   -15206   -15114   -14980 
  -14882   -14817   -14764   -14789   -14895   -14976   -14958   -14831 
  -14628   -14463   -14432   -14519   -14604   -14593   -14547   -14570 
  -14642   -14689   -14679   -14600   -14517   -14492   -14492   -14493 
  -14453   -14338   -14268   -14331   -14477   -14632   -14740   -14766 
  -14744   -14715   -14683   -14667   -14698   -14781   -14850   -14856 
  -14851   -14871   -14883   -14860   -14805   -14790   -14887   -15059 
  -15214   -15310   -15325   -15269   -15209   -15169   -15148   -15203 
  -15338   -15419   -15350   -15175   -14983   -14831   -14713   -14604 
  -14536   -14512   -14453   -14288   -14038   -13795   -13663   -13686 
  -13832   -14060   -14345   -14592   -14727   -14825   -14935   -15014 
  -15055   -15024   -14908   -14828   -14858   -14940   -15010   -15006 
  -14914   -14804   -14693   -14592   -14586   -14647   -14648   -14636 
  -14710   -14793   -14779   -14678   -14586   -14609   -14735   -14835 
  -14837   -14790   -14770   -14798   -14800   -14731   -14651   -14561 
  -14389   -14185   -14057   -14056   -14135   -14206   -14250   -14319 
  -14435   -14596   -14746   -14767   -14671   -14602   -14625   -14705 
  -14820   -14937   -14979   -14948   -14958   -15022   -15091   -15213 
  -15421   -15661   -15881   -16002   -15970   -15871   -15797   -15749 
  -15716   -15688   -15635   -15554   -15464   -15357   -15183   -14955 
  -14715   -14423   -14073   -13738   -13479   -13316   -13188   -13030 
  -12916   -12976   -13219   -13532   -13834   -14146   -14515   -14897 
  -15155   -15222   -15120   -14867   -14562   -14342   -14273   -14389 
  -14667   -14985   -15250   -15418   -15454   -15403   -15271   -15028 
  -14747   -14534   -14455   -14554   -14769   -14974   -15106   -15163 
  -15165   -15163   -15188   -15240   -15299   -15358   -15423   -15468 
  -15431   -15302   -15156   -15098   -15153   -15242   -15236   -15075 
  -14844   -14612   -14330   -14000   -13694   -13473   -13383   -13460 
  -13689   -13963   -14164   -14295   -14423   -14557   -14696   -14805 
  -14856   -14895   -14933   -14936   -14925   -14886   -14791   -14706 
  -14698   -14715   -14674   -14592   -14503   -14323   -13968   -13524 
  -13167   -13028   -13124   -13308   -13433   -13532   -13737   -14122 
  -14617   -15084   -15441   -15662   -15746   -15746   -15699   -15538 
  -15205   -14833   -14635   -14656   -14766   -14848   -14910   -14970 
  -15066   -15310   -15743   -16260   -16742   -17049   -17014   -16642 
  -16154   -15805   -15689   -15700   -15681   -15572   -15406   -15244 
  -15129   -14994   -14705   -14266   -13797   -13419   -13227   -13236 
  -13397   -13655   -13946   -14246   -14592   -14953   -15225   -15394 
  -15510   -15603   -15727   -15927   -16174   -16456   -16802   -17147 
  -17410   -17578   -17541   -17151   -16433   -15520   -14534   -13601 
  -12854   -12353   -12123   -12221   -12623   -13136   -13579   -13865 
  -13936   -13807   -13560   -13273   -13047   -12943   -12916   -12962 
  -13077   -13138   -13092   -13069   -13167   -13324   -13452   -13516 
  -13498   -13431   -13343   -13193   -13038   -13031   -13227   -13576 
  -14007   -14393   -14643   -14829   -15076   -15388   -15726   -16060 
  -16274   -16306   -16275   -16325   -16536   -16839   -17089   -17257 
  -17410   -17554   -17624   -17552   -17292   -16869   -16402   -15952 
  -15476   -14975   -14511   -14116   -13855   -13792   -13906   -14107 
  -14239   -14157   -13876   -13525   -13215   -12972   -12768   -12623 
  -12627   -12777   -12934   -13015   -13100   -13269   -13520   -13855 
  -14245   -14620   -14941   -15217   -15487   -15835   -16279   -16725 
  -17084   -17354   -17520   -17531   -17375   -17112   -16794   -16438 
  -16074   -15741   -15460   -15271   -15221   -15259   -15265   -15178 
  -14964   -14611   -14210   -13905   -13675   -13429   -13182   -12962 
  -12784   -12745   -12885   -13086   -13228   -13292   -13348   -13435 
  -13517   -13621   -13730   -13767   -13790   -13922   -14160   -14497 
  -14916   -15263   -15426   -15510   -15637   -15762   -15886   -16120 
  -16492   -16912   -17240   -17327   -17093   -16637   -16152   -15768 
  -15483   -15225   -14913   -14454   -13815   -13181   -12792   -12656 
  -12681   -12866   -13169   -13541   -13999   -14461   -14748   -14793 
  -14673   -14516   -14391   -14350   -14457   -14678   -14944   -15223 
  -15437   -15468   -15304   -15055   -14841   -14693   -14548   -14370 
  -14176   -14013   -13926   -13956   -14107   -14324   -14531   -14643 
  -14563   -14307   -14064   -13976   -14031   -14199   -14449   -14728 
  -14970   -15060   -14939   -14683   -14345   -13891   -13400   -13039 
  -12950   -13178   -13598   -14017   -14380   -14790   -15333   -15935 
  -16432   -16725   -16823   -16838   -16912   -17081   -17278   -17433 
  -17491   -17443   -17386   -17405   -17477   -17493   -17312   -16926 
  -16483   -16075   -15697   -15376   -15122   -14856   -14500   -14033 
  -13487   -12924   -12388   -11900   -11510   -11279   -11215   -11291 
  -11480   -11759   -12154   -12699   -13336   -13918   -14331   -14566 
  -14679   -14754   -14898   -15194   -15603   -15982   -16173   -16116 
  -15890   -15597   -15302   -15039   -14797   -14590   -14423   -14139 
  -13618   -12992   -12414   -11959   -11784   -11993   -12461   -13081 
  -13851   -14666   -15384   -15990   -16505   -16875   -17038   -17005 
  -16866   -16717   -16596   -16479   -16275   -15857   -15165   -14284 
  -13360   -12567   -12070   -11979   -12307   -12899   -13478   -13861 
  -14053   -14170   -14358   -14692   -15134   -15661   -16285   -16946 
  -17501   -17856   -18110   -18422   -18754   -18914   -18751   -18157 
  -17163   -16039   -15039   -14268   -13776   -13528   -13396   -13263 
  -12999   -12486   -11824   -11233   -10833   -10709   -10883   -11195 
  -11506   -11799   -12070   -12422   -13069   -14031   -15087   -16016 
  -16690   -17104   -17394   -17698   -18068   -18492   -18855   -19008 
  -18905   -18536   -17911   -17150   -16405   -15746   -15229   -14913 
  -14732   -14567   -14386   -14212   -14094   -14034   -13905   -13562 
  -13063   -12595   -12267   -12116   -12100   -12136   -12247   -12540 
  -12993   -13439   -13761   -14006   -14237   -14362   -14272   -14033 
  -13797   -13662   -13711   -13980   -14378   -14808   -15237   -15643 
  -15965   -16144   -16212   -16312   -16541   -16799   -16942   -16947 
  -16889   -16877   -16902   -16796   -16461   -15909   -15207   -14496 
  -13849   -13217   -12614   -12120   -11785   -11674   -11816   -12155 
  -12694   -13467   -14327   -15045   -15508   -15708   -15687   -15508 
  -15279   -15160   -15284   -15595   -15890   -16046   -16031   -15827 
  -15439   -14924   -14380   -13909   -13531   -13211   -12941   -12703 
  -12511   -12496   -12768   -13247   -13737   -14079   -14195   -14141 
  -14106   -14206   -14405   -14697   -15120   -15695   -16368   -16929 
  -17172   -17142   -16992   -16812   -16694   -16679   -16715   -16745 
  -16699   -16499   -16133   -15664   -15149   -14586   -13986   -13501 
  -13259   -13170   -13127   -13166   -13306   -13527   -13853   -14287 
  -14754   -15199   -15612   -15994   -16341   -16695   -17131   -17656 
  -18175   -18520   -18501   -17979   -16947   -15591   -14197   -12919 
  -11740   -10712    -9984    -9641    -9672    -9965   -10324   -10681 
  -11095   -11545   -11963   -12401   -12923   -13479   -14025   -14632 
  -15314   -15963   -16510   -16961   -17315   -17509   -17500   -17334 
  -17081   -16749   -16359   -15942   -15498   -15101   -14863   -14814 
  -14883   -14956   -14995   -15068   -15214   -15365   -15434   -15454 
  -15537   -15726   -15996   -16256   -16293   -15940   -15341   -14746 
  -14234   -13892   -13879   -14108   -14327   -14443   -14512   -14520 
  -14378   -14135   -13987   -14030   -14150   -14242   -14380   -14559 
  -14609   -14482   -14214   -13803   -13351   -13014   -12887   -13043 
  -13474   -14076   -14746   -15387   -15893   -16240   -16465   -16571 
  -16514   -16286   -15889   -15354   -14760   -14197   -13749   -13471 
  -13355   -13304   -13188   -12995   -12847   -12833   -12858   -12833 
  -12849   -13041   -13400   -13898   -14550   -15310   -16089   -16827 
  -17436   -17787   -17783   -17456   -16993   -16551   -16116   -15626 
  -15117   -14685   -14370   -14154   -13971   -13774   -13649   -13751 
  -14084   -14509   -14899   -15159   -15248   -15255   -15282   -15288 
  -15211   -15064   -14881   -14721   -14643   -14574   -14427   -14276 
  -14291   -14516   -14804   -14980   -14997   -14881   -14696   -14511 
  -14328   -14094   -13775   -13410   -13159   -13231   -13645   -14208 
  -14713   -15030   -15129   -15122   -15171   -15300   -15404   -15400 
  -15367   -15423   -15525   -15522   -15396   -15218   -14995   -14690 
  -14346   -14098   -14080   -14304   -14639   -14962   -15233   -15387 
  -15313   -15034   -14694   -14409   -14257   -14216   -14108   -13821 
  -13477   -13232   -13126   -13208   -13551   -14118   -14820   -15568 
  -16214   -16622   -16802   -16891   -17010   -17143   -17205   -17159 
  -17016   -16746   -16294   -15728   -15253   -15020   -15048   -15205 
  -15318   -15304   -15167   -14952   -14678   -14322   -13914   -13587 
  -13405   -13274   -13084   -12846   -12683   -12667   -12707   -12714 
  -12710   -12708   -12700   -12738   -12866   -13107   -13477   -13946 
  -14397   -14743   -15012   -15272   -15525   -15718   -15778   -15691 
  -15565   -15533   -15619   -15758   -15813   -15711   -15527   -15384 
  -15340   -15353   -15286   -15079   -14810   -14511   -14137   -13722 
  -13340   -13053   -12907   -12896   -13023   -13359   -13887   -14484 
  -15125   -15869   -16656   -17305   -17655   -17662   -17425   -17126 
  -16893   -16731   -16576   -16370   -16071   -15688   -15272   -14863 
  -14473   -14137   -13864   -13566   -13193   -12860   -12667   -12588 
  -12588   -12657   -12748   -12815   -12883   -13012   -13254   -13567 
  -13900   -14295   -14767   -15272   -15769   -16190   -16463   -16580 
  -16599   -16568   -16498   -16367   -16128   -15747   -15288   -14848 
  -14493   -14257   -14079   -13851   -13622   -13485   -13387   -13269 
  -13169   -13158   -13297   -13574   -13888   -14127   -14241   -14278 
  -14339   -14473   -14686   -14966   -15238   -15388   -15350   -15174 
  -14983   -14864   -14831   -14909   -15109   -15387   -15705   -16039 
  -16360   -16688   -16991   -17139   -17086   -16861   -16464   -15967 
  -15503   -15179   -15060   -15043   -14916   -14625   -14254   -13894 
  -13628   -13463   -13365   -13346   -13394   -13462   -13548   -13626 
  -13668   -13744   -13944   -14268   -14578   -14715   -14646   -14446 
  -14188   -13923   -13695   -13541   -13475   -13470   -13502   -13579 
  -13722   -13957   -14229   -14454   -14665   -14975   -15410   -15881 
  -16294   -16561   -16676   -16756   -16826   -16777   -16613   -16452 
  -16276   -15942   -15387   -14729   -14169   -13809   -13609   -13516 
  -13552   -13749   -14069   -14411   -14620   -14601   -14435   -14285 
  -14203   -14164   -14152   -14137   -14095   -14077   -14170   -14384 
  -14650   -14874   -15002   -15053   -15066   -15070   -15086   -15061 
  -14913   -14643   -14331   -14067   -13940   -13988   -14161   -14393 
  -14654   -14936   -15255   -15533   -15622   -15526   -15421   -15402 
  -15437   -15496   -15556   -15553   -15450   -15321   -15311   -15452 
  -15576   -15535   -15367   -15128   -14845   -14646   -14597   -14634 
  -14694   -14705   -14580   -14396   -14301   -14287   -14310   -14372 
  -14435   -14467   -14497   -14513   -14462   -14365   -14287   -14247 
  -14300   -14516   -14852   -15178   -15421   -15553   -15535   -15399 
  -15217   -14987   -14698   -14434   -14287   -14256   -14233   -14108 
  -13915   -13734   -13559   -13360   -13181   -13109   -13180   -13265 
  -13251   -13266   -13471   -13842   -14234   -14519   -14705   -14872 
  -15028   -15101   -15086   -15039   -14999   -15029   -15206   -15535 
  -15967   -16436   -16835   -17068   -17092   -16910   -16548   -16079 
  -15604   -15188   -14844   -14570   -14359   -14223   -14212   -14334 
  -14503   -14638   -14709   -14717   -14694   -14683   -14696   -14735 
  -14816   -14910   -14966   -15010   -15084   -15137   -15106   -14980 
  -14782   -14581   -14466   -14454   -14480   -14480   -14413   -14284 
  -14143   -14073   -14091   -14115   -14096   -14092   -14161   -14274 
  -14335   -14305   -14238   -14160   -14069   -13999   -13950   -13890 
  -13852   -13888   -13996   -14141   -14300   -14453   -14548   -14553 
  -14524   -14574   -14732   -14958   -15205   -15402   -15471   -15433 
  -15391   -15400   -15398   -15275   -15039   -14839   -14796   -14928 
  -15171   -15369   -15434   -15453   -15504   -15583   -15704   -15898 
  -16152   -16391   -16510   -16476   -16341   -16154   -15951   -15790 
  -15696   -15633   -15564   -15456   -15240   -14883   -14492   -14195 
  -13973   -13748   -13517   -13325   -13182   -13132   -13265   -13572 
  -13891   -14022   -13910   -13663   -13423   -13261   -13182   -13170 
  -13200   -13223   -13230   -13265   -13342   -13448   -13597   -13791 
