Origin Time       2026/01/15 07:13:00
Lat.              42.7
Long.             145.4
Depth. (km)       30
Mag.              5.7
Station Code      HKD082
Station Lat.      43.4369
Station Long.     144.0855
Station Height(m) 429
Record Time       2026/01/15 07:13:58
Sampling Freq(Hz) 100Hz
Duration Time(s)  60
Dir.              N-S
Scale Factor      7845(gal)/8223790
Max. Acc. (gal)   3.704
Last Correction   2026/01/15 07:13:58
Memo.             
[...]
     295      395      386      259      135       76       -6     -147 
    -244     -238     -191     -166     -136      -51       48      103 
     143      241      409      562      627      616      592      565 
     492      378      297      330      440      492      475      511 
     627      693      654      595      548      460      328      218 
     141       24     -171     -396     -562     -627     -633     -625 
    -598     -515     -382     -244     -151     -114     -120     -157 
    -225     -314     -351     -279     -184     -216     -410     -668 
    -837     -872     -868     -892     -908     -905     -916     -934 
    -951     -978     -981     -938     -868     -784     -702     -637 
    -588     -556     -525     -456     -319     -167      -74      -17 
      62      141      170      144       66      -75     -225     -274 
    -176      -37       63      178      369      621      865     1055 
    1167     1194     1174     1167     1159     1040      747      396 
     151       13     -110     -272     -445     -554     -560     -507 
    -454     -421     -429     -523     -691     -810     -758     -580 
    -409     -248      -29      216      421      600      795      976 
    1117     1242     1344     1366     1289     1179     1059      888 
     680      490      360      302      278      234      128      -47 
    -224     -338     -378     -365     -363     -425     -544     -689 
    -816     -878     -935    -1048    -1152    -1151    -1062     -954 
    -858     -757     -622     -461     -322     -275     -332     -414 
    -473     -530     -571     -553     -483     -379     -253     -133 
     -59      -45      -60      -58      -32       -4       17       29 
      12      -52     -137     -201     -217     -187     -103       40 
     232      442      638      785      884      954     1009     1030 
     946      742      514      380      369      394      326      155 
       4      -32       24      120      190      179      114       89 
     109       91       -5     -160     -315     -407     -415     -363 
    -318     -348     -419     -426     -338     -220     -125      -85 
     -95      -85      -28      -20     -114     -255     -390     -496 
    -533     -473     -319     -102      113      265      348      429 
     606      888     1147     1262     1258     1189     1061      923 
     827      723      545      310       79      -85     -174     -226 
    -263     -306     -419     -603     -765     -855     -916    -1004 
   -1107    -1177    -1206    -1221    -1231    -1202    -1098     -936 
    -768     -608     -430     -240      -89      -13        9       35 
     101      222      387      523      580      600      621      627 
     589      503      419      409      475      537      514      392 
     232      116       70       63       66       64       60       68 
      91       98       63       -1      -76     -178     -314     -469 
    -606     -683     -668     -553     -414     -355     -380     -413 
    -405     -361     -336     -402     -564     -739     -838     -846 
    -819     -792     -773     -773     -764     -675     -490     -245 
       8      199      299      361      429      492      514      459 
     332      194       83       28       51      124      194      216 
     163       72       -8      -90     -180     -220     -198     -175 
    -174     -195     -255     -319     -322     -224      -56      101 
     211      309      405      476      514      530      523      495 
     440      361      279      211      157       91        1      -99 
    -210     -325     -407     -430     -388     -283     -147      -39 
      25       83      135      147      120       87       72       56 
      -4      -93     -145     -129      -58       41      140      238 
     325      367      392      446      510      554      587      585 
     514      387      268      190      129       54        2       -1 
      -8      -68     -166     -232     -243     -253     -310     -376 
    -405     -400     -413     -484     -579     -604     -531     -426 
    -363     -330     -249      -91       66      153      206      292 
     403      492      546      580      598      580      504      352 
     135      -95     -292     -450     -565     -615     -595     -556 
    -562     -635     -739     -832     -896     -932     -942     -915 
    -837     -723     -607     -487     -376     -297     -237     -210 
    -216     -184      -67       90      197      222      205      175 
     121       44      -29      -94     -135     -120      -66      -32 
     -33      -18       31       78       93       75       63      108 
     209      329      429      463      409      318      263      274 
     349      452      519      514      437      326      247      221 
     174       52     -124     -306     -436     -488     -476     -375 
    -193      -24       82      155      199      207      210      229 
     268      324      388      442      467      457      430      407 
     388      344      268      180      103       62       55       36 
     -21     -121     -294     -523     -729     -885    -1019    -1116 
   -1134    -1070     -977     -899     -841     -765     -661     -596 
    -600     -608     -545     -384     -167        9      114      211 
     319      383      379      329      263      190      114       87 
     163      310      444      531      611      702      778      837 
     885      901      881      843      795      737      638      448 
     164     -149     -407     -554     -642     -760     -936    -1111 
   -1202    -1181    -1094    -1013     -934     -805     -618     -402 
    -190       31      275      463      535      567      641      729 
     770      770      784      830      830      734      589      446 
     291       82     -164     -375     -531     -668     -784     -873 
    -953    -1016    -1047    -1032     -947     -823     -720     -633 
    -519     -382     -253     -178     -144      -72       55      149 
     148       97       83      137      218      317      438      529 
     534      498      492      518      521      484      419      305 
     133      -51     -207     -319     -378     -409     -488     -633 
    -768     -822     -781     -683     -583     -491     -348     -141 
      27      101      117       99       24      -68      -87       10 
     174      321      419      495      569      619      622      580 
     517      468      496      629      797      916      966      947 
     870      764      623      432      257      172      137       76 
     -14      -95     -130     -137     -171     -252     -378     -564 
    -792    -1007    -1190    -1378    -1567    -1696    -1709    -1579 
   -1355    -1116     -908     -729     -540     -278       49      333 
     498      580      639      685      687      653      612      542 
     422      314      278      303      330      329      329      357 
     398      413      348      170     -103     -402     -693    -1016 
   -1359    -1620    -1715    -1674    -1576    -1497    -1451    -1387 
   -1244    -1030     -799     -614     -494     -384     -209       22 
     222      353      461      568      685      849     1055     1266 
    1474     1683     1857     1944     1937     1880     1818     1746 
    1647     1502     1317     1108      911      769      658      475 
     198      -64     -221     -287     -333     -387     -454     -523 
    -540     -469     -353     -232     -137      -97      -97      -72 
       1       52       14      -27       68      268      423      479 
     487      518      584      638      658      654      607      490 
     302       83     -133     -356     -619     -908    -1169    -1362 
   -1497    -1575    -1551    -1401    -1205    -1038     -878     -707 
    -569     -495     -480     -500     -533     -572     -629     -730 
    -865     -950     -924     -846     -796     -784     -789     -815 
    -873     -916     -843     -679     -587     -629     -710     -765 
    -818     -857     -811     -689     -589     -556     -541     -492 
    -400     -302     -237     -206     -183     -157     -121      -56 
      29      103      160      216      279      360      481      643 
     788      845      816      774      756      747      734      723 
     743      845     1017     1152     1189     1220     1290     1297 
    1177     1004      872      760      598      391      180      -43 
    -267     -427     -495     -492     -459     -432     -382     -270 
    -187     -213     -261     -275     -329     -471     -629     -706 
    -666     -584     -573     -637     -689     -684     -607     -452 
    -268     -116       33      195      275      224      135      132 
     247      351      279       76      -94     -168     -182     -174 
    -163     -133      -28      168      341      348      187       -6 
    -117     -159     -207     -247     -206      -97        8       83 
     147      180      186      230      338      477      649      861 
    1067     1205     1242     1189     1107     1063     1078     1119 
    1142     1136     1140     1169     1190     1177     1125     1047 
     963      877      780      648      425      105     -236     -526 
    -739     -911    -1082    -1239    -1355    -1476    -1656    -1827 
   -1867    -1784    -1703    -1714    -1819    -1949    -1998    -1902 
   -1695    -1447    -1194     -953     -726     -517     -391     -442 
    -643     -842     -953    -1017    -1102    -1239    -1363    -1367 
   -1236    -1051     -853     -643     -464     -330     -156      147 
     526      823      977     1088     1259     1483     1647     1628 
    1435     1185      959      789      723      776      873      962 
    1093     1281     1409     1363     1170      949      765      581 
     357      137      -13     -133     -298     -457     -480     -317 
     -21      302      596      868     1115     1281     1312     1183 
     946      664      360       83     -117     -283     -445     -553 
    -565     -530     -523     -568     -627     -638     -571     -480 
    -425     -383     -360     -411     -548     -738     -945    -1104 
   -1154    -1123    -1088    -1055    -1020    -1036    -1142    -1300 
   -1448    -1560    -1656    -1748    -1803    -1811    -1831    -1902 
   -1975    -1973    -1873    -1711    -1524    -1283     -949     -604 
    -383     -268     -149       59      398      807     1115     1182 
    1036      858      803      885     1035     1147     1128      988 
     839      815      939     1074     1078      962      861      924 
    1189     1530     1810     1980     2007     1879     1669     1502 
    1468     1571     1728     1826     1768     1526     1210      980 
     858      751      596      400      189       -1     -114     -155 
    -213     -340     -486     -580     -595     -511     -286       74 
     480      830     1090     1267     1279     1016      527       20 
    -344     -554     -714     -926    -1228    -1553    -1744    -1696 
   -1518    -1391    -1394    -1495    -1645    -1806    -1922    -1922 
   -1771    -1512    -1267    -1135    -1077    -1005     -865     -631 
    -344      -90      101      251      368      430      394      213 
    -141     -612    -1034    -1269    -1350    -1426    -1568    -1663 
   -1588    -1385    -1167     -999     -851     -637     -310       49 
     359      637      922     1182     1386     1528     1582     1532 
    1408     1273     1213     1269     1364     1372     1263     1135 
    1069     1069     1152     1328     1534     1690     1755     1709 
    1517     1209      909      696      535      317      -32     -394 
    -556     -541     -550     -676     -823     -868     -796     -697 
    -594     -405     -144       12      -40     -241     -508     -810 
   -1074    -1189    -1081     -804     -531     -410     -426     -448 
    -329      -17      382      653      623      344       43     -128 
    -182     -228     -379     -622     -804     -843     -831     -866 
    -973    -1111    -1136     -943     -626     -369     -264     -315 
    -434     -441     -237       68      290      341      288      284 
     459      792     1178     1520     1711     1626     1248      706 
     168     -243     -542     -846    -1173    -1374    -1367    -1250 
   -1123     -949     -661     -322      -75       32       81       91 
      25      -56      -45       56      147      133        2     -211 
    -430     -523     -487     -510     -685     -841     -810     -654 
    -521     -414     -226       79      368      494      511      552 
     637      756      913     1090     1260     1401     1422     1255 
     967      738      637      545      348       76     -205     -434 
    -537     -521     -475     -498     -653     -913    -1125    -1143 
   -1011     -878     -815     -764     -611     -337      -78       43 
      62      132      367      665      803      683      410       81 
    -333     -781    -1074    -1107     -935     -656     -390     -261 
    -229     -136       39      205      307      336      265      114 
     -85     -361     -695     -978    -1189    -1399    -1651    -1902 
   -2056    -2056    -1911    -1613    -1178     -688     -220      211 
     622     1001     1314     1594     1929     2328     2733     3094 
    3361     3518     3630     3758     3840     3774     3568     3354 
    3233     3123     2868     2425     1872     1278      649      -14 
    -596     -958    -1092    -1094    -1078    -1143    -1293    -1424 
   -1490    -1556    -1671    -1807    -1896    -1872    -1779    -1779 
   -1966    -2238    -2407    -2369    -2143    -1827    -1528    -1296 
   -1161    -1140    -1208    -1287    -1323    -1312    -1258    -1125 
    -896     -638     -456     -403     -438     -454     -379     -233 
    -113      -91     -172     -328     -556     -826    -1086    -1282 
   -1367    -1360    -1328    -1250    -1054     -791     -612     -581 
    -596     -523     -341     -124       70      241      422      631 
     881     1193     1567     1941     2214     2320     2270     2112 
    1933     1819     1798     1837     1903     1939     1860     1634 
    1367     1163      982      780      645      641      747      901 
     990      953      835      670      448      190      -33     -145 
    -112       28      190      275      232      156      175      259 
     302      314      418      706     1065     1266     1219     1007 
     722      398      102      -44        8      147      203      139 
      25     -112     -298     -553     -897    -1293    -1640    -1918 
   -2218    -2587    -2992    -3375    -3674    -3825    -3821    -3709 
   -3538    -3312    -2982    -2527    -2018    -1528    -1077     -656 
    -251      121      414      585      661      739      897     1089 
    1202     1208     1165     1096      965      711      325      -81 
    -387     -594     -730     -805     -870     -994    -1173    -1313 
   -1327    -1262    -1262    -1355    -1393    -1251     -984     -693 
    -390      -67      202      392      583      857     1190     1478 
    1663     1790     1880     1888     1810     1714     1664     1669 
    1679     1645     1601     1614     1707     1821     1836     1661 
    1350     1038      777      522      221     -108     -369     -498 
    -545     -621     -778     -978    -1092    -1058     -959     -900 
    -885     -862     -830     -805     -795     -827     -908     -911 
    -712     -386      -55      263      557      781      950     1104 
    1189     1107      812      403       45     -166     -241     -244 
    -244     -265     -303     -352     -396     -452     -556     -703 
    -843     -945     -940     -797     -623     -523     -433     -256 
     -35      110      126       85       25     -133     -399     -608 
    -646     -575     -461     -328     -209     -135     -105      -82 
     -16       82      132       89       -6      -68      -51       29 
     106      147      216      427      793     1188     1451     1526 
    1501     1503     1557     1599     1548     1308      901      498 
     197      -59     -338     -639     -908    -1073    -1152    -1240 
   -1386    -1590    -1803    -1923    -1895    -1759    -1551    -1269 
    -911     -523     -170      103      287      421      573      770 
     916      886      712      565      545      606      685      789 
     926     1080     1210     1255     1185     1054      922      816 
     743      695      720      885     1135     1339     1439     1468 
    1493     1506     1433     1232      907      502      124     -118 
    -186     -117       33      210      341      379      349      287 
     182       37     -116     -263     -406     -573     -799    -1063 
   -1329    -1609    -1900    -2143    -2305    -2458    -2675    -2953 
   -3246    -3480    -3580    -3559    -3489    -3407    -3280    -3052 
   -2722    -2336    -1926    -1509    -1105     -683     -241      106 
     294      423      642      935     1148     1155      963      684 
     423      248      175      172      178      170      201      282 
     333      290      118     -162     -400     -459     -360     -180 
      45      294      545      804     1078     1333     1537     1734 
    1960     2147     2223     2207     2155     2035     1788     1459 
    1111      722      270     -166     -507     -766     -984    -1162 
   -1260    -1262    -1246    -1281    -1320    -1317    -1318    -1387 
   -1501    -1578    -1574    -1486    -1344    -1175     -949     -653 
    -319        5      261      438      565      638      692      800 
     959     1151     1383     1629     1842     2007     2153     2303 
    2400     2430     2470     2508     2447     2280     2083     1915 
    1761     1599     1462     1321     1088      743      340      -87 
    -468     -741     -932    -1097    -1236    -1321    -1366    -1456 
   -1620    -1817    -2054    -2273    -2331    -2211    -2020    -1868 
   -1772    -1640    -1417    -1140     -814     -429      -60      233 
     450      598      716      827      880      851      799      799 
     861      935     1004     1081     1182     1328     1476     1517 
    1416     1221      990      804      685      545      340      118 
     -79     -236     -330     -390     -463     -575     -689     -788 
    -895    -1019    -1134    -1210    -1228    -1217    -1239    -1283 
   -1258    -1121     -928     -742     -571     -399     -244     -166 
    -182     -236     -305     -434     -622     -792     -923    -1081 
   -1306    -1556    -1779    -1961    -2112    -2231    -2290    -2268 
   -2150    -1918    -1590    -1229     -891     -611     -396     -203 
     -25       76      103      112      122      151      214      324 
     484      642      743      820      923     1057     1215     1395 
    1609     1844     2046     2176     2241     2272     2292     2268 
    2145     1929     1692     1498     1339     1200     1100     1017 
     895      742      589      427      251       62     -124     -280 
    -392     -477     -544     -577     -575     -531     -450     -322 
