Origin Time       2026/01/15 07:13:00
Lat.              42.7
Long.             145.4
Depth. (km)       30
Mag.              5.7
Station Code      HKD094
Station Lat.      43.1692
Station Long.     143.2410
Station Height(m) 204
Record Time       2026/01/15 07:14:13
Sampling Freq(Hz) 100Hz
Duration Time(s)  60
Dir.              U-D
Scale Factor      7845(gal)/8223790
Max. Acc. (gal)   0.625
Last Correction   2026/01/15 07:14:14
Memo.             
  -10389   -10434   -10411   -10353   -10314   -10285   -10249   -10231 
  -10242   -10239   -10226   -10243   -10288   -10316   -10291   -10219 
  -10173   -10191   -10212   -10189   -10150   -10114   -10071   -10046 
  -10073   -10114   -10111   -10107   -10183   -10284   -10299   -10291 
  -10351   -10386   -10330   -10309   -10342   -10295   -10210   -10181 
  -10156   -10112   -10098   -10096   -10130   -10238   -10315   -10278 
  -10245   -10284   -10305   -10260   -10215   -10206   -10170   -10118 
  -10135   -10219   -10264   -10268   -10307   -10363   -10404   -10458 
  -10492   -10404   -10249   -10165   -10164   -10181   -10187   -10157 
  -10127   -10158   -10197   -10183   -10164   -10160   -10122   -10089 
  -10115   -10122   -10072   -10048   -10092   -10161   -10227   -10301 
  -10377   -10411   -10397   -10386   -10396   -10370   -10293   -10234 
  -10214   -10192   -10184   -10188   -10156   -10123   -10172   -10272 
  -10334   -10328   -10295   -10268   -10255   -10272   -10326   -10365 
  -10362   -10343   -10319   -10299   -10289   -10277   -10268   -10297 
  -10347   -10343   -10270   -10211   -10204   -10172   -10111   -10108 
  -10139   -10127   -10142   -10227   -10281   -10292   -10353   -10426 
  -10408   -10351   -10351   -10361   -10316   -10281   -10296   -10276 
  -10231   -10258   -10303   -10261   -10192   -10165   -10103    -9979 
   -9914    -9956   -10029   -10083   -10093   -10077   -10103   -10172 
  -10216   -10235   -10254   -10255   -10243   -10285   -10384   -10415 
  -10354   -10346   -10434   -10469   -10393   -10322   -10316   -10322 
  -10307   -10297   -10308   -10314   -10284   -10231   -10181   -10145 
  -10139   -10164   -10166   -10150   -10176   -10203   -10152   -10072 
  -10033   -10023   -10060   -10139   -10177   -10173   -10220   -10300 
  -10318   -10269   -10215   -10173   -10123   -10064   -10049   -10071 
  -10045    -9991   -10014   -10085   -10096   -10056   -10048   -10053 
   -9995    -9921    -9944   -10049   -10096   -10087   -10161   -10303 
  -10365   -10361   -10382   -10396   -10372   -10361   -10390   -10453 
  -10508   -10500   -10440   -10419   -10442   -10384   -10255   -10212 
  -10257   -10261   -10212   -10185   -10207   -10219   -10150   -10035 
   -9956    -9911    -9894    -9919    -9941    -9940    -9968   -10021 
  -10053   -10110   -10207   -10270   -10309   -10366   -10374   -10320 
  -10322   -10372   -10345   -10269   -10257   -10272   -10260   -10292 
  -10366   -10357   -10272   -10264   -10334   -10353   -10314   -10311 
  -10320   -10278   -10235   -10254   -10307   -10358   -10393   -10365 
  -10284   -10224   -10211   -10227   -10272   -10295   -10257   -10216 
  -10230   -10269   -10307   -10349   -10366   -10326   -10261   -10203 
  -10154   -10160   -10222   -10258   -10261   -10319   -10415   -10457 
  -10442   -10407   -10335   -10254   -10206   -10161   -10112   -10122 
  -10154   -10116   -10050   -10049   -10098   -10173   -10273   -10297 
  -10196   -10120   -10158   -10218   -10250   -10277   -10269   -10239 
  -10245   -10245   -10197   -10179   -10234   -10300   -10338   -10372 
  -10385   -10346   -10312   -10322   -10316   -10278   -10258   -10237 
  -10177   -10138   -10147   -10154   -10147   -10166   -10197   -10191 
  -10158   -10146   -10142   -10108   -10062   -10029   -10026   -10089 
  -10180   -10242   -10296   -10349   -10361   -10334   -10305   -10296 
  -10316   -10342   -10324   -10277   -10270   -10297   -10300   -10287 
  -10288   -10289   -10277   -10270   -10280   -10292   -10308   -10330 
  -10305   -10218   -10183   -10257   -10287   -10208   -10161   -10161 
  -10111   -10065   -10098   -10129   -10116   -10107   -10108   -10110 
  -10130   -10122   -10046   -10017   -10098   -10180   -10197   -10222 
  -10291   -10324   -10265   -10185   -10208   -10293   -10312   -10293 
  -10315   -10281   -10152   -10106   -10208   -10257   -10174   -10149 
  -10241   -10301   -10287   -10277   -10265   -10189   -10125   -10162 
  -10216   -10181   -10131   -10154   -10168   -10149   -10224   -10374 
  -10440   -10443   -10465   -10449   -10388   -10369   -10357   -10281 
  -10235   -10303   -10374   -10326   -10228   -10206   -10238   -10237 
  -10214   -10203   -10158   -10081   -10048   -10061   -10076   -10116 
  -10219   -10319   -10343   -10335   -10342   -10311   -10260   -10293 
  -10355   -10312   -10245   -10301   -10397   -10426   -10458   -10508 
  -10482   -10436   -10476   -10532   -10544   -10540   -10474   -10314 
  -10183   -10188   -10227   -10152   -10022    -9949    -9887    -9792 
   -9745    -9764    -9794    -9828    -9872    -9921    -9998   -10104 
  -10218   -10304   -10346   -10392   -10453   -10420   -10296   -10258 
  -10327   -10314   -10199   -10170   -10238   -10243   -10169   -10108 
  -10089   -10091   -10110   -10143   -10172   -10196   -10211   -10201 
  -10206   -10261   -10335   -10396   -10443   -10461   -10411   -10350 
  -10381   -10463   -10459   -10399   -10395   -10423   -10411   -10363 
  -10288   -10199   -10177   -10242   -10297   -10291   -10274   -10288 
  -10308   -10326   -10349   -10354   -10343   -10332   -10295   -10241 
  -10235   -10242   -10189   -10168   -10257   -10297   -10191   -10093 
  -10089   -10081   -10050   -10064   -10114   -10147   -10164   -10180 
  -10185   -10156   -10104   -10071   -10061   -10064   -10104   -10181 
  -10206   -10134   -10076   -10112   -10138   -10057    -9979   -10017 
  -10084   -10072   -10046   -10066   -10065   -10035   -10069   -10160 
  -10241   -10311   -10392   -10482   -10552   -10569   -10524   -10470 
  -10471   -10470   -10401   -10351   -10338   -10235   -10084   -10048 
  -10079   -10048   -10004   -10064   -10181   -10237   -10249   -10296 
  -10308   -10208   -10137   -10187   -10208   -10130   -10088   -10107 
  -10077   -10027   -10052   -10084   -10065   -10069   -10098   -10098 
  -10135   -10215   -10210   -10153   -10203   -10309   -10295   -10214 
  -10206   -10231   -10235   -10264   -10291   -10300   -10359   -10444 
  -10459   -10453   -10492   -10490   -10404   -10343   -10349   -10338 
  -10284   -10234   -10196   -10165   -10150   -10142   -10135   -10147 
  -10153   -10137   -10173   -10282   -10338   -10296   -10261   -10247 
  -10203   -10152   -10138   -10147   -10168   -10196   -10200   -10165 
  -10126   -10107   -10107   -10107   -10091   -10076   -10080   -10100 
  -10135   -10160   -10152   -10135   -10099   -10050   -10057   -10065 
  -10003    -9991   -10096   -10157   -10111   -10098   -10179   -10281 
  -10373   -10455   -10500   -10500   -10521   -10605   -10679   -10633 
  -10505   -10424   -10409   -10396   -10384   -10392   -10376   -10303 
  -10230   -10196   -10176   -10130   -10064   -10021    -9994    -9952 
   -9914    -9882    -9849    -9855    -9869    -9823    -9790    -9863 
   -9979   -10091   -10258   -10434   -10497   -10500   -10550   -10635 
  -10702   -10723   -10710   -10705   -10685   -10586   -10424   -10266 
  -10137   -10056   -10031   -10023   -10022   -10073   -10174   -10264 
  -10304   -10312   -10338   -10413   -10484   -10451   -10334   -10253 
  -10241   -10216   -10154   -10120   -10138   -10154   -10141   -10127 
  -10112   -10114   -10193   -10301   -10304   -10230   -10210   -10238 
  -10222   -10142   -10058   -10041   -10115   -10222   -10273   -10276 
  -10299   -10331   -10314   -10251   -10197   -10172   -10156   -10118 
  -10057   -10015   -10026   -10053   -10050   -10052   -10125   -10238 
  -10276   -10231   -10260   -10404   -10508   -10507   -10505   -10497 
  -10407   -10287   -10210   -10174   -10173   -10176   -10164   -10170 
  -10206   -10243   -10281   -10300   -10291   -10308   -10330   -10242 
  -10100   -10080   -10139   -10123   -10091   -10156   -10227   -10192 
  -10108   -10088   -10139   -10199   -10238   -10312   -10476   -10633 
  -10677   -10683   -10744   -10755   -10604   -10403   -10304   -10270 
  -10192   -10084   -10019   -10010   -10019   -10033   -10066   -10089 
  -10065   -10044   -10081   -10173   -10295   -10397   -10430   -10422 
  -10404   -10330   -10193   -10079   -10031   -10008    -9984    -9996 
  -10062   -10139   -10191   -10203   -10177   -10133   -10099   -10088 
  -10061   -10004    -9991   -10034   -10046   -10044   -10115   -10214 
  -10257   -10281   -10328   -10366   -10400   -10470   -10536   -10535 
  -10473   -10382   -10289   -10233   -10237   -10282   -10301   -10268 
  -10227   -10184   -10122   -10072   -10044    -9998    -9934    -9906 
   -9918    -9942    -9992   -10068   -10120   -10150   -10208   -10261 
  -10270   -10288   -10318   -10304   -10258   -10249   -10304   -10347 
  -10309   -10270   -10293   -10277   -10184   -10164   -10247   -10303 
  -10322   -10380   -10443   -10463   -10492   -10542   -10562   -10534 
  -10482   -10419   -10339   -10274   -10261   -10257   -10206   -10162 
  -10183   -10215   -10195   -10125   -10046    -9998    -9980    -9934 
   -9844    -9776    -9755    -9725    -9706    -9767    -9892   -10011 
  -10104   -10199   -10299   -10361   -10370   -10389   -10435   -10438 
  -10382   -10373   -10424   -10430   -10372   -10334   -10335   -10278 
  -10150   -10084   -10120   -10150   -10134   -10141   -10200   -10282 
  -10341   -10345   -10334   -10308   -10210   -10102   -10102   -10149 
  -10135   -10108   -10145   -10196   -10197   -10183   -10241   -10350 
  -10399   -10382   -10393   -10419   -10389   -10345   -10339   -10336 
  -10319   -10319   -10323   -10324   -10345   -10353   -10309   -10222 
  -10112   -10039   -10033   -10014    -9936    -9876    -9913   -10027 
  -10142   -10173   -10115   -10093   -10183   -10291   -10339   -10380 
  -10416   -10403   -10365   -10345   -10330   -10288   -10199   -10096 
  -10057   -10092   -10135   -10129   -10114   -10196   -10346   -10431 
  -10454   -10503   -10532   -10470   -10422   -10493   -10571   -10544 
  -10508   -10540   -10527   -10389   -10246   -10166   -10066    -9948 
   -9925    -9984    -9991    -9971   -10057   -10197   -10243   -10215 
  -10210   -10242   -10280   -10296   -10327   -10434   -10542   -10542 
  -10496   -10484   -10450   -10377   -10327   -10308   -10278   -10208 
  -10114   -10064   -10058   -10019    -9949    -9930    -9953    -9936 
   -9888    -9929   -10075   -10180   -10207   -10270   -10342   -10296 
  -10228   -10300   -10353   -10241   -10184   -10285   -10307   -10210 
  -10185   -10212   -10174   -10146   -10212   -10281   -10262   -10226 
  -10289   -10424   -10507   -10497   -10469   -10470   -10439   -10324 
  -10227   -10233   -10242   -10172   -10129   -10195   -10257   -10206 
  -10133   -10141   -10164   -10106   -10007    -9973   -10018   -10085 
  -10168   -10262   -10349   -10462   -10566   -10561   -10517   -10534 
  -10520   -10420   -10349   -10328   -10251   -10156   -10161   -10214 
  -10210   -10192   -10181   -10152   -10172   -10241   -10222   -10145 
  -10139   -10127   -10006    -9918    -9952    -9968    -9933   -10018 
  -10228   -10361   -10386   -10458   -10554   -10577   -10581   -10574 
  -10466   -10328   -10300   -10326   -10332   -10331   -10270   -10150 
  -10123   -10223   -10268   -10208   -10169   -10157   -10119   -10116 
  -10161   -10143   -10056   -10035   -10118   -10193   -10197   -10174 
  -10141   -10093   -10054   -10033   -10030   -10062   -10116   -10165 
  -10212   -10265   -10318   -10372   -10420   -10453   -10492   -10550 
  -10579   -10563   -10571   -10613   -10600   -10496   -10338   -10191 
  -10137   -10179   -10191   -10103   -10021   -10002    -9945    -9834 
   -9765    -9709    -9633    -9656    -9786    -9850    -9859    -9981 
  -10179   -10274   -10301   -10382   -10480   -10507   -10539   -10658 
  -10755   -10735   -10708   -10727   -10667   -10519   -10431   -10408 
  -10336   -10222   -10134   -10107   -10129   -10125   -10056   -10031 
  -10137   -10245   -10243   -10218   -10257   -10293   -10274   -10262 
  -10273   -10207   -10069   -10035   -10119   -10125   -10049   -10053 
  -10093   -10044    -9981    -9987    -9975    -9936    -9964   -10014 
   -9983    -9929    -9977   -10102   -10212   -10318   -10453   -10574 
  -10651   -10681   -10655   -10601   -10554   -10482   -10363   -10210 
  -10065    -9960    -9879    -9803    -9779    -9852    -9972   -10041 
  -10066   -10133   -10227   -10292   -10332   -10351   -10342   -10341 
  -10328   -10245   -10139   -10076   -10035   -10046   -10161   -10277 
  -10266   -10246   -10315   -10319   -10193   -10099   -10073   -10039 
  -10015   -10027   -10069   -10180   -10369   -10540   -10631   -10713 
  -10794   -10770   -10683   -10666   -10679   -10638   -10581   -10547 
  -10501   -10447   -10427   -10416   -10324   -10170   -10091   -10088 
  -10054   -10003    -9990    -9965    -9922    -9942   -10023   -10049 
   -9995    -9979   -10039   -10096   -10087   -10017    -9965   -10015 
  -10093   -10114   -10160   -10274   -10349   -10357   -10390   -10446 
  -10455   -10461   -10504   -10484   -10382   -10334   -10320   -10208 
  -10111   -10179   -10268   -10215   -10143   -10179   -10218   -10195 
  -10218   -10273   -10222   -10103   -10060   -10066   -10019    -9946 
   -9917    -9906    -9904    -9919    -9892    -9803    -9742    -9730 
   -9680    -9606    -9621    -9713    -9769    -9776    -9811    -9883 
   -9926    -9975   -10125   -10346   -10489   -10513   -10527   -10617 
  -10746   -10820   -10849   -10883   -10879   -10782   -10643   -10538 
  -10439   -10285   -10116   -10003    -9934    -9879    -9834    -9830 
   -9877    -9941    -9965    -9987   -10053   -10083   -10003    -9929 
   -9987   -10100   -10156   -10207   -10347   -10517   -10590   -10554 
  -10512   -10542   -10602   -10579   -10485   -10451   -10490   -10488 
  -10442   -10440   -10453   -10393   -10304   -10261   -10242   -10200 
  -10139   -10073    -9988    -9888    -9834    -9840    -9855    -9895 
   -9998   -10081   -10087   -10076   -10110   -10158   -10179   -10184 
  -10211   -10230   -10218   -10238   -10324   -10397   -10396   -10342 
  -10284   -10261   -10254   -10210   -10131   -10095   -10143   -10189 
  -10160   -10138   -10160   -10139   -10120   -10193   -10284   -10305 
  -10316   -10362   -10416   -10451   -10466   -10461   -10423   -10366 
  -10343   -10353   -10295   -10147   -10022    -9968    -9941    -9918 
   -9917    -9936    -9968   -10007   -10069   -10147   -10195   -10216 
  -10276   -10386   -10482   -10532   -10609   -10712   -10723   -10648 
  -10624   -10608   -10496   -10397   -10415   -10449   -10424   -10370 
  -10270   -10157   -10162   -10262   -10282   -10216   -10212   -10272 
  -10260   -10168   -10107   -10084   -10052   -10072   -10185   -10272 
  -10268   -10268   -10296   -10284   -10253   -10250   -10203   -10081 
   -9988    -9971    -9998   -10049   -10084   -10096   -10168   -10304 
  -10388   -10381   -10359   -10416   -10554   -10679   -10717   -10705 
  -10712   -10708   -10659   -10619   -10600   -10517   -10338   -10153 
  -10033    -9953    -9869    -9780    -9737    -9742    -9738    -9752 
   -9846    -9952   -10025   -10150   -10301   -10366   -10359   -10338 
  -10289   -10234   -10215   -10220   -10228   -10241   -10273   -10335 
  -10405   -10453   -10474   -10476   -10473   -10489   -10527   -10567 
  -10566   -10509   -10469   -10490   -10512   -10477   -10413   -10373 
  -10339   -10277   -10191   -10103   -10018    -9945    -9906    -9909 
   -9896    -9838    -9841    -9950   -10031   -10045   -10102   -10195 
  -10233   -10250   -10301   -10331   -10288   -10258   -10336   -10458 
  -10490   -10453   -10423   -10400   -10368   -10331   -10278   -10233 
  -10237   -10246   -10170   -10066   -10050   -10081   -10073   -10108 
  -10239   -10342   -10366   -10382   -10393   -10370   -10324   -10238 
  -10119   -10054   -10058   -10060   -10084   -10168   -10228   -10219 
  -10222   -10273   -10308   -10309   -10316   -10292   -10206   -10116 
  -10064   -10022    -9968    -9888    -9790    -9745    -9778    -9823 
   -9877    -9971   -10064   -10093   -10092   -10122   -10177   -10220 
  -10269   -10342   -10401   -10395   -10373   -10408   -10419   -10341 
  -10262   -10227   -10146   -10042   -10041   -10122   -10162   -10165 
  -10220   -10307   -10331   -10292   -10249   -10201   -10115   -10038 
  -10045   -10080   -10053   -10022   -10056   -10107   -10141   -10176 
  -10216   -10261   -10323   -10396   -10467   -10515   -10528   -10521 
  -10516   -10517   -10532   -10535   -10454   -10316   -10260   -10269 
  -10218   -10135   -10118   -10158   -10200   -10204   -10185   -10195 
  -10215   -10214   -10226   -10288   -10338   -10305   -10242   -10212 
  -10191   -10134   -10073   -10061   -10098   -10152   -10180   -10181 
  -10196   -10245   -10287   -10312   -10355   -10423   -10497   -10557 
  -10581   -10582   -10563   -10492   -10384   -10300   -10224   -10116 
  -10037   -10012    -9992   -10006   -10091   -10152   -10173   -10239 
  -10296   -10265   -10223   -10255   -10326   -10350   -10305   -10241 
  -10187   -10143   -10114   -10080   -10039   -10022   -10060   -10112 
  -10120   -10108   -10115   -10100   -10054   -10037   -10058   -10087 
  -10103   -10106   -10118   -10157   -10173   -10138   -10123   -10177 
  -10231   -10247   -10305   -10432   -10543   -10605   -10658   -10713 
  -10739   -10701   -10609   -10520   -10436   -10328   -10230   -10162 
  -10112   -10114   -10135   -10093   -10037   -10044   -10061   -10042 
  -10038   -10073   -10118   -10133   -10106   -10050    -9988    -9936 
   -9911    -9942    -9994   -10015   -10083   -10233   -10347   -10374 
  -10393   -10412   -10424   -10459   -10485   -10450   -10386   -10353 
  -10334   -10274   -10187   -10138   -10116   -10077   -10053   -10065 
  -10080   -10098   -10143   -10173   -10158   -10146   -10168   -10177 
  -10139   -10122   -10188   -10278   -10316   -10319   -10312   -10287 
  -10250   -10218   -10179   -10127   -10075   -10053   -10088   -10152 
  -10210   -10262   -10303   -10331   -10339   -10300   -10241   -10191 
  -10123   -10034    -9983    -9980    -9967    -9925    -9888    -9877 
   -9880    -9915    -9980   -10019   -10042   -10130   -10270   -10351 
  -10372   -10458   -10600   -10655   -10638   -10671   -10728   -10697 
  -10609   -10557   -10520   -10461   -10424   -10443   -10451   -10385 
  -10292   -10237   -10218   -10207   -10195   -10180   -10166   -10138 
  -10091   -10060   -10049   -10034   -10018    -9988    -9921    -9880 
   -9913    -9938    -9896    -9868    -9902    -9930    -9945   -10003 
  -10084   -10146   -10239   -10389   -10515   -10581   -10647   -10728 
  -10752   -10716   -10681   -10633   -10551   -10490   -10454   -10380 
  -10311   -10295   -10255   -10200   -10226   -10269   -10214   -10133 
  -10114   -10085   -10027   -10025   -10041    -9979    -9902    -9914 
   -9983   -10062   -10160   -10222   -10201   -10180   -10208   -10228 
  -10222   -10223   -10226   -10222   -10233   -10231   -10185   -10166 
  -10245   -10320   -10301   -10296   -10397   -10515   -10565   -10597 
  -10631   -10619   -10575   -10573   -10608   -10579   -10459   -10354 
  -10301   -10233   -10173   -10177   -10169   -10110   -10122   -10203 
  -10204   -10147   -10172   -10249   -10261   -10206   -10141   -10095 
  -10072   -10081   -10129   -10161   -10149   -10143   -10150   -10125 
  -10075   -10041   -10045   -10076   -10096   -10100   -10111   -10127 
