Origin Time       2026/01/15 07:13:00
Lat.              42.7
Long.             145.4
Depth. (km)       30
Mag.              5.7
Station Code      HKD071
Station Lat.      43.2326
Station Long.     145.2604
Station Height(m) 38
Record Time       2026/01/15 07:13:35
Sampling Freq(Hz) 100Hz
Duration Time(s)  63
Dir.              N-S
Scale Factor      7845(gal)/8223790
Max. Acc. (gal)   24.919
Last Correction   2026/01/15 07:13:36
Memo.             
[...]
    3002     3009     3010     3009     3005     3009     3019     3013 
    2997     2999     3010     3011     3013     3011     3001     2992 
    2995     3010     3018     3007     2998     3007     3015     3006 
    2995     2999     3010     3014     3014     3017     3014     3002 
    2992     2997     3007     3013     3011     3007     3010     3007 
    3002     3009     3013     3003     2997     3002     3011     3015 
    3010     3010     3014     3009     2999     2998     2998     2997 
    3005     3022     3026     3013     2995     2987     2997     3006 
    3006     3010     3018     3015     3003     2995     2999     3010 
    3006     2998     3006     3015     3010     3005     3010     3011 
    3002     2998     3002     2999     2998     3007     3017     3015 
    3010     3003     2999     3002     2999     2997     3010     3025 
    3015     3003     2997     2997     3003     3003     2997     3006 
    3018     3013     3011     3013     3002     2994     2998     3010 
    3019     3010     2999     3005     3005     3002     3006     3009 
    3007     2998     2994     3015     3028     3010     2995     2999 
    3003     2997     2999     3017     3026     3010     2992     3001 
    3009     2994     2992     3018     3032     3017     2994     2995 
    3014     3006     2991     3002     3014     3014     3013     3010 
    3007     3003     2995     2999     3006     2999     3003     3022 
    3024     3006     2991     2992     3009     3022     3015     3003 
    2994     2983     2987     3005     3018     3029     3030     3014 
    2999     2990     2980     2987     3010     3026     3033     3026 
    3011     2999     2978     2974     3001     3018     3013     3010 
    3022     3036     3033     3007     2980     2965     2964     2991 
    3030     3055     3046     3010     2974     2974     2998     3010 
    3013     3017     3014     3006     3005     3013     3015     2998 
    2982     2994     3014     3014     3011     3019     3015     3005 
    3003     3006     3005     2997     2997     3017     3021     3005 
    3001     3009     3005     2995     3002     3017     3017     3010 
    3010     3011     3002     2992     2992     2995     3001     3019 
    3034     3024     2998     2980     2984     3005     3017     3015 
    3018     3017     3007     3002     3001     2998     2997     2997 
    3006     3019     3015     3009     3006     2997     2997     3011 
    3018     3009     2995     2991     3011     3024     3013     3006 
    3005     2998     2995     3003     3015     3017     3006     3005 
    3013     3003     2988     2999     3015     3022     3019     3014 
    3013     3005     2983     2986     3013     3015     3010     3014 
    3013     3005     3001     2999     3009     3015     3010     3015 
    3014     2999     2998     3002     3006     3014     3009     2998 
    3006     3009     2999     3005     3011     3009     3010     3011 
    3013     3011     3001     2997     3002     3005     3005     3011 
    3013     3013     3010     3003     2999     2999     3001     3006 
    3011     3017     3022     3014     2997     2990     3002     3011 
    3009     3007     3009     3007     3005     3010     3015     3006 
    2990     2995     3010     3013     3013     3011     3009     2999 
    2992     3007     3025     3011     2991     3003     3018     3011 
    3002     3001     3006     3009     3001     3007     3026     3011 
    2986     2995     3011     3006     2999     3010     3022     3010 
    2994     2998     3011     3009     2994     2995     3011     3017 
    3009     3007     3014     3011     2991     2982     3006     3024 
    3014     3010     3018     3010     2992     2999     3014     3009 
    2990     2984     3001     3013     3017     3025     3029     3018 
    3001     2988     2986     2994     3003     3010     3022     3029 
    3017     2995     2987     2990     2988     2998     3018     3028 
    3026     3024     3021     3009     2984     2964     2978     3011 
    3029     3028     3024     3017     3006     2995     2991     2998 
    3007     3006     3005     3015     3025     3011     2994     2997 
    2999     2997     3005     3024     3026     3006     2990     2999 
    3015     3010     2995     3002     3013     3009     3003     3013 
    3017     3001     2988     3005     3028     3019     3003     3007 
    3007     2992     2988     3009     3022     3011     2998     3005 
    3018     3007     2994     3003     3011     3005     3002     3006 
    3011     3013     3005     3007     3011     3001     2995     3006 
    3014     3009     3002     3005     3013     3013     3002     2999 
    3003     3003     3005     3009     3013     3010     2999     2994 
    3002     3009     3005     3005     3007     3006     3007     3009 
    3009     3010     3005     2997     3003     3015     3013     2999 
    2992     3001     3010     3009     3013     3015     3007     3003 
    3010     3009     3005     2999     2999     3011     3018     3007 
    3002     3003     2999     2997     3005     3017     3017     3003 
    2994     3005     3014     3011     3009     3002     2997     3003 
    3011     3014     3009     2999     3003     3017     3019     3010 
    3002     3001     3003     3003     3005     3009     3009     3007 
    3010     3010     3005     3003     3003     3006     3013     3013 
    3006     2997     2984     2982     2997     2999     2972     2929 
    2879     2839     2829     2844     2855     2826     2739     2613 
    2527     2524     2578     2659     2735     2778     2808     2890 
    3059     3208     3202     3091     3038     3072     3165     3315 
    3445     3434     3303     3231     3276     3221     2901     2492 
    2280     2335     2633     3067     3334     3288     3098     2945 
    2883     2789     2524     2169     1900     1885     2220     2710 
    3030     3007     2794     2820     3280     3908     4288     4149 
    3530     2832     2535     2725     3204     3762     4170     4360 
    4521     5011     5800     5819     4479     3052     2586     2632 
    2650     2627     2610     2485     2290     2486     3028     3015 
    2324     1827     1694     1506     1300     1090      691      494 
    1181     2694     4271     5205     5173     4464     4005     4176 
    4326     3827     2755     1899     1869     2370     2930     3276 
    3114     2643     2704     3684     4645     4500     3516     2412 
    1575     1609     2689     3910     4274     3782     3288     3294 
    3608     4055     4395     4174     3377     2690     2633     2666 
    2151     1501     1431     2034     2701     2928     3014     3140 
    2862     1993      778      -72      346     1887     3429     4375 
    4752     4266     2899     1761     1825     2934     4176     4587 
    4469     4823     5228     4741     3422     1867     1043     1649 
    3327     5271     6474     6247     4904     2921      927       66 
     394      739      997     1995     3411     4274     4421     3958 
    3019     2290     2246     2625     2959     3034     3214     3623 
    3496     2957     3100     3488     3211     2907     3327     4045 
    4083     3095     1726      784      494      645     1273     2099 
    2362     2590     3730     4962     5229     5038     5408     6006 
    5591     4229     2959     2192     1802     1495     1485     2408 
    3851     4726     4691     3955     2771     1597     1273     1952 
    2581     2335     1093     -691    -1757    -1013     1570     5008 
    7674     8413     7357     5518     4124     3439     2494     1173 
     808     1956     3627     4762     5049     4568     3676     3100 
    3329     3798     3627     2909     2100     1053     -201     -783 
    -226      627     1112     1651     2347     2756     3019     3522 
    4241     4645     4214     3600     3724     4363     4924     5097 
    4927     4657     4124     3661     4063     4665     4500     3867 
    3129     2442     1722      739      156      378      733     1225 
    2388     3500     3341     2126     1251     1625     2918     4125 
    4722     4880     4411     2876      978      183      955     2331 
    3522     4785     5625     4706     2556     1251     1655     2943 
    3994     4206     3516     2423     1764     1941     2640     3577 
    4573     5332     5876     6072     5570     4639     3532     2463 
    2093     2173     2052     2081     2196     1903     1792     2182 
    2477     2724     3192     3582     3572     2795     1491      733 
     928     1875     3308     4239     3599     1973     1239     2141 
    3481     4064     4079     4369     5022     5070     4212     3298 
    2312      792     -108      940     3133     4711     5105     4734 
    3962     3017     2343     2431     2890     3030     3535     4922 
    5775     5054     3699     3028     3172     3252     2971     2835 
    2953     3037     2747     2278     2292     2435     1948     1111 
     805     1551     2263     1409      -63     -156     1472     4054 
    6328     6944     5451     3011     1869     2496     3163     3298 
    3562     3982     4422     4685     4506     3763     2169      700 
    1233     3435     5228     5167     3200      904     -102      288 
    1429     2340     2424     2477     3478     5012     5552     4066 
    1449      -58      622     2404     4171     5791     6610     5957 
    4718     4047     3585     2542     1524     1656     2778     3538 
    2964     1683      661       83      440     1825     2945     2961 
    2589     2938     3888     4012     3034     2416     2659     2932 
    2992     3218     3512     3357     3034     3754     5520     6604 
    6230     5271     4425     3893     3615     3253     2602     1540 
     619     1113     2785     4009     4217     3821     3133     1987 
     330     -789     -672       13      903     2273     3875     4673 
    3862     2165     1325     2166     3927     5530     6397     6168 
    4914     3427     2409     1908     1714     1603     1702     2490 
    3811     4837     4876     3804     2409     1729     1925     2569 
    3208     3558     3816     4291     4712     4725     4498     4099 
    3288     2369     2122     2756     3599     3904     3712     3640 
    3488     2332      525     -783    -1120     -410      851     1885 
    2461     2523     2421     2713     3222     3713     4198     4291 
    3901     3940     5111     6705     7241     5786     3241     1826 
    2133     2555     2305     2265     2785     3194     3271     3163 
    2562     1271     -210     -733      550     2768     4139     4056 
    3227     2496     2328     2727     3256     3620     4104     4973 
    6149     7304     7609     6393     4202     2220      946      156 
     106     1008     1661     1278      922     1389     2064     2073 
    1306      530      511     1267     2307     3126     3801     4891 
    6264     7002     6781     6172     5570     4845     3835     2849 
    2660     3186     3338     3127     3553     4301     4128     2844 
    1313      546     1085     2286     2806     2234     1298      781 
     857     1205     1524     2022     3171     4835     6150     6346 
    5483     4102     2552     1301     1030     1723     2251     1690 
     835     1182     2778     4156     4287     3854     3906     4437 
    4957     5165     4888     3987     2508     1235     1331     2585 
    3546     3817     3838     3496     3044     3202     3807     4094 
    3370     1611      341     1040     2856     3986     3746     2390 
    1262     1746     3006     3291     2505     1883     2235     3010 
    3510     3971     4212     3380     1879     1181     1887     3277 
    4248     4486     4710     5370     6057     6278     5701     4372 
    2987     2068     1532     1077      720      918     1648     2351 
    2675     2619     2602     2813     2785     2427     2092     1825 
    1584     1547     1899     2585     3376     4024     4143     3829 
    3958     4752     5493     5759     5363     4347     3338     2651 
    2115     1861     1880     1759     1485     1684     2643     3639 
    4016     3943     3570     2886     2269     2035     1954     1938 
    2312     3086     3875     4356     4530     4725     4962     4811 
    4139     3477     3555     4158     4191     3454     2538     1711 
    1431     1930     2430     2332     2088     2596     4218     5886 
    6124     5057     3670     2277     1120      741     1173     1803 
    2014     2023     2313     2566     2683     3080     3354     2972 
    2442     2158     1620      729       44     -394     -892    -1327 
   -1112      484     3229     5821     7406     7774     6789     4911 
    3029     1561      800     1267     3030     5541     8075     9769 
   10111     9625     8869     7834     6791     5821     4635     3381 
    2119      896      467     1197     1908     1142     -502     -938 
     328     1945     3080     3824     4045     3553     2285       49 
   -2608    -4607    -5290    -3562     1170     6883    11244    14148 
   15639    14669    11368     7334     3666      706    -2133    -6241 
  -10804   -12452    -9651    -4029     1746     5317     5945     4434 
    2119     1279     3811     8440    11273     9537     4379     -391 
   -2037    -1143     -171     -608    -2610    -5219    -6492    -6343 
   -6764    -7615    -6704    -2748     4903    15433    24931    29138 
   26742    19296    10044     3138     1358     3086     3735      999 
   -3434    -6953    -7758    -4660     1642     8440    12938    13936 
   12518    10802    10042     9410     6667      815    -7002   -14014 
  -16904   -14914   -10594    -6643    -4086    -2385      -87     3584 
    8267    13217    17076    17554    13270     6307      130    -4332 
   -6801    -6691    -5254    -2423     3815    12611    21139    26192 
   24375    17691    12410    10156     8873     7383     3530    -4468 
  -14203   -21317   -23045   -18882   -11346    -4220     1313     5387 
    6686     4509      259    -3928    -6138    -5790    -3253     1823 
    9069    16028    20139    20464    17701    13263     8669     5771 
    5475     6484     7965    10497    12707    12035     7944     1300 
   -5314    -8233    -6666    -1599     6490    14959    19714    18917 
   12707     2635    -7690   -14532   -16329   -13358    -7820    -3244 
    -426     2362     4641     4307     1470    -1074     -538     2770 
    6173     8073     8029     5005     -904    -7191   -11448   -12100 
   -7904       18     8210    13743    15695    15028    12951     9458 
    5074     2336     3262     6820     9938    10660     9729     8637 
    7523     6265     5481     5039     4583     5255     7044     7265 
    4043    -2558   -11279   -18569   -20902   -18370   -12646    -4679 
    3447     8557     9661     7974     4801     1749      392     1652 
    5985    11728    15252    14365     9663     3572     -858    -1260 
    2741     8658    12965    14369    13177     8800     1112    -7303 
  -12555   -12501    -8345    -3032     2161     7380    11546    12815 
   10570     6065     1264    -2361    -3372    -1169     2655     5656 
    5857     2710    -1432    -3109    -1030     3478     8136    11573 
   13558    13932    12187     8125     3148     -658    -2592    -2756 
   -1043     2639     7476    11051    11232     7846     1925    -4453 
   -8533    -8626    -5606    -2677    -1973    -2197    -1637     -855 
    -851     -838      600     3080     5103     6438     7911     9285 
    9193     7484     5791     5502     6682     8738    10983    12534 
   12401    10119     6147     2014     -556    -1499    -1501     -334 
    1181     1706     1938     2168     1506      703      278     -785 
   -2153    -3117    -4592    -6411    -6370    -3149     2265     7460 
   10281    10416     9063     7242     5379     4081     4048     5568 
    8083     9749     8696     4955      599    -2014    -2512    -1795 
    -286     1224     1879     1617      120    -2358    -4152    -3838 
    -966     3669     8152    11402    13616    15057    15711    14855 
   12164     9216     6872     3997      280    -3447    -6092    -6531 
   -5310    -3840    -1910      972     3505     4018     2737     1298 
     623      132     -927    -1996    -1980     -738     1228     3466 
    5657     7659     8992     8793     7751     8037     9981    11789 
   11785     8745     2781    -3659    -8027    -9560    -8652    -6138 
   -3141    -1111     -661     -769     -818     -778      195     2779 
    7146    12140    14818    14640    13689    12299    10431     9139 
    8360     7778     7570     6706     4414     1890       -2    -1814 
   -4232    -7481   -10234   -10037    -6419    -1556     2593     5644 
    7271     7361     6997     6835     6446     5464     3827     2477 
    2786     3889     3816     2523      824     -517     -141     2039 
    4417     6177     7117     6687     5189     3497     1863      737 
    1173     2920     3928     3450     3136     3977     5543     7192 
    7901     7434     6822     6639     6597     5570     2371    -2319 
   -6149    -7175    -5663    -3596    -2466    -2821    -4494    -6192 
   -6453    -4679    -1119     3118     6752     8891     9070     8197 
    7767     7928     8091     7927     7531     7479     7859     8382 
    9138     9603     9271     9362    10531    11429    11488    11114 
    9649     6396     2116    -1968    -5478    -8445   -10390   -10447 
   -7740    -2174     4000     7092     5520      830    -4374    -8182 
   -9954   -10076    -8984    -6331    -1779     3592     8027    10276 
    9778     7429     5220     4511     5617     8141    11024    12949 
   13405    13082    12430    10887     8372     5719     3504     1822 
     372    -1282    -2594    -2772    -2118    -1074     -253     -795 
   -2064    -1895      102     2443     3441     2265      -45    -1895 
   -2735    -2251      -86     3253     6871    10771    14661    16769 
   16133    13601    10174     6405     2281    -2193    -5760    -7111 
   -6718    -5213    -2007     2444     5846     6328     3825      172 
   -2128    -2216    -1035      279     1263     2334     3916     5319 
    5566     4733     4035     5179     8461    11492    12193    11426 
   10293     8395     5746     2916      232    -1435    -1437     -619 
      44      673     1516     1977     1687     1626     2667     4418 
    5917     6134     5278     4773     4523     3306     1264     -691 
   -1865    -1813    -1084     -797     -905     -463      445      990 
     938      552      438      931     1405     1429     1516     2085 
    3221     5217     7908    10466    12627    14300    14636    13247 
   10933     8491     5914     2890     -434    -3447    -5413    -5782 
   -4888    -3555    -2050     -715       56     1061     2651     3700 
    3977     3728     2110     -481    -1709     -583     1539     3346 
    4750     6215     8074    10199    12252    13601    13217    10524 
    6069     1857       31      324     1011     1291      923        9 
    -588     -379      229      801      947      267     -864    -1667 
   -1908    -1397       35     1678     3088     5127     8035    10759 
