Origin Time       2026/01/15 07:13:00
Lat.              42.7
Long.             145.4
Depth. (km)       30
Mag.              5.7
Station Code      HKD051
Station Lat.      44.0221
Station Long.     143.7682
Station Height(m) 47
Record Time       2026/01/15 07:14:12
Sampling Freq(Hz) 100Hz
Duration Time(s)  60
Dir.              N-S
Scale Factor      7845(gal)/8223790
Max. Acc. (gal)   1.985
Last Correction   2026/01/15 07:14:13
Memo.             
[...]
    3990     4006     4041     4099     4172     4270     4383     4480 
    4565     4653     4737     4811     4862     4878     4870     4853 
    4814     4746     4668     4584     4484     4382     4280     4180 
    4102     4051     4021     4028     4072     4132     4195     4241 
    4241     4203     4151     4078     4001     3951     3923     3904 
    3905     3921     3935     3964     4025     4094     4174     4264 
    4342     4401     4434     4436     4429     4433     4429     4440 
    4487     4549     4627     4731     4831     4914     4980     5013 
    5007     4966     4888     4773     4635     4484     4325     4171 
    4031     3886     3751     3647     3582     3573     3623     3704 
    3794     3889     3960     3998     4020     4031     4032     4048 
    4094     4155     4212     4255     4279     4299     4325     4351 
    4388     4437     4476     4504     4527     4527     4500     4456 
    4388     4320     4272     4245     4245     4284     4352     4433 
    4517     4587     4635     4662     4672     4664     4645     4617 
    4565     4499     4425     4325     4205     4085     3964     3851 
    3771     3723     3696     3704     3735     3767     3815     3869 
    3910     3958     4023     4079     4136     4193     4233     4275 
    4332     4386     4442     4509     4568     4618     4672     4712 
    4719     4708     4691     4664     4639     4618     4585     4558 
    4537     4511     4490     4464     4425     4394     4391     4405 
    4437     4476     4487     4476     4452     4388     4290     4190 
    4086     3977     3889     3829     3773     3715     3662     3630 
    3640     3694     3769     3869     3983     4082     4162     4228 
    4270     4295     4320     4342     4372     4418     4472     4530 
    4595     4652     4688     4714     4725     4710     4695     4699 
    4710     4729     4743     4734     4710     4671     4608     4554 
    4522     4483     4426     4369     4298     4198     4081     3966 
    3870     3805     3755     3707     3663     3628     3607     3615 
    3658     3727     3815     3912     3997     4074     4148     4209 
    4267     4328     4380     4432     4498     4568     4627     4680 
    4726     4756     4784     4806     4811     4814     4808     4774 
    4731     4689     4629     4552     4471     4379     4280     4183 
    4085     3996     3931     3882     3844     3823     3808     3790 
    3784     3793     3813     3844     3888     3931     3986     4063 
    4137     4209     4297     4384     4459     4533     4599     4648 
    4684     4710     4723     4729     4722     4689     4648     4604 
    4546     4491     4450     4413     4376     4332     4264     4185 
    4104     4010     3921     3866     3834     3821     3840     3875 
    3915     3967     4036     4110     4183     4240     4274     4306 
    4336     4356     4388     4448     4519     4602     4680     4722 
    4727     4704     4656     4592     4533     4469     4410     4372 
    4349     4321     4293     4260     4221     4182     4136     4085 
    4047     4016     3979     3962     3958     3935     3904     3883 
    3862     3846     3850     3866     3902     3977     4072     4175 
    4291     4398     4487     4575     4649     4691     4714     4727 
    4727     4722     4707     4668     4625     4587     4534     4480 
    4442     4409     4367     4328     4288     4245     4214     4189 
    4167     4160     4162     4160     4155     4129     4074     4012 
    3952     3886     3834     3816     3828     3873     3950     4036 
    4113     4185     4244     4288     4337     4391     4444     4499 
    4552     4598     4649     4695     4730     4766     4806     4833 
    4853     4869     4866     4847     4815     4746     4645     4527 
    4394     4255     4126     4010     3919     3854     3802     3770 
    3769     3796     3838     3886     3928     3950     3963     3973 
    3955     3916     3885     3863     3850     3861     3898     3971 
    4075     4189     4301     4414     4513     4583     4637     4681 
    4719     4753     4784     4803     4803     4781     4730     4650 
    4554     4455     4374     4320     4286     4283     4305     4330 
    4342     4338     4309     4260     4212     4155     4081     4008 
    3936     3850     3771     3723     3697     3696     3731     3786 
    3848     3927     4018     4121     4240     4356     4463     4572 
    4675     4762     4845     4914     4957     4976     4962     4909 
    4843     4765     4665     4573     4509     4455     4402     4364 
    4322     4271     4224     4178     4136     4121     4114     4098 
    4081     4059     4021     3983     3943     3898     3873     3873 
    3878     3892     3912     3921     3928     3948     3969     3987 
    4027     4077     4133     4199     4259     4317     4388     4472 
    4564     4673     4779     4851     4903     4936     4942     4932 
    4912     4860     4789     4719     4631     4533     4433     4321 
    4202     4093     3991     3902     3844     3808     3784     3781 
    3789     3794     3797     3801     3811     3836     3878     3924 
    3981     4054     4125     4198     4268     4322     4371     4428 
    4483     4534     4592     4646     4699     4760     4804     4833 
    4855     4853     4826     4801     4777     4734     4688     4646 
    4594     4526     4459     4398     4348     4321     4309     4309 
    4317     4315     4298     4276     4247     4207     4163     4117 
    4075     4044     4018     3994     3989     4009     4039     4082 
    4144     4199     4243     4284     4313     4328     4345     4363 
    4374     4375     4367     4355     4352     4349     4332     4320 
    4321     4311     4303     4314     4332     4347     4361     4369 
    4375     4382     4367     4325     4284     4243     4197     4155 
    4114     4082     4066     4052     4039     4045     4070     4098 
    4133     4175     4202     4209     4209     4193     4164     4137 
    4118     4120     4145     4174     4197     4220     4220     4187 
    4148     4094     4009     3910     3817     3730     3658     3612 
    3591     3596     3623     3651     3694     3770     3852     3931 
    4031     4136     4233     4337     4432     4511     4594     4646 
    4661     4679     4695     4689     4691     4707     4715     4723 
    4742     4761     4780     4799     4800     4795     4797     4788 
    4772     4758     4720     4654     4595     4529     4438     4345 
    4256     4179     4136     4122     4116     4117     4122     4109 
    4072     4024     3951     3877     3835     3823     3834     3877 
    3931     3990     4062     4129     4187     4256     4332     4402 
    4477     4554     4610     4649     4685     4703     4704     4710 
    4714     4714     4722     4733     4747     4768     4766     4741 
    4714     4672     4612     4557     4503     4446     4402     4365 
    4325     4290     4261     4233     4217     4214     4190     4141 
    4079     3989     3875     3770     3672     3582     3524     3512 
    3549     3622     3704     3797     3906     4010     4090     4152 
    4202     4232     4251     4275     4298     4315     4332     4338 
    4342     4347     4340     4329     4328     4328     4326     4338 
    4353     4365     4391     4411     4410     4405     4391     4353 
    4315     4299     4297     4306     4332     4367     4402     4438 
    4469     4491     4513     4526     4523     4511     4491     4450 
    4401     4352     4302     4271     4257     4248     4253     4279 
    4307     4345     4384     4399     4386     4360     4307     4222 
    4125     4027     3939     3892     3875     3882     3933     4013 
    4081     4144     4209     4261     4313     4365     4411     4463 
    4523     4575     4622     4679     4745     4816     4903     4997 
    5082     5155     5198     5208     5196     5136     5011     4850 
    4665     4448     4222     4023     3850     3711     3620     3566 
    3532     3519     3514     3515     3526     3526     3501     3466 
    3415     3353     3302     3254     3214     3215     3252     3308 
    3393     3495     3588     3688     3812     3936     4063     4210 
    4378     4558     4747     4923     5080     5217     5314     5371 
    5401     5400     5377     5359     5347     5328     5305     5279 
    5243     5194     5131     5054     4970     4889     4806     4704 
    4596     4484     4369     4276     4214     4171     4141     4099 
    4039     3978     3908     3820     3732     3645     3549     3457 
    3379     3310     3260     3238     3235     3264     3333     3435 
    3565     3717     3875     4036     4207     4376     4522     4664 
    4795     4901     5003     5097     5165     5217     5266     5286 
    5274     5235     5158     5057     4946     4819     4692     4576 
    4464     4367     4301     4256     4216     4189     4163     4121 
    4068     3997     3888     3757     3616     3464     3311     3169 
    3030     2911     2840     2818     2845     2930     3068     3256 
    3487     3736     3994     4261     4522     4758     4981     5182 
    5337     5458     5555     5620     5653     5657     5622     5559 
    5482     5379     5263     5151     5028     4891     4754     4617 
    4463     4298     4128     3962     3815     3688     3591     3534 
    3501     3480     3469     3464     3457     3449     3447     3458 
    3487     3518     3534     3554     3607     3686     3801     3969 
    4178     4402     4649     4900     5124     5329     5521     5675 
    5791     5871     5886     5836     5722     5535     5278     4985 
    4672     4357     4077     3846     3673     3559     3487     3434 
    3402     3387     3369     3342     3304     3252     3199     3148 
    3100     3079     3094     3133     3215     3352     3520     3709 
    3913     4118     4317     4518     4704     4868     5019     5142 
    5212     5250     5266     5251     5229     5227     5240     5273 
    5309     5324     5324     5310     5266     5192     5093     4965 
    4815     4664     4503     4330     4164     4005     3850     3713 
    3582     3449     3333     3235     3141     3064     3021     3007 
    3029     3096     3214     3385     3603     3846     4112     4388 
    4639     4846     5008     5112     5148     5139     5103     5034 
    4958     4895     4839     4806     4793     4784     4784     4807 
    4841     4876     4914     4945     4955     4942     4897     4826 
    4739     4635     4521     4417     4310     4187     4067     3952 
    3823     3690     3557     3412     3265     3119     2975     2847 
    2754     2687     2654     2679     2755     2867     3010     3168 
    3342     3547     3769     3990     4232     4480     4712     4932 
    5131     5277     5362     5393     5381     5348     5312     5278 
    5259     5266     5287     5317     5356     5390     5391     5360 
    5301     5198     5055     4873     4650     4413     4180     3950 
    3747     3595     3483     3410     3387     3400     3457     3565 
    3708     3866     4035     4193     4317     4415     4473     4477 
    4450     4387     4276     4149     4029     3913     3816     3750 
    3707     3693     3717     3762     3829     3932     4054     4182 
    4317     4441     4536     4590     4577     4506     4413     4298 
    4168     4078     4044     4051     4117     4243     4388     4546 
    4715     4864     4982     5069     5094     5054     4977     4870 
    4734     4600     4484     4383     4321     4306     4326     4384 
    4461     4525     4575     4614     4618     4596     4563     4507 
    4449     4402     4344     4284     4240     4180     4102     4021 
    3929     3825     3736     3654     3565     3488     3433     3379 
    3342     3326     3308     3299     3299     3287     3283     3319 
    3395     3512     3678     3888     4135     4403     4658     4895 
    5127     5341     5524     5682     5813     5904     5958     5973 
    5934     5849     5734     5594     5445     5294     5121     4939 
    4769     4596     4415     4245     4083     3925     3775     3628 
    3481     3349     3222     3095     3002     2955     2930     2925 
    2943     2974     3025     3106     3211     3348     3520     3712 
    3923     4149     4360     4540     4708     4858     4970     5050 
    5100     5111     5093     5055     5005     4965     4930     4874 
    4819     4788     4762     4746     4742     4729     4704     4664 
    4587     4479     4364     4239     4105     3979     3863     3747 
    3654     3585     3530     3505     3519     3558     3624     3709 
    3785     3859     3946     4031     4120     4217     4301     4365 
    4415     4445     4463     4483     4495     4502     4526     4567 
    4612     4677     4766     4853     4936     5016     5074     5107 
    5123     5111     5080     5034     4959     4868     4780     4684 
    4571     4463     4364     4261     4162     4068     3963     3855 
    3744     3608     3461     3318     3168     3032     2932     2864 
    2843     2890     3001     3169     3388     3615     3820     3996 
    4131     4213     4253     4263     4248     4221     4191     4164 
    4163     4199     4264     4378     4546     4741     4955     5197 
    5445     5680     5899     6091     6239     6336     6367     6324 
    6211     6023     5767     5458     5101     4704     4298     3904 
    3523     3173     2884     2673     2538     2479     2485     2543 
    2648     2778     2920     3073     3217     3350     3491     3628 
    3761     3915     4094     4291     4506     4718     4905     5063 
    5188     5267     5312     5329     5319     5285     5231     5143 
    5019     4887     4753     4625     4521     4445     4380     4328 
    4286     4245     4207     4167     4120     4085     4067     4048 
    4031     4013     3985     3944     3889     3807     3709     3624 
    3555     3508     3500     3538     3622     3744     3885     4028 
    4178     4326     4459     4585     4714     4827     4938     5050 
    5131     5177     5208     5209     5178     5134     5051     4934 
    4822     4706     4567     4426     4287     4125     3963     3825 
    3707     3612     3555     3526     3522     3546     3569     3589 
    3624     3659     3692     3747     3821     3900     3990     4091 
    4195     4309     4407     4476     4527     4558     4563     4568 
    4585     4611     4664     4745     4835     4927     5012     5077 
    5128     5166     5152     5085     4990     4865     4692     4499 
    4309     4129     3979     3870     3796     3759     3746     3744 
    3759     3778     3781     3773     3758     3732     3709     3708 
    3727     3766     3835     3920     4017     4131     4245     4345 
    4444     4530     4581     4604     4606     4577     4533     4471 
    4380     4276     4174     4059     3943     3848     3759     3685 
    3654     3653     3681     3754     3852     3966     4106     4252 
    4387     4522     4661     4791     4912     5038     5165     5282 
    5378     5435     5451     5437     5374     5269     5150     5009 
    4850     4700     4556     4405     4264     4137     4024     3931 
    3859     3809     3789     3793     3798     3809     3824     3825 
    3812     3794     3766     3739     3732     3732     3739     3771 
    3817     3871     3951     4045     4136     4232     4322     4384 
    4429     4457     4460     4459     4464     4464     4467     4499 
    4552     4618     4704     4795     4878     4958     5015     5044 
    5054     5020     4943     4855     4758     4639     4517     4398 
    4278     4168     4082     4006     3936     3874     3815     3761 
    3727     3701     3676     3661     3647     3628     3616     3615 
    3620     3646     3693     3759     3848     3958     4079     4216 
    4367     4513     4641     4760     4851     4915     4959     4980 
    4973     4953     4903     4814     4711     4596     4455     4306 
    4160     4013     3889     3789     3713     3688     3703     3732 
    3801     3917     4033     4139     4253     4360     4444     4507 
    4541     4552     4560     4564     4567     4575     4572     4564 
    4569     4579     4572     4557     4534     4488     4422     4345 
    4259     4182     4133     4099     4087     4110     4143     4183 
    4245     4314     4388     4471     4537     4576     4603     4606 
    4568     4502     4422     4321     4205     4097     3998     3906 
    3831     3774     3740     3731     3731     3735     3757     3788 
    3811     3844     3892     3939     3990     4040     4079     4117 
    4152     4185     4225     4276     4334     4391     4441     4475 
    4504     4546     4584     4614     4650     4684     4702     4716 
    4710     4676     4642     4610     4576     4557     4550     4536 
    4525     4518     4495     4465     4432     4380     4330     4301 
    4287     4282     4286     4298     4317     4341     4351     4342 
    4338     4338     4325     4295     4247     4179     4108     4041 
    3977     3913     3851     3780     3709     3651     3597     3557 
    3545     3550     3574     3639     3727     3820     3929     4047 
    4162     4290     4423     4552     4699     4850     4978     5089 
    5179     5229     5240     5217     5152     5067     4986     4903 
    4822     4764     4718     4665     4615     4565     4503     4441 
    4375     4295     4218     4137     4045     3963     3892     3813 
    3743     3699     3666     3642     3631     3623     3622     3649 
    3694     3759     3862     3977     4075     4179     4286     4364 
    4430     4491     4526     4554     4579     4571     4540     4507 
    4464     4415     4380     4347     4314     4295     4279     4259 
    4241     4216     4185     4176     4179     4172     4180     4214 
    4249     4288     4336     4382     4426     4460     4464     4452 
    4434     4388     4322     4261     4197     4131     4077     4029 
    3985     3943     3898     3851     3815     3784     3751     3742 
    3757     3775     3813     3878     3958     4050     4152     4255 
    4359     4455     4521     4575     4623     4649     4657     4673 
    4692     4710     4733     4750     4756     4768     4776     4770 
    4766     4753     4716     4679     4649     4598     4534     4482 
    4438     4399     4364     4324     4284     4256     4220     4171 
    4126     4074     4001     3929     3875     3835     3815     3820 
    3850     3910     3998     4091     4199     4313     4402     4476 
    4557     4631     4695     4762     4828     4887     4949     4992 
    5005     5001     4974     4909     4831     4749     4648     4537 
    4425     4310     4206     4116     4029     3956     3906     3855 
    3797     3746     3697     3654     3630     3616     3605     3607 
    3622     3639     3670     3716     3762     3820     3893     3967 
    4054     4160     4267     4365     4460     4542     4614     4681 
    4742     4789     4830     4857     4861     4855     4839     4795 
