Origin Time       2026/01/15 07:13:00
Lat.              42.7
Long.             145.4
Depth. (km)       30
Mag.              5.7
Station Code      HKD092
Station Lat.      42.9283
Station Long.     143.4485
Station Height(m) 17
Record Time       2026/01/15 07:14:02
Sampling Freq(Hz) 100Hz
Duration Time(s)  62
Dir.              E-W
Scale Factor      7845(gal)/8223790
Max. Acc. (gal)   8.119
Last Correction   2026/01/15 07:14:02
Memo.             
[...]
   -2046    -2169    -2280    -2378    -2498    -2583    -2477    -2131 
   -1717    -1452    -1421    -1543    -1683    -1811    -1992    -2268 
   -2585    -2795    -2799    -2708    -2647    -2548    -2315    -1965 
   -1576    -1325    -1391    -1701    -2025    -2230    -2317    -2315 
   -2241    -2151    -2104    -2070    -2030    -2015    -2006    -1935 
   -1809    -1705    -1690    -1760    -1896    -2047    -2114    -2058 
   -1975    -1965    -2064    -2243    -2501    -2821    -3091    -3198 
   -3159    -3005    -2733    -2435    -2254    -2227    -2284    -2355 
   -2403    -2416    -2344    -2114    -1764    -1459    -1309    -1308 
   -1379    -1478    -1607    -1717    -1775    -1871    -2095    -2417 
   -2695    -2775    -2652    -2452    -2262    -2066    -1871    -1804 
   -1956    -2166    -2218    -2153    -2182    -2373    -2604    -2744 
   -2743    -2629    -2489    -2369    -2223    -2008    -1740    -1486 
   -1291    -1158    -1136    -1278    -1513    -1738    -1938    -2137 
   -2305    -2405    -2440    -2416    -2359    -2361    -2475    -2623 
   -2663    -2535    -2293    -2074    -2065    -2340    -2709    -2893 
   -2821    -2587    -2276    -1950    -1713    -1638    -1678    -1715 
   -1723    -1749    -1819    -1934    -2052    -2122    -2187    -2311 
   -2493    -2677    -2793    -2790    -2637    -2326    -1941    -1618 
   -1409    -1300    -1317    -1466    -1660    -1814    -1929    -2060 
   -2259    -2502    -2652    -2629    -2524    -2463    -2490    -2533 
   -2494    -2377    -2295    -2332    -2419    -2392    -2235    -2047 
   -1858    -1679    -1575    -1615    -1796    -2020    -2187    -2280 
   -2340    -2376    -2389    -2407    -2416    -2362    -2245    -2079 
   -1899    -1782    -1748    -1767    -1852    -1999    -2150    -2269 
   -2380    -2529    -2667    -2632    -2343    -1939    -1652    -1575 
   -1671    -1872    -2058    -2149    -2211    -2247    -2181    -2037 
   -1883    -1738    -1657    -1690    -1811    -1988    -2195    -2413 
   -2650    -2840    -2891    -2806    -2606    -2278    -1945    -1853 
   -2062    -2385    -2625    -2675    -2552    -2405    -2334    -2305 
   -2269    -2196    -2106    -2043    -2045    -2114    -2200    -2178 
   -2020    -1900    -1952    -2138    -2361    -2440    -2177    -1644 
   -1188    -1028    -1119    -1305    -1499    -1709    -1937    -2118 
   -2227    -2311    -2358    -2293    -2115    -1975    -2022    -2192 
   -2296    -2295    -2292    -2322    -2338    -2328    -2331    -2390 
   -2463    -2424    -2281    -2205    -2258    -2339    -2366    -2344 
   -2313    -2273    -2189    -2068    -1937    -1799    -1672    -1595 
   -1586    -1617    -1645    -1676    -1782    -1991    -2235    -2438 
   -2625    -2844    -3041    -3113    -3026    -2818    -2546    -2276 
   -2018    -1709    -1381    -1208    -1267    -1468    -1690    -1881 
   -2042    -2162    -2196    -2108    -1938    -1790    -1719    -1691 
   -1676    -1734    -1929    -2219    -2498    -2693    -2733    -2558 
   -2232    -1954    -1845    -1884    -2016    -2155    -2243    -2332 
   -2478    -2631    -2722    -2743    -2643    -2428    -2269    -2301 
   -2440    -2498    -2374    -2151    -1976    -1892    -1879    -1891 
   -1857    -1765    -1709    -1790    -1961    -2073    -2123    -2246 
   -2444    -2582    -2575    -2462    -2335    -2226    -2100    -1992 
   -1984    -2030    -2025    -1965    -1900    -1864    -1890    -1966 
   -2033    -2037    -1965    -1853    -1790    -1853    -2025    -2184 
   -2238    -2223    -2212    -2205    -2178    -2101    -1971    -1848 
   -1767    -1707    -1719    -1871    -2145    -2440    -2648    -2716 
   -2695    -2675    -2659    -2573    -2412    -2289    -2293    -2365 
   -2380    -2305    -2218    -2138    -2010    -1869    -1858    -1999 
   -2130    -2139    -2107    -2137    -2220    -2305    -2319    -2200 
   -2004    -1834    -1683    -1521    -1449    -1586    -1887    -2199 
   -2439    -2598    -2600    -2388    -2100    -1966    -2073    -2268 
   -2366    -2340    -2285    -2297    -2393    -2508    -2575    -2528 
   -2343    -2120    -1987    -2000    -2122    -2215    -2151    -1971 
   -1846    -1865    -1966    -2083    -2192    -2255    -2204    -2015 
   -1833    -1867    -2142    -2501    -2768    -2837    -2685    -2393 
   -2101    -1923    -1871    -1881    -1877    -1821    -1744    -1696 
   -1726    -1842    -1945    -1927    -1827    -1791    -1923    -2181 
   -2415    -2519    -2485    -2386    -2304    -2236    -2134    -1949 
   -1669    -1414    -1377    -1615    -2006    -2369    -2636    -2860 
   -3075    -3254    -3285    -3078    -2683    -2160    -1563    -1109 
    -981    -1115    -1362    -1653    -1973    -2312    -2655    -2941 
   -3107    -3129    -3055    -2952    -2824    -2606    -2319    -2087 
   -1996    -2038    -2119    -2142    -2114    -2066    -1979    -1842 
   -1711    -1655    -1692    -1776    -1867    -1981    -2127    -2236 
   -2219    -2022    -1675    -1345    -1216    -1275    -1417    -1566 
   -1656    -1698    -1776    -1923    -2110    -2263    -2323    -2322 
   -2332    -2409    -2565    -2764    -2926    -2971    -2925    -2862 
   -2779    -2675    -2578    -2469    -2338    -2218    -2073    -1923 
   -1871    -1895    -1872    -1804    -1815    -1972    -2200    -2400 
   -2532    -2552    -2420    -2216    -2093    -2124    -2227    -2245 
   -2108    -1885    -1707    -1682    -1810    -1973    -2081    -2114 
   -2027    -1806    -1549    -1387    -1363    -1441    -1579    -1777 
   -2056    -2384    -2671    -2822    -2839    -2799    -2728    -2600 
   -2443    -2303    -2181    -2061    -1941    -1863    -1875    -2007 
   -2249    -2513    -2674    -2682    -2592    -2457    -2280    -2061 
   -1846    -1705    -1659    -1641    -1614    -1634    -1730    -1884 
   -2124    -2467    -2841    -3121    -3187    -3002    -2639    -2274 
   -2079    -2047    -2037    -1980    -1926    -1926    -2020    -2172 
   -2277    -2262    -2110    -1873    -1668    -1587    -1653    -1833 
   -2046    -2231    -2339    -2304    -2128    -1950    -1900    -1977 
   -2076    -2122    -2106    -2042    -1991    -2023    -2139    -2285 
   -2354    -2278    -2143    -2111    -2258    -2497    -2629    -2525 
   -2257    -2061    -2052    -2065    -1938    -1723    -1521    -1360 
   -1316    -1487    -1844    -2218    -2428    -2473    -2556    -2801 
   -3096    -3265    -3181    -2878    -2527    -2228    -1938    -1614 
   -1304    -1102    -1062    -1182    -1435    -1749    -2015    -2162 
   -2211    -2223    -2208    -2128    -1992    -1860    -1761    -1682 
   -1633    -1659    -1741    -1821    -1912    -2120    -2501    -2902 
   -3069    -2936    -2625    -2320    -2139    -2101    -2173    -2290 
   -2354    -2335    -2274    -2208    -2216    -2346    -2543    -2694 
   -2664    -2432    -2116    -1804    -1553    -1480    -1661    -2019 
   -2382    -2708    -3073    -3373    -3383    -3052    -2533    -2034 
   -1669    -1460    -1393    -1421    -1456    -1439    -1398    -1413 
   -1521    -1707    -1898    -1973    -1877    -1699    -1576    -1621 
   -1871    -2197    -2415    -2466    -2444    -2463    -2529    -2563 
   -2533    -2454    -2355    -2311    -2347    -2388    -2392    -2367 
   -2295    -2219    -2269    -2448    -2608    -2602    -2385    -2023 
   -1622    -1279    -1173    -1409    -1813    -2137    -2299    -2331 
   -2327    -2338    -2262    -2043    -1803    -1705    -1803    -2019 
   -2208    -2317    -2380    -2374    -2249    -2012    -1703    -1360 
   -1032     -781     -723     -988    -1534    -2187    -2851    -3458 
   -3798    -3719    -3327    -2830    -2392    -2107    -1939    -1810 
   -1738    -1741    -1776    -1869    -2053    -2241    -2299    -2226 
   -2131    -2070    -1985    -1838    -1707    -1680    -1726    -1813 
   -2011    -2312    -2531    -2509    -2326    -2216    -2297    -2496 
   -2664    -2741    -2839    -3041    -3237    -3292    -3195    -2909 
   -2354    -1620     -989     -676     -650     -756     -857     -984 
   -1273    -1753    -2358    -3032    -3577    -3708    -3396    -2851 
   -2285    -1830    -1586    -1610    -1836    -2066    -2166    -2178 
   -2219    -2313    -2369    -2282    -2076    -1883    -1813    -1891 
   -2079    -2289    -2428    -2466    -2411    -2309    -2227    -2157 
   -2081    -2027    -1962    -1872    -1876    -2099    -2515    -2934 
   -3117    -2965    -2609    -2273    -2043    -1861    -1679    -1512 
   -1478    -1734    -2239    -2754    -3083    -3144    -2952    -2598 
   -2197    -1869    -1653    -1545    -1575    -1707    -1844    -1961 
   -2043    -2007    -1804    -1547    -1425    -1572    -1975    -2403 
   -2548    -2378    -2164    -2096    -2126    -2177    -2276    -2443 
   -2608    -2648    -2505    -2239    -1952    -1744    -1649    -1587 
   -1536    -1648    -2022    -2575    -3168    -3646    -3828    -3651 
   -3258    -2806    -2371    -2046    -1858    -1761    -1741    -1818 
   -1983    -2182    -2299    -2222    -1991    -1780    -1786    -2099 
   -2656    -3237    -3561    -3496    -3109    -2521    -1890    -1371 
   -1078    -1032    -1151    -1291    -1409    -1561    -1729    -1842 
   -1908    -1948    -1950    -1915    -1849    -1768    -1709    -1672 
   -1599    -1395    -1055     -743     -646     -842    -1309    -1949 
   -2600    -3113    -3464    -3700    -3836    -3848    -3724    -3530 
   -3373    -3279    -3168    -2970    -2612    -2112    -1721    -1671 
   -1838    -1933    -1858    -1694    -1487    -1260    -1101    -1092 
   -1235    -1443    -1568    -1609    -1764    -2118    -2498    -2785 
   -3024    -3277    -3496    -3559    -3379    -2967    -2423    -1810 
   -1177     -642     -295     -121      -35       -9     -175     -638 
   -1240    -1717    -1971    -2174    -2566    -3106    -3535    -3672 
   -3526    -3264    -3046    -2924    -2857    -2739    -2509    -2257 
   -2026    -1759    -1449    -1150     -934     -931    -1243    -1799 
   -2328    -2601    -2632    -2548    -2430    -2313    -2189    -1993 
   -1753    -1680    -2011    -2701    -3416    -3861    -3958    -3734 
   -3235    -2589    -1968    -1503    -1273    -1285    -1417    -1520 
   -1601    -1709    -1794    -1787    -1705    -1614    -1582    -1655 
   -1837    -2039    -2116    -1998    -1713    -1378    -1132    -1031 
   -1066    -1215    -1405    -1591    -1756    -1903    -2126    -2423 
   -2581    -2435    -2000    -1474    -1185    -1359    -1911    -2490 
   -2794    -2889    -3055    -3402    -3838    -4253    -4569    -4626 
   -4193    -3211    -1981     -963     -467     -575    -1192    -1985 
   -2565    -2794    -2709    -2384    -1979    -1686    -1547    -1467 
   -1383    -1324    -1317    -1333    -1324    -1318    -1383    -1520 
   -1752    -2169    -2775    -3433    -3981    -4306    -4344    -4102 
   -3639    -3024    -2326    -1588     -827     -136      284      294 
     -81     -695    -1363    -1969    -2470    -2856    -3125    -3306 
   -3393    -3294    -2940    -2454    -2107    -2084    -2370    -2814 
   -3179    -3262    -3038    -2625    -2154    -1729    -1433    -1271 
   -1119     -895     -762     -947    -1459    -2088    -2560    -2701 
   -2540    -2238    -1879    -1456    -1078    -1024    -1458    -2238 
   -3113    -3873    -4310    -4288    -3839    -3055    -2131    -1433 
   -1194    -1301    -1501    -1620    -1622    -1560    -1455    -1267 
   -1009     -788     -714     -807    -1038    -1439    -2029    -2694 
   -3191    -3316    -3103    -2704    -2253    -1927    -1838    -1957 
   -2181    -2416    -2695    -3136    -3719    -4283    -4698    -4911 
   -4900    -4606    -4032    -3296    -2496    -1703    -1054     -626 
    -402     -310     -311     -434     -687    -1039    -1378    -1418 
    -954     -187      430      635      444      -85     -858    -1656 
   -2305    -2801    -3260    -3782    -4247    -4364    -3979    -3268 
   -2617    -2277    -2166    -2015    -1698    -1433    -1568    -2142 
   -2798    -3146    -3111    -2879    -2652    -2532    -2524    -2531 
   -2397    -2035    -1532    -1019     -530     -116      139      220 
     145      -78     -530    -1335    -2508    -3900    -5208    -6107 
   -6502    -6542    -6459    -6420    -6399    -6269    -5904    -5165 
   -4045    -2772    -1625     -707      143     1119     2134     2895 
    3177     2914     2178     1224      390     -176     -598    -1117 
   -1837    -2605    -3204    -3496    -3447    -3148    -2737    -2336 
   -2088    -2119    -2408    -2859    -3419    -3991    -4364    -4355 
   -3890    -3060    -2110    -1286     -760     -606     -657     -661 
    -707    -1054    -1634    -2143    -2290    -1846     -950       -6 
     881     1512     1414      945      707      329     -580    -1830 
   -3141    -4405    -5643    -6554    -6910    -7033    -7314    -7807 
   -8078    -7852    -7298    -6353    -4992    -3443    -1869     -610 
      37      233      271      245      199      275      519      824 
    1340     2262     3337     4152     4417     4017     3157     2161 
    1204      255     -822    -2012    -3300    -4743    -6212    -7518 
   -8603    -9381    -9811    -9886    -9412    -8313    -6975    -5873 
   -5117    -4564    -4135    -3905    -3989    -4413    -5035    -5559 
   -5715    -5425    -4656    -3304    -1408      734     2822     4677 
    5972     6374     5910     4853     3487     2050      661     -656 
   -1883    -2974    -3877    -4541    -4970    -5260    -5475    -5610 
   -5755    -6027    -6323    -6442    -6245    -5640    -4665    -3507 
   -2377    -1383     -491      423     1475     2647     3781     4658 
    5031     4754     3913     2695     1217     -488    -2323    -4014 
   -5233    -5703    -5343    -4487    -3663    -3090    -2700    -2401 
   -2072    -1606    -1059     -564     -371     -874    -2238    -4091 
   -5782    -6813    -7041    -6709    -6388    -6373    -6253    -5447 
   -3933    -2176     -697      -27     -276     -819    -1030     -954 
   -1031    -1383    -1509     -932       27      369     -113     -153 
     591      476    -1101    -2517    -2625    -2174    -2034    -1817 
   -1178     -670     -688    -1124    -1761    -2347    -2724    -2802 
   -2566    -2246    -2096    -2243    -2694    -3076    -3171    -3312 
   -3555    -3535    -3086    -2342    -1683    -1332     -938     -180 
     687     1413     2056     2502     2423     1786      907       54 
    -746    -1601    -2604    -3844    -5344    -6782    -7703    -8056 
   -8158    -8272    -8415    -8337    -7759    -6654    -5179    -3512 
   -1844     -448      481     1035     1371     1505     1383      939 
     148     -908    -2077    -3190    -4108    -4761    -5139    -5258 
   -5240    -5364    -5795    -6319    -6484    -5945    -4677    -2940 
   -1031      865     2621     4075     5043     5458     5431     5157 
    4754     4144     3152     1777      257    -1170    -2408    -3346 
   -3923    -4382    -5054    -5919    -6643    -6899    -6573    -5769 
   -4699    -3554    -2489    -1572     -855     -525     -753    -1406 
   -2128    -2648    -2886    -2864    -2658    -2386    -2130    -1877 
   -1580    -1262    -1102    -1395    -2320    -3743    -5310    -6685 
   -7630    -8083    -8185    -8024    -7512    -6509    -4978    -3113 
   -1232      502     2045     3296     4213     4823     5105     5026 
    4600     3832     2791     1710      846      279     -116     -583 
   -1348    -2467    -3662    -4480    -4753    -4807    -5088    -5652 
   -6127    -6146    -5611    -4673    -3628    -2760    -2188    -1784 
   -1304     -600      256     1001     1374     1390     1202      762 
     -79    -1274    -2517    -3501    -4226    -4892    -5583    -6247 
   -6795    -7102    -7014    -6430    -5421    -4145    -2587     -789 
     865     2087     2818     2820     1971      618     -777    -1809 
   -2307    -2419    -2251    -1961    -1857    -1975    -2155    -2262 
   -2168    -2112    -2347    -2577    -2605    -2602    -2558    -2371 
   -2143    -1930    -1687    -1383     -967     -483      -58      238 
     270     -139    -1038    -2374    -3889    -5189    -6102    -6562 
   -6482    -6043    -5575    -5184    -4799    -4302    -3619    -2694 
   -1424      120     1559     2471     2712     2424     1794     1000 
     203     -522    -1098    -1448    -1668    -1935    -2304    -2736 
   -3187    -3611    -4040    -4542    -5047    -5495    -5940    -6309 
   -6389    -6057    -5347    -4388    -3342    -2367    -1668    -1439 
   -1659    -2088    -2489    -2717    -2675    -2282    -1503     -395 
     838     1925     2681     3088     3222     3117     2705     1880 
     641     -834    -2344    -3747    -4833    -5406    -5472    -5250 
   -5054    -5024    -5063    -5108    -5174    -5123    -4787    -4271 
   -3817    -3514    -3316    -3127    -2724    -1904     -714      607 
    1757     2477     2654     2349     1719      884     -103    -1158 
   -2110    -2714    -2806    -2478    -2043    -1810    -1948    -2427 
   -3121    -3867    -4482    -4828    -4893    -4757    -4564    -4411 
   -4282    -4054    -3609    -3005    -2427    -1983    -1590    -1081 
    -441      174      585      518     -271    -1621    -3024    -4039 
   -4446    -4225    -3557    -2708    -1934    -1340     -820     -345 
    -137     -399    -1113    -2080    -3006    -3667    -3996    -4014 
   -3832    -3605    -3453    -3406    -3407    -3433    -3454    -3354 
   -3055    -2619    -2118    -1597    -1131     -793     -622     -638 
    -854    -1170    -1447    -1671    -1952    -2392    -2917    -3219 
   -2986    -2176    -1116     -240      267      450      329      -52 
    -508     -907    -1301    -1800    -2373    -2810    -2909    -2702 
   -2431    -2309    -2380    -2574    -2848    -3153    -3379    -3473 
   -3477    -3454    -3373    -3091    -2528    -1745     -895     -184 
     263      508      662      724      569      109     -560    -1232 
   -1756    -2122    -2394    -2594    -2709    -2756    -2839    -3068 
   -3380    -3608    -3751    -3942    -4207    -4423    -4407    -3981 
   -3086    -1927     -881     -283     -274     -737    -1436    -2161 
   -2748    -3191    -3585    -3840    -3730    -3215    -2509    -1880 
   -1435    -1015     -432      267      853     1054      722        1 
    -764    -1296    -1498    -1489    -1517    -1767    -2216    -2705 
   -3105    -3418    -3790    -4388    -5182    -5894    -6214    -6053 
   -5610    -5152    -4727    -4176    -3391    -2484    -1663    -1050 
    -656     -456     -394     -345     -178       66      172      -48 
    -606    -1281    -1767    -1921    -1912    -2041    -2435    -2937 
   -3250    -3177    -2782    -2366    -2238    -2489    -2953    -3377 
   -3572    -3447    -3045    -2593    -2293    -2092    -1881    -1682 
   -1517    -1418    -1460    -1640    -1899    -2243    -2678    -3161 
   -3638    -3987    -4068    -3816    -3218    -2371    -1532     -920 
    -626     -703    -1092    -1493    -1618    -1528    -1503    -1688 
   -2008    -2300    -2412    -2332    -2191    -2076    -1980    -1891 
   -1869    -1952    -2073    -2099    -1971    -1745    -1478    -1201 
