Origin Time       2026/01/15 07:13:00
Lat.              42.7
Long.             145.4
Depth. (km)       30
Mag.              5.7
Station Code      HKD082
Station Lat.      43.4369
Station Long.     144.0855
Station Height(m) 429
Record Time       2026/01/15 07:13:58
Sampling Freq(Hz) 100Hz
Duration Time(s)  60
Dir.              U-D
Scale Factor      7845(gal)/8223790
Max. Acc. (gal)   1.682
Last Correction   2026/01/15 07:13:58
Memo.             
[...]
    4365     4171     4045     3963     3920     3978     4106     4197 
    4239     4280     4311     4301     4270     4236     4171     4104 
    4098     4114     4091     4089     4178     4280     4279     4185 
    4129     4194     4306     4361     4382     4430     4533     4688 
    4843     4907     4839     4737     4729     4787     4749     4587 
    4455     4463     4568     4666     4715     4725     4715     4689 
    4657     4633     4599     4567     4592     4654     4668     4673 
    4788     4988     5134     5178     5194     5225     5227     5190 
    5151     5076     4941     4797     4654     4496     4395     4392 
    4384     4301     4214     4203     4271     4332     4266     4117 
    4087     4203     4325     4430     4585     4754     4881     5013 
    5194     5356     5405     5313     5152     5067     5101     5085 
    4873     4557     4307     4125     3924     3732     3604     3519 
    3466     3474     3489     3447     3454     3618     3844     3964 
    3939     3906     4009     4237     4488     4703     4841     4868 
    4864     4962     5169     5336     5351     5260     5178     5147 
    5136     5076     4912     4710     4561     4453     4314     4137 
    3987     3890     3861     3937     4085     4180     4176     4166 
    4268     4480     4677     4791     4908     5136     5416     5591 
    5610     5578     5589     5614     5559     5370     5134     4989 
    4922     4780     4544     4368     4378     4540     4730     4857 
    4938     5053     5220     5354     5391     5351     5271     5185 
    5109     5017     4887     4783     4752     4680     4491     4336 
    4371     4503     4540     4423     4241     4109     4055     4023 
    3989     3991     4035     4097     4201     4368     4550     4683 
    4742     4758     4760     4702     4576     4476     4399     4256 
    4087     4037     4121     4199     4214     4220     4244     4303 
    4375     4405     4410     4396     4334     4287     4359     4513 
    4598     4553     4468     4472     4550     4544     4406     4278 
    4256     4268     4222     4133     4077     4091     4108     4025 
    3883     3874     4059     4228     4187     4029     3967     4066 
    4197     4240     4229     4271     4406     4611     4841     5044 
    5212     5377     5508     5514     5436     5439     5572     5714 
    5745     5670     5529     5340     5162     5107     5178     5219 
    5130     4974     4845     4742     4649     4541     4394     4255 
    4213     4293     4390     4347     4160     4032     4117     4320 
    4372     4170     3946     3971     4201     4361     4337     4301 
    4441     4712     4945     5001     4914     4868     4976     5117 
    5119     4978     4826     4766     4839     5017     5167     5159 
    5042     4932     4828     4685     4536     4453     4455     4495 
    4565     4704     4889     5004     4936     4734     4569     4541 
    4561     4463     4234     4054     4018     4045     4048     4043 
    4029     3974     3940     4016     4116     4081     3900     3770 
    3865     4079     4190     4149     4132     4287     4496     4521 
    4375     4318     4465     4679     4838     4976     5158     5416 
    5725     5992     6112     6068     5965     5907     5836     5660 
    5402     5124     4858     4600     4325     4037     3811     3688 
    3653     3684     3747     3777     3754     3771     3917     4183 
    4483     4708     4846     4934     4959     4908     4811     4687 
    4569     4545     4652     4784     4819     4776     4785     4928 
    5123     5204     5148     5134     5294     5528     5590     5418 
    5213     5144     5150     5066     4841     4575     4401     4332 
    4259     4116     3973     3943     4018     4063     4009     3947 
    3942     3910     3777     3620     3624     3807     3946     3896 
    3784     3813     4035     4299     4428     4475     4610     4811 
    4928     4985     5144     5414     5618     5664     5599     5508 
    5471     5459     5368     5192     5019     4977     5109     5247 
    5175     4904     4603     4383     4271     4276     4310     4229 
    4085     4023     4021     3960     3836     3746     3784     3966 
    4203     4390     4511     4621     4707     4737     4706     4622 
    4533     4515     4550     4548     4514     4567     4752     4951 
    4976     4764     4511     4473     4668     4900     5004     4961 
    4924     5062     5248     5213     4977     4842     4953     5094 
    5001     4703     4445     4402     4525     4634     4675     4758 
    4920     5057     5115     5130     5138     5128     5054     4914 
    4784     4725     4677     4573     4488     4476     4398     4198 
    4081     4158     4256     4276     4363     4595     4818     4870 
    4754     4573     4437     4382     4378     4378     4288     4045 
    3781     3720     3798     3682     3299     3037     3180     3501 
    3650     3630     3690     3919     4136     4158     4024     3963 
    4136     4401     4511     4541     4741     5100     5373     5425 
    5371     5412     5599     5800     5860     5788     5728     5742 
    5771     5738     5684     5667     5632     5485     5251     5042 
    4895     4729     4480     4217     4048     3979     3947     3960 
    4106     4391     4657     4718     4573     4405     4345     4348 
    4305     4224     4186     4275     4519     4800     4924     4909 
    4951     5081     5139     5058     4924     4827     4770     4700 
    4600     4560     4652     4770     4704     4441     4244     4309 
    4511     4580     4463     4409     4658     5117     5456     5545 
    5607     5832     6031     5921     5532     5088     4671     4259 
    3889     3592     3327     3100     3042     3172     3279     3214 
    3150     3260     3412     3487     3595     3823     4067     4202 
    4195     4106     4031     4033     4081     4071     3969     3916 
    4098     4463     4750     4874     4977     5082     5115     5124 
    5136     5050     4919     4945     5148     5362     5439     5381 
    5314     5314     5297     5148     4922     4766     4665     4477 
    4259     4120     4023     4055     4367     4739     4818     4617 
    4436     4405     4364     4197     4036     4044     4171     4252 
    4249     4294     4476     4743     4915     4885     4878     5142 
    5486     5595     5524     5466     5422     5336     5220     5061 
    4843     4630     4500     4477     4552     4654     4715     4726 
    4671     4544     4455     4476     4496     4409     4315     4365 
    4525     4648     4660     4608     4576     4563     4495     4355 
    4229     4202     4243     4298     4364     4445     4482     4387 
    4155     3875     3672     3618     3666     3721     3788     3916 
    4050     4087     4063     4113     4307     4579     4816     4976 
    5066     5089     5058     5055     5130     5217     5260     5292 
    5377     5557     5760     5813     5641     5398     5265     5240 
    5216     5148     5077     5030     4958     4843     4745     4706 
    4711     4741     4801     4884     4914     4837     4680     4494 
    4325     4205     4162     4189     4175     4023     3836     3809 
    3943     4079     4152     4225     4301     4363     4438     4500 
    4491     4468     4603     4942     5285     5421     5398     5375 
    5354     5247     5047     4797     4542     4317     4136     4027 
    4024     4075     4095     4129     4261     4411     4419     4310 
    4271     4407     4642     4793     4752     4594     4448     4328 
    4171     3974     3831     3834     3990     4183     4276     4253 
    4212     4240     4367     4550     4723     4895     5088     5225 
    5242     5201     5169     5096     4982     4972     5109     5250 
    5238     5062     4838     4677     4585     4490     4333     4114 
    3888     3678     3441     3141     2890     2844     2970     3115 
    3280     3565     3937     4256     4494     4760     5078     5348 
    5485     5501     5494     5522     5516     5409     5278     5206 
    5157     5066     4919     4737     4590     4530     4519     4526 
    4567     4608     4587     4502     4411     4356     4330     4295 
    4270     4332     4483     4634     4742     4820     4861     4866 
    4838     4735     4557     4415     4348     4212     3952     3755 
    3816     4129     4572     5031     5443     5799     6054     6116 
    6022     5902     5783     5624     5467     5393     5382     5335 
    5184     4953     4746     4692     4804     4931     4957     4920 
    4899     4895     4865     4814     4812     4893     4977     4922 
    4688     4467     4422     4459     4429     4307     4113     3896 
    3692     3489     3302     3168     3080     3065     3253     3677 
    4167     4556     4849     5159     5506     5730     5719     5594 
    5528     5472     5251     4862     4479     4216     4064     3921 
    3659     3310     3048     2965     3025     3163     3285     3322 
    3372     3588     3936     4244     4437     4598     4839     5144 
    5371     5460     5491     5517     5497     5422     5339     5225 
    4982     4625     4330     4212     4182     4132     4060     4052 
    4186     4453     4781     5080     5371     5755     6130     6258 
    6116     5908     5780     5683     5521     5290     5042     4851 
    4688     4398     4114     4028     4008     4006     4047     4047 
    4028     4044     4110     4256     4450     4633     4768     4801 
    4750     4764     4843     4761     4511     4390     4469     4530 
    4473     4398     4341     4267     4144     3959     3765     3682 
    3728     3796     3828     3854     3909     3982     4036     4059 
    4040     3982     3948     3993     4063     4125     4253     4419 
    4499     4545     4698     4945     5157     5269     5333     5437 
    5597     5728     5749     5699     5697     5778     5830     5714 
    5486     5416     5589     5709     5543     5225     4990     4853 
    4695     4542     4490     4457     4338     4233     4226     4216 
    4126     4005     3915     3920     4036     4149     4212     4322 
    4488     4571     4530     4461     4441     4444     4325     4051 
    3875     3990     4158     4128     4093     4290     4596     4807 
    4907     4954     4982     5009     5027     5027     5050     5101 
    5147     5157     5127     5049     4924     4787     4657     4556 
    4499     4396     4205     4033     3910     3789     3726     3744 
    3800     3915     4104     4297     4444     4546     4626     4727 
    4888     5089     5251     5290     5198     5035     4835     4552 
    4203     3964     3973     4152     4341     4457     4525     4633 
    4827     5032     5134     5101     4989     4909     4984     5178 
    5289     5192     5031     5022     5123     5103     4882     4641 
    4568     4633     4649     4531     4388     4345     4357     4324 
    4274     4255     4220     4189     4297     4548     4757     4787 
    4698     4612     4596     4614     4591     4490     4344     4229 
    4185     4191     4239     4325     4407     4449     4487     4579 
    4669     4665     4622     4662     4742     4722     4564     4317 
    4052     3829     3659     3519     3404     3346     3372     3465 
    3603     3812     4082     4359     4649     4977     5302     5537 
    5661     5784     5968     6092     6045     5892     5760     5694 
    5626     5449     5181     4984     4942     4963     4914     4795 
    4668     4519     4340     4167     4005     3873     3840     3917 
    4031     4149     4274     4365     4376     4326     4259     4189 
    4126     4089     4109     4209     4338     4421     4450     4494 
    4568     4635     4711     4850     5053     5232     5339     5421 
    5510     5547     5491     5371     5227     5067     4908     4796 
    4745     4673     4530     4363     4218     4089     3964     3842 
    3700     3568     3537     3626     3750     3859     3974     4081 
    4124     4082     4051     4145     4303     4382     4438     4599 
    4827     5004     5093     5147     5197     5216     5189     5173 
    5228     5302     5292     5192     5067     4947     4822     4677 
    4511     4345     4212     4124     4074     4043     4021     4018 
    4041     4091     4178     4311     4487     4658     4810     4980 
    5148     5247     5274     5278     5317     5400     5451     5404 
    5287     5206     5200     5186     5077     4889     4718     4603 
    4483     4295     4079     3910     3800     3744     3739     3738 
    3732     3796     3939     4062     4122     4194     4333     4514 
    4687     4853     5039     5208     5298     5335     5360     5356 
    5320     5277     5231     5202     5211     5223     5205     5185 
    5200     5225     5188     5050     4830     4529     4198     3952 
    3829     3767     3747     3798     3886     3950     3998     4078 
    4195     4321     4444     4602     4795     4919     4901     4830 
    4796     4746     4614     4437     4324     4326     4359     4324 
    4271     4317     4452     4553     4590     4646     4739     4799 
    4801     4784     4797     4853     4896     4892     4841     4739 
    4602     4463     4306     4078     3794     3538     3346     3188 
    3029     2886     2833     2910     3076     3280     3528     3847 
    4205     4536     4804     5058     5331     5555     5665     5724 
    5810     5908     5958     5921     5817     5687     5524     5294 
    5046     4880     4827     4814     4804     4866     5031     5205 
    5305     5340     5364     5408     5441     5408     5305     5170 
    5000     4776     4519     4271     4052     3862     3708     3604 
    3564     3585     3651     3758     3915     4102     4305     4523 
    4719     4843     4901     4924     4897     4791     4633     4476 
    4347     4229     4125     4067     4085     4151     4202     4234 
    4321     4472     4600     4658     4672     4672     4679     4698 
    4718     4742     4762     4747     4699     4662     4668     4691 
    4696     4662     4608     4595     4648     4735     4812     4837 
    4797     4752     4780     4916     5097     5229     5292     5292 
    5232     5146     5055     4943     4784     4583     4386     4252 
    4209     4187     4085     3919     3755     3576     3396     3310 
    3314     3369     3485     3622     3721     3812     3917     4004 
    4082     4189     4317     4456     4610     4749     4860     4989 
    5158     5341     5497     5609     5725     5872     5975     5961 
    5857     5741     5661     5611     5563     5487     5391     5298 
    5224     5170     5124     5062     4966     4811     4596     4379 
    4222     4109     4005     3920     3865     3850     3901     4009 
    4097     4109     4083     4109     4237     4438     4615     4691 
    4692     4718     4810     4922     4968     4928     4858     4789 
    4695     4563     4413     4247     4079     3955     3892     3877 
    3912     3977     4033     4070     4120     4198     4280     4368 
    4488     4634     4753     4810     4803     4758     4707     4660 
    4607     4565     4552     4567     4571     4536     4486     4475 
    4495     4492     4476     4510     4604     4710     4796     4864 
    4892     4868     4815     4787     4812     4857     4857     4815 
    4791     4774     4715     4618     4533     4469     4417     4382 
    4361     4352     4368     4417     4480     4565     4677     4787 
    4880     4985     5097     5169     5185     5166     5117     5058 
    5004     4954     4895     4828     4764     4696     4603     4465 
    4326     4248     4222     4198     4167     4156     4167     4179 
    4180     4175     4168     4170     4168     4149     4145     4201 
    4291     4365     4425     4511     4633     4752     4842     4896 
    4892     4834     4791     4828     4909     4928     4872     4834 
    4866     4915     4920     4880     4827     4783     4761     4752 
    4720     4641     4529     4428     4349     4287     4230     4176 
    4139     4131     4137     4121     4090     4117     4214     4299 
    4342     4403     4515     4648     4762     4847     4935     5047 
    5155     5229     5297     5390     5487     5548     5587     5653 
    5736     5763     5688     5539     5359     5162     4941     4727 
    4577     4490     4407     4307     4224     4163     4086     3990 
    3912     3865     3829     3823     3883     3985     4063     4106 
    4128     4140     4174     4229     4239     4175     4105     4079 
    4077     4074     4078     4117     4213     4336     4437     4509 
    4568     4644     4741     4834     4900     4938     4965     4995 
    5019     5024     4997     4914     4770     4622     4502     4387 
    4251     4110     3979     3874     3824     3834     3885     3974 
    4101     4248     4390     4521     4641     4735     4796     4834 
    4873     4900     4905     4916     4935     4930     4919     4941 
    4981     5007     5003     4959     4878     4783     4699     4625 
    4560     4525     4521     4534     4585     4676     4765     4816 
    4838     4854     4889     4955     5035     5081     5063     5001 
    4946     4932     4936     4901     4791     4638     4518     4468 
    4461     4453     4456     4504     4573     4599     4569     4531 
    4517     4518     4517     4514     4515     4522     4526     4531 
    4541     4527     4464     4388     4363     4395     4437     4429 
    4352     4260     4197     4168     4182     4220     4244     4259 
    4305     4379     4453     4511     4549     4564     4576     4630 
    4749     4901     5032     5105     5136     5170     5190     5150 
    5076     5036     5043     5053     5054     5074     5121     5165 
    5152     5070     4961     4862     4768     4671     4583     4498 
    4407     4307     4212     4148     4118     4090     4068     4058 
    4033     3987     3948     3915     3889     3894     3925     3974 
    4067     4203     4311     4369     4442     4564     4685     4760 
    4784     4807     4870     4962     5036     5103     5217     5358 
    5436     5425     5377     5336     5287     5189     5016     4788 
    4553     4344     4148     3960     3802     3696     3626     3578 
    3572     3632     3744     3861     3963     4047     4105     4144 
    4202     4297     4403     4504     4603     4700     4787     4849 
    4882     4896     4900     4911     4920     4904     4874     4868 
    4881     4870     4822     4777     4769     4779     4776     4769 
    4757     4714     4679     4696     4733     4738     4712     4676 
    4639     4604     4569     4537     4507     4471     4413     4348 
    4299     4267     4240     4237     4286     4395     4540     4668 
    4761     4864     4999     5105     5113     5036     4963     4931 
    4882     4781     4680     4623     4581     4499     4380     4290 
    4237     4164     4054     3964     3943     3956     3960     3969 
    4020     4118     4245     4379     4506     4611     4699     4791 
