Origin Time       2026/01/15 07:13:00
Lat.              42.7
Long.             145.4
Depth. (km)       30
Mag.              5.7
Station Code      HKD096
Station Lat.      42.6977
Station Long.     143.1357
Station Height(m) 192
Record Time       2026/01/15 07:14:08
Sampling Freq(Hz) 100Hz
Duration Time(s)  60
Dir.              E-W
Scale Factor      7845(gal)/8223790
Max. Acc. (gal)   2.609
Last Correction   2026/01/15 07:14:09
Memo.             
[...]
     -49       54       68       14      -13      -28      -55       -8 
     110      147       29     -132     -197     -180     -195     -237 
    -207     -105      -14       24       36       47       41       35 
      70       95       31      -74     -125     -124      -81      -10 
      24       -1      -39      -48      -17       67      180      249 
     243      180       87       -8      -27       62      129       58 
     -72     -117      -56      -10      -44      -59      -20      -37 
    -103     -105      -51      -44      -93     -116      -81      -39 
      -5       32       44       -5      -75      -68      -16      -48 
    -141     -167     -137     -140     -159     -117      -21       27 
     -22     -109     -152     -157     -176     -180     -149     -145 
    -174     -172     -124      -78      -79     -137     -172      -98 
      40      135      121      -21     -217     -282     -145        6 
       6     -102     -225     -311     -337     -278     -103      109 
     156       14     -105      -89       -8       76      136       87 
     -79     -210     -179      -66      -59     -180     -243     -157 
     -83     -151     -276     -306     -232     -184     -229     -284 
    -259     -171      -76        4       28      -49     -160     -164 
     -40       66       55       -2      -35      -89     -174     -205 
    -166     -106      -13       76       93       49       40      103 
     143       82       29       86      189      202       67      -93 
    -109        2       86       79       83      143      182      178 
     160      129      112      128      135      117       95       62 
      24        5        6       20       44       36      -17      -20 
      62       93      -12     -155     -217     -202     -183     -176 
    -147     -101     -125     -241     -311     -237     -118      -95 
    -178     -251     -237     -184     -159     -155     -140     -103 
     -71      -83     -102      -81      -39      -18      -54     -139 
    -207     -217     -172      -94      -32      -44     -126     -184 
    -162      -82       36      129      116       60       63       71 
      36       27       67       85       39        4       63      143 
     144      113       99       54      -20      -35       24       60 
      31      -10      -18      -24      -70     -143     -155      -82 
     -18      -12      -16      -16      -37      -83     -122     -110 
     -44      -14      -76     -170     -245     -318     -371     -378 
    -360     -355     -309     -194     -156     -245     -241      -60 
      82       64        9       14       22      -29      -67      -25 
      -1      -74     -197     -299     -310     -168       33      109 
      22      -94     -124      -59       35       85       44      -33 
     -76      -98      -97      -20      112      140      -40     -232 
    -197      -60      -62     -159     -183     -152     -174     -195 
    -109      -18      -58     -132     -132     -105      -70       -6 
      35       21       -5      -20       -6       24       44       67 
     101       98       32      -29       -5       58       25     -108 
    -207     -174      -75      -68     -178     -275     -286     -207 
     -58       82      147      168      171      166      187      232 
     251      221      156       90       59       62       41      -36 
    -128     -186     -214     -170      -24       99       70      -75 
    -178     -125        5       40      -83     -240     -267     -152 
     -16       60       49      -25      -85      -64       17       90 
     103       59      -28     -114     -136     -117     -151     -274 
    -398     -398     -265     -105      -16        2       35       97 
     120      109      101       82       58       54       51       17 
     -37      -74      -87      -98     -105      -97      -56       -5 
      -5      -41      -28       -1      -37      -91      -87      -58 
     -75     -117      -98       -4       85       93       13     -118 
    -253     -298     -217      -93      -43      -87     -125      -75 
      20      102      157      140        6     -202     -380     -409 
    -311     -264     -307     -314     -238     -163      -99       56 
     278      378      306      174       29     -125     -183     -113 
    -106     -252     -406     -456     -426     -373     -297     -190 
    -108      -89      -81      -66      -85     -121     -132     -152 
    -193     -167      -72      -32      -74      -76        1       67 
      93      109       83       44       94      186      152       -6 
    -105      -91     -114     -203     -209     -105      -25      -16 
     -22      -25      -44      -52       -6       62      112      136 
     141      116       71       72      137      178      124       24 
     -59     -105     -120     -120      -97      -55      -43      -56 
     -31       60      148      151      102       81       83       72 
      74      112      140       91      -41     -197     -292     -271 
    -139       33      136       71     -102     -229     -245     -178 
     -87      -56      -98     -136      -99       29      205      303 
     248      112       28       27       36       45       41      -60 
    -248     -357     -299     -163      -67      -39      -43      -54 
     -70      -76      -74     -106     -197     -313     -426     -535 
    -637     -675     -576     -384     -244     -197     -152      -56 
      32       47       39       47      -21     -193     -314     -297 
    -226     -206     -216     -174      -91      -10      130      283 
     286      163       72       44       28       28       51       45 
     -47     -176     -197      -52      114      178      162      130 
     135      189      171       31      -79     -112     -171     -205 
    -133      -87     -175     -272     -253     -152      -36       75 
     170      194      117       33       74      163      152       85 
      39      -54     -184     -228     -145      -20       44      -12 
    -120     -140      -58       32       71       71       76       64 
      12        1       55       83       59       32      -22     -164 
    -291     -256     -130      -63      -39        0       33       60 
      91      118      137      118       55      -13      -85     -174 
    -249     -253     -170      -91      -87     -108      -51      101 
     211      168       64       -1      -75     -198     -313     -418 
    -538     -577     -438     -194      -25      -13      -35       27 
      95      101       94       97       95       67      -36     -207 
    -322     -284     -133       20      109      145      163      157 
     133      117       99       63       -9     -124     -226     -282 
    -303     -283     -206     -116      -54      -33      -43      -51 
     -18       43       76       47       -8      -66     -124     -135 
    -114     -147     -186     -132      -36      -35     -126     -175 
    -132     -116     -191     -251     -233     -205     -184     -133 
     -66      -32       10      112      172      110       35       66 
     126       78      -58     -178     -253     -271     -184      -35 
      81      109       35      -59      -35      102      179       95 
     -48     -106      -33       79      106        4     -120     -129 
     -25       75      112       99       67        9      -71     -148 
    -175     -166     -174     -183     -152      -58       85      178 
     145       59        8      -24      -41      -12       -8     -141 
    -326     -364     -234      -91      -29      -20      -20      -36 
     -20       99      206      174      103       83       37      -72 
    -163     -171     -117      -76     -102     -145     -151     -132 
     -95      -76     -166     -303     -333     -278     -211      -91 
      14      -28     -162     -232     -220     -175     -135     -156 
    -275     -403     -417     -261      -33       83       37      -67 
    -126      -66      109      265      265      135       10      -12 
       6      -36      -79      -47      -47     -168     -330     -380 
    -276      -98       14      -13      -75      -17      114      176 
     132       52        4       29       90      108       66      -20 
    -117     -159     -137      -74      -10      -56     -183     -211 
    -166     -159     -108       -5        1     -108     -205     -183 
     -91      -44      -62     -120     -210     -279     -217      -10 
     168      214      178      101       36       47       90       66 
     -48     -155     -143      -60       -5        6      -18      -60 
     -79      -43       29       71       87       98       55      -62 
    -162     -151      -81      -95     -206     -283     -282     -268 
    -268     -265     -248     -164       21      232      333      260 
      94      -21      -43      -17       36       62      -12     -118 
    -179     -232     -257     -160       -2       82      125      194 
     229      206      216      259      244      143       -9     -102 
     -79      -72     -162     -225     -167      -49       13      -45 
    -190     -253     -135       25       72      -10     -160     -252 
    -201      -95      -54      -72     -120     -172     -167      -79 
      10       21      -17      -41      -87     -197     -294     -283 
    -216     -182     -155     -102     -110     -211     -286     -234 
    -145     -147     -214     -261     -272     -236     -153      -94 
     -51       45      135      151      187      286      355      324 
     224      152      157      166      117       58       21      -31 
    -128     -236     -290     -272     -197     -117     -121     -245 
    -376     -376     -248      -95       -9       -1       -4       18 
      31       32       35       17      -10      -47      -98     -151 
    -225     -303     -301     -225     -179     -187     -233     -298 
    -315     -226      -83      -70     -247     -407     -390     -271 
    -143       17      210      341      373      391      459      526 
     488      376      291      226      120      -49     -265     -433 
    -426     -274     -159     -147     -147     -102      -17      110 
     252      295      186       41        8       71      103       75 
      25      -36      -55       52      209      244      166       94 
      74      108      126       37      -99     -162     -144     -153 
    -245     -314     -272     -184     -118      -68      -10       48 
      55       16      -16      -52      -94     -130     -168     -183 
    -147     -108     -128     -179     -203     -182     -101       36 
     122       59      -60      -75       62      284      469      530 
     444      257      124      144      251      355      391      244 
     -41     -216     -190      -56      116      214      148       -1 
    -148     -251     -274     -272     -260     -184     -126     -145 
    -153     -170     -268     -407     -513     -518     -438     -422 
    -514     -569     -486     -282      -79      -48     -145     -144 
      21      237      369      336      180       -4     -113      -63 
      68      145       68     -149     -309     -275      -93      166 
     342      340      274      238      214      148       24      -40 
     -20      -93     -303     -434     -299       56      448      729 
     862      864      803      768      708      571      426      291 
     167       94        0     -172     -334     -383     -299     -153 
      12      205      292      130     -129     -257     -291     -319 
    -314     -322     -480     -766     -953     -877     -558     -162 
      72       48      -89     -135      -58       18       49       67 
      39     -101     -306     -407     -345     -261     -275     -387 
    -511     -525     -411     -275     -189     -121       41      303 
     531      677      793      858      774      572      403      256 
     -20     -352     -492     -380     -193     -118     -147      -97 
      89      261      341      349      205     -133     -487     -735 
    -963    -1217    -1460    -1672    -1772    -1705    -1580    -1495 
   -1444    -1482    -1641    -1760    -1691    -1512    -1362    -1296 
   -1244    -1111     -851     -476      -55      288      492      629 
     822     1074     1266     1306     1192      980      768      567 
     307        8     -276     -580     -876    -1067    -1228    -1470 
   -1703    -1807    -1744    -1475    -1074     -719     -448     -197 
      87      423      700      776      712      646      567      441 
     349      392      579      762      800      816      989     1278 
    1591     1895     2101     2187     2236     2241     2100     1899 
    1764     1605     1350     1101      892      641      395      297 
     287      267      324      498      619      523      224     -118 
    -355     -449     -419     -318     -261     -337     -490     -571 
    -472     -226       35      253      477      697      776      703 
     648      693      730      579      225      -74     -143     -180 
    -375     -575     -614     -585     -599     -602     -523     -446 
    -513     -723     -963    -1123    -1112     -913     -587     -240 
      45      291      542      810     1119     1445     1613     1460 
    1039      490      -82     -567     -926    -1201    -1404    -1547 
   -1718    -2029    -2458    -2785    -2789    -2502    -2162    -1918 
   -1749    -1588    -1358    -1007     -589     -162      279      675 
     930     1013      967      872      720      421      -43     -546 
    -951    -1228    -1375    -1301     -958     -548     -248       64 
     418      653      823      985      945      653      299      -56 
    -467     -885    -1206    -1398    -1541    -1659    -1663    -1574 
   -1471    -1371    -1308    -1236    -1008     -672     -436     -375 
    -453     -561     -533     -328       -6      353      625      765 
     900     1123     1328     1321     1120      918      789      691 
     631      546      325       49     -106     -128     -103      -99 
    -108       16      388      931     1513     2014     2300     2353 
    2330     2370     2466     2517     2394     2056     1595     1089 
     577      156     -102     -247     -334     -418     -526     -602 
    -625     -649     -639     -553     -411     -240     -108      -82 
     -70       12       78       79        9     -183     -446     -692 
    -870     -920     -916     -922     -796     -491     -160      126 
     441      758      931      951      953      927      774      446 
       5     -372     -550     -514     -418     -450     -446     -256 
    -120      -86       27      159      232      260      205       48 
    -164     -369     -572     -765     -803     -652     -421     -194 
     -71     -175     -490     -712     -650     -585     -770    -1078 
   -1368    -1615    -1728    -1665    -1575    -1505    -1352    -1112 
    -795     -332      130      386      507      621      738      876 
     954      850      614      403      252       75     -183     -515 
    -830     -930     -733     -453     -256      -44      187      271 
     193      143      282      537      680      646      541      411 
     303      306      333      279      201      112      -14     -137 
    -209     -179      -40      122      189      184      197      222 
     333      631      955     1043      905      708      492      284 
     145       37      -91     -259     -407     -403     -328     -395 
    -537     -568     -538     -584     -670     -675     -625     -637 
    -747     -945    -1115    -1123    -1067    -1067    -1013     -792 
    -553     -446     -349     -126      222      641      911      886 
     787      808      850      841      774      580      317      183 
     164       87        1       -1      -41     -178     -336     -486 
    -592     -649     -703     -749     -886    -1221    -1537    -1630 
   -1560    -1386    -1179    -1040     -919     -734     -558     -463 
    -426     -361     -137      155      229       94     -103     -284 
    -222       78      359      576      773      965     1169     1309 
    1374     1440     1482     1424     1246      978      727      633 
     649      587      449      346      279      303      426      487 
     469      488      534      548      467      268       89       63 
      95       89       83       -2     -144     -136      -12      124 
     244      310      405      556      646      658      649      648 
     600      409      128      -72     -178     -283     -368     -392 
    -396     -357     -184       48      244      421      560      638 
     664      531      205     -132     -349     -504     -724    -1055 
   -1374    -1561    -1609    -1489    -1223     -946     -711     -500 
    -328     -168      -20       -4     -176     -413     -571     -603 
    -602     -637     -652     -611     -522     -361     -133       83 
     202      182       60      -60     -160     -291     -410     -460 
    -518     -626     -661     -534     -330     -117      126      290 
     216       10     -148     -261     -338     -417     -630     -993 
   -1358    -1580    -1610    -1478    -1219     -907     -656     -500 
    -353     -106      244      538      615      488      288      167 
     203      348      476      504      476      429      353      395 
     606      720      603      446      355      201      -67     -388 
    -675     -772     -673     -518     -324      -95       66       62 
     -41        8      222      342      357      391      379      325 
     390      669     1090     1371     1301     1077     1004     1094 
    1128      920      556      252       47      -56      -54      -78 
    -148     -103       67      247      340      321      229      148 
     182      272      214       10     -178     -292     -309     -170 
      99      351      488      508      422      375      456      502 
     400      189     -121     -407     -441     -233      -41      -39 
    -186     -306     -230      -54      -66     -303     -531     -641 
    -722     -820     -885     -851     -714     -522     -336     -199 
    -163     -243     -313     -228      -58       59      105       99 
     102      184      319      440      513      526      510      511 
     552      575      488      276        1     -274     -500     -673 
    -845    -1008    -1094    -1092    -1016     -939     -977    -1096 
   -1134    -1081    -1074    -1140    -1232    -1344    -1463    -1516 
   -1425    -1202     -924     -664     -486     -356     -187      -13 
      76      140      291      502      604      513      322      153 
      62       95      232      364      444      492      491      438 
     423      499      575      546      425      278      139       78 
     110      139      129      137      130       90       59       -2 
    -132     -287     -461     -579     -525     -368     -244     -166 
     -86       -1       54       49       25       56      136      203 
     291      444      585      641      656      729      873     1011 
    1080     1093     1061      904      633      396      238       83 
