Origin Time       2026/01/15 07:13:00
Lat.              42.7
Long.             145.4
Depth. (km)       30
Mag.              5.7
Station Code      HKD064
Station Lat.      44.0202
Station Long.     145.1886
Station Height(m) 17
Record Time       2026/01/15 07:13:56
Sampling Freq(Hz) 100Hz
Duration Time(s)  71
Dir.              U-D
Scale Factor      7845(gal)/8223790
Max. Acc. (gal)   2.449
Last Correction   2026/01/15 07:13:56
Memo.             
[...]
    2843     2656     2492     2492     2667     2863     2961     2965 
    2824     2515     2253     2259     2542     2821     2760     2459 
    2272     2304     2494     2702     2760     2683     2614     2640 
    2695     2659     2516     2371     2309     2284     2226     2222 
    2346     2521     2668     2721     2648     2589     2655     2771 
    2822     2725     2501     2340     2370     2521     2639     2646 
    2604     2619     2774     3056     3275     3306     3234     3203 
    3252     3138     2695     2223     2049     2099     2180     2243 
    2311     2357     2396     2466     2539     2579     2524     2324 
    2173     2269     2475     2578     2519     2385     2366     2420 
    2366     2367     2578     2808     2897     2859     2749     2656 
    2714     2933     3084     3080     3060     2983     2840     2818 
    2814     2655     2521     2550     2632     2614     2382     2100 
    2093     2347     2577     2643     2648     2768     3021     3215 
    3161     2871     2552     2416     2463     2536     2511     2390 
    2277     2243     2299     2380     2419     2451     2517     2635 
    2817     2907     2771     2508     2230     2038     2008     2010 
    1952     1972     2114     2249     2328     2490     2795     3073 
    3213     3244     3210     3258     3387     3343     3092     2821 
    2659     2651     2683     2655     2643     2709     2785     2717 
    2548     2598     2898     3100     3038     2768     2471     2394 
    2492     2492     2313     2173     2299     2546     2612     2484 
    2323     2288     2423     2573     2616     2605     2685     2947 
    3157     3056     2813     2682     2655     2582     2403     2309 
    2389     2358     2091     1860     1917     2220     2567     2833 
    2959     2924     2891     2959     3018     3018     2933     2762 
    2678     2735     2740     2629     2543     2581     2689     2739 
    2706     2647     2513     2305     2166     2182     2338     2540 
    2586     2393     2180     2126     2141     2135     2119     2103 
    2122     2169     2212     2347     2670     3036     3187     3082 
    2972     3041     3173     3238     3246     3210     3083     2891 
    2768     2721     2639     2610     2755     2926     3003     2990 
    2848     2689     2655     2678     2683     2686     2695     2709 
    2662     2587     2558     2489     2349     2181     2022     1977 
    2068     2230     2417     2492     2413     2330     2296     2316 
    2428     2587     2731     2836     2833     2709     2583     2544 
    2538     2500     2450     2403     2450     2670     2851     2801 
    2695     2705     2817     3001     3122     3082     2982     2878 
    2728     2542     2367     2257     2209     2145     2076     2095 
    2176     2268     2384     2494     2579     2656     2682     2675 
    2705     2679     2529     2419     2435     2509     2590     2631 
    2697     2882     3057     3075     2936     2740     2716     2905 
    3068     3144     3176     3115     3017     2938     2843     2799 
    2814     2786     2687     2501     2284     2184     2195     2232 
    2265     2277     2334     2442     2465     2396     2389     2502 
    2643     2677     2601     2565     2678     2871     2988     2971 
    2856     2673     2501     2442     2482     2606     2786     2889 
    2809     2579     2330     2218     2319     2583     2814     2845 
    2756     2683     2631     2562     2512     2539     2664     2829 
    2913     2852     2760     2771     2781     2656     2467     2311 
    2228     2258     2369     2442     2376     2220     2076     1966 
    1958     2107     2358     2667     2874     2813     2687     2698 
    2758     2805     2820     2787     2744     2681     2616     2602 
    2617     2651     2724     2836     2953     2999     2987     2963 
    2914     2856     2744     2554     2411     2312     2188     2122 
    2120     2126     2215     2357     2425     2434     2443     2516 
    2664     2724     2637     2567     2596     2700     2806     2817 
    2770     2783     2860     2916     2925     2920     2891     2835 
    2801     2852     3002     3076     2899     2631     2506     2474 
    2417     2323     2266     2367     2524     2544     2494     2516 
    2639     2749     2670     2484     2386     2381     2365     2245 
    2118     2205     2459     2685     2803     2809     2806     2810 
    2706     2578     2509     2417     2339     2301     2288     2371 
    2477     2467     2424     2520     2822     3156     3300     3306 
    3295     3275     3231     3129     2959     2809     2720     2639 
    2550     2511     2536     2532     2469     2407     2369     2388 
    2465     2569     2675     2683     2531     2324     2192     2218 
    2367     2496     2505     2373     2263     2386     2624     2775 
    2821     2755     2687     2691     2616     2500     2517     2610 
    2650     2600     2546     2620     2806     2964     2990     2895 
    2848     2921     2965     2886     2728     2598     2608     2701 
    2740     2663     2559     2586     2658     2577     2411     2281 
    2199     2127     2000     1957     2111     2269     2353     2427 
    2442     2461     2547     2571     2455     2269     2118     2076 
    2141     2265     2393     2497     2606     2721     2818     2898 
    2938     2978     3061     3141     3175     3141     3055     2984 
    2924     2866     2855     2832     2732     2563     2371     2334 
    2493     2656     2814     3024     3177     3222     3141     2992 
    2951     3025     3086     3072     2972     2774     2520     2385 
    2490     2636     2550     2242     1964     1922     2031     2110 
    2150     2265     2484     2635     2590     2484     2444     2528 
    2776     2975     2876     2571     2254     2104     2246     2531 
    2701     2666     2542     2513     2583     2612     2594     2569 
    2565     2601     2525     2273     2069     2081     2281     2531 
    2682     2755     2851     2967     3045     2984     2733     2423 
    2258     2343     2567     2725     2737     2621     2470     2388 
    2350     2377     2544     2749     2886     2997     3115     3206 
    3172     2990     2775     2596     2532     2619     2635     2546 
    2547     2550     2439     2322     2251     2261     2365     2465 
    2527     2586     2592     2500     2407     2457     2620     2822 
    3072     3219     3117     2924     2845     2907     2992     2945 
    2779     2632     2550     2529     2516     2423     2316     2342 
    2546     2839     3010     2906     2619     2377     2312     2386 
    2474     2482     2396     2246     2124     2131     2232     2328 
    2432     2609     2794     2840     2693     2428     2178     2037 
    2054     2238     2508     2812     3111     3272     3218     3044 
    2863     2767     2803     2880     2898     2878     2844     2712 
    2385     2002     1837     1919     2124     2351     2521     2675 
    2801     2768     2598     2413     2289     2276     2377     2610 
    2928     3091     3010     2833     2668     2577     2558     2555 
    2637     2814     2901     2837     2759     2795     2947     3061 
    3095     3159     3237     3319     3500     3662     3580     3323 
    3148     3146     3198     3169     3021     2781     2479     2139 
    1877     1815     1921     2089     2227     2277     2223     2027 
    1786     1706     1829     2068     2359     2616     2776     2743 
    2466     2138     1937     1883     1965     2029     1960     1841 
    1790     1888     2093     2320     2554     2677     2677     2801 
    3049     3203     3235     3153     2978     2849     2768     2639 
    2597     2781     3014     3098     3110     3165     3227     3258 
    3269     3261     3206     3045     2767     2492     2392     2494 
    2616     2632     2650     2729     2758     2666     2454     2234 
    2193     2296     2363     2359     2331     2385     2556     2655 
    2544     2295     2047     2004     2270     2685     2999     3118 
    3079     2899     2563     2207     2089     2303     2637     2763 
    2614     2442     2423     2525     2601     2581     2521     2416 
    2297     2334     2455     2465     2408     2390     2465     2663 
    2886     3041     3115     3021     2783     2587     2520     2563 
    2655     2685     2625     2488     2292     2188     2317     2590 
    2802     2841     2768     2731     2821     2992     3087     3042 
    2951     2893     2878     2817     2628     2442     2421     2475 
    2431     2353     2367     2397     2353     2242     2158     2301 
    2619     2751     2639     2543     2585     2702     2728     2610 
    2579     2781     3052     3167     3086     2964     2886     2814 
    2775     2747     2668     2593     2593     2691     2862     2978 
    2947     2795     2567     2301     2058     1911     1873     1908 
    2012     2155     2293     2382     2320     2149     2076     2139 
    2281     2519     2702     2620     2328     2068     2038     2239 
    2485     2668     2814     2916     2979     3057     3161     3214 
    3161     3109     3107     3106     3186     3285     3213     3055 
    2934     2798     2647     2502     2409     2457     2535     2498 
    2417     2398     2502     2714     2911     3018     3042     3003 
    2918     2776     2627     2540     2470     2363     2224     2096 
    2045     2062     2084     2111     2146     2176     2200     2268 
    2443     2686     2863     2906     2894     2961     3049     3046 
    3007     2889     2613     2323     2112     2035     2162     2312 
    2334     2288     2234     2296     2569     2864     2986     2947 
    2889     2903     2921     2895     2910     2992     3082     3090 
    3003     2937     2951     3024     3091     3075     3040     3063 
    2983     2735     2521     2454     2486     2540     2504     2415 
    2393     2411     2403     2367     2339     2362     2462     2613 
    2704     2663     2570     2500     2506     2590     2609     2509 
    2371     2245     2189     2199     2209     2223     2181     2045 
    1921     1879     1911     1960     1981     2064     2220     2330 
    2373     2444     2616     2853     3017     3056     3029     3001 
    3030     3099     3122     3080     2991     2913     2911     2945 
    2914     2785     2674     2691     2763     2809     2810     2737 
    2668     2727     2920     3194     3411     3446     3349     3198 
    3026     2835     2515     2097     1799     1652     1570     1540 
    1552     1628     1811     2058     2290     2428     2465     2520 
    2641     2768     2836     2779     2693     2740     2859     2895 
    2814     2683     2585     2519     2450     2386     2381     2444 
    2463     2390     2339     2366     2490     2705     2878     2934 
    2964     3014     3082     3107     3017     2886     2860     2961 
    3110     3144     2976     2756     2623     2566     2563     2552 
    2521     2566     2698     2801     2755     2562     2370     2281 
    2258     2247     2216     2192     2251     2293     2177     2038 
    2047     2145     2274     2481     2714     2876     2971     3040 
    3094     3078     2907     2685     2614     2712     2849     2880 
    2718     2461     2246     2119     2097     2151     2216     2277 
    2373     2525     2655     2701     2768     2897     2963     2901 
    2789     2759     2848     2956     2971     2843     2713     2720 
    2732     2655     2617     2689     2875     3098     3136     2947 
    2722     2641     2747     2848     2768     2648     2641     2705 
    2735     2674     2621     2697     2833     2924     2924     2891 
    2933     3041     3148     3195     3126     3048     3056     3082 
    3103     3161     3254     3331     3267     3067     2894     2782 
    2700     2593     2338     2012     1806     1713     1637     1533 
    1439     1445     1522     1555     1520     1467     1452     1447 
    1393     1320     1314     1453     1690     1890     2106     2369 
    2505     2442     2219     1877     1597     1544     1692     1926 
    2106     2238     2481     2901     3349     3584     3554     3468 
    3415     3289     3076     2852     2655     2511     2509     2781 
    3272     3763     4102     4251     4320     4428     4457     4314 
    4132     4036     4066     4163     4214     4245     4341     4480 
    4588     4542     4306     3966     3565     3169     2847     2571 
    2339     2145     1948     1703     1329      888      625      626 
     731      765      756      830      977     1175     1391     1479 
    1472     1537     1622     1559     1309      997      838      901 
    1101     1389     1806     2419     3150     3774     4131     4139 
    3825     3372     2933     2664     2644     2664     2606     2598 
    2590     2475     2281     2019     1850     1950     2161     2316 
    2498     2748     2972     3111     3148     3137     3210     3402 
    3676     4029     4380     4610     4768     4869     4831     4654 
    4369     4001     3611     3186     2783     2596     2550     2458 
    2353     2289     2235     2178     2110     2064     2089     2203 
    2394     2550     2502     2212     1736     1131      534      157 
      47       43       55      130      351      787     1339     1737 
    1949     2116     2320     2689     3105     3252     3153     2944 
    2705     2639     2786     3025     3298     3545     3744     3871 
    3811     3582     3370     3284     3254     3206     3240     3346 
    3372     3384     3446     3458     3465     3541     3612     3703 
    3856     3989     4093     4203     4194     3928     3418     2772 
    2218     1969     2014     2219     2519     2801     2940     3013 
    3073     3021     2864     2637     2296     1875     1456     1105 
     849      696      739      989     1263     1418     1443     1439 
    1602     1961     2269     2324     2185     2029     1957     1988 
    2073     2104     2035     1885     1744     1802     2104     2489 
    2870     3154     3195     3010     2760     2648     2747     2833 
    2729     2574     2512     2551     2633     2708     2830     3007 
    3105     3049     2863     2616     2431     2400     2502     2571 
    2512     2492     2625     2857     3156     3414     3512     3519 
    3531     3608     3732     3708     3435     3079     2779     2552 
    2362     2209     2158     2207     2276     2278     2174     2041 
    1972     2039     2335     2808     3238     3458     3483     3508 
    3657     3823     3874     3724     3322     2783     2388     2312 
    2431     2471     2323     2108     2037     2188     2393     2477 
    2497     2554     2628     2668     2623     2485     2354     2286 
    2191     2035     1989     2107     2238     2370     2529     2589 
    2535     2469     2419     2421     2451     2405     2297     2176 
    2099     2169     2366     2596     2790     2872     2917     3053 
    3119     2934     2668     2592     2702     2795     2774     2693 
    2682     2855     3061     3025     2789     2579     2538     2675 
    2879     2979     2868     2610     2367     2170     1980     1891 
    1992     2235     2444     2463     2293     2020     1780     1733 
    1873     2150     2533     2910     3196     3312     3175     2868 
    2509     2195     2064     2091     2147     2195     2196     2226 
    2444     2789     3068     3149     3007     2862     2916     3061 
    3126     3080     3028     3121     3326     3430     3308     3018 
    2656     2261     1915     1842     2122     2516     2821     3040 
    3163     3149     3029     2832     2628     2559     2598     2582 
    2567     2702     2897     3021     3055     3067     3188     3404 
    3596     3744     3796     3732     3620     3380     2936     2373 
    1850     1563     1487     1382     1193     1024      928      946 
    1100     1402     1836     2344     2847     3214     3387     3439 
    3437     3400     3369     3418     3559     3646     3577     3458 
    3292     2949     2438     1881     1486     1399     1498     1602 
    1672     1714     1787     1946     2181     2440     2566     2485 
    2339     2185     1998     1829     1721     1730     1865     2004 
    2062     2020     1850     1606     1441     1503     1788     2173 
    2528     2760     2936     3214     3609     4072     4491     4642 
    4494     4255     4064     3943     3865     3844     3998     4291 
    4494     4534     4521     4467     4261     3836     3341     3011 
    2901     2883     2806     2636     2488     2381     2231     2047 
    1888     1809     1864     1981     2046     2042     1971     1811 
    1591     1367     1189     1107     1127     1166     1231     1424 
    1669     1830     1966     2134     2295     2465     2617     2673 
    2637     2569     2486     2393     2293     2211     2143     2050 
    1956     1954     2106     2384     2759     3175     3489     3670 
    3748     3620     3280     2895     2579     2381     2216     1984 
    1806     1825     2070     2477     2868     3245     3690     4033 
    4094     3917     3639     3391     3159     2852     2556     2444 
    2559     2764     2882     2895     2920     2983     3014     2943 
    2794     2659     2535     2388     2266     2189     2169     2211 
    2231     2205     2170     2142     2145     2155     2130     2100 
    2104     2137     2172     2207     2235     2168     1944     1644 
    1344     1112     1028     1101     1316     1682     2181     2781 
    3406     3925     4236     4322     4303     4264     4129     3829 
    3424     3052     2817     2717     2678     2673     2728     2857 
    3015     3123     3164     3173     3245     3416     3566     3623 
    3626     3570     3549     3627     3649     3577     3478     3249 
    2866     2443     2050     1787     1722     1746     1733     1680 
    1679     1798     1975     2097     2112     2020     1907     1872 
    1935     2011     2002     1977     2058     2157     2141     2035 
    1952     1985     2158     2397     2577     2677     2790     2914 
    2995     3065     3069     2891     2552     2073     1561     1248 
    1105      985      939     1027     1277     1684     2142     2613 
    3060     3304     3316     3256     3231     3292     3435     3554 
    3514     3315     3110     2984     2914     2938     3083     3244 
    3319     3310     3273     3261     3341     3531     3720     3842 
    3973     4116     4202     4153     3904     3576     3341     3198 
    3094     2956     2737     2512     2362     2297     2263     2189 
    2079     1891     1633     1441     1331     1262     1300     1399 
    1507     1664     1875     2119     2354     2521     2629     2673 
    2652     2621     2559     2481     2451     2458     2520     2619 
    2663     2652     2577     2435     2351     2397     2519     2609 
    2555     2398     2292     2282     2347     2455     2571     2698 
    2833     2961     3049     3042     2970     2897     2813     2702 
