Origin Time       2026/01/15 07:13:00
Lat.              42.7
Long.             145.4
Depth. (km)       30
Mag.              5.7
Station Code      HKD076
Station Lat.      43.0509
Station Long.     144.8498
Station Height(m) 2
Record Time       2026/01/15 07:13:27
Sampling Freq(Hz) 100Hz
Duration Time(s)  110
Dir.              U-D
Scale Factor      7845(gal)/8223790
Max. Acc. (gal)   5.748
Last Correction   2026/01/15 07:13:27
Memo.             
[...]
   11572    11570    11593    11587    11589    11603    11578    11574 
   11589    11565    11558    11576    11561    11574    11595    11569 
   11580    11616    11601    11595    11604    11584    11596    11626 
   11599    11588    11612    11596    11583    11603    11589    11583 
   11608    11603    11599    11615    11596    11583    11588    11568 
   11568    11597    11587    11572    11589    11583    11572    11580 
   11561    11562    11587    11565    11564    11600    11587    11574 
   11599    11595    11592    11615    11612    11607    11615    11595 
   11583    11597    11584    11577    11600    11584    11568    11595 
   11592    11580    11607    11610    11597    11616    11607    11587 
   11600    11587    11568    11593    11593    11578    11593    11587 
   11576    11600    11597    11580    11593    11585    11574    11595 
   11589    11577    11592    11578    11565    11595    11599    11583 
   11597    11596    11584    11601    11599    11581    11592    11587 
   11573    11593    11593    11570    11585    11591    11578    11603 
   11608    11587    11597    11593    11568    11584    11597    11574 
   11574    11581    11578    11600    11593    11568    11591    11611 
   11599    11611    11614    11589    11597    11607    11595    11608 
   11612    11591    11601    11608    11585    11593    11600    11578 
   11587    11596    11569    11564    11576    11570    11583    11592 
   11577    11588    11597    11576    11584    11596    11580    11588 
   11595    11574    11587    11599    11572    11572    11587    11574 
   11585    11601    11587    11591    11595    11574    11588    11611 
   11593    11589    11596    11577    11580    11589    11569    11570 
   11591    11585    11593    11611    11603    11603    11607    11587 
   11596    11615    11592    11585    11600    11584    11578    11588 
   11572    11576    11596    11587    11588    11601    11577    11573 
   11599    11583    11573    11593    11592    11588    11596    11588 
   11591    11600    11584    11584    11611    11600    11584    11591 
   11576    11573    11595    11584    11577    11592    11562    11510 
   11453    11364    11304    11277    11195    11044    10793    10393 
   10033    10029    10478    11199    11758    11722    11210    10837 
   11049    11712    12205    12037    11469    11236    11749    12691 
   13262    13058    12519    12249    12438    12869    12896    12043 
   10787    10091    10355    11124    11610    11421    10785    10339 
   10551    11137    11510    11515    11292    10979    10797    11016 
   11488    11601    11036    10046     9215     9359    10662    12090 
   12742    12792    12703    12471    11853    11113    10852    11061 
   11446    11951    12280    12248    12294    12793    13589    14204 
   14335    14199    14107    14168    14461    14689    14233    13135 
   12285    12162    12096    11508    10827    10702    11340    12278 
   12603    12091    11403    11064    11103    10991     9945     8278 
    7551     8656    10628    11736    11230     9684     8276     8036 
    8986    10173    10997    11686    12248    12144    11500    11369 
   12206    13428    14511    14974    14426    13635    13640    14092 
   14068    13386    12349    11389    11097    11722    12490    12298 
   11323    10646    10585    10752    10949    11034    10833    10424 
    9909     9180     8398     8309     9267    10339    10474    10010 
    9890    10299    11075    12143    12972    13080    12758    12452 
   12316    12364    12332    11932    11349    11128    11747    12943 
   13702    13705    13641    13699    13541    13200    12735    12172 
   11831    11740    11543    11180    10917    10909    11101    11376 
   11634    11781    11821    11820    11805    11794    11731    11547 
   11206    10739    10440    10328     9894     9356     9521    10081 
   10269    10301    10536    10721    10760    10905    11130    11253 
   11497    12120    12729    12933    13155    13690    13950    13647 
   13329    13169    12710    12071    11894    12145    12295    12283 
   12216    11847    11253    11070    11483    12066    12564    12802 
   12499    11866    11340    10839    10206     9667     9379     9252 
    9192     9153     9074     9004     9275    10065    10944    11480 
   11680    11597    11367    11283    11352    11349    11192    11010 
   11043    11392    11961    12494    12722    12773    13051    13659 
   14307    14669    14678    14415    13845    13166    12761    12471 
   11981    11519    11272    11091    10957    10964    11055    10984 
   10596    10214    10270    10646    10902    10785    10318     9742 
    9346     9243     9504    10172    10987    11615    12077    12360 
   12272    11997    11990    12376    12857    13123    13189    13043 
   12496    11875    11776    11965    11921    11809    11828    11851 
   11909    11916    11680    11533    11840    12310    12356    11784 
   11052    10642    10446    10338    10420    10470    10288    10226 
   10567    11070    11384    11338    11002    10795    11140    11898 
   12536    12765    12761    12769    12687    12268    11646    11172 
   11033    11261    11712    12096    12312    12410    12366    12236 
   12155    12094    11973    11897    12168    12841    13335    13063 
   12226    11481    11244    11412    11458    11080    10623    10465 
   10574    10802    11032    11134    11115    11045    10864    10579 
   10353    10265    10384    10881    11754    12627    13014    12847 
   12521    12301    12181    12145    12090    11912    11761    11726 
   11620    11334    11047    10894    10797    10762    10887    11095 
   11242    11276    11246    11214    11099    10935    10970    11230 
   11560    11898    12077    11955    11728    11624    11655    11716 
   11699    11689    11835    12002    11958    11668    11381    11445 
   11846    12220    12366    12253    11934    11770    12048    12445 
   12550    12367    12024    11659    11423    11290    11142    10968 
   10764    10486    10161     9936    10045    10412    10534    10399 
   10544    10906    11044    11168    11599    12090    12325    12291 
   12217    12236    12128    11853    11716    11759    11835    11971 
   12129    12285    12588    12961    13180    13311    13508    13679 
   13548    13030    12351    11712    11245    11102    11134    11003 
   10693    10423    10270    10273    10551    10995    11279    11375 
   11506    11704    11871    11847    11470    10945    10598    10447 
   10439    10596    10818    10953    10983    11022    11111    11126 
   11052    11094    11263    11387    11515    11685    11772    11786 
   11792    11844    12060    12290    12336    12313    12271    12239 
   12422    12731    12943    13062    12933    12519    12212    12160 
   12212    12313    12351    12193    11858    11367    10871    10679 
   10689    10565    10407    10373    10314    10278    10397    10500 
   10470    10409    10463    10771    11151    11218    10976    10611 
   10250    10179    10503    10989    11506    12069    12565    12858 
   13014    13267    13576    13630    13555    13656    13725    13562 
   13408    13373    13289    13140    12984    12785    12640    12627 
   12487    12023    11446    10963    10585    10377    10324    10250 
   10139    10098    10073     9930     9738     9688     9694     9616 
    9752    10280    10770    10920    10935    10908    10758    10747 
   11152    11692    11950    11961    11943    11956    12073    12375 
   12665    12714    12800    13182    13485    13404    13096    12731 
   12561    12764    12976    12787    12352    12055    12008    12016 
   11938    11824    11597    11249    11049    10926    10579    10208 
   10041     9907     9865    10096    10326    10341    10318    10334 
   10326    10358    10566    11003    11419    11456    11250    11109 
   10991    11098    11662    12158    12172    12044    12013    11990 
   11952    11911    11881    11834    11804    12105    12714    13117 
   13139    12985    12834    12857    13101    13402    13566    13555 
   13394    12966    12175    11284    10725    10665    10836    10874 
   10785    10682    10498    10381    10542    10744    10751    10748 
   10854    10879    10727    10547    10427    10258    10199    10577 
   11141    11456    11596    11614    11372    11088    11101    11392 
   11745    11946    11875    11626    11493    11739    12276    12850 
   13486    14121    14347    14197    14056    13757    12995    12125 
   11595    11338    11103    10854    10744    10795    10816    10771 
   10727    10597    10521    10721    10867    10701    10536    10376 
    9980     9617     9501     9443     9504     9865    10336    10724 
   11079    11349    11438    11475    11631    11807    11691    11333 
   11256    11611    12036    12418    12750    12888    12973    13165 
   13301    13333    13332    13263    13170    13180    13321    13420 
   13201    12657    12044    11480    10960    10606    10470    10415 
   10328    10196    10091    10147    10335    10455    10516    10659 
   10872    11188    11596    11743    11438    10939    10494    10319 
   10530    10901    11155    11175    11026    11048    11404    11794 
   12094    12499    13023    13516    13873    13886    13413    12745 
   12256    11965    11790    11785    11844    11765    11704    12010 
   12571    12997    13244    13348    13140    12676    12229    11808 
   11300    10833    10585    10515    10415    10247    10187    10200 
   10138    10257    10856    11627    12114    12214    11909    11395 
   11159    11372    11766    12027    11988    11788    11686    11734 
   11881    11961    11732    11443    11581    12025    12397    12653 
   12810    12856    12866    12765    12382    11815    11372    11277 
   11464    11728    12058    12378    12352    11952    11492    11059 
   10764    10941    11554    12136    12371    12328    12249    12251 
   12276    12205    11880    11234    10500    10035     9946    10111 
   10408    10681    10797    10746    10458     9902     9385     9259 
    9543    10041    10508    10843    11161    11538    11912    12209 
   12291    12066    11696    11352    11063    10962    11146    11596 
   12366    13319    14069    14424    14291    13589    12604    11697 
   11009    10785    11136    11639    11828    11631    11214    10798 
   10416     9938     9474     9221     9175     9410     9979    10647 
   11169    11325    10925    10212     9693     9568     9752    10260 
   11142    12046    12557    12869    13230    13382    13267    13232 
   13275    13150    13014    13062    13012    12734    12433    12058 
   11574    11267    11317    11749    12506    13232    13470    13138 
   12442    11607    10930    10679    10933    11643    12517    13212 
   13679    13764    13223    12279    11376    10732    10368    10158 
   10048    10126    10378    10729    11125    11321    11171    10916 
   10773    10750    10918    11323    11867    12526    13309    14038 
   14467    14477    14050    13263    12359    11605    11018    10562 
   10559    11244    12291    13234    13767    13705    13063    11992 
   10816    10057     9925    10201    10620    10836    10613    10297 
   10291    10459    10643    10913    11060    10779    10238     9833 
    9825    10234    10724    10983    11014    10887    10766    10860 
   11063    11237    11577    12209    12911    13443    13799    14146 
   14536    14701    14408    13722    12722    11558    10651    10224 
   10073     9949     9850    10065    10759    11618    12251    12460 
   12089    11304    10585    10052     9524     9043     8696     8444 
    8455     8945     9729    10323    10461    10419    10681    11383 
   12390    13517    14459    15044    15404    15507    15191    14570 
   13760    12780    11835    11226    11137    11515    12110    12739 
   13203    13074    12137    10839     9883     9697    10288    11229 
   11997    12483    12789    12838    12580    12133    11560    10929 
   10332     9809     9531     9725    10287    10909    11496    12047 
   12451    12525    12183    11691    11365    10997    10311     9636 
    9377     9558    10134    11029    11932    12529    12912    13387 
   13934    14296    14396    14274    14018    13840    13779    13644 
   13354    12860    12123    11414    11125    11314    11794    12355 
   12741    12727    12295    11651    11001    10265     9315     8347 
    7530     6795     6322     6412     6922     7527     8209     9131 
   10176    10878    11087    11218    11499    11786    12050    12290 
   12437    12565    12692    12614    12359    12182    11994    11570 
   11146    11076    11326    11711    12253    13066    14015    14782 
   15206    15286    14991    14389    13649    12984    12633    12626 
   12733    12826    12843    12684    12418    12222    12064    11766 
   11275    10642     9981     9437     9018     8645     8216     7649 
    7164     7013     7088     7292     7720     8445     9410    10482 
   11587    12621    13408    13882    14103    14146    14108    14130 
   14265    14492    14908    15568    16260    16831    17305    17536 
   17289    16668    15936    15029    13814    12459    11167     9953 
    8870     8159     7954     7973     7843     7492     7007     6435 
    5886     5563     5586     5989     6771     7812     8901     9769 
   10430    11168    11959    12595    13036    13230    13192    13190 
   13489    14069    14746    15307    15516    15259    14782    14473 
   14424    14445    14326    14040    13648    13167    12708    12429 
   12283    12100    11709    10987    10062     9285     8903     8997 
    9464    10037    10575    10987    11094    10990    10928    10863 
   10592    10060     9431     9074     9192     9458     9390     8889 
    8271     7904     7875     8191     8977    10114    11250    12216 
   12957    13425    13767    14145    14472    14682    14866    14979 
   14910    14611    14061    13392    12749    12113    11487    10935 
   10439    10004     9740     9663     9585     9360     9162     9335 
    9953    10822    11800    12703    13324    13737    14100    14391 
   14573    14619    14482    14180    13707    13147    12722    12453 
   12133    11659    11005    10183     9414     8924     8733     8799 
    9034     9393     9967    10717    11439    11994    12212    11990 
   11678    11678    11871    12036    12260    12633    13103    13591 
   14042    14440    14617    14376    13902    13421    12810    12135 
   11746    11611    11464    11308    11161    10848    10314     9792 
    9613     9821    10153    10454    10756    10978    11086    11238 
   11426    11495    11404    11130    10779    10627    10746    11065 
   11573    12097    12413    12559    12706    12912    13090    13028 
   12596    11878    11049    10338     9965     9922    10046    10228 
   10339    10176     9717     9242     9030     9147     9443     9671 
    9763     9844     9977    10184    10451    10679    10759    10548 
   10081     9759     9771     9894    10069    10368    10679    10995 
   11407    11900    12356    12692    13072    13641    14192    14646 
   15206    15835    16295    16468    16335    15984    15574    15134 
   14667    14245    13718    12950    12154    11537    11163    11007 
   10793    10276     9652     9258     9165     9216     9246     9304 
    9522     9805    10103    10493    10777    10748    10659    10786 
   11052    11376    11772    12114    12363    12690    13142    13620 
   14041    14347    14550    14640    14509    14200    13879    13540 
   13170    12834    12407    11772    11064    10521    10293    10249 
   10112     9868     9637     9389     9094     8865     8769     8843 
    9130     9602    10230    10920    11468    11763    11848    11840 
   11873    11954    12021    12056    11978    11743    11514    11392 
   11327    11341    11404    11357    11192    11072    11057    11148 
   11325    11522    11697    11801    11776    11727    11804    11977 
   12187    12380    12490    12573    12711    12808    12802    12810 
   12881    12870    12641    12249    11853    11485    11144    10922 
   10771    10474    10041     9661     9412     9339     9464     9649 
    9796     9971    10212    10535    10966    11418    11836    12236 
   12496    12550    12538    12506    12367    12131    11919    11943 
   12270    12654    12903    13028    13053    13104    13317    13640 
   14062    14540    14785    14681    14419    14081    13622    13020 
   12293    11530    10806    10146     9675     9513     9541     9586 
    9607     9593     9566     9651     9840     9930     9852     9715 
    9675     9830    10141    10548    11013    11342    11372    11268 
   11272    11484    11881    12267    12479    12528    12366    11981 
   11583    11319    11218    11326    11524    11589    11539    11550 
   11712    12010    12371    12735    13027    13080    12916    12795 
   12752    12615    12420    12259    12110    12013    11994    11932 
   11661    11128    10544    10230    10212    10332    10536    10700 
   10627    10413    10336    10500    10822    11133    11350    11577 
   11743    11638    11357    11128    10975    10898    10913    10986 
   11098    11200    11233    11265    11283    11164    10972    10831 
   10716    10642    10633    10636    10682    10856    11146    11493 
   11794    11967    12055    12155    12298    12471    12663    12831 
   12987    13200    13497    13836    14130    14277    14249    14019 
   13571    13078    12710    12387    12098    11963    11882    11682 
   11410    11240    11279    11429    11527    11577    11589    11477 
   11287    11160    11097    11080    11145    11241    11308    11356 
   11427    11628    11934    12120    12074    11843    11470    11098 
   10883    10712    10416    10092     9925    10012    10314    10687 
   11068    11402    11592    11746    12009    12260    12426    12603 
   12753    12820    12887    12931    12838    12629    12421    12241 
   11977    11543    11038    10611    10311    10158    10111     9999 
    9749     9513     9401     9412     9536     9718     9910    10142 
   10453    10871    11344    11681    11854    12054    12312    12536 
   12731    12820    12667    12321    11905    11489    11134    10879 
   10752    10812    11011    11200    11313    11375    11484    11804 
   12334    12949    13564    14015    14176    14157    14060    13906 
   13718    13406    12914    12324    11718    11211    10906    10733 
   10620    10586    10534    10400    10307    10289    10241    10112 
    9921     9733     9678     9853    10276    10837    11356    11749 
   12047    12255    12440    12690    12901    12928    12799    12621 
   12463    12394    12401    12409    12417    12405    12345    12325 
   12372    12406    12371    12248    12096    12017    11966    11808 
   11526    11163    10787    10542    10419    10272    10100     9963 
    9859     9802     9772     9786     9952    10215    10449    10720 
   11025    11222    11381    11650    12008    12375    12711    13035 
