Origin Time       2026/01/15 07:13:00
Lat.              42.7
Long.             145.4
Depth. (km)       30
Mag.              5.7
Station Code      HKD058
Station Lat.      44.0242
Station Long.     144.2637
Station Height(m) 4
Record Time       2026/01/15 07:14:06
Sampling Freq(Hz) 100Hz
Duration Time(s)  60
Dir.              N-S
Scale Factor      7845(gal)/8223790
Max. Acc. (gal)   1.623
Last Correction   2026/01/15 07:14:06
Memo.             
[...]
    -687     -729     -745     -747     -780     -801     -770     -735 
    -762     -811     -830     -872     -965    -1050    -1104    -1136 
   -1169    -1182    -1135    -1111    -1186    -1263    -1267    -1274 
   -1310    -1305    -1262    -1223    -1167    -1075     -976     -905 
    -892     -891     -868     -854     -846     -812     -789     -792 
    -769     -702     -633     -587     -577     -602     -630     -676 
    -764     -862     -934     -989    -1027    -1032    -1009     -953 
    -889     -842     -791     -761     -772     -787     -811     -859 
    -922     -954     -942     -928     -938     -932     -888     -835 
    -834     -911    -1012    -1065    -1062    -1030     -978     -943 
    -957     -990     -992     -961     -922     -901     -918     -931 
    -916     -905     -905     -897     -870     -842     -845     -881 
    -911     -938     -976     -982     -928     -896     -946    -1001 
    -996    -1011    -1105    -1196    -1212    -1193    -1194    -1188 
   -1134    -1085    -1071    -1067    -1046    -1001     -963     -939 
    -881     -812     -789     -777     -745     -754     -791     -787 
    -742     -685     -654     -656     -654     -662     -702     -747 
    -799     -895     -996    -1016     -970     -939     -950     -976 
    -992     -985     -951     -896     -861     -861     -880     -896 
    -907     -913     -899     -853     -841     -888     -949    -1017 
   -1112    -1174    -1129    -1026     -978     -994     -999     -966 
    -911     -845     -796     -812     -888     -931     -907     -886 
    -901     -945    -1024    -1055     -993     -915     -859     -815 
    -791     -787     -808     -864     -900     -891     -881     -865 
    -822     -797     -800     -796     -787     -797     -842     -919 
    -989    -1012    -1000     -977     -947     -942     -992    -1062 
   -1121    -1158    -1156    -1127    -1081    -1024     -994     -999 
    -993     -973     -974     -972     -940     -924     -916     -897 
    -888     -882     -891     -919     -919     -861     -764     -657 
    -564     -537     -607     -719     -816     -904     -982    -1020 
   -1020    -1020    -1054    -1085    -1062    -1013    -1007    -1034 
   -1040    -1019    -1012    -1027    -1021     -989     -969     -969 
    -959     -923     -885     -862     -842     -815     -796     -799 
    -808     -791     -749     -712     -692     -691     -707     -754 
    -811     -853     -897     -950     -994    -1027    -1040    -1038 
   -1038    -1051    -1042     -999     -984    -1026    -1055    -1035 
   -1035    -1088    -1112    -1078    -1046    -1034    -1008     -981 
    -996    -1044    -1065    -1069    -1101    -1123    -1075    -1015 
    -993     -970     -918     -861     -822     -814     -838     -882 
    -951    -1000     -965     -842     -695     -612     -607     -626 
    -635     -653     -715     -792     -841     -888     -946     -961 
    -936     -935     -953     -953     -947     -967    -1027    -1101 
   -1146    -1144    -1119    -1082    -1036     -999     -957     -888 
    -812     -737     -662     -619     -595     -585     -630     -693 
    -729     -768     -855     -947     -967     -940     -942     -974 
    -974     -931     -915     -897     -815     -769     -853     -972 
   -1035    -1092    -1167    -1210    -1227    -1233    -1202    -1124 
   -1021     -947     -950    -1017    -1097    -1163    -1177    -1134 
   -1100    -1082    -1024     -935     -881     -861     -834     -792 
    -722     -606     -504     -488     -541     -596     -630     -642 
    -643     -669     -697     -689     -697     -751     -803     -878 
   -1017    -1158    -1269    -1340    -1351    -1317    -1258    -1200 
   -1201    -1255    -1296    -1297    -1306    -1335    -1343    -1305 
   -1237    -1163    -1090    -1012     -942     -866     -770     -695 
    -653     -623     -606     -626     -673     -702     -697     -691 
    -683     -654     -621     -623     -646     -641     -623     -626 
    -641     -661     -707     -764     -793     -816     -847     -841 
    -818     -834     -881     -903     -880     -892     -996    -1105 
   -1154    -1189    -1256    -1291    -1219    -1088     -996     -959 
    -958    -1019    -1146    -1229    -1209    -1135    -1023     -884 
    -777     -747     -768     -787     -807     -823     -803     -765 
    -739     -707     -657     -649     -741     -861     -942    -1003 
   -1051    -1105    -1178    -1235    -1293    -1337    -1327    -1313 
   -1332    -1325    -1287    -1252    -1206    -1123     -993     -866 
    -812     -824     -828     -816     -827     -834     -824     -838 
    -861     -838     -781     -746     -738     -737     -724     -702 
    -712     -778     -853     -893     -916     -950     -985    -1021 
   -1063    -1094    -1070     -990     -938     -982    -1062    -1082 
   -1062    -1058    -1065    -1065    -1054    -1043    -1042    -1015 
    -954     -905     -881     -832     -749     -696     -712     -749 
    -773     -774     -749     -723     -716     -730     -764     -792 
    -803     -857     -959    -1021    -1020    -1021    -1053    -1093 
   -1119    -1119    -1115    -1113    -1089    -1032     -942     -838 
    -776     -742     -684     -650     -677     -741     -820     -904 
   -1007    -1129    -1221    -1250    -1248    -1210    -1100     -969 
    -886     -839     -819     -846     -901     -926     -919     -932 
    -954     -918     -835     -793     -815     -827     -819     -861 
    -930     -930     -858     -816     -843     -841     -791     -784 
    -810     -808     -797     -830     -901     -947     -935     -931 
    -972     -976     -913     -895     -951     -986     -955     -935 
    -963     -994     -988     -966     -951     -905     -818     -726 
    -654     -612     -581     -527     -479     -487     -522     -544 
    -591     -679     -747     -770     -799     -874     -954     -997 
   -1046    -1132    -1174    -1139    -1129    -1178    -1212    -1233 
   -1273    -1294    -1278    -1240    -1202    -1197    -1220    -1228 
   -1204    -1169    -1148    -1132    -1109    -1128    -1220    -1336 
   -1424    -1491    -1539    -1520    -1408    -1274    -1170    -1040 
    -866     -735     -673     -596     -449     -299     -218     -194 
    -201     -244     -325     -418     -490     -541     -595     -637 
    -633     -621     -683     -820     -958    -1040    -1089    -1152 
   -1223    -1278    -1331    -1383    -1394    -1337    -1254    -1210 
   -1193    -1146    -1070    -1012     -972     -918     -881     -912 
    -965     -974     -957     -945     -932     -926     -924     -924 
    -954     -973     -928     -878     -889     -927     -924     -893 
    -878     -885     -895     -900     -919     -943     -928     -881 
    -858     -857     -837     -795     -773     -789     -814     -835 
    -876     -905     -878     -826     -795     -781     -781     -808 
    -862     -926     -935     -873     -814     -784     -750     -719 
    -714     -719     -716     -718     -739     -801     -886     -915 
    -882     -865     -861     -841     -828     -827     -799     -751 
    -715     -691     -673     -643     -626     -669     -754     -838 
    -920    -1000    -1065    -1107    -1127    -1135    -1134    -1129 
   -1138    -1151    -1178    -1235    -1277    -1289    -1305    -1313 
   -1304    -1300    -1297    -1283    -1247    -1194    -1154    -1138 
   -1117    -1073    -1030    -1017     -993     -931     -905     -924 
    -903     -849     -820     -807     -788     -760     -737     -724 
    -708     -685     -665     -656     -689     -783     -877     -942 
   -1011    -1067    -1100    -1159    -1237    -1266    -1224    -1163 
   -1156    -1193    -1186    -1151    -1136    -1120    -1096    -1090 
   -1084    -1050    -1005     -954     -899     -864     -808     -693 
    -585     -522     -457     -383     -352     -398     -476     -541 
    -619     -741     -868     -953    -1004    -1043    -1043     -970 
    -893     -882     -905     -926     -945     -957     -932     -853 
    -743     -660     -616     -575     -519     -492     -519     -553 
    -606     -733     -907    -1032    -1081    -1124    -1177    -1192 
   -1167    -1158    -1185    -1209    -1217    -1246    -1296    -1327 
   -1313    -1273    -1263    -1279    -1259    -1216    -1209    -1216 
   -1181    -1129    -1094    -1040     -958     -911     -922     -942 
    -936     -926     -947     -994    -1019    -1000     -967     -932 
    -862     -738     -626     -599     -618     -619     -653     -734 
    -792     -814     -868     -982    -1098    -1136    -1097    -1054 
   -1021     -955     -880     -841     -816     -753     -665     -641 
    -685     -707     -700     -730     -780     -776     -699     -630 
    -639     -673     -665     -688     -805     -919     -958     -994 
   -1070    -1112    -1069     -999     -963     -926     -837     -770 
    -804     -854     -843     -851     -928     -993     -997     -985 
   -1009    -1027     -973     -877     -793     -712     -618     -518 
    -449     -441     -461     -492     -557     -626     -653     -658 
    -673     -695     -724     -742     -722     -704     -677     -608 
    -579     -650     -735     -772     -797     -846     -896     -900 
    -882     -900     -918     -861     -761     -703     -687     -715 
    -831    -1023    -1215    -1339    -1371    -1368    -1372    -1351 
   -1286    -1235    -1235    -1258    -1283    -1337    -1436    -1521 
   -1539    -1540    -1544    -1495    -1401    -1327    -1313    -1333 
   -1355    -1394    -1443    -1443    -1331    -1140     -974     -850 
    -737     -670     -680     -758     -854     -923     -976    -1004 
    -962     -874     -812     -793     -787     -795     -823     -849 
    -880     -922     -963     -988     -961     -861     -711     -553 
    -396     -248     -140      -68       -9       35       52       20 
     -66     -172     -291     -444     -631     -797     -895     -951 
   -1003    -1028    -1031    -1073    -1208    -1405    -1574    -1688 
   -1779    -1798    -1682    -1487    -1314    -1150     -950     -787 
    -737     -756     -801     -913    -1121    -1374    -1590    -1744 
   -1837    -1849    -1773    -1642    -1522    -1451    -1412    -1410 
   -1426    -1397    -1305    -1181    -1039     -909     -791     -652 
    -522     -437     -415     -480     -641     -919    -1296    -1674 
   -1968    -2180    -2315    -2301    -2114    -1842    -1566    -1264 
    -943     -681     -529     -441     -369     -329     -332     -363 
    -418     -522     -664     -754     -734     -650     -548     -413 
    -251     -106      -64     -139     -233     -319     -467     -683 
    -849     -878     -857     -846     -757     -525     -225       37 
     217      280      118     -287     -726     -994    -1088    -1063 
    -976     -897     -885     -982    -1163    -1282    -1269    -1190 
   -1055     -854     -650     -481     -353     -267     -232     -274 
    -384     -523     -691     -893    -1097    -1266    -1398    -1530 
   -1695    -1822    -1826    -1723    -1547    -1336    -1173    -1069 
    -997     -970     -974    -1008    -1104    -1237    -1312    -1266 
   -1108     -934     -851     -835     -830     -862     -922     -935 
    -927     -946     -922     -812     -718     -711     -742     -791 
    -896    -1013    -1061    -1034     -970     -891     -810     -792 
    -899    -1086    -1282    -1489    -1680    -1761    -1692    -1517 
   -1269     -962     -634     -357     -183      -91      -87     -190 
    -311     -384     -464     -577     -710     -816     -845     -823 
    -820     -870     -969    -1084    -1182    -1260    -1304    -1277 
   -1198    -1116    -1031     -912     -745     -562     -436     -388 
    -392     -438     -541     -691     -826     -924    -1000    -1026 
    -990     -969     -978     -942     -842     -739     -660     -591 
    -552     -565     -627     -715     -796     -854     -891     -862 
    -754     -642     -541     -430     -371     -372     -425     -561 
    -787    -1086    -1441    -1775    -1988    -2070    -2060    -1980 
   -1896    -1860    -1826    -1772    -1728    -1690    -1640    -1560 
   -1486    -1426    -1316    -1161    -1028     -897     -726     -535 
    -363     -202      -29      103       93      -56     -220     -379 
    -600     -842    -1023    -1140    -1213    -1271    -1327    -1378 
   -1436    -1482    -1463    -1331    -1101     -850     -629     -486 
    -457     -531     -662     -801     -931    -1081    -1236    -1340 
   -1413    -1503    -1563    -1516    -1348    -1119     -891     -683 
    -548     -544     -610     -669     -696     -650     -554     -471 
    -448     -557     -804    -1102    -1395    -1659    -1875    -2043 
   -2168    -2227    -2200    -2103    -1972    -1822    -1678    -1555 
   -1471    -1437    -1394    -1270    -1100     -934     -760     -576 
    -413     -326     -386     -572     -774     -909     -927     -800 
    -606     -450     -369     -387     -502     -618     -638     -554 
    -409     -240      -85       36      124      195      261      306 
     299      211       31     -214     -473     -712     -951    -1186 
   -1323    -1302    -1171     -982     -772     -585     -449     -326 
    -148       83      330      567      729      778      753      680 
     552      356       99     -210     -552     -843    -1024    -1131 
   -1228    -1331    -1418    -1505    -1614    -1715    -1761    -1790 
   -1877    -1987    -2070    -2169    -2273    -2308    -2257    -2162 
   -2060    -1965    -1894    -1864    -1890    -1954    -2011    -2047 
   -2077    -2074    -2007    -1899    -1795    -1656    -1433    -1185 
    -999     -891     -830     -796     -768     -714     -652     -603 
    -529     -417     -322     -274     -247     -220     -198     -175 
    -132      -94     -141     -305     -500     -656     -768     -838 
    -861     -851     -832     -811     -792     -776     -761     -776 
    -828     -880     -947    -1042    -1093    -1075    -1067    -1148 
   -1308    -1451    -1525    -1537    -1479    -1355    -1205    -1070 
    -934     -785     -666     -591     -526     -464     -440     -490 
    -602     -747     -893    -1020    -1135    -1232    -1296    -1324 
   -1317    -1281    -1212    -1109     -994     -897     -832     -830 
    -905     -973     -953     -888     -826     -754     -670     -596 
    -554     -561     -634     -788     -999    -1254    -1540    -1803 
   -1985    -2061    -2074    -2076    -2030    -1910    -1723    -1452 
   -1139     -895     -749     -623     -490     -368     -245     -145 
    -114     -125     -139     -155     -171     -199     -253     -328 
    -427     -521     -546     -522     -486     -423     -326     -220 
    -144     -122     -132     -170     -236     -303     -359     -419 
    -479     -499     -494     -491     -454     -387     -355     -394 
    -527     -750    -1015    -1278    -1510    -1701    -1810    -1768 
   -1593    -1372    -1147     -931     -781     -770     -919    -1163 
   -1405    -1603    -1756    -1844    -1867    -1887    -1898    -1846 
   -1725    -1575    -1463    -1405    -1358    -1348    -1421    -1518 
   -1560    -1552    -1518    -1410    -1189     -908     -662     -499 
    -390     -303     -252     -264     -324     -415     -567     -762 
    -930    -1057    -1154    -1228    -1281    -1286    -1229    -1132 
   -1005     -828     -645     -545     -538     -558     -577     -618 
    -683     -750     -795     -826     -859     -855     -781     -697 
    -666     -672     -665     -634     -595     -540     -473     -467 
    -557     -684     -751     -735     -695     -665     -625     -615 
    -680     -769     -827     -834     -792     -754     -766     -789 
    -803     -850     -911     -919     -904     -953    -1074    -1185 
   -1219    -1240    -1306    -1340    -1293    -1233    -1202    -1186 
   -1193    -1240    -1289    -1260    -1140     -993     -868     -751 
    -650     -625     -688     -793     -916    -1055    -1210    -1360 
   -1452    -1472    -1485    -1489    -1420    -1291    -1177    -1089 
    -996     -918     -927    -1007    -1055    -1061    -1085    -1134 
   -1154    -1156    -1223    -1318    -1331    -1244    -1124    -1001 
    -888     -842     -873     -911     -905     -850     -760     -653 
    -522     -380     -305     -305     -311     -299     -301     -342 
    -437     -572     -718     -857     -972    -1020    -1012    -1038 
   -1089    -1085    -1066    -1081    -1071    -1030    -1030    -1119 
   -1282    -1483    -1694    -1903    -2058    -2088    -2007    -1900 
   -1795    -1665    -1520    -1379    -1262    -1190    -1148    -1081 
    -973     -826     -622     -376     -137       75      255      380 
     415      309       81     -182     -481     -828    -1102    -1246 
   -1328    -1350    -1264    -1115     -977     -868     -746     -583 
    -427     -337     -307     -321     -375     -446     -502     -533 
    -556     -585     -614     -625     -610     -577     -553     -527 
    -494     -504     -549     -548     -498     -440     -405     -406 
    -417     -414     -438     -511     -619     -780     -969    -1098 
   -1129    -1084    -1015     -967     -939     -927     -943     -954 
    -907     -799     -699     -631     -560     -506     -554     -707 
    -901    -1100    -1281    -1402    -1421    -1377    -1389    -1502 
   -1638    -1761    -1935    -2145    -2288    -2363    -2440    -2490 
   -2455    -2344    -2230    -2164    -2106    -2003    -1906    -1846 
   -1782    -1710    -1661    -1614    -1529    -1397    -1247    -1131 
   -1063    -1003     -915     -826     -733     -595     -427     -290 
    -189      -93        2       60       48       12       25       36 
     -27      -94     -118     -167     -265     -361     -409     -409 
    -400     -403     -411     -423     -421     -388     -338     -305 
    -311     -357     -415     -444     -464     -526     -592     -641 
    -743     -897    -1011    -1061    -1104    -1178    -1267    -1379 
   -1553    -1733    -1817    -1800    -1736    -1655    -1534    -1355 
   -1185    -1061     -950     -877     -880     -954    -1075    -1171 
   -1204    -1235    -1297    -1321    -1270    -1212    -1178    -1107 
    -993     -907     -880     -872     -846     -853     -909     -936 
    -901     -864     -842     -768     -634     -542     -494     -409 
    -315     -267     -261     -256     -248     -283     -386     -544 
    -712     -866    -1007    -1101    -1120    -1085    -1023     -957 
    -909     -886     -886     -916     -954     -984    -1024    -1050 
   -1046    -1035    -1021    -1004     -959     -838     -680     -569 
    -517     -484     -450     -467     -560     -656     -738     -877 
   -1030    -1097    -1128    -1200    -1286    -1355    -1397    -1414 
   -1401    -1332    -1225    -1163    -1197    -1283    -1368    -1447 
   -1510    -1551    -1578    -1607    -1676    -1763    -1784    -1760 
   -1763    -1756    -1684    -1606    -1567    -1520    -1440    -1354 
