Origin Time       2026/01/15 07:13:00
Lat.              42.7
Long.             145.4
Depth. (km)       30
Mag.              5.7
Station Code      HKD074
Station Lat.      43.3680
Station Long.     145.8026
Station Height(m) 16
Record Time       2026/01/15 07:13:31
Sampling Freq(Hz) 100Hz
Duration Time(s)  92
Dir.              N-S
Scale Factor      7845(gal)/8223790
Max. Acc. (gal)   38.853
Last Correction   2026/01/15 07:13:31
Memo.             
[...]
    6771     6768     6768     6770     6770     6771     6767     6766 
    6770     6771     6771     6771     6770     6768     6770     6770 
    6770     6771     6768     6766     6767     6768     6768     6771 
    6774     6768     6766     6768     6771     6771     6771     6770 
    6767     6768     6771     6771     6771     6772     6771     6766 
    6767     6770     6770     6771     6768     6767     6768     6771 
    6771     6772     6770     6768     6767     6770     6772     6772 
    6770     6768     6767     6768     6772     6774     6771     6770 
    6771     6772     6772     6771     6770     6770     6770     6771 
    6771     6770     6770     6768     6767     6768     6771     6772 
    6774     6772     6770     6767     6768     6771     6772     6772 
    6770     6767     6768     6771     6772     6771     6771     6768 
    6766     6770     6772     6771     6770     6768     6766     6767 
    6771     6774     6772     6770     6767     6770     6774     6770 
    6768     6770     6767     6768     6770     6768     6768     6770 
    6770     6768     6770     6774     6774     6770     6768     6770 
    6771     6772     6771     6768     6767     6768     6770     6771 
    6772     6770     6768     6770     6768     6770     6771     6770 
    6770     6768     6768     6772     6774     6771     6770     6771 
    6770     6770     6771     6770     6768     6770     6770     6768 
    6770     6771     6770     6768     6766     6768     6774     6775 
    6772     6768     6767     6768     6768     6770     6771     6768 
    6767     6768     6768     6770     6772     6771     6766     6767 
    6770     6772     6774     6772     6770     6768     6770     6772 
    6771     6771     6771     6766     6763     6768     6774     6775 
    6772     6768     6766     6771     6775     6772     6771     6770 
    6768     6768     6772     6774     6772     6768     6767     6768 
    6772     6768     6768     6772     6770     6770     6774     6772 
    6768     6768     6770     6768     6771     6772     6770     6768 
    6767     6766     6767     6768     6771     6772     6768     6767 
    6771     6775     6774     6771     6767     6767     6771     6771 
    6770     6772     6774     6771     6768     6768     6772     6772 
    6768     6768     6770     6770     6771     6772     6771     6766 
    6764     6768     6771     6771     6768     6770     6771     6770 
    6772     6774     6772     6771     6767     6766     6771     6772 
    6770     6771     6768     6763     6770     6774     6768     6770 
    6770     6768     6770     6771     6771     6772     6771     6768 
    6768     6772     6772     6771     6771     6768     6764     6770 
    6774     6771     6770     6770     6768     6770     6771     6771 
    6772     6770     6767     6768     6771     6770     6770     6772 
    6770     6768     6772     6774     6770     6768     6770     6768 
    6768     6770     6771     6770     6767     6768     6771     6771 
    6771     6771     6770     6768     6768     6770     6771     6772 
    6772     6768     6766     6771     6777     6771     6766     6768 
    6768     6770     6771     6771     6770     6767     6766     6768 
    6774     6774     6771     6771     6774     6778     6779     6782 
    6781     6778     6782     6789     6793     6797     6799     6801 
    6801     6798     6795     6791     6779     6763     6743     6714 
    6698     6705     6731     6768     6801     6813     6805     6790 
    6790     6805     6814     6808     6781     6741     6710     6704 
    6717     6717     6690     6659     6658     6700     6767     6810 
    6787     6735     6728     6786     6871     6918     6879     6762 
    6633     6586     6656     6774     6816     6731     6605     6604 
    6752     6868     6790     6554     6382     6485     6829     7128 
    7136     6917     6718     6740     7026     7403     7580     7358 
    6808     6357     6397     6814     7082     6816     6268     5996 
    6195     6678     7155     7366     7256     7015     6876     6786 
    6578     6388     6507     6955     7400     7412     6902     6377 
    6474     7163     7700     7420     6438     5587     5556     6066 
    6304     6053     5856     6172     6859     7414     7429     6883 
    6338     6507     7380     8174     8044     6932     5796     5535 
    6093     6864     7304     7225     6880     6647     6651     6756 
    6735     6550     6474     6716     7157     7420     7263     7006 
    7022     7175     7211     7095     6871     6536     6138     5890 
    6016     6428     6795     6997     7061     6972     6851     6947 
    7275     7408     7059     6766     6988     7238     7042     6529 
    6106     6110     6351     6394     6238     6200     6376     6477 
    6365     6347     6702     7365     7932     7979     7550     7092 
    6967     7121     7303     7399     7242     6582     5672     5132 
    5202     5810     6709     7318     7261     6771     6332     6249 
    6309     6133     6031     6617     7661     8324     8251     7770 
    7377     7338     7433     7214     6585     5800     5202     5109 
    5501     5887     5972     6077     6659     7690     8621     8883 
    8429     7569     6660     6220     6474     6740     6313     5671 
    5827     6741     7342     6986     6104     5715     6457     7857 
    8702     8187     6646     5240     5049     6133     7339     7504 
    6762     6195     6517     7419     7927     7430     6381     5795 
    6151     6943     7311     6833     5815     5381     6434     8133 
    8750     7803     6428     6081     6916     7577     6986     5651 
    4945     5593     7063     8225     8343     7542     6610     6239 
    6428     6867     7292     7285     6808     6444     6345     6137 
    5852     5857     6439     7333     7624     6960     5950     5402 
    5751     6570     7152     7326     7303     7438     7831     8135 
    7960     7307     6637     6388     6520     6490     5737     4588 
    4213     5239     7101     8783     9431     8656     6924     5463 
    5466     6994     8581     8673     7350     5803     5047     5503 
    6763     8020     8577     7894     6389     5337     5274     5691 
    6154     6714     7164     6967     6246     5626     5580     6463 
    7924     8964     9223     8895     8052     6898     5740     4793 
    4226     4214     4974     6203     7092     7358     7226     6988 
    7111     7820     8716     9124     8434     6648     4923     4583 
    5556     6770     7371     7065     6372     6174     6521     6871 
    7038     7142     7198     7064     6754     6559     6678     7072 
    7603     7970     7801     7150     6555     6482     7021     7676 
    7600     6547     5321     5202     6481     7726     7510     6130 
    4920     4962     6384     8044     8388     7078     5371     4828 
    5857     7572     8731     8541     7110     5493     4916     5655 
    6826     7438     7199     6563     6338     6752     7361     7817 
    7962     7546     6444     5269     4934     5478     6307     6812 
    6667     6334     6547     7431     8550     9348     9340     8557 
    7572     6605     5682     5186     5432     6361     7319     7329 
    6291     5333     5547     6760     8128     8788     7827     5529 
    3696     3613     5147     7209     8351     8094     7303     6844 
    6955     7524     8124     8233     7585     6315     5292     5474 
    6457     7017     6783     6177     5796     6080     6808     7526 
    8082     8237     7715     6778     6056     5934     6291     6698 
    6778     6392     5894     5967     6745     7696     8355     8602 
    8545     8241     7550     6528     5611     5123     4985     5104 
    5620     6378     6737     6363     5761     5800     6771     7952 
    8370     7807     6756     5931     5903     6639     7627     8307 
    8195     7318     6227     5375     5233     6168     7561     8189 
    7441     5779     4549     4953     6725     8523     9360     8876 
    7280     5614     5111     6033     7335     7701     7010     6282 
    6199     6346     6284     6394     7069     7927     8033     7041 
    6088     6448     7655     8226     7653     6706     6068     5760 
    5764     5956     6065     6160     6312     6345     6259     6216 
    6345     6701     7172     7673     8209     8598     8618     8166 
    7317     6602     6434     6534     6446     5880     5069     4806 
    5393     6188     6417     6216     6461     7346     8109     8024 
    7196     6532     6590     7002     7306     7406     7295     6929 
    6477     6319     6559     6821     6822     6847     7024     6826 
    6158     5760     5965     6253     6316     6453     6868     7484 
    7947     7889     7690     7870     8089     7865     7291     6670 
    6273     6251     6331     6153     5705     5152     4954     5513 
    6394     6929     7080     7121     7362     7978     8517     8343 
    7422     6099     4801     4293     5082     6556     7588     7452 
    6336     5659     6532     8164     8951     8361     7325     7118 
    7797     8048     7074     5688     4872     4638     4658     5017 
    5940     6990     7546     7753     8067     8596     9031     8861 
    8032     7049     6473     6536     6774     6529     5796     5036 
    4584     4456     4781     5825     7317     8442     8476     7551 
    6949     7635     8769     8815     7685     6589     6201     6216 
    6151     5846     5494     5179     4835     4896     5784     6767 
    6976     6831     6978     7294     7543     7688     7750     7809 
    7896     8006     8064     7898     7389     6593     5860     5524 
    5467     5552     5672     5445     4939     4874     5683     7105 
    8410     8791     8114     7366     7528     8226     8395     7703 
    6758     6316     6390     6517     6640     6891     6986     6519 
    5505     4388     3910     4700     6412     7881     8388     8019 
    7192     6616     6948     7989     8896     9147     8657     7582 
    6471     5776     5301     4860     4756     5196     5952     6546 
    6635     6423     6427     6905     7635     8171     8333     8299 
    8332     8530     8560     7943     6880     6034     5572     5158 
    4650     4256     4266     4766     5520     6154     6447     6473 
    6644     7337     8542     9734     9979     8900     7323     6303 
    6081     6173     6050     5745     5591     5759     6318     6960 
    7060     6659     6358     6539     7267     7983     7701     6313 
    5019     5008     6212     7654     8380     8137     7597     7561 
    8128     8780     8757     7612     5985     5152     5313     5541 
    5278     4845     4993     5984     7167     7939     8198     7925 
    7217     6443     6130     6397     6741     6824     6683     6334 
    5935     5886     6427     7493     8645     9097     8406     6968 
    5660     5161     5579     6554     7272     6929     5873     5458 
    6523     8299     9143     8534     7338     6384     5945     5996 
    6312     6562     6490     6177     6035     6347     6863     7159 
    7141     6798     6295     6158     6586     7230     7639     7384 
    6431     5544     5572     6304     6820     6863     6876     7169 
    7707     8050     7786     7242     6851     6504     6134     5950 
    6061     6396     6799     7069     7109     7125     7291     7252 
    6782     6399     6438     6582     6583     6430     6239     6347 
    6863     7479     7807     7727     7380     6812     6251     6164 
    6569     7095     7314     6930     6191     5552     5274     5431 
    5714     5760     5775     6172     6930     7770     8414     8541 
    8170     7830     7839     8181     8700     8742     7759     6307 
    5271     4834     4695     4544     4372     4691     5833     7134 
    7665     7303     6790     7164     8560     9782     9755     8637 
    7237     6218     5703     5309     4969     5076     5566     6018 
    6370     6728     7029     7252     7420     7438     7314     7253 
    7314     7362     7381     7356     6967     6043     4965     4301 
    4472     5454     6469     6546     5611     4665     4637     5501 
    6619     7188     6926     6538     6610     6964     7272     7146 
    6234     4716     3396     3156     4066     5267     5815     5328 
    4112     3064     2921     3611     4747     6135     7631     9038 
   10083    10731    11373    12363    13548    14268    13894    12741 
   12044    12622    13849    14181    12822    10473     8311     7128 
    7074     7615     8114     8140     7091     4700     1682     -932 
   -2401    -2529    -1850    -1081     -410      529     2035     3855 
    5377     6170     6538     7379     9244    11696    13575    13790 
   11776     7720     3069      -40     -637      754     3443     7061 
   11020    14141    15099    13366     9786     6517     5614     7348 
   10142    11488     9649     4992     -607    -5255    -8064    -8752 
   -6939    -2766     2810     8484    12972    15919    18171    20555 
   23062    25050    26142    26704    27090    26869    25030    21358 
   16686    11443     5719     -299    -6689   -12806   -16915   -17560 
  -14725   -10439    -7547    -7105    -7761    -7456    -6079    -6196 
   -9408   -13159   -12723    -5601     5900    16029    20861    22103 
   23140    25555    32082    42117    47501    43086    31530    18485 
    9977     7317     6268     1633    -8723   -20360   -26801   -26090 
  -20206   -12918    -7063    -2373     2725     8244    12537    14663 
   15666    17166    20021    24030    27978    30505    30321    25803 
   16507     4664    -6205   -13247   -15384   -14089   -11460    -7765 
   -2667     2984     7530     9248     7539     4148     2016     2709 
    5751    10046    14623    18407    20144    18517    13814     9313 
    8630    11955    16073    17585    15560    11349     7084     4249 
    2909     2373     1895      949     -741    -3184    -4888    -3503 
     981     5879     8309     7155     3854     1594     2778     6948 
   11348    13130    11396     8185     6713     8024    10752    13497 
   15217    14671    11668     7499     3603     1123      554     1167 
    2191     3574     5213     6759     7731     7665     6721     5957 
    6555     8429    10328    11543    12279    12545    11735     9323 
    5726     2527     1648     3527     6469     8768    10065    10397 
    9913     9078     8089     6729     4954     3130     1549       52 
   -1360    -2168    -1822     -114     2430     4733     6381     7808 
    9356    11037    12634    13894    14805    15375    15163    13200 
    8761     2558    -3539    -7904    -9499    -7673    -2767     3541 
    8838    10995    10012     8556     9212    12125    15525    17356 
   17201    16461    15691    13738    10096     6083     3707     3785 
    5100     5810     5329     4382     4002     4693     5790     5844 
    4333     2546     2586     5760    11022    14831    13832     8179 
    1800     -766     1834     6895    10503    10632     7896     4955 
    4387     5830     7034     6887     5314     3179     2461     3558 
    4428     3493     1421      409     2400     7179    12167    14874 
   15171    14361    13220    11543     8895     5814     3740     3608 
    5464     8932    12997    15682    14912    10262     4001     -454 
   -1614     -345     1869     4207     7187    10831    13003    11762 
    7526     3002     1591     3969     7331     9198     9774    10014 
    9194     5526    -1090    -7534    -9001    -3326     6089    13595 
   16645    15989    13485    11052     9024     6736     4849     4394 
    5628     8415    11669    13493    12069     6975      444    -4237 
   -5190    -2721     1209     4773     7342     9481    12232    15014 
   15741    13551     9501     5729     4302     5190     6639     7670 
    8311     8633     8567     7901     6928     6628     7524     8961 
    9321     7163     2932    -1385    -4176    -4710    -3032     -118 
    2940     6142    10189    15103    19928    23053    22615    17930 
   10678     3858     -382    -1972    -2424    -2891    -2991    -1809 
     959     4704     8237    10866    12503    12860    12059    11630 
   13089    15842    17257    14740     8583     2227     -901     -136 
    2079     2678     1189     -691    -1387     -576      588     1061 
    1710     4131     8602    13834    18052    20474    21575    22017 
   21880    20345    16114     9090     1290    -4241    -5321    -2334 
    1765     3917     3090      395    -1614     -804     2602     6513 
    8758     8336     5861     3396     3113     5340     8572    10889 
   10928     9250     8230     9188    11121    12607    13267    13626 
   14197    14716    14430    12744     9825     6747     4321     2605 
    1335     -255    -2721    -5239    -6243    -4756    -1055     3287 
    6372     7126     5979     5053     6397     9441    12031    13128 
   12864    11971    11573    11900    11866    10417     7593     4275 
    1421     -436    -1321    -1337      -43     3068     7241    10343 
   10812     9073     7163     7426    10372    13759    14841    13100 
   10227     8260     8168     9255     9883     9398     8556     8066 
    7835     7411     6644     5670     4253     2153     -337    -2864 
   -4914    -5857    -5587    -3959     -238     5698    12060    16179 
   17062    15803    14022    13036    13250    13937    14161    13531 
   11915     9151     5575     2010     -843    -2481    -2852    -2124 
    -284     2258     4857     7155     9012    10620    11713    11533 
   10600    10446    11645    13047    12749    10304     7125     4693 
    3595     3778     4922     6210     6694     5973     4145     2246 
    1767     2766     3940     4283     3846     3489     3788     4486 
    5205     5965     7250     9424    11646    12403    11244     9175 
    7866     8588    10939    13026    13263    11546     9182     7474 
    6544     6048     5741     5211     4091     2342      342    -1225 
   -1613     -371     2114     5123     8444    11893    14787    16236 
   15755    13937    12028    10588     9258     7560     5495     3522 
    1707     -336    -2085    -2080      197     3665     6863     8820 
    9205     8402     7053     5524     4243     3935     4851     6239 
    7168     7587     8071     9016    10282    11186    11246    10800 
   10176     9084     7182     4783     2833     2101     2535     3366 
    3754     3700     4090     5728     8784    12529    15407    16168 
   14442    10642     6436     3931     3948     5494     6142     4283 
    1210     -527      469     3564     6602     8290     8816     8513 
    8005     7896     7919     7704     7102     6220     5861     6443 
    7371     7959     7716     6941     7086     8847    11063    12133 
   11269     8935     6759     5908     5732     4934     3335     1709 
     843     1491     3856     6953     9706    11481    11790    11087 
   10365     9784     8981     7647     5772     3990     2949     2648 
    3068     4394     5995     6771     6832     7051     7561     7789 
    6960     4884     2867     2489     3789     5930     8160     9505 
