Origin Time       2026/01/15 07:13:00
Lat.              42.7
Long.             145.4
Depth. (km)       30
Mag.              5.7
Station Code      HKD070
Station Lat.      43.3852
Station Long.     145.2840
Station Height(m) 6
Record Time       2026/01/15 07:13:36
Sampling Freq(Hz) 100Hz
Duration Time(s)  117
Dir.              N-S
Scale Factor      7845(gal)/8223790
Max. Acc. (gal)   8.706
Last Correction   2026/01/15 07:13:36
Memo.             
[...]
    -569     -540     -495     -480     -517     -537     -464     -399 
    -483     -602     -569     -492     -550     -616     -533     -454 
    -507     -542     -503     -510     -538     -506     -484     -534 
    -562     -491     -415     -433     -454     -419     -414     -446 
    -468     -504     -557     -572     -541     -514     -504     -450 
    -400     -492     -602     -504     -388     -475     -548     -461 
    -423     -511     -565     -530     -518     -584     -603     -491 
    -390     -409     -469     -480     -444     -477     -623     -670 
    -550     -511     -603     -625     -542     -467     -454     -500 
    -562     -550     -483     -500     -577     -580     -553     -572 
    -573     -510     -476     -522     -533     -492     -517     -544 
    -467     -423     -541     -648     -565     -436     -468     -591 
    -615     -535     -525     -622     -642     -549     -515     -527 
    -456     -410     -504     -596     -589     -618     -691     -666 
    -629     -681     -634     -475     -484     -595     -511     -399 
    -513     -594     -445     -379     -530     -607     -595     -689 
    -723     -549     -427     -508     -568     -476     -427     -554 
    -675     -635     -560     -584     -662     -704     -703     -677 
    -660     -677     -688     -646     -643     -711     -712     -623 
    -571     -592     -631     -645     -587     -415     -261     -317 
    -429     -346     -243     -376     -608     -643     -491     -446 
    -571     -592     -436     -321     -364     -473     -579     -672 
    -672     -585     -600     -697     -569     -234     -125     -342 
    -500     -406     -297     -328     -361     -301     -238     -210 
    -174     -160     -217     -356     -510     -575     -569     -608 
    -657     -535     -270     -149     -286     -419     -364     -265 
    -328     -488     -545     -467     -391     -364     -237       17 
      85     -170     -456     -635     -783     -876     -927     -907 
    -638     -271     -210     -418     -531     -527     -658     -892 
    -946     -811     -688     -549     -367     -314     -382     -360 
    -238     -193     -268     -359     -407     -456     -561     -729 
    -842     -706     -325      -52     -137     -383     -599     -838 
   -1026    -1048     -989     -896     -702     -411     -244     -426 
    -760     -869     -835     -924    -1039     -919     -538     -213 
    -240     -392     -353     -315     -477     -700     -835     -839 
    -764     -756     -800     -746     -650     -621     -533     -434 
    -591     -845     -832     -623     -475     -376     -179       66 
     151       70       10        8      -54     -151     -101      120 
     267      183        5     -178     -450     -783    -1007    -1053 
    -972     -868     -868     -972     -988     -814     -646     -646 
    -652     -534     -456     -552     -734     -896     -918     -699 
    -432     -386     -481     -500     -434     -387     -379     -356 
    -274     -225     -349     -598     -757     -787     -823     -826 
    -627     -286       29      186      112     -112     -353     -517 
    -564     -606     -680     -689     -751    -1026    -1282    -1243 
   -1112    -1093     -924     -518     -271     -367     -545     -646 
    -754     -850     -787     -622     -531     -423     -166        8 
    -101     -280     -314     -271     -220     -162     -237     -521 
    -785     -835     -788     -770     -649     -348      -71       18 
     -52     -199     -309     -369     -490     -643     -720     -723 
    -724     -691     -556     -421     -355     -243     -174     -306 
    -476     -580     -741     -938    -1023    -1000     -950     -889 
    -758     -480     -151      -97     -386     -643     -719     -896 
   -1163    -1132     -785     -514     -376     -191     -128     -294 
    -405     -442     -618     -741     -626     -515     -500     -321 
      41      202       16     -245     -522     -901    -1152    -1125 
    -989     -792     -490     -290     -388     -571     -507     -295 
    -207     -251     -311     -357     -384     -379     -373     -402 
    -442     -503     -594     -634     -711     -959    -1108     -943 
    -824     -938     -913     -591     -205      129      391      441 
     276       48     -184     -341     -313     -125      140      394 
     549      527      334      170      120      -14     -305     -585 
    -773     -923    -1004     -963     -892     -810     -585     -321 
    -360     -723    -1027    -1093    -1111    -1192    -1271    -1274 
   -1162    -1030     -963     -820     -561     -446     -488     -355 
     -83      -22     -110     -112     -167     -430     -738     -877 
    -788     -604     -519     -561     -661     -706     -583     -432 
    -426     -448     -437     -492     -576     -622     -645     -689 
    -780     -880     -943     -842     -457       -5      234      345 
     426      261     -294    -1046    -1723    -2262    -2587    -2440 
   -1830    -1151     -561      143      843     1013      592      156 
     -70     -383     -714     -665     -384     -324     -353     -197 
    -139     -346     -515     -568     -653     -629     -475     -538 
    -810     -866     -614     -247       95      224       71     -101 
    -176     -418     -868    -1082     -881     -656     -534     -251 
     112      244      152        8     -178     -523     -994    -1382 
   -1566    -1529    -1255     -870     -658     -679     -657     -523 
    -602     -949    -1117     -903     -661     -513     -164      268 
     337       40     -356     -781    -1155    -1314    -1220     -951 
    -649     -411     -297     -357     -496     -581     -641     -706 
    -741     -778     -891    -1075    -1206    -1205    -1165    -1069 
    -793     -567     -648     -743     -577     -432     -519     -507 
    -179      166      329      459      534      345       -5     -282 
    -550     -812     -841     -670     -522     -321       -2      105 
    -182     -562     -807     -938     -950     -853     -733     -584 
    -367     -243     -336     -454     -402     -282     -279     -342 
    -321     -274     -328     -463     -618     -704     -673     -662 
    -766     -851     -765     -572     -491     -610     -801     -893 
    -805     -650     -575     -481     -288     -237     -495     -837 
    -958     -838     -672     -527     -319     -124     -110     -276 
    -445     -457     -337     -151       91      301      425      481 
     333      -99     -545     -797     -969    -1021     -730     -237 
      81      206      301      263      -31     -494    -1038    -1507 
   -1624    -1395    -1227    -1306    -1294     -976     -648     -506 
    -341      -74       16     -182     -380     -494     -706     -861 
    -772     -735     -913     -993     -841     -676     -511     -186 
     120      199      236      244      -45     -506     -797    -1016 
   -1409    -1829    -1887    -1503    -1031     -699     -414     -189 
    -186     -380     -603     -783     -889     -866     -766     -747 
    -778     -641     -411     -375     -395     -191        2     -135 
    -390     -450     -372     -356     -507     -746     -819     -630 
    -432     -438     -541     -580     -615     -774    -1015    -1148 
   -1094     -936     -687     -392     -260     -265     -163      -86 
    -303     -580     -525     -267     -101      118      537      866 
     873      622      240     -148     -494     -823    -1084    -1219 
   -1215    -1024     -687     -365     -198     -213     -369     -631 
    -930    -1170    -1335    -1350    -1102     -716     -365      -16 
     251      238        6     -276     -625     -936     -923     -700 
    -604     -450     -114      -17     -133       -6      103     -224 
    -544     -436     -271     -297     -255     -205     -496     -962 
   -1267    -1620    -2188    -2608    -2608    -2377    -2238    -2214 
   -1922    -1212     -540     -162      224      642      695      427 
     313      414      498      634      888     1034      986      778 
     311     -276     -588     -579     -522     -437     -256     -209 
    -418     -699     -939    -1132    -1248    -1293    -1273    -1193 
   -1121    -1092    -1063    -1065    -1190    -1313    -1239    -1077 
    -872     -394      213      579      810     1030      919      457 
      39     -357     -882    -1142     -926     -681     -664     -550 
    -255     -190     -449     -619     -558     -495     -459     -237 
     136      373      517      819     1116     1166     1101      938 
     492      -27     -307     -504     -710     -639     -326     -122 
     -51      -43     -299     -772    -1167    -1556    -1979    -2045 
   -1676    -1298    -1034     -676     -349     -297     -349     -322 
    -344     -477     -553     -460     -352     -367     -400     -488 
    -818    -1131    -1053     -854     -828     -643     -139      290 
     392      264       39     -275     -646     -873     -843     -649 
    -390      -87      318      768      993      907      662      340 
     -43     -464     -947    -1337    -1274     -769     -199      400 
    1151     1651     1426      648     -226    -1055    -1884    -2605 
   -3060    -3190    -2972    -2492    -1948    -1354     -635      -18 
     220       95     -268     -603     -608     -463     -526     -718 
    -839     -973    -1240    -1584    -1768    -1533     -892      -40 
     908     1840     2587     3038     3176     3076     2737     2029 
     963      -48     -553     -687     -954    -1286    -1237     -999 
   -1001     -935     -311      615     1251     1327      834      -54 
    -919    -1462    -1649    -1360     -552      210      157     -754 
   -1845    -2574    -2960    -3210    -3433    -3659    -3802    -3731 
   -3380    -2674    -1750    -1093    -1140    -2037    -3599    -5340 
   -6685    -7160    -6658    -5478    -3856    -1965     -483     -121 
    -670    -1545    -2718    -4213    -5410    -5649    -4949    -3715 
   -2168     -337     1439     2567     2868     2650     2281     2076 
    2119     2255     2424     2601     2739     2972     3345     3649 
    3846     4145     4480     4468     3983     3213     2282     1416 
     905      599      172     -294     -557     -626     -676     -756 
    -942    -1530    -2412    -3038    -3454    -4105    -4752    -4634 
   -3443    -1637      144     1648     2833     3568     3723     3233 
    2107      653     -575    -1358    -2033    -2836    -3518    -4013 
   -4683    -5516    -5952    -5702    -4928    -3684    -2157    -1131 
   -1134    -1871    -2930    -3856    -3929    -3022    -1860     -739 
     811     2710     4189     5105     5744     5900     5422     4531 
    3366     2104     1150      784      810      637      -48     -715 
    -652      -21      641     1337     2107     2521     2295     1609 
     561     -761    -1809    -2282    -2709    -3449    -4023    -3888 
   -3244    -2538    -1717     -658      467     1620     2706     3167 
    2593     1371      282     -175       24      621     1254     1651 
    1667     1093     -243    -1926    -3037    -2922    -1637      272 
    2242     3919     4882     4648     3277     1468     -228    -1807 
   -3391    -4783    -5560    -5548    -4891    -3734    -2254     -855 
       0      137     -288    -1179    -2478    -3811    -4750    -5327 
   -5640    -5366    -4421    -3403    -2694    -2039    -1267     -556 
    -213     -472    -1096    -1561    -1734    -2016    -2872    -4191 
   -5212    -5292    -4457    -3009    -1047     1296     3589     5478 
    6795     7296     6994     6214     4877     2683      -10    -2257 
   -3269    -3118    -2600    -2242    -1892    -1258     -330      526 
     849      608      288      230      352      591     1085     1872 
    2729     3296     3372     2932     1953      523    -1282    -3550 
   -5958    -7666    -8183    -7781    -6832    -5305    -3281    -1289 
     278     1287     1574     1271      785       52    -1173    -2334 
   -2579    -1906     -720      888     2702     4247     5350     5973 
    5917     5144     3797     1937     -201    -2014    -2953    -2906 
   -2157    -1194     -409       81      191     -272    -1429    -3083 
   -4656    -5584    -5734    -5275    -4550    -3881    -3215    -2326 
   -1205     -128      500      548      479      835     1487     2033 
    2492     2984     3329     3368     3123     2497     1545      874 
     846     1047     1193     1362     1174      210    -1016    -1771 
   -2110    -2303    -2204    -1817    -1520    -1420    -1098     -194 
     978     1566     1065      -74    -1098    -1961    -2990    -3962 
   -4244    -3584    -2446    -1544    -1124     -842     -319      477 
    1316     1918     2066     1725     1159      673      330      166 
     205      203     -164    -1040    -2471    -4306    -6018    -7044 
   -7314    -7177    -6679    -5589    -4194    -3068    -2223    -1270 
    -128      897     1540     1919     2431     3312     4484     5655 
    6373     6323     5591     4405     2876     1193     -234    -1031 
   -1086     -446      769     2170     3146     3327     2724     1447 
    -198    -1512    -1848    -1258     -240     1030     2554     3769 
    3721     2006     -745    -3387    -5348    -6890    -8266    -9271 
   -9639    -9354    -8700    -8052    -7433    -6546    -5351    -4067 
   -2725    -1193      418     1591     2000     2097     2335     2373 
    1900     1375     1324     1722     2276     2643     2458     1690 
     868      495      414      237       63      284     1023     2019 
    2868     3275     3233     2948     2571     1961      795     -934 
   -2664    -3747    -3987    -3497    -2363     -661     1358     3225 
    4511     5063     4769     3453     1167    -1539    -3699    -4567 
   -4186    -2986    -1219      727     2241     3056     3271     2897 
    1834       67    -2178    -4356    -5992    -7082    -7689    -7522 
   -6366    -4614    -2956    -1840    -1242     -787     -118      837 
    1915     2778     3140     3046     2774     2506     2235     1825 
    1121       58    -1162    -2135    -2597    -2513    -2143    -1996 
   -2263    -2686    -3090    -3481    -3796    -3825    -3429    -2770 
   -2143    -1694    -1455    -1366    -1148     -626        5      502 
     812      908      741      359       85      272      723      999 
    1138     1329     1412     1142      569      136      274      940 
    1791     2492     2849     3005     3059     2627     1444     -190 
   -1844    -3149    -3852    -3975    -3731    -3366    -2998    -2604 
   -2268    -2107    -2074    -2020    -1906    -1899    -2093    -2269 
   -2101    -1409     -217     1273     2870     4347     5302     5501 
    5031     4021     2762     1799     1421     1489     1775     2161 
    2602     2934     2764     1850      430    -1096    -2448    -3395 
   -3902    -4118    -3920    -3153    -2207    -1528     -927      -89 
     778     1324     1426     1044      302     -396     -684     -549 
    -259      -98     -309    -1062    -2207    -3357    -4283    -4932 
   -5235    -5217    -5030    -4660    -3994    -3260    -2880    -2894 
   -3110    -3496    -3967    -4247    -4201    -3981    -3634    -3011 
   -2246    -1830    -1954    -2251    -2367    -2353    -2316    -2104 
   -1521     -558      695     2080     3279     4029     4351     4372 
    4172     3923     3838     3900     3897     3711     3327     2890 
    2741     3005     3368     3549     3589     3512     3098     2169 
     766     -932    -2646    -4159    -5431    -6372    -6843    -6770 
   -6110    -4977    -3751    -2876    -2610    -2914    -3570    -4310 
   -4864    -4939    -4209    -2585     -475     1501     2959     3763 
    3827     3122     1849      421     -791    -1713    -2411    -2798 
   -2849    -2810    -2851    -2866    -2759    -2506    -2010    -1271 
    -546     -135     -166     -494     -797     -884     -866     -928 
    -950     -631       89     1017     1846     2208     2004     1632 
    1498     1570     1817     2567     3970     5586     6818     7438 
    7519     7090     6064     4498     2747     1246      249     -205 
    -390     -754    -1394    -1917    -2084    -2234    -2793    -3688 
   -4564    -5208    -5448    -5135    -4369    -3353    -2204    -1136 
    -436     -164     -105       37      387      777      913      649 
     126     -363     -595     -465       48      881     1894     2826 
    3268     2961     1980      440    -1552    -3732    -5757    -7221 
   -7811    -7672    -7223    -6505    -5194    -3385    -1829    -1094 
    -961     -901     -742     -608     -639     -881    -1259    -1576 
   -1721    -1817    -1938    -1888    -1455     -619      465     1516 
    2286     2770     3110     3316     3195     2647     1776      627 
    -727    -1906    -2528    -2606    -2412    -2293    -2475    -2736 
   -2565    -1892    -1269    -1148    -1401    -1678    -1888    -2154 
   -2424    -2377    -1730     -446     1209     2747     3788     4317 
    4479     4390     4195     4122     4411     5127     5976     6485 
    6346     5536     4333     3223     2550     2366     2498     2604 
    2313     1452      193    -1082    -2135    -2839    -3161    -3458 
   -4158    -5111    -5871    -6366    -6767    -6994    -6862    -6448 
   -6026    -5699    -5293    -4584    -3503    -2089     -508      954 
    2050     2625     2637     2263     1772     1258      703       83 
    -619    -1371    -2080    -2616    -2798    -2562    -2010    -1302 
    -641     -275     -310     -664    -1321    -2319    -3462    -4442 
   -5054    -5104    -4430    -3172    -1719     -386      625     1155 
    1185      828      203     -610    -1557    -2562    -3456    -4052 
   -4325    -4294    -3763    -2540     -795     1074     2737     4032 
    4978     5664     6034     5992     5679     5251     4576     3564 
    2471     1602     1057      769      508      -10     -908    -2034 
   -3037    -3565    -3492    -2891    -1830     -507      611     1186 
    1200      666     -330    -1505    -2701    -3906    -4864    -5202 
   -4720    -3302    -1057     1463     3611     5032     5655     5587 
    5109     4496     3734     2659     1231     -481    -2359    -4162 
   -5478    -5927    -5533    -4625    -3528    -2501    -1595     -676 
     174      611      471     -110     -981    -2104    -3334    -4272 
   -4522    -4047    -3138    -2064     -961       43      945     1938 
    3177     4576     5900     6999     7771     7913     7141     5667 
    4009     2459      980     -488    -1809    -2808    -3512    -4021 
   -4251    -4087    -3657    -3172    -2716    -2378    -2303    -2451 
   -2602    -2621    -2633    -2835    -3156    -3388    -3504    -3574 
   -3512    -3172    -2597    -2037    -1759    -1885    -2367    -3011 
   -3572    -3875    -3897    -3647    -3045    -2137    -1216     -481 
      67      346      226     -214     -795    -1447    -2124    -2671 
   -2984    -3110    -3011    -2447    -1343      -21     1140     2004 
    2582     2864     2789     2339     1675     1036      504       76 
