Origin Time       2026/01/15 07:13:00
Lat.              42.7
Long.             145.4
Depth. (km)       30
Mag.              5.7
Station Code      HKD075
Station Lat.      43.1309
Station Long.     145.0288
Station Height(m) 43
Record Time       2026/01/15 07:13:28
Sampling Freq(Hz) 100Hz
Duration Time(s)  67
Dir.              E-W
Scale Factor      7845(gal)/8223790
Max. Acc. (gal)   25.086
Last Correction   2026/01/15 07:13:28
Memo.             
[...]
    -623     -625     -630     -637     -638     -634     -633     -630 
    -630     -630     -629     -629     -633     -635     -630     -626 
    -630     -635     -633     -633     -635     -631     -621     -619 
    -627     -633     -635     -635     -635     -634     -629     -627 
    -630     -631     -630     -633     -634     -631     -627     -629 
    -631     -631     -634     -634     -629     -627     -631     -631 
    -634     -635     -631     -626     -627     -631     -631     -631 
    -635     -634     -627     -626     -631     -633     -630     -631 
    -634     -631     -627     -629     -633     -633     -630     -631 
    -633     -627     -621     -625     -635     -637     -633     -634 
    -631     -626     -630     -633     -630     -629     -630     -633 
    -634     -629     -623     -630     -638     -631     -622     -627 
    -633     -630     -630     -633     -631     -633     -634     -631 
    -630     -634     -631     -626     -633     -631     -626     -631 
    -638     -634     -627     -629     -630     -630     -630     -634 
    -637     -633     -627     -633     -637     -630     -622     -625 
    -634     -637     -633     -633     -637     -633     -626     -625 
    -629     -631     -630     -631     -637     -635     -627     -623 
    -627     -627     -626     -633     -641     -641     -630     -623 
    -625     -629     -631     -635     -638     -637     -631     -627 
    -630     -629     -626     -633     -641     -635     -627     -630 
    -638     -633     -625     -630     -635     -634     -630     -630 
    -631     -635     -633     -627     -629     -630     -629     -629 
    -635     -639     -633     -627     -630     -629     -625     -629 
    -638     -638     -633     -629     -630     -627     -623     -627 
    -635     -638     -630     -625     -633     -635     -627     -626 
    -634     -634     -631     -633     -633     -630     -627     -629 
    -633     -634     -634     -633     -634     -634     -627     -626 
    -633     -637     -633     -631     -631     -630     -627     -629 
    -637     -637     -627     -625     -629     -631     -630     -629 
    -633     -635     -630     -626     -633     -634     -629     -631 
    -635     -630     -626     -629     -634     -633     -630     -629 
    -633     -635     -631     -627     -633     -634     -626     -627 
    -634     -631     -627     -629     -634     -634     -630     -627 
    -629     -633     -634     -631     -629     -631     -631     -629 
    -630     -630     -626     -630     -637     -633     -627     -630 
    -633     -631     -631     -633     -634     -635     -631     -627 
    -629     -633     -634     -633     -633     -631     -627     -627 
    -631     -629     -626     -635     -638     -631     -629     -630 
    -631     -630     -629     -630     -635     -637     -633     -627 
    -629     -629     -626     -631     -638     -633     -627     -631 
    -633     -626     -623     -633     -637     -630     -627     -630 
    -630     -629     -626     -630     -635     -634     -629     -629 
    -633     -631     -627     -629     -631     -630     -631     -634 
    -634     -630     -626     -626     -631     -630     -625     -630 
    -642     -642     -631     -629     -630     -626     -623     -630 
    -638     -637     -634     -635     -631     -621     -619     -630 
    -637     -637     -633     -631     -634     -633     -625     -625 
    -633     -637     -634     -633     -630     -623     -625     -631 
    -635     -634     -631     -633     -638     -633     -621     -623 
    -633     -630     -627     -635     -641     -637     -631     -629 
    -625     -622     -626     -635     -639     -635     -630     -631 
    -633     -627     -621     -627     -638     -635     -627     -630 
    -631     -626     -623     -627     -635     -637     -631     -627 
    -630     -629     -625     -627     -635     -635     -627     -631 
    -637     -631     -625     -629     -635     -634     -631     -631 
    -635     -633     -625     -623     -633     -637     -630     -627 
    -634     -635     -627     -627     -631     -629     -629     -633 
    -635     -635     -634     -627     -626     -630     -630     -629 
    -631     -633     -629     -625     -630     -633     -626     -625 
    -634     -638     -630     -625     -629     -630     -627     -629 
    -633     -631     -629     -633     -638     -635     -623     -622 
    -631     -634     -630     -631     -633     -633     -633     -630 
    -627     -629     -630     -633     -637     -638     -629     -623 
    -631     -634     -627     -627     -634     -638     -634     -627 
    -627     -630     -629     -630     -635     -634     -629     -629 
    -633     -631     -629     -629     -631     -631     -629     -630 
    -633     -629     -629     -633     -630     -627     -631     -634 
    -634     -633     -629     -625     -626     -633     -633     -630 
    -633     -633     -627     -625     -626     -625     -618     -607 
    -596     -591     -594     -599     -584     -522     -454     -441 
    -468     -529     -653     -715     -541     -286     -328     -729 
   -1109    -1009     -351      288      156     -727    -1514    -1355 
    -287      525        5    -1356    -2057    -1289      252     1034 
     263    -1177    -1728     -953        6      -22     -826    -1447 
   -1367     -719     -124      -12     -135     -317     -580     -552 
    -184     -155     -622    -1098    -1382    -1224     -584     -301 
    -625     -785     -529       20      511      241     -592     -981 
    -527       60     -375    -1853    -2884    -2344     -818      216 
     103     -503     -800     -768     -661     -541     -765    -1398 
   -1660    -1262     -685     -338     -588    -1188    -1389    -1352 
   -1408    -1113     -564     -341     -328     -164     -121     -602 
   -1105     -783      -54      -66     -727     -922     -425        5 
     -74     -814    -1880    -1953     -504     1139     1591      660 
    -716    -1233     -565      311       13    -1800    -3279    -2268 
     256     1429      633     -837    -1883    -1449      198      861 
    -503    -2482    -3133    -1683      459      697    -1256    -2837 
   -2331     -373     1348     1189     -400     -843      418      832 
    -608    -1933    -2185    -2091    -1487      -99     1034     1004 
      41     -932     -954     -488     -677     -660      878     2848 
    3048      670    -2701    -4218    -2833     -472      523     -121 
   -1117    -1429     -950     -295     -535    -1672    -2012    -1020 
    -205     -238     -670    -1588    -2803    -3601    -3662    -2401 
     198     2427     2870     1324    -1413    -2999    -2079     -488 
     -91     -581    -1155     -976      306     1174      -49    -2494 
   -3341    -1251     1846     3638     3766     2234     -480    -2216 
   -2026    -1389     -946     -253      205     -211    -1451    -2951 
   -3512    -2498     -656     1351     2697     1944     -298    -1777 
   -2145    -2255    -2115    -1800    -1742    -1614    -1001     -508 
    -479     -194      243      -79     -681     -692     -714    -1242 
   -1566    -1332     -797      -27      363     -179     -595       85 
    1092     1424     1011      382       35     -210     -791    -1656 
   -2593    -3132    -2444     -456     1732     2687     1906      328 
    -938    -1587    -1671    -1404    -1428    -2110    -2525    -1837 
   -1004    -1001    -1097     -661     -410     -741     -972     -735 
    -369     -315     -945    -1809    -1800     -886     -180     -280 
    -364      510     1674     1734      426    -1306    -2384    -2393 
   -1580     -683     -229      -64     -160     -274      306     1096 
     984      359      176      159     -305     -888    -1290    -1817 
   -2285    -1927     -803     -264     -895    -1399    -1061     -719 
    -715     -768     -733     -332       68     -344    -1065    -1003 
    -498     -548    -1317    -2412    -2882    -1698      429     1331 
     388     -346      643     1907     1475     -380    -1995    -2558 
   -2632    -2440    -1291      483     1363      872      -55     -468 
    -253     -359    -1475    -2388    -1548      190      552     -796 
   -2238    -2748    -2220    -1117     -425     -310        4      741 
    1229      716     -784    -2177    -2369    -1618     -760      -44 
     342      267        8     -417    -1089    -1553    -1275     -283 
     550      338     -715    -1702    -1729     -743      139      288 
     422      811      340    -1302    -2440    -1975     -579      629 
     511     -777    -1437    -1115    -1148    -1498    -1117     -319 
    -171     -529     -479     -139     -302     -801     -873     -568 
    -554     -908    -1139    -1259    -1564    -1607     -864       74 
     480      670      936      724      -32     -571     -882    -1377 
   -1580    -1244     -877     -774    -1012    -1221     -665      345 
     909     1053      715     -500    -1837    -2269    -2045    -1846 
   -1661    -1053      -32      787      550    -1007    -2525    -2428 
   -1104       98      523     -125    -1563    -2439    -1813     -248 
     930      878       99     -390     -432     -310      -47      108 
    -295     -901     -984     -722     -778    -1132    -1190     -793 
    -390     -245     -367     -646     -653     -363     -504    -1150 
   -1433     -997     -284      193      191     -174     -630    -1027 
   -1220    -1147    -1075    -1136     -994     -715     -666     -530 
    -143     -156     -792    -1170     -862     -864    -1544    -1802 
   -1242     -419      376      733      375      -66     -220     -506 
    -734     -342       -2     -669    -1611    -1329       56      897 
     421     -500     -949     -905     -920    -1391    -1925    -1541 
     -97      951      341    -1248    -2137    -1375      237      760 
    -413    -1578    -1225     -301     -568    -1775    -2142     -891 
     765     1098     -125    -1486    -1486     -436     -487    -2362 
   -3673    -2465       67     1641     1490      498      -95      133 
     402     -391    -1807    -2161    -1097      -99     -513    -1998 
   -2756    -1802     -359      373      780     1058      699     -407 
   -1806    -2413    -1499     -113      257     -415    -1098     -965 
    -175      411      133     -697     -988     -510     -430    -1318 
   -1973    -1298     -149      116     -330     -858    -1316    -1071 
     -28      549       35     -900    -1309     -742       18      -81 
    -668     -909     -965    -1043     -882     -743    -1089    -1513 
   -1321     -592      133      432      101     -549     -945     -974 
    -903     -892     -957     -832     -217      309     -326    -1790 
   -2319    -1066      738     1318      499     -600    -1371    -1949 
   -2205    -1680     -554      349      459     -265    -1210    -1368 
    -390      626      306     -874    -1405     -953     -137      189 
    -468    -1246    -1205     -792     -268      553      940      167 
   -1497    -3141    -3454    -1999     -137      691      486     -178 
    -742     -599      -43      -25     -625    -1341    -1845    -1807 
   -1225     -465       52       31     -152       29      217      -37 
    -615    -1327    -1777    -1493     -680      -60      103      176 
     148     -429    -1420    -2182    -2382    -2143    -1638     -774 
     452     1359      907     -891    -2417    -2215     -680      534 
     410     -488    -1192    -1445    -1387    -1570    -2519    -3524 
   -3244    -1413      745     1880     1961     1509      554     -564 
   -1358    -1896    -2157    -1938    -1345     -592     -105     -245 
    -594     -735     -796     -467      569     1678     2099     1648 
     633     -243     -571     -664     -881    -1154    -1183     -769 
     -82      452      583      471      514      851     1050      521 
    -299     -116     1189     2400     2891     2848     2281     1264 
     373      132      386      361     -306     -629      405     2042 
    2620     1372    -1294    -4137    -5412    -4330    -1952      319 
    2165     3778     4930     4850     2660    -1648    -6424    -9373 
   -9579    -7727    -4534     -427     3512     5740     5401     3257 
    1293      643      545     -583    -3917    -8901   -12413   -11097 
   -5417      298     2266      251    -3132    -5142    -5520    -5270 
   -3750     -190     3570     5082     4001     1332    -1906    -5233 
   -8614   -11105   -10563    -6027       76     4010     5243     6323 
    8424     9159     5228    -3352   -12145   -15669   -12795    -7717 
   -3323     3006    13360    23051    24838    17528     6012    -5622 
  -15302   -20818   -21535   -18320   -12506    -7061    -3762     -460 
    4765    10970    16067    17266    13144     6150     -857    -7096 
  -11244   -11472    -8573    -5545    -3659    -1957     -641     -568 
    -406     1129     3453     6513     9963    11396     8719     1919 
   -6987   -14905   -19305   -18485   -11696     -334    11740    19915 
   21697    17956    11091     2778    -6177   -14858   -21289   -22185 
  -15358    -2710    10284    17725    17135    10828     2654    -3800 
   -4796      -95     5050     5277     -476    -9822   -18323   -21465 
  -17832    -9328      955     9668    14089    13772    10729     7634 
    6026     5857     5691     3688    -1351   -10146   -20767   -26929 
  -23620   -12360     1185    12040    18250    19429    14481     4002 
   -6126    -9590    -7447    -4207     -708     1971     1013    -2037 
   -3802    -4494    -4654    -3441    -1005     1944     4571     5116 
    2443    -1541    -3291    -2107     -561     -395    -1204    -2133 
   -2728    -3042    -2317     1336     6960     9856     7067        6 
   -7468   -11898   -12815   -11425    -7728    -1688     4876     9040 
    8984     6235     4132     3690     3628     2945     1161    -2134 
   -6095    -8073    -6450    -3464    -2473    -3115    -2328      673 
    3375     3585     2099     1317     1980     2304      364    -3600 
   -6737    -6220    -3473    -2434    -3299    -2806      -14     2451 
    2798     2579     3424     4079     2648    -1282    -6698   -10265 
   -8333    -1946     3524     4487     2525     1120     1177     1308 
     452     -751     -410     1679     2178    -1406    -5979    -6689 
   -3670     -730      483     1209     2565     4251     4791     2781 
   -1296    -5260    -7161    -6443    -3963    -1305      529     1753 
    2855     4187     5605     5628     3406      -16    -3785    -6760 
   -6949    -4784    -3053    -2465     -602     4024     8499     8156 
    2427    -4033    -6934    -7146    -6986    -5451    -2189     -325 
   -1348    -2666    -1466     2022     5170     6146     5595     4392 
    1860    -2281    -6640    -9421    -9185    -5710     -958     2558 
    3904     3333     1451     -712    -2386    -3759    -4672    -4017 
   -1957     -346      -48     -602    -1702    -2423    -1486      224 
     684      226     1059     3566     5567     5216     2384    -1587 
   -4268    -4374    -3445    -3348    -3203    -1544      704     2600 
    4226     4652     3626     2374      637    -2440    -5206    -5335 
   -3229    -1104     -473    -1601    -3514    -4221    -2371     1169 
    4229     5387     4699     2596     -967    -4996    -6790    -5067 
   -1703      895     1908     1975     2355     2812     1883      283 
    -438     -951    -1891    -2497    -2475    -1688      298     2609 
    3233     1354    -1537    -2930    -2123    -1120    -1615    -2543 
   -1935     -206      325     -997    -2717    -3852    -4071    -2685 
     241     2894     3192     1048    -1794    -3758    -4257    -3909 
   -3804    -3581    -2035      733     3003     2740     -155    -2991 
   -3157    -1777    -2178    -4116    -3789     -538     2187     2517 
    1525      635      375     -155    -1814    -3393    -3612    -3069 
   -2470    -1729    -1015     -621      -35     1471     3138     3273 
    1865      577      274      125    -1012    -2609    -2365      311 
    2274      877    -2469    -4618    -3715     -410     2739     4043 
    3716     2236       54    -1776    -2791    -3510    -3784    -2816 
    -558     1813     2720     2158     1678     1715     1085     -561 
   -2101    -2882    -3015    -2577    -1823     -846      442     1449 
    1706     2029     2794     2092    -1351    -5104    -6080    -4315 
   -1745      441     2124     3210     3369     2462      716    -1341 
   -3176    -4388    -4671    -3782    -1713      538     1136     -355 
   -2106    -2361    -1175      421     1470     1549     1233     1050 
     117    -2020    -3661    -3516    -2361    -1190     -622     -819 
    -548     1220     3361     4233     3430     1065    -2587    -6284 
   -8205    -7384    -4214       12     3491     4514     3078     1043 
    -484    -2091    -4144    -6137    -7249    -6828    -4959    -1902 
    2286     6354     7946     6362     3312      519    -1325    -2133 
   -2478    -2752    -2592    -1993    -1263      -41     1645     2378 
     980    -1854    -4021    -4002    -2299      -78     2280     4307 
    4970     3578      703    -1921    -2874    -2000     -414      -21 
   -1374    -2243     -301     3400     5355     3603     -475    -3744 
   -4152    -2714    -2116    -3267    -4468    -3842    -1671      286 
    1294     1728     1371      -33    -1591    -2331    -1952     -864 
    -432    -1039    -1443    -1713    -2953    -4514    -4855    -3481 
   -1275     -135     -629     -828      737     3275     4988     4147 
     494    -3796    -6316    -6627    -5112    -1996     1556     3501 
    2682      176    -1247     -437      666      583        5     -693 
   -1853    -3234    -4221    -3997    -1996      801     2349     1844 
     279    -1337    -2417    -2155     -638      796     1224      889 
     557      653      854      495     -541    -1186     -263     1398 
    1575     -226    -2157    -2802    -2614    -2253    -1836    -1640 
   -1518     -679     1374     3802     4131     1313    -1881    -2698 
   -1656      -83     1390     1723      730     -180     -294      149 
     970      922    -1448    -4639    -5605    -4081    -2037     -456 
     859     2100     2988     2844     1053    -2300    -5817    -7414 
   -6243    -3094      567     2994     3234     1687    -1021    -3855 
   -5231    -4761    -3036     -357     2292     3171     1989      199 
    -959     -922      261     1132      252    -1740    -3462    -4719 
   -5530    -4623    -1028     3276     5329     5000     3840     2080 
    -785    -3969    -5651    -4707    -1746     1216     2621     2500 
    1595      774      502      143    -1059    -2791    -3871    -3306 
   -1533     -180      109      167      306      178     -133     -392 
    -405     -448    -1545    -3558    -4338    -2836    -1053     -800 
   -1202     -866      454     2355     3611     2852      499    -1748 
   -3001    -3229    -2678    -1540      402     2697     3808     2945 
    1028     -766    -2361    -3937    -4922    -4549    -2793     -735 
     156     -245      -17     2394     5138     4943     1798    -1406 
