Origin Time       2026/01/15 07:13:00
Lat.              42.7
Long.             145.4
Depth. (km)       30
Mag.              5.7
Station Code      HKD094
Station Lat.      43.1692
Station Long.     143.2410
Station Height(m) 204
Record Time       2026/01/15 07:14:13
Sampling Freq(Hz) 100Hz
Duration Time(s)  60
Dir.              N-S
Scale Factor      7845(gal)/8223790
Max. Acc. (gal)   1.181
Last Correction   2026/01/15 07:14:14
Memo.             
[...]
   -5065    -5059    -5036    -5011    -4980    -4972    -5011    -5050 
   -5038    -4997    -4966    -4963    -4981    -4989    -4986    -5001 
   -5049    -5113    -5167    -5184    -5167    -5144    -5147    -5184 
   -5213    -5202    -5170    -5161    -5177    -5196    -5209    -5212 
   -5182    -5139    -5116    -5104    -5100    -5130    -5177    -5219 
   -5242    -5223    -5162    -5108    -5109    -5143    -5161    -5152 
   -5123    -5098    -5080    -5032    -4980    -4959    -4969    -4990 
   -4997    -4972    -4950    -4963    -5017    -5098    -5179    -5227 
   -5216    -5151    -5070    -5004    -4955    -4962    -5034    -5080 
   -5073    -5057    -5032    -5026    -5084    -5154    -5200    -5229 
   -5231    -5212    -5198    -5186    -5162    -5119    -5078    -5081 
   -5101    -5086    -5061    -5055    -5044    -5015    -4992    -5004 
   -5046    -5104    -5161    -5202    -5236    -5278    -5312    -5320 
   -5292    -5244    -5200    -5152    -5092    -5028    -4973    -4951 
   -4992    -5054    -5088    -5111    -5107    -5059    -5031    -5054 
   -5086    -5093    -5090    -5084    -5046    -4992    -4984    -5030 
   -5089    -5130    -5123    -5088    -5074    -5104    -5132    -5150 
   -5194    -5231    -5205    -5161    -5125    -5078    -5047    -5053 
   -5042    -5008    -5012    -5051    -5080    -5111    -5146    -5146 
   -5125    -5109    -5097    -5109    -5136    -5123    -5063    -5036 
   -5086    -5155    -5173    -5157    -5134    -5107    -5088    -5109 
   -5161    -5196    -5205    -5206    -5194    -5179    -5175    -5162 
   -5130    -5092    -5059    -5039    -5036    -5042    -5040    -5038 
   -5059    -5084    -5101    -5136    -5171    -5188    -5198    -5181 
   -5128    -5103    -5105    -5066    -5000    -4980    -5005    -5026 
   -5035    -5042    -5043    -5031    -5020    -5035    -5076    -5117 
   -5144    -5142    -5111    -5069    -5031    -5003    -4999    -5032 
   -5092    -5159    -5213    -5209    -5167    -5174    -5225    -5258 
   -5266    -5259    -5216    -5119    -5012    -4966    -4958    -4939 
   -4939    -4977    -5007    -5012    -5035    -5088    -5148    -5219 
   -5297    -5335    -5321    -5296    -5259    -5200    -5139    -5096 
   -5059    -5013    -4966    -4942    -4954    -5001    -5046    -5055 
   -5044    -5026    -4989    -4955    -4945    -4946    -4978    -5061 
   -5127    -5125    -5103    -5103    -5105    -5111    -5132    -5147 
   -5159    -5186    -5198    -5167    -5108    -5051    -5017    -5009 
   -5013    -4993    -4962    -4986    -5067    -5121    -5131    -5132 
   -5105    -5035    -4976    -4970    -4993    -5005    -5007    -5028 
   -5046    -5042    -5076    -5151    -5181    -5166    -5165    -5175 
   -5181    -5197    -5224    -5238    -5219    -5171    -5100    -5009 
   -4941    -4912    -4909    -4943    -5009    -5043    -5034    -5034 
   -5055    -5069    -5107    -5186    -5254    -5275    -5256    -5204 
   -5152    -5140    -5163    -5175    -5144    -5113    -5116    -5125 
   -5121    -5120    -5127    -5143    -5178    -5229    -5277    -5278 
   -5211    -5107    -5019    -4977    -4984    -5011    -5028    -5020 
   -5003    -4992    -4992    -4996    -5008    -5043    -5085    -5130 
   -5200    -5263    -5279    -5256    -5229    -5215    -5174    -5084 
   -5004    -5000    -5042    -5059    -5027    -4968    -4916    -4889 
   -4889    -4920    -4969    -5019    -5094    -5213    -5324    -5373 
   -5375    -5364    -5359    -5350    -5327    -5297    -5243    -5165 
   -5115    -5092    -5069    -5051    -5023    -4954    -4860    -4796 
   -4818    -4901    -4963    -4985    -5004    -5011    -5001    -5009 
   -5036    -5069    -5101    -5104    -5066    -5055    -5113    -5198 
   -5246    -5227    -5173    -5123    -5100    -5125    -5178    -5213 
   -5219    -5217    -5220    -5227    -5239    -5251    -5256    -5243 
   -5202    -5143    -5097    -5074    -5073    -5101    -5115    -5061 
   -4989    -4945    -4916    -4914    -4945    -4966    -4973    -4980 
   -4965    -4951    -4993    -5071    -5152    -5221    -5250    -5246 
   -5235    -5228    -5255    -5306    -5314    -5269    -5202    -5123 
   -5049    -5020    -5051    -5112    -5161    -5178    -5167    -5143 
   -5135    -5151    -5151    -5117    -5111    -5147    -5167    -5154 
   -5131    -5096    -5054    -5026    -4995    -4947    -4926    -4959 
   -5012    -5057    -5111    -5154    -5135    -5089    -5071    -5074 
   -5094    -5142    -5181    -5179    -5127    -5073    -5063    -5071 
   -5058    -5047    -5044    -5013    -4973    -4957    -4958    -4973 
   -5000    -5000    -4966    -4941    -4966    -5042    -5116    -5170 
   -5219    -5244    -5246    -5254    -5256    -5243    -5240    -5238 
   -5205    -5186    -5192    -5177    -5138    -5104    -5061    -4989 
   -4945    -4992    -5098    -5173    -5198    -5212    -5204    -5159 
   -5117    -5105    -5105    -5115    -5131    -5117    -5066    -5028 
   -5020    -5007    -4985    -4976    -4977    -4976    -4973    -4989 
   -5011    -5028    -5082    -5162    -5201    -5185    -5144    -5111 
   -5096    -5089    -5082    -5097    -5104    -5078    -5046    -5016 
   -4995    -5020    -5070    -5111    -5148    -5178    -5204    -5227 
   -5217    -5171    -5123    -5094    -5108    -5157    -5190    -5184 
   -5162    -5139    -5107    -5088    -5093    -5111    -5138    -5163 
   -5170    -5152    -5092    -5003    -4958    -4997    -5098    -5206 
   -5244    -5202    -5140    -5084    -5039    -5050    -5116    -5186 
   -5206    -5173    -5104    -5023    -4977    -4984    -5015    -5036 
   -5043    -5031    -5009    -5009    -5035    -5050    -5053    -5070 
   -5089    -5092    -5105    -5140    -5177    -5194    -5190    -5157 
   -5074    -4973    -4900    -4882    -4924    -5007    -5088    -5117 
   -5078    -5013    -4985    -5019    -5116    -5190    -5152    -5074 
   -5050    -5047    -5049    -5078    -5108    -5127    -5157    -5174 
   -5174    -5167    -5151    -5152    -5174    -5170    -5127    -5084 
   -5077    -5112    -5159    -5175    -5128    -5031    -4955    -4957 
   -4992    -5005    -4997    -4986    -4968    -4941    -4930    -4962 
   -5019    -5076    -5131    -5166    -5167    -5169    -5192    -5232 
   -5278    -5304    -5300    -5282    -5256    -5224    -5196    -5159 
   -5103    -5082    -5116    -5138    -5109    -5058    -5015    -4973 
   -4932    -4904    -4877    -4831    -4806    -4854    -4938    -4976 
   -4972    -4982    -5012    -5043    -5061    -5051    -5034    -5030 
   -5030    -5035    -5080    -5150    -5189    -5204    -5229    -5233 
   -5206    -5198    -5213    -5201    -5163    -5139    -5151    -5185 
   -5194    -5162    -5115    -5085    -5097    -5116    -5096    -5066 
   -5071    -5088    -5098    -5120    -5154    -5196    -5223    -5212 
   -5163    -5096    -5028    -4997    -5012    -5039    -5077    -5112 
   -5093    -5061    -5074    -5088    -5069    -5030    -4982    -4984 
   -5040    -5096    -5152    -5219    -5252    -5235    -5166    -5077 
   -5054    -5111    -5182    -5223    -5228    -5197    -5130    -5030 
   -4945    -4931    -4962    -4989    -5034    -5086    -5109    -5130 
   -5170    -5186    -5182    -5223    -5298    -5328    -5308    -5293 
   -5273    -5206    -5151    -5148    -5147    -5119    -5090    -5070 
   -5046    -5011    -4981    -4953    -4923    -4919    -4947    -4980 
   -5012    -5040    -5073    -5121    -5159    -5162    -5143    -5127 
   -5152    -5215    -5252    -5254    -5238    -5178    -5104    -5063 
   -5038    -4997    -4949    -4914    -4901    -4907    -4926    -4955 
   -4999    -5066    -5144    -5202    -5243    -5267    -5258    -5223 
   -5186    -5157    -5124    -5103    -5100    -5078    -5011    -4922 
   -4849    -4787    -4734    -4712    -4710    -4706    -4739    -4838 
   -4961    -5073    -5158    -5211    -5246    -5275    -5300    -5325 
   -5351    -5363    -5360    -5359    -5373    -5387    -5387    -5386 
   -5377    -5325    -5247    -5189    -5166    -5182    -5211    -5212 
   -5205    -5198    -5152    -5073    -4995    -4946    -4946    -4946 
   -4904    -4841    -4772    -4716    -4726    -4810    -4916    -5013 
   -5071    -5076    -5088    -5162    -5238    -5266    -5269    -5238 
   -5171    -5111    -5100    -5154    -5240    -5294    -5294    -5258 
   -5197    -5148    -5159    -5216    -5262    -5286    -5298    -5265 
   -5167    -5088    -5078    -5092    -5098    -5103    -5071    -5007 
   -4959    -4951    -4988    -5051    -5092    -5073    -4993    -4887 
   -4834    -4873    -4961    -5046    -5092    -5098    -5117    -5157 
   -5202    -5259    -5305    -5336    -5373    -5343    -5231    -5142 
   -5115    -5154    -5278    -5406    -5432    -5343    -5169    -4988 
   -4912    -4959    -5050    -5105    -5086    -5023    -4953    -4907 
   -4936    -5034    -5121    -5178    -5254    -5356    -5432    -5451 
   -5437    -5391    -5287    -5148    -5009    -4881    -4788    -4725 
   -4637    -4518    -4438    -4419    -4437    -4496    -4587    -4680 
   -4784    -4908    -5020    -5096    -5159    -5240    -5343    -5439 
   -5503    -5526    -5483    -5373    -5263    -5190    -5128    -5059 
   -4995    -4977    -5032    -5101    -5130    -5135    -5154    -5194 
   -5256    -5340    -5437    -5544    -5624    -5613    -5498    -5313 
   -5100    -4927    -4868    -4909    -4938    -4892    -4785    -4658 
   -4606    -4666    -4772    -4892    -5049    -5208    -5317    -5339 
   -5263    -5174    -5175    -5277    -5418    -5525    -5513    -5417 
   -5336    -5294    -5305    -5381    -5455    -5497    -5521    -5517 
   -5481    -5413    -5324    -5250    -5202    -5154    -5111    -5082 
   -5039    -4963    -4878    -4807    -4714    -4575    -4459    -4426 
   -4453    -4499    -4537    -4542    -4492    -4410    -4359    -4364 
   -4384    -4422    -4534    -4700    -4855    -4989    -5117    -5271 
   -5478    -5717    -5919    -5985    -5903    -5759    -5601    -5432 
   -5282    -5165    -5040    -4908    -4808    -4725    -4638    -4607 
   -4673    -4815    -4988    -5135    -5208    -5194    -5131    -5098 
   -5144    -5238    -5329    -5379    -5344    -5221    -5047    -4891 
   -4828    -4880    -4974    -5039    -5042    -4981    -4908    -4887 
   -4936    -5042    -5131    -5128    -5054    -4984    -4973    -5055 
   -5197    -5312    -5355    -5314    -5236    -5190    -5148    -5078 
   -5027    -4990    -4924    -4864    -4846    -4884    -5017    -5239 
   -5471    -5632    -5674    -5647    -5629    -5632    -5660    -5684 
   -5621    -5448    -5232    -5031    -4866    -4739    -4656    -4626 
   -4638    -4657    -4672    -4722    -4843    -5020    -5196    -5333 
   -5443    -5512    -5517    -5487    -5436    -5343    -5228    -5136 
   -5084    -5058    -5042    -5011    -4939    -4857    -4830    -4882 
   -4978    -5057    -5112    -5163    -5198    -5178    -5111    -5035 
   -4962    -4907    -4888    -4855    -4781    -4725    -4762    -4896 
   -5040    -5139    -5209    -5281    -5328    -5327    -5298    -5252 
   -5204    -5202    -5248    -5279    -5287    -5325    -5405    -5498 
   -5575    -5594    -5559    -5513    -5497    -5532    -5586    -5620 
   -5629    -5547    -5294    -4924    -4561    -4293    -4155    -4143 
   -4198    -4256    -4307    -4386    -4519    -4715    -4941    -5132 
   -5251    -5312    -5366    -5439    -5495    -5487    -5421    -5310 
   -5151    -4992    -4865    -4769    -4780    -4946    -5184    -5375 
   -5472    -5497    -5489    -5487    -5553    -5656    -5656    -5508 
   -5314    -5151    -5022    -4915    -4804    -4637    -4391    -4149 
   -4031    -4048    -4139    -4248    -4338    -4421    -4525    -4623 
   -4698    -4797    -4953    -5132    -5290    -5402    -5460    -5483 
   -5520    -5574    -5624    -5690    -5788    -5887    -5918    -5864 
   -5779    -5717    -5664    -5583    -5437    -5202    -4927    -4703 
   -4579    -4576    -4669    -4772    -4822    -4806    -4718    -4599 
   -4536    -4573    -4676    -4779    -4889    -5043    -5175    -5225 
   -5239    -5255    -5258    -5238    -5205    -5182    -5192    -5247 
   -5344    -5463    -5566    -5638    -5652    -5589    -5524    -5518 
   -5521    -5517    -5570    -5671    -5725    -5676    -5533    -5321 
   -5086    -4892    -4746    -4623    -4549    -4540    -4540    -4526 
   -4549    -4631    -4753    -4930    -5148    -5332    -5421    -5435 
   -5433    -5427    -5400    -5401    -5439    -5405    -5275    -5138 
   -4993    -4843    -4792    -4872    -4995    -5097    -5197    -5305 
   -5375    -5405    -5471    -5583    -5656    -5653    -5552    -5312 
   -5009    -4824    -4818    -4914    -5069    -5250    -5360    -5356 
   -5287    -5189    -5059    -4922    -4839    -4822    -4787    -4708 
   -4645    -4633    -4638    -4637    -4630    -4614    -4599    -4614 
   -4689    -4834    -5001    -5120    -5143    -5069    -4949    -4839 
   -4754    -4692    -4680    -4745    -4846    -4936    -5047    -5211 
   -5409    -5633    -5830    -5902    -5818    -5659    -5503    -5377 
   -5287    -5252    -5250    -5204    -5077    -4920    -4780    -4657 
   -4577    -4548    -4569    -4645    -4719    -4730    -4719    -4783 
   -4978    -5283    -5602    -5860    -6041    -6134    -6153    -6124 
   -6033    -5892    -5744    -5562    -5309    -4996    -4650    -4337 
   -4098    -3928    -3861    -3894    -3977    -4095    -4247    -4405 
   -4557    -4687    -4788    -4878    -4942    -4963    -4962    -4945 
   -4939    -5001    -5082    -5085    -5015    -4887    -4720    -4619 
   -4642    -4776    -4990    -5239    -5512    -5800    -6000    -6049 
   -6002    -5911    -5792    -5657    -5486    -5289    -5130    -5023 
   -4965    -4996    -5109    -5238    -5351    -5429    -5459    -5443 
   -5381    -5304    -5246    -5193    -5150    -5107    -4988    -4785 
   -4584    -4422    -4302    -4221    -4155    -4126    -4167    -4267 
   -4407    -4583    -4783    -4980    -5132    -5220    -5267    -5309 
   -5367    -5462    -5621    -5833    -6049    -6181    -6204    -6177 
   -6145    -6092    -6029    -5956    -5853    -5738    -5638    -5544 
   -5444    -5347    -5247    -5136    -5015    -4911    -4837    -4785 
   -4756    -4753    -4772    -4807    -4853    -4884    -4916    -5001 
   -5142    -5267    -5327    -5329    -5300    -5235    -5148    -5059 
   -4969    -4888    -4811    -4699    -4569    -4499    -4488    -4487 
   -4475    -4438    -4406    -4457    -4596    -4764    -4912    -5019 
   -5089    -5142    -5182    -5225    -5265    -5287    -5302    -5305 
   -5314    -5382    -5466    -5472    -5420    -5358    -5282    -5224 
   -5229    -5263    -5301    -5371    -5451    -5493    -5499    -5474 
   -5408    -5282    -5094    -4891    -4714    -4575    -4482    -4429 
   -4388    -4360    -4338    -4305    -4301    -4369    -4460    -4549 
   -4675    -4818    -4924    -5007    -5062    -5065    -5054    -5093 
   -5184    -5254    -5242    -5182    -5148    -5151    -5182    -5231 
   -5263    -5290    -5359    -5467    -5570    -5657    -5756    -5860 
   -5921    -5899    -5769    -5529    -5235    -4993    -4826    -4679 
   -4526    -4369    -4216    -4098    -4029    -4000    -4051    -4234 
   -4513    -4788    -4978    -5071    -5138    -5221    -5313    -5398 
   -5437    -5432    -5439    -5464    -5478    -5479    -5491    -5522 
   -5535    -5497    -5436    -5397    -5394    -5405    -5408    -5360 
   -5227    -5080    -5028    -5059    -5076    -5057    -5036    -5012 
   -4969    -4915    -4855    -4792    -4758    -4783    -4824    -4839 
   -4822    -4795    -4815    -4900    -4986    -5039    -5078    -5120 
   -5150    -5155    -5171    -5204    -5217    -5225    -5243    -5217 
   -5147    -5112    -5124    -5120    -5084    -5065    -5082    -5119 
   -5171    -5255    -5370    -5463    -5472    -5400    -5316    -5271 
   -5244    -5204    -5181    -5194    -5228    -5269    -5287    -5279 
   -5269    -5244    -5192    -5136    -5123    -5140    -5175    -5258 
   -5363    -5433    -5462    -5445    -5398    -5352    -5294    -5194 
   -5093    -5028    -4982    -4946    -4947    -4970    -4965    -4919 
   -4862    -4812    -4764    -4733    -4764    -4858    -4941    -4970 
   -4993    -5053    -5157    -5316    -5485    -5613    -5715    -5795 
   -5863    -5929    -5983    -6039    -6088    -6077    -6011    -5927 
   -5840    -5760    -5694    -5597    -5422    -5202    -5007    -4850 
   -4704    -4563    -4463    -4418    -4383    -4322    -4257    -4224 
   -4225    -4245    -4283    -4344    -4425    -4515    -4608    -4698 
   -4753    -4758    -4720    -4672    -4679    -4729    -4756    -4785 
   -4860    -4950    -5062    -5200    -5300    -5358    -5420    -5466 
   -5478    -5491    -5530    -5590    -5641    -5657    -5663    -5680 
   -5701    -5697    -5655    -5616    -5598    -5547    -5454    -5378 
   -5306    -5184    -5012    -4858    -4737    -4618    -4558    -4602 
   -4649    -4639    -4641    -4677    -4706    -4720    -4720    -4702 
   -4685    -4661    -4621    -4607    -4652    -4768    -4936    -5077 
   -5157    -5215    -5266    -5329    -5416    -5475    -5502    -5559 
   -5645    -5721    -5776    -5807    -5826    -5810    -5730    -5625 
   -5529    -5436    -5360    -5297    -5200    -5082    -4954    -4818 
   -4720    -4672    -4634    -4612    -4590    -4529    -4450    -4375 
   -4310    -4278    -4293    -4334    -4391    -4455    -4504    -4530 
   -4538    -4549    -4603    -4706    -4830    -4957    -5074    -5189 
   -5329    -5486    -5613    -5699    -5749    -5752    -5730    -5719 
   -5706    -5688    -5686    -5686    -5663    -5587    -5455    -5335 
   -5286    -5269    -5247    -5246    -5258    -5254    -5274    -5354 
   -5452    -5505    -5502    -5470    -5417    -5348    -5287    -5240 
   -5184    -5130    -5088    -5028    -4955    -4901    -4878    -4868 
   -4857    -4847    -4830    -4780    -4707    -4633    -4571    -4577 
   -4680    -4810    -4895    -4939    -4990    -5071    -5148    -5219 
   -5305    -5373    -5394    -5391    -5356    -5265    -5163    -5085 
   -5012    -4974    -4992    -5049    -5127    -5192    -5216    -5206 
   -5177    -5167    -5193    -5213    -5215    -5215    -5221    -5256 
   -5319    -5346    -5324    -5310    -5305    -5259    -5174    -5104 
   -5080    -5076    -5069    -5061    -5036    -4988    -4959    -4941 
   -4903    -4907    -4992    -5077    -5097    -5074    -5036    -5009 
   -5030    -5094    -5167    -5205    -5184    -5132    -5090    -5066 
   -5069    -5071    -5035    -5005    -5035    -5084    -5115    -5127 
   -5104    -5062    -5016    -4941    -4846    -4773    -4739    -4756 
   -4776    -4731    -4641    -4560    -4507    -4488    -4511    -4576 
   -4668    -4738    -4781    -4841    -4919    -5011    -5147    -5297 
   -5385    -5385    -5308    -5197    -5123    -5094    -5080    -5066 
   -5042    -5009    -4974    -4939    -4914    -4912    -4941    -4988 
   -5028    -5053    -5053    -5019    -4969    -4951    -4978    -5023 
   -5073    -5136    -5197    -5212    -5175    -5143    -5134    -5158 
   -5221    -5267    -5246    -5188    -5139    -5113    -5125    -5167 
