Origin Time       2026/01/15 07:13:00
Lat.              42.7
Long.             145.4
Depth. (km)       30
Mag.              5.7
Station Code      HKD055
Station Lat.      43.8244
Station Long.     144.1087
Station Height(m) 23
Record Time       2026/01/15 07:14:00
Sampling Freq(Hz) 100Hz
Duration Time(s)  60
Dir.              E-W
Scale Factor      7845(gal)/8223790
Max. Acc. (gal)   1.080
Last Correction   2026/01/15 07:14:02
Memo.             
[...]
    2806     2836     2902     2983     3067     3132     3159     3146 
    3091     2997     2905     2847     2822     2816     2814     2805 
    2779     2776     2822     2883     2913     2890     2833     2798 
    2795     2809     2845     2905     2974     3042     3069     3001 
    2848     2700     2644     2678     2737     2775     2776     2736 
    2678     2652     2689     2748     2791     2826     2849     2866 
    2890     2890     2824     2701     2590     2559     2604     2691 
    2806     2910     2963     2960     2925     2903     2926     2963 
    3003     3071     3148     3181     3129     3019     2934     2920 
    2953     2986     2979     2930     2867     2835     2852     2874 
    2856     2817     2774     2741     2732     2724     2693     2643 
    2605     2608     2660     2771     2910     2997     2982     2894 
    2771     2654     2581     2559     2546     2488     2411     2386 
    2420     2481     2554     2627     2695     2752     2785     2790 
    2802     2840     2879     2882     2832     2775     2763     2801 
    2864     2925     2953     2933     2917     2959     3037     3117 
    3199     3252     3241     3195     3123     3029     2972     2987 
    3025     3046     3045     3001     2902     2802     2748     2718 
    2687     2663     2646     2633     2632     2628     2616     2586 
    2554     2559     2625     2739     2857     2929     2949     2947 
    2926     2907     2932     2970     2957     2895     2809     2721 
    2629     2540     2511     2585     2731     2848     2891     2884 
    2848     2805     2839     2968     3083     3106     3041     2926 
    2821     2755     2732     2774     2857     2922     2959     2986 
    3006     3010     2999     2997     3015     3049     3073     3057 
    2986     2870     2740     2650     2623     2631     2635     2623 
    2631     2663     2677     2662     2647     2646     2675     2721 
    2737     2737     2763     2826     2911     2976     2983     2909 
    2766     2627     2548     2531     2543     2543     2506     2473 
    2465     2479     2546     2660     2798     2959     3106     3190 
    3207     3172     3115     3087     3111     3196     3304     3360 
    3346     3273     3171     3082     3014     2951     2889     2856 
    2864     2890     2907     2887     2822     2759     2743     2770 
    2808     2833     2841     2826     2766     2689     2641     2612 
    2577     2521     2465     2434     2411     2384     2378     2392 
    2407     2427     2463     2538     2639     2737     2832     2929 
    3019     3092     3109     3067     3011     2971     2955     2955 
    2921     2820     2690     2587     2542     2547     2589     2671 
    2812     3011     3211     3322     3311     3202     3060     2983 
    3001     3057     3114     3150     3127     3051     2948     2836 
    2755     2759     2833     2884     2880     2867     2849     2799 
    2737     2714     2714     2698     2689     2720     2767     2790 
    2763     2698     2654     2674     2741     2824     2882     2876 
    2824     2767     2720     2682     2679     2736     2822     2907 
    2978     3019     3030     3029     3017     2991     2979     2998 
    3044     3075     3045     2947     2805     2660     2571     2565 
    2606     2644     2636     2590     2547     2532     2555     2619 
    2712     2806     2860     2863     2832     2786     2764     2755 
    2727     2695     2659     2593     2536     2521     2565     2709 
    2936     3154     3269     3242     3141     3053     3015     3030 
    3071     3092     3049     2952     2874     2863     2868     2825 
    2745     2706     2725     2749     2755     2733     2663     2597 
    2625     2749     2853     2843     2781     2770     2802     2836 
    2901     3010     3080     3041     2960     2917     2889     2844 
    2822     2876     3021     3187     3295     3327     3285     3208 
    3148     3099     3060     3038     3006     2941     2870     2826 
    2817     2803     2743     2633     2497     2378     2350     2423 
    2511     2551     2560     2554     2519     2486     2504     2540 
    2538     2529     2581     2690     2820     2960     3063     3042 
    2933     2833     2776     2758     2776     2839     2930     3009 
    3040     3061     3106     3125     3094     3051     3017     3010 
    3036     3053     3006     2901     2790     2729     2727     2751 
    2783     2787     2705     2555     2448     2438     2488     2587 
    2714     2797     2797     2739     2671     2608     2548     2559 
    2677     2805     2894     2971     3006     2991     2970     2980 
    3059     3159     3195     3190     3159     3056     2932     2860 
    2829     2860     2944     2961     2874     2786     2768     2776 
    2794     2864     2965     3025     2986     2868     2766     2701 
    2644     2629     2646     2625     2589     2598     2652     2736 
    2799     2778     2717     2690     2725     2832     2983     3103 
    3156     3167     3132     3060     3007     2948     2847     2770 
    2741     2747     2797     2833     2798     2733     2660     2551 
    2458     2444     2498     2596     2708     2778     2789     2762 
    2727     2725     2763     2813     2830     2782     2704     2685 
    2745     2808     2829     2843     2847     2864     2924     2952 
    2929     2925     2937     2945     2971     3021     3109     3172 
    3106     2983     2922     2867     2787     2745     2714     2702 
    2754     2791     2768     2766     2814     2874     2949     3010 
    2982     2905     2843     2778     2735     2748     2776     2787 
    2768     2735     2717     2682     2650     2704     2764     2775 
    2844     2949     2999     3022     3014     2944     2886     2899 
    2937     2913     2799     2681     2654     2656     2600     2569 
    2600     2571     2538     2614     2686     2713     2824     2951 
    2984     2951     2870     2756     2651     2601     2650     2733 
    2763     2766     2791     2832     2864     2868     2860     2889 
    2980     3110     3230     3325     3414     3424     3306     3188 
    3146     3098     3045     3003     2928     2874     2863     2813 
    2714     2573     2405     2366     2488     2606     2686     2795 
    2883     2899     2926     3011     3076     3053     3006     2964 
    2884     2820     2795     2744     2690     2694     2717     2745 
    2806     2829     2772     2739     2764     2820     2932     3022 
    3038     3080     3130     3114     3049     2911     2722     2612 
    2613     2632     2605     2542     2454     2385     2359     2322 
    2299     2359     2436     2485     2555     2647     2758     2921 
    3079     3184     3265     3310     3277     3167     3022     2916 
    2862     2855     2909     2955     2911     2856     2893     2964 
    2964     2932     2943     2980     3040     3126     3191     3254 
    3307     3275     3164     3040     2936     2826     2745     2755 
    2758     2675     2589     2574     2578     2529     2512     2601 
    2700     2727     2744     2825     2909     2882     2826     2874 
    2889     2797     2781     2836     2806     2736     2679     2606 
    2547     2486     2411     2405     2450     2458     2521     2725 
    2918     2976     3003     3071     3109     3113     3071     2994 
    2948     2867     2735     2675     2685     2664     2574     2505 
    2563     2592     2511     2508     2555     2567     2686     2883 
    3005     3098     3181     3144     3060     3052     3028     2944 
    2887     2836     2778     2733     2658     2587     2544     2484 
    2479     2570     2641     2629     2566     2501     2459     2430 
    2484     2662     2820     2872     2860     2798     2758     2805 
    2863     2910     2984     3019     3010     3024     3051     3057 
    2994     2893     2916     3042     3114     3125     3161     3211 
    3215     3149     3049     3009     3011     2937     2856     2910 
    3001     2953     2859     2928     3026     3002     3005     3079 
    3146     3221     3310     3312     3192     3123     3099     2971 
    2895     2918     2859     2754     2678     2590     2552     2573 
    2504     2378     2350     2369     2393     2524     2704     2793 
    2770     2702     2694     2735     2713     2666     2674     2670 
    2662     2727     2745     2654     2594     2566     2550     2648 
    2736     2718     2695     2597     2431     2380     2408     2374 
    2288     2249     2289     2320     2327     2397     2500     2566 
    2612     2600     2525     2511     2625     2845     3090     3217 
    3219     3249     3325     3392     3460     3456     3343     3177 
    3051     3071     3141     3094     2972     2826     2693     2670 
    2747     2868     2979     3025     3052     3137     3304     3504 
    3576     3484     3406     3416     3462     3526     3514     3360 
    3252     3287     3245     3095     3029     3038     3064     3098 
    3110     3121     3136     3105     3018     2906     2768     2695 
    2722     2671     2538     2467     2376     2242     2238     2405 
    2578     2597     2524     2440     2335     2334     2457     2551 
    2610     2659     2662     2625     2644     2795     2897     2843 
    2771     2744     2771     2790     2698     2524     2331     2250 
    2295     2258     2169     2161     2174     2243     2428     2647 
    2825     2903     2890     2906     3046     3284     3458     3445 
    3295     3109     2926     2747     2552     2303     2031     1852 
    1784     1825     1992     2235     2438     2519     2496     2423 
    2358     2384     2502     2689     2879     2994     3083     3223 
    3392     3508     3526     3545     3597     3632     3728     3788 
    3631     3424     3377     3438     3462     3411     3403     3488 
    3538     3505     3456     3385     3311     3308     3326     3289 
    3277     3299     3214     3103     3103     3129     3149     3196 
    3254     3342     3443     3465     3361     3260     3207     3030 
    2848     2895     3013     3018     2937     2824     2756     2758 
    2685     2474     2324     2299     2223     2149     2146     2106 
    2120     2272     2412     2475     2407     2224     2219     2478 
    2708     2789     2737     2546     2411     2443     2451     2407 
    2430     2444     2447     2632     2903     2991     2922     2808 
    2704     2712     2767     2732     2636     2506     2307     2141 
    2089     2079     2042     1977     1952     1977     2000     2103 
    2338     2589     2781     2929     3075     3173     3129     3068 
    3103     3102     3134     3277     3285     3126     3044     3037 
    3011     2956     2808     2640     2640     2808     3010     3103 
    3051     2960     3010     3291     3654     3877     3879     3774 
    3780     3901     3951     3867     3682     3447     3295     3245 
    3138     2911     2682     2579     2593     2606     2641     2790 
    2938     2944     2916     2991     3015     2847     2690     2678 
    2673     2706     2813     2790     2660     2643     2713     2794 
    2905     2964     2941     2926     2925     2934     2878     2652 
    2446     2408     2398     2403     2430     2343     2200     2147 
    2095     1961     1823     1748     1764     1850     1972     2143 
    2334     2451     2471     2416     2322     2238     2207     2308 
    2577     2889     3113     3223     3196     3110     3118     3154 
    3119     3115     3126     3073     3090     3202     3226     3138 
    3045     2999     3045     3142     3184     3169     3113     3009 
    2960     2986     2997     2990     2997     3084     3272     3376 
    3335     3312     3323     3257     3136     3005     2839     2679 
    2586     2535     2481     2425     2404     2408     2382     2350 
    2397     2440     2362     2315     2448     2654     2793     2839 
    2836     2832     2825     2841     2917     3018     3127     3267 
    3315     3145     2882     2679     2543     2470     2447     2421 
    2386     2336     2292     2326     2407     2436     2477     2632 
    2828     3033     3298     3524     3684     3823     3877     3858 
    3850     3801     3667     3538     3458     3353     3208     3109 
    3040     2917     2756     2612     2475     2380     2374     2438 
    2501     2524     2535     2562     2583     2605     2635     2647 
    2644     2640     2614     2536     2457     2421     2373     2313 
    2305     2336     2398     2547     2754     2910     3006     3117 
    3218     3302     3426     3545     3578     3554     3519     3470 
    3358     3167     2953     2763     2609     2528     2535     2560 
    2524     2477     2489     2512     2515     2523     2544     2614 
    2712     2771     2828     2921     2986     3001     3011     3013 
    3001     2970     2883     2772     2706     2670     2658     2720 
    2798     2835     2906     3014     3084     3099     3090     3094 
    3092     3068     3096     3191     3261     3287     3292     3226 
    3041     2791     2574     2412     2282     2207     2223     2316 
    2440     2573     2687     2771     2853     2945     3041     3125 
    3177     3192     3118     2925     2681     2444     2209     1992 
    1833     1736     1696     1734     1899     2172     2462     2758 
    3053     3306     3514     3697     3846     3927     3910     3790 
    3582     3323     3065     2822     2574     2330     2151     2077 
    2079     2137     2259     2405     2544     2714     2926     3134 
    3310     3449     3539     3566     3555     3537     3514     3478 
    3416     3323     3206     3073     2934     2812     2721     2644 
    2578     2570     2644     2755     2868     2982     3087     3165 
    3214     3268     3338     3372     3333     3241     3125     2986 
    2805     2605     2448     2340     2261     2196     2119     2034 
    1975     1954     1988     2072     2150     2180     2176     2196 
    2265     2344     2409     2463     2505     2546     2612     2693 
    2782     2872     2953     3034     3111     3156     3159     3132 
    3079     3040     3041     3041     3013     2971     2918     2857 
    2791     2743     2724     2732     2771     2824     2880     2955 
    3038     3123     3218     3308     3356     3330     3242     3138 
    3006     2864     2767     2670     2546     2454     2419     2417 
    2454     2511     2548     2555     2531     2482     2430     2382 
    2365     2398     2455     2513     2619     2786     2929     3005 
    3057     3092     3114     3183     3298     3404     3491     3516 
    3420     3260     3127     3024     2934     2909     2967     3037 
    3096     3190     3287     3321     3289     3237     3186     3145 
    3115     3079     3017     2932     2848     2793     2745     2656 
    2523     2405     2363     2417     2532     2650     2755     2860 
    2944     3003     3040     3001     2884     2767     2702     2709 
    2768     2828     2841     2802     2729     2648     2575     2528 
    2509     2502     2515     2552     2585     2606     2651     2731 
    2833     2933     3006     3048     3049     2992     2925     2901 
    2890     2843     2772     2704     2651     2632     2629     2614 
    2598     2593     2581     2566     2575     2628     2709     2787 
    2859     2918     2947     2960     2971     2976     3005     3078 
    3172     3253     3275     3206     3072     2932     2828     2762 
    2716     2686     2654     2598     2543     2516     2505     2505 
    2524     2579     2693     2843     2991     3103     3146     3145 
    3148     3150     3121     3061     2991     2920     2844     2772 
    2713     2677     2682     2701     2694     2666     2598     2492 
    2392     2331     2305     2315     2358     2428     2506     2585 
    2663     2739     2799     2829     2812     2782     2782     2816 
    2871     2922     2936     2901     2826     2728     2636     2571 
    2538     2547     2589     2641     2673     2655     2644     2681 
    2743     2836     2964     3076     3145     3184     3195     3171 
    3105     3011     2924     2859     2821     2810     2820     2853 
    2894     2934     2987     3057     3119     3138     3106     3044 
    3006     3025     3068     3106     3145     3190     3222     3246 
    3265     3264     3260     3281     3327     3375     3391     3350 
    3273     3165     3015     2845     2673     2498     2351     2251 
    2192     2146     2103     2077     2084     2119     2182     2281 
    2407     2550     2694     2825     2938     3032     3100     3167 
    3234     3291     3339     3383     3412     3418     3387     3342 
    3314     3319     3366     3416     3429     3402     3331     3230 
    3107     2987     2920     2922     2956     2978     2971     2932 
    2851     2731     2610     2511     2435     2416     2459     2513 
    2562     2624     2686     2717     2705     2659     2597     2517 
    2428     2350     2289     2258     2243     2220     2216     2242 
    2289     2359     2427     2504     2636     2818     3013     3200 
    3339     3404     3416     3415     3407     3370     3314     3257 
    3184     3103     3028     2937     2833     2725     2608     2519 
    2516     2605     2731     2843     2926     2967     2959     2926 
    2886     2851     2849     2862     2871     2894     2914     2905 
    2860     2776     2667     2570     2519     2529     2592     2675 
    2748     2797     2836     2862     2845     2809     2768     2709 
    2633     2550     2485     2470     2469     2454     2447     2462 
    2505     2560     2625     2731     2845     2929     3032     3168 
    3303     3438     3570     3662     3682     3643     3576     3483 
    3369     3296     3283     3299     3335     3360     3325     3252 
    3164     3056     2949     2882     2844     2808     2751     2663 
    2555     2438     2323     2235     2196     2200     2205     2189 
    2166     2139     2088     2039     2023     2027     2060     2138 
    2238     2323     2388     2461     2538     2604     2667     2722 
    2745     2728     2689     2641     2594     2551     2527     2540 
    2563     2563     2551     2548     2559     2579     2631     2727 
    2835     2924     2986     3014     3002     2965     2925     2898 
    2872     2839     2836     2864     2894     2909     2895     2872 
    2889     2952     3040     3145     3246     3314     3348     3350 
    3319     3260     3196     3141     3094     3059     3007     2922 
    2840     2782     2745     2748     2790     2845     2882     2901 
    2930     2974     3014     3060     3109     3145     3176     3190 
    3183     3157     3088     2984     2886     2816     2776     2764 
    2740     2691     2637     2593     2569     2558     2560     2585 
    2612     2641     2697     2763     2813     2839     2841     2832 
    2818     2799     2779     2762     2739     2713     2697     2697 
    2694     2694     2721     2767     2817     2871     2917     2926 
