Origin Time       2026/01/15 07:13:00
Lat.              42.7
Long.             145.4
Depth. (km)       30
Mag.              5.7
Station Code      HKD095
Station Lat.      42.9311
Station Long.     143.2137
Station Height(m) 35
Record Time       2026/01/15 07:14:07
Sampling Freq(Hz) 100Hz
Duration Time(s)  77
Dir.              E-W
Scale Factor      7845(gal)/8223790
Max. Acc. (gal)   1.783
Last Correction   2026/01/15 07:14:08
Memo.             
[...]
   22430    22289    22137    22056    22075    22221    22454    22677 
   22823    22839    22743    22624    22511    22387    22311    22307 
   22311    22297    22289    22306    22372    22431    22399    22300 
   22202    22142    22148    22206    22275    22304    22261    22202 
   22241    22346    22420    22474    22538    22590    22626    22636 
   22611    22580    22572    22563    22547    22549    22551    22543 
   22555    22551    22486    22415    22439    22562    22712    22837 
   22896    22883    22821    22716    22589    22492    22445    22450 
   22539    22708    22854    22867    22734    22526    22315    22138 
   22036    22037    22126    22229    22249    22181    22094    22050 
   22125    22310    22505    22654    22742    22725    22596    22437 
   22327    22285    22270    22253    22276    22365    22477    22562 
   22597    22584    22505    22391    22338    22353    22366    22339 
   22256    22142    22057    22038    22115    22265    22415    22535 
   22632    22697    22746    22843    22964    23032    23037    23021 
   22951    22763    22507    22333    22312    22384    22466    22495 
   22486    22478    22430    22323    22206    22099    22006    21990 
   22100    22275    22410    22470    22495    22535    22600    22670 
   22758    22842    22846    22744    22584    22434    22351    22349 
   22412    22518    22592    22578    22519    22493    22523    22547 
   22532    22520    22523    22480    22368    22218    22077    22013 
   22064    22235    22505    22779    22950    22983    22900    22744 
   22561    22384    22246    22138    22054    22017    22019    22045 
   22083    22121    22164    22234    22303    22327    22351    22403 
   22431    22455    22519    22592    22616    22599    22604    22630 
   22627    22611    22616    22647    22689    22734    22783    22815 
   22781    22673    22512    22343    22226    22185    22214    22276 
   22350    22457    22588    22717    22825    22863    22813    22716 
   22630    22607    22630    22594    22511    22495    22547    22574 
   22553    22512    22478    22472    22491    22513    22507    22457 
   22358    22268    22268    22324    22342    22315    22291    22295 
   22343    22441    22535    22588    22623    22642    22594    22484 
   22369    22295    22250    22230    22264    22333    22400    22469 
   22530    22590    22692    22781    22761    22670    22576    22438 
   22245    22065    21946    21902    21937    22010    22094    22191 
   22275    22324    22346    22350    22361    22320    22185    22065 
   22054    22118    22226    22353    22443    22462    22399    22285 
   22196    22134    22075    22077    22202    22408    22600    22725 
   22790    22792    22732    22675    22685    22717    22689    22627 
   22609    22635    22673    22694    22673    22603    22518    22466 
   22437    22401    22372    22368    22422    22550    22686    22744 
   22711    22630    22549    22482    22470    22550    22662    22700 
   22640    22553    22499    22472    22439    22399    22361    22322 
   22300    22346    22469    22599    22647    22570    22384    22171 
   22057    22129    22333    22546    22700    22773    22754    22682 
   22626    22626    22680    22748    22765    22698    22609    22555 
   22539    22539    22520    22451    22370    22349    22384    22451 
   22530    22561    22543    22555    22615    22686    22747    22761 
   22688    22545    22392    22280    22261    22346    22441    22464 
   22418    22322    22221    22195    22303    22503    22681    22769 
   22775    22743    22685    22607    22538    22499    22450    22330 
   22169    22094    22157    22312    22505    22693    22842    22917 
   22914    22893    22901    22906    22847    22721    22603    22551 
   22535    22539    22594    22632    22558    22391    22181    22023 
   21994    22032    22071    22108    22142    22164    22162    22168 
   22203    22227    22241    22295    22384    22493    22632    22766 
   22817    22751    22574    22307    22050    21949    22003    22111 
   22269    22512    22758    22909    22968    22977    22951    22890 
   22820    22785    22783    22758    22666    22534    22420    22362 
   22372    22470    22626    22746    22758    22666    22538    22424 
   22279    22064    21878    21857    22037    22320    22605    22821 
   22902    22832    22663    22446    22214    22029    21961    22071 
   22312    22565    22786    22956    22993    22875    22684    22523 
   22437    22397    22427    22597    22824    22950    22951    22916 
   22858    22734    22561    22403    22289    22196    22127    22127 
   22203    22264    22223    22111    22030    22040    22092    22156 
   22256    22347    22368    22350    22334    22327    22315    22304 
   22370    22526    22680    22763    22767    22681    22511    22334 
   22253    22297    22376    22384    22372    22457    22605    22744 
   22847    22862    22758    22565    22353    22222    22235    22349 
   22454    22507    22561    22650    22773    22904    22975    22910 
   22723    22530    22427    22400    22414    22451    22458    22428 
   22383    22276    22152    22123    22181    22273    22404    22551 
   22634    22626    22549    22419    22316    22329    22435    22593 
   22778    22941    23026    23006    22874    22648    22396    22173 
   22027    21964    21921    21871    21868    21976    22208    22480 
   22650    22702    22734    22752    22693    22523    22296    22123 
   22045    22041    22138    22311    22451    22519    22562    22590 
   22561    22451    22307    22165    22038    21967    21975    22063 
   22283    22646    23033    23337    23531    23580    23452    23178 
   22825    22454    22140    21945    21864    21857    21913    22003 
   22091    22167    22227    22318    22477    22632    22720    22770 
   22763    22624    22376    22140    22015    22002    22040    22122 
   22306    22559    22742    22742    22559    22307    22099    21972 
   21957    22060    22215    22368    22516    22653    22765    22846 
   22894    22902    22850    22725    22567    22472    22503    22635 
   22779    22825    22723    22539    22392    22357    22422    22518 
   22643    22829    22991    23014    22886    22667    22434    22308 
   22400    22681    23022    23321    23529    23569    23383    23035 
   22682    22455    22403    22519    22744    22956    23047    22987 
   22812    22580    22373    22281    22341    22491    22639    22746 
   22781    22657    22347    21987    21694    21500    21413    21470 
   21686    21956    22108    22122    22099    22079    22046    22040 
   22092    22179    22272    22341    22357    22330    22238    22042 
   21798    21563    21347    21200    21185    21308    21519    21744 
   21968    22195    22354    22362    22233    22049    21864    21706 
   21617    21617    21685    21770    21851    21983    22180    22358 
   22468    22563    22692    22806    22823    22713    22524    22334 
   22202    22175    22289    22522    22763    22935    23024    23020 
   22923    22800    22782    22951    23269    23610    23826    23865 
   23716    23395    23012    22678    22422    22261    22234    22327 
   22442    22493    22470    22385    22242    22046    21909    21965 
   22218    22554    22875    23145    23314    23307    23143    22933 
   22778    22648    22438    22142    21899    21820    21883    22017 
   22162    22291    22416    22573    22735    22864    22966    23004 
   22923    22732    22489    22250    22032    21880    21894    22080 
   22322    22526    22690    22842    22940    22918    22725    22432 
   22203    22127    22223    22505    22883    23180    23291    23230 
   23026    22677    22208    21682    21230    20972    20899    21015 
   21367    21836    22210    22435    22534    22486    22351    22287 
   22424    22731    23020    23197    23334    23476    23618    23777 
   23935    24055    24136    24183    24160    23963    23522    22905 
   22330    21999    21902    21922    22000    22094    22165    22192 
   22177    22164    22161    22102    21918    21691    21608    21708 
   21878    22054    22223    22362    22424    22378    22341    22472 
   22744    23004    23132    23058    22824    22569    22372    22214 
   22044    21799    21477    21208    21139    21255    21471    21732 
   21986    22156    22256    22347    22387    22403    22478    22524 
   22492    22473    22468    22454    22542    22813    23143    23356 
   23422    23373    23217    23016    22862    22805    22800    22708 
   22464    22146    21870    21693    21602    21597    21705    21917 
   22208    22600    23085    23490    23625    23511    23272    22970 
   22647    22331    22065    21880    21740    21628    21628    21783 
   22038    22281    22438    22531    22582    22562    22474    22407 
   22468    22688    22998    23305    23539    23620    23534    23384 
   23278    23209    23105    22928    22755    22648    22553    22407 
   22225    22053    21911    21806    21753    21737    21764    21870 
   22042    22231    22384    22492    22585    22715    22896    23078 
   23171    23097    22852    22563    22401    22431    22584    22752 
   22862    22858    22670    22334    22025    21830    21751    21805 
   21905    21934    21938    22007    22130    22211    22189    22107 
   21987    21834    21736    21783    21990    22333    22767    23205 
   23554    23727    23674    23484    23283    23143    23085    23109 
   23187    23256    23257    23153    22886    22457    22014    21739 
   21721    21960    22366    22815    23224    23504    23583    23481 
   23256    22978    22770    22751    22898    23031    22995    22777 
   22381    21876    21424    21154    21022    20929    20868    20879 
   20960    21116    21339    21612    21922    22194    22361    22495 
   22659    22820    22977    23168    23371    23529    23614    23598 
   23515    23418    23287    23116    22893    22592    22238    21897 
   21617    21432    21362    21413    21641    22059    22500    22797 
   22916    22893    22828    22824    22862    22882    22877    22878 
   22898    22931    22936    22824    22549    22198    21860    21579 
   21394    21332    21370    21477    21655    21924    22273    22648 
   23021    23398    23680    23712    23502    23159    22774    22437 
   22188    21998    21853    21834    21996    22266    22534    22766 
   22931    22956    22847    22674    22507    22388    22297    22202 
   22131    22130    22172    22200    22223    22265    22285    22256 
   22226    22256    22304    22318    22335    22377    22408    22423 
   22422    22399    22380    22365    22322    22277    22297    22353 
   22378    22416    22540    22727    22875    22887    22734    22527 
   22424    22500    22697    22890    23020    23122    23199    23199 
   23103    22972    22851    22729    22601    22450    22243    22003 
   21795    21697    21741    21864    22013    22207    22432    22651 
   22840    22964    23008    22994    22956    22920    22871    22765 
   22585    22400    22320    22396    22557    22685    22696    22553 
   22314    22084    21928    21865    21888    21961    22060    22203 
   22384    22577    22751    22854    22855    22781    22700    22653 
   22593    22488    22368    22218    21996    21759    21609    21585 
   21649    21755    21841    21824    21678    21510    21428    21417 
   21444    21558    21826    22260    22788    23237    23453    23442 
   23294    23086    22894    22793    22817    22881    22806    22497 
   22046    21640    21402    21428    21730    22157    22511    22692 
   22736    22771    22874    23012    23094    23095    23082    23062 
   23005    22936    22844    22747    22686    22582    22372    22161 
   22038    21963    21926    21933    21978    22061    22162    22264 
   22365    22408    22345    22265    22266    22335    22453    22596 
   22701    22789    22941    23166    23399    23565    23620    23579 
   23491    23396    23274    23099    22890    22658    22426    22225 
   22059    21924    21817    21760    21771    21855    21987    22090 
   22167    22287    22451    22607    22678    22648    22582    22549 
   22582    22712    22918    23113    23261    23375    23415    23357 
   23203    22939    22674    22576    22603    22621    22639    22670 
   22647    22605    22630    22713    22827    22905    22850    22711 
   22623    22572    22446    22260    22090    21932    21775    21681 
   21675    21745    21880    22072    22316    22535    22593    22473 
   22299    22175    22092    22010    21984    22038    22042    21924 
   21740    21558    21470    21524    21656    21872    22176    22453 
   22651    22809    22905    22913    22848    22729    22576    22387 
   22180    22023    21967    22037    22222    22399    22457    22403 
   22293    22164    22034    21986    22075    22199    22292    22414 
   22558    22662    22704    22682    22612    22515    22438    22450 
   22566    22725    22843    22862    22775    22592    22311    21987 
   21720    21573    21578    21728    21918    22041    22071    22060 
   22042    22000    21924    21807    21666    21546    21416    21231 
   21060    20993    21065    21232    21402    21558    21767    22054 
   22437    22924    23441    23893    24214    24337    24255    24058 
   23832    23627    23496    23494    23584    23649    23606    23445 
   23218    22952    22642    22370    22258    22297    22403    22520 
   22611    22653    22627    22503    22303    22081    21880    21737 
   21675    21672    21699    21739    21774    21776    21730    21666 
   21670    21799    22049    22396    22783    23132    23400    23568 
   23623    23592    23515    23403    23283    23218    23184    23091 
   22927    22769    22690    22715    22796    22882    22986    23102 
   23160    23128    23039    22910    22716    22461    22233    22115 
   22095    22142    22233    22318    22365    22335    22241    22239 
   22414    22642    22844    23020    23102    23060    22966    22867 
   22828    22935    23198    23535    23832    24016    24077    24059 
   24031    24040    24065    24042    23958    23815    23595    23315 
   22994    22675    22449    22384    22464    22582    22638    22613 
   22504    22312    22092    21883    21664    21429    21193    20972 
   20814    20769    20837    20984    21172    21385    21647    21951 
   22216    22376    22423    22393    22295    22125    21909    21708 
   21556    21451    21424    21474    21548    21625    21694    21759 
   21832    21886    21909    21933    21983    22046    22099    22142 
   22206    22285    22366    22500    22702    22875    22943    22913 
   22816    22728    22731    22797    22851    22852    22769    22616 
   22437    22238    22057    21924    21814    21753    21790    21940 
   22126    22238    22277    22296    22300    22273    22226    22238 
   22395    22659    22943    23188    23367    23469    23510    23496 
   23418    23288    23129    22951    22801    22701    22589    22428 
   22234    22025    21816    21627    21496    21455    21478    21502 
   21513    21579    21764    22056    22376    22604    22655    22566 
   22443    22360    22366    22474    22623    22739    22794    22827 
   22874    22912    22971    23095    23202    23256    23330    23442 
   23580    23720    23823    23815    23591    23141    22593    22106 
   21787    21645    21651    21787    21968    22090    22114    22064 
   22000    21972    21996    22114    22365    22700    23008    23211 
   23251    23128    22959    22823    22758    22808    22918    22978 
   22971    22912    22813    22739    22721    22702    22636    22516 
   22299    21991    21691    21508    21490    21609    21836    22160 
   22504    22783    22968    23093    23209    23265    23176    22989 
   22792    22601    22420    22254    22057    21843    21695    21666 
   21736    21844    21892    21821    21689    21602    21618    21730 
   21882    22026    22158    22229    22195    22119    22095    22149 
   22287    22504    22769    23052    23317    23473    23445    23236 
   22943    22674    22470    22370    22388    22437    22446    22407 
   22320    22221    22168    22177    22233    22308    22376    22428 
   22449    22401    22306    22219    22158    22118    22083    22006 
   21880    21798    21868    22068    22291    22472    22566    22604 
   22670    22767    22862    22958    23040    23079    23118    23224 
   23376    23464    23440    23363    23248    23134    23094    23074 
   22987    22835    22640    22470    22400    22397    22389    22357 
   22308    22235    22140    21991    21763    21514    21335    21257 
   21323    21560    21910    22269    22558    22740    22802    22732 
   22594    22511    22508    22546    22609    22662    22693    22736 
   22773    22808    22885    22991    23099    23205    23299    23360 
   23342    23255    23178    23139    23093    22995    22827    22623 
   22464    22401    22415    22438    22439    22393    22268    22107 
   21996    21928    21861    21817    21824    21922    22126    22362 
   22567    22692    22677    22555    22437    22399    22474    22644 
   22862    23060    23172    23176    23076    22918    22786    22685 
   22559    22411    22281    22169    22052    21903    21712    21516 
   21369    21304    21348    21471    21577    21636    21685    21749 
   21851    21960    22019    22015    21980    21937    21905    21922 
   22014    22183    22401    22631    22824    22910    22882    22843 
   22846    22831    22758    22642    22535    22488    22503    22547 
   22615    22684    22707    22648    22488    22248    22015    21838 
   21722    21695    21790    22011    22335    22682    22964    23140 
   23210    23195    23148    23101    23032    22920    22740    22477 
   22188    21929    21729    21618    21578    21546    21521    21550 
   21678    21928    22268    22628    22917    23098    23217    23299 
   23314    23251    23167    23112    23105    23148    23186    23147 
   23036    22910    22824    22793    22790    22777    22738    22702 
   22711    22704    22638    22565    22528    22522    22508    22443 
   22329    22233    22192    22183    22206    22273    22339    22396 
   22488    22586    22634    22639    22620    22590    22600    22657 
   22725    22819    22944    23087    23236    23340    23356    23303 
   23176    22936    22600    22248    21980    21825    21747    21751 
   21861    22036    22218    22378    22496    22554    22523    22404 
   22283    22229    22223    22256    22327    22389    22376    22304 
   22225    22161    22149    22189    22234    22262    22246    22172 
   22117    22129    22180    22265    22347    22369    22339    22306 
   22308    22372    22454    22524    22605    22689    22759    22802 
   22798    22767    22721    22654    22569    22472    22357    22246 
   22172    22115    22046    22009    22048    22113    22171    22252 
   22377    22518    22643    22736    22796    22831    22835    22809 
