Origin Time       2026/01/15 07:13:00
Lat.              42.7
Long.             145.4
Depth. (km)       30
Mag.              5.7
Station Code      HKD071
Station Lat.      43.2326
Station Long.     145.2604
Station Height(m) 38
Record Time       2026/01/15 07:13:35
Sampling Freq(Hz) 100Hz
Duration Time(s)  63
Dir.              E-W
Scale Factor      7845(gal)/8223790
Max. Acc. (gal)   27.075
Last Correction   2026/01/15 07:13:36
Memo.             
[...]
    3217     3227     3226     3222     3225     3226     3221     3214 
    3219     3223     3215     3213     3223     3234     3231     3215 
    3213     3222     3221     3219     3226     3226     3222     3218 
    3215     3222     3223     3218     3222     3221     3218     3217 
    3225     3237     3227     3208     3210     3226     3237     3231 
    3222     3221     3214     3208     3225     3235     3221     3206 
    3215     3233     3235     3222     3217     3215     3211     3211 
    3221     3234     3230     3210     3206     3225     3234     3227 
    3218     3215     3221     3222     3227     3237     3222     3207 
    3218     3229     3226     3214     3206     3219     3230     3222 
    3222     3229     3227     3217     3207     3214     3227     3226 
    3217     3221     3237     3237     3218     3208     3211     3217 
    3222     3229     3231     3218     3206     3223     3245     3231 
    3203     3196     3206     3222     3241     3244     3235     3219 
    3202     3207     3223     3221     3206     3204     3218     3238 
    3249     3248     3238     3207     3175     3188     3230     3250 
    3244     3226     3221     3223     3215     3206     3214     3221 
    3215     3221     3240     3245     3221     3199     3210     3230 
    3229     3225     3229     3217     3206     3217     3227     3231 
    3225     3213     3221     3238     3233     3219     3207     3200 
    3207     3227     3244     3242     3219     3202     3211     3221 
    3222     3226     3229     3225     3222     3221     3226     3223 
    3207     3204     3221     3230     3229     3227     3223     3219 
    3223     3231     3235     3229     3208     3206     3227     3235 
    3221     3207     3202     3214     3244     3250     3230     3215 
    3211     3214     3215     3221     3230     3223     3204     3214 
    3237     3240     3226     3215     3215     3221     3223     3229 
    3233     3218     3200     3214     3238     3233     3213     3210 
    3219     3225     3225     3230     3229     3211     3206     3227 
    3238     3221     3204     3210     3230     3237     3230     3229 
    3226     3219     3222     3231     3230     3211     3191     3200 
    3237     3250     3231     3218     3215     3210     3218     3234 
    3235     3218     3199     3210     3238     3238     3215     3208 
    3215     3222     3231     3238     3231     3217     3203     3214 
    3237     3233     3213     3208     3219     3227     3235     3234 
    3215     3199     3206     3230     3241     3227     3208     3202 
    3217     3231     3234     3226     3218     3215     3221     3233 
    3234     3214     3195     3206     3230     3244     3240     3218 
    3202     3207     3229     3246     3240     3217     3203     3210 
    3225     3233     3226     3211     3208     3222     3237     3238 
    3222     3207     3200     3204     3222     3237     3231     3215 
    3214     3225     3235     3231     3217     3206     3208     3223 
    3241     3246     3225     3204     3214     3234     3231     3211 
    3206     3222     3226     3218     3229     3242     3222     3194 
    3199     3230     3244     3230     3217     3221     3229     3227 
    3225     3222     3208     3196     3211     3237     3240     3223 
    3219     3231     3234     3217     3204     3208     3214     3218 
    3227     3238     3234     3219     3215     3217     3217     3218 
    3229     3241     3233     3208     3202     3215     3226     3223 
    3219     3227     3230     3221     3214     3218     3227     3229 
    3221     3217     3219     3223     3226     3229     3218     3203 
    3214     3235     3235     3223     3218     3225     3227     3217 
    3208     3210     3217     3226     3233     3234     3225     3213 
    3210     3221     3231     3227     3214     3210     3215     3221 
    3225     3226     3225     3218     3215     3226     3235     3227 
    3207     3200     3219     3235     3235     3229     3217     3210 
    3217     3229     3233     3223     3208     3208     3226     3240 
    3231     3211     3202     3210     3225     3237     3240     3227 
    3203     3200     3225     3242     3231     3210     3202     3213 
    3222     3227     3235     3227     3208     3213     3237     3245 
    3225     3203     3206     3223     3227     3226     3227     3219 
    3210     3218     3231     3231     3215     3202     3213     3231 
    3234     3226     3218     3211     3214     3226     3237     3234 
    3213     3194     3210     3241     3248     3226     3200     3190 
    3208     3238     3244     3229     3210     3202     3211     3226 
    3231     3226     3218     3215     3221     3223     3226     3226 
    3217     3211     3215     3222     3227     3219     3210     3221 
    3237     3235     3223     3208     3202     3208     3221     3234 
    3234     3217     3203     3213     3229     3226     3211     3210 
    3241     3279     3298     3285     3235     3188     3208     3314 
    3426     3429     3289     3098     2991     3053     3261     3457 
    3445     3221     3002     2979     3144     3329     3334     3102 
    2832     2795     3055     3430     3667     3630     3391     3133 
    3009     3019     3042     3029     3028     3076     3244     3564 
    3889     4017     3840     3322     2732     2501     2610     2835 
    3132     3396     3542     3600     3597     3555     3410     3188 
    3127     3192     3102     2841     2436     1973     2064     2920 
    3663     3709     3404     3196     3391     3874     3920     3261 
    2528     2077     2026     2868     4198     4700     4240     3697 
    3395     3348     3676     3963     3570     2686     1979     1860 
    2531     3508     3713     3215     3094     3655     4464     4824 
    4113     2805     1995     1887     2110     2577     3200     3685 
    3794     3638     3531     3518     3523     3580     3566     3424 
    3229     2789     2145     1822     2042     2525     3034     3694 
    4164     3628     2519     2154     2716     3267     3379     3495 
    3696     3730     3628     3281     2882     2982     3411     3726 
    4141     4772     5020     4504     3546     2619     2180     2479 
    3316     4510     5682     5814     4433     2231      224     -577 
      68     1282     2527     3650     4116     3842     3169     2315 
    1590     1143     1131     2143     4213     6100     6489     5417 
    3870     2517     1637     1767     3213     5174     6478     6731 
    6052     4531     2434      415     -450      488     2347     3809 
    4557     4571     3935     3148     2253     1171      749     1622 
    3025     3755     3662     3484     3323     2872     2718     3303 
    4063     4455     4403     4288     4428     4280     3338     2246 
    2046     2999     4406     5208     4968     4006     2565      939 
     110      912     2727     4071     4368     3989     3400     3117 
    3063     2559     2157     2921     3932     3861     3207     2799 
    2875     3720     4812     5076     4684     4249     3593     2677 
    1880     1429     1479     2095     3152     4347     4896     4271 
    2967     1633      792     1035     2254     3670     4460     4241 
    3651     3384     3090     2493     2168     2693     3828     4731 
    5111     5243     5003     4205     3465     3487     4004     4405 
    4348     3735     2808     1875     1178      911     1109     1595 
    2239     3260     4526     5103     4108     2052      611      303 
     544     1475     2979     4230     5013     5233     4788     4483 
    4645     4614     4471     4395     4002     3667     3916     4004 
    3125     1885     1336     1765     2909     4175     4641     3705 
    1995      822      815     1728     2714     2986     2965     3445 
    4048     4221     4187     4143     4067     4172     4599     4870 
    4342     3283     2371     1594      942      820     1312     2204 
    3073     3501     3835     4202     3793     2955     2940     3426 
    3508     3219     2817     2739     3342     4203     4850     5220 
    5225     4943     4557     4056     3584     3288     2980     2350 
    1377      943     1667     2452     2479     2471     2979     3758 
    4255     3919     2835     1773     1235     1054     1075     1593 
    2709     3991     5066     5715     5800     5464     4811     4006 
    3447     3376     3867     4374     4156     3601     3144     2914 
    3389     3748     2878     1659     1210     1474     1800     1576 
    1074     1232     2496     4152     4887     4390     3370     2288 
    1674     2043     3014     4032     4662     4826     5310     6116 
    6385     6083     5040     3064     1460     1368     2216     2953 
    3059     2728     2632     3034     3441     3265     2718     2542 
    2555     1999     1186      811      872     1371     2335     3326 
    3951     4306     4606     4830     4715     3950     2891     2523 
    3165     4230     5165     5651     5147     3750     2847     3129 
    3707     3964     3924     3441     2606     1902     1478     1371 
    2047     3403     4333     4245     3400     2131     1266     1628 
    2690     3377     3229     2335     1544     1865     3333     5277 
    6671     6474     4914     3258     2199     1818     2276     3217 
    3615     3136     2524     2435     2992     3975     4685     4449 
    3510     2513     1576      905      976     1379     1485     1809 
    3083     4941     6393     6928     6390     4797     3119     2319 
    2161     2490     3480     4610     5305     5144     3798     1985 
     785      675     1803     3388     4008     3373     2257     1540 
    1944     3271     4330     4392     3735     2852     2228     2488 
    3451     3867     3379     2911     2795     2859     3149     3287 
    2945     2600     2636     2951     3612     4510     5024     5085 
    5216     5293     4707     3443     2327     2181     2643     2878 
    2833     2619     2219     1664     1084     1181     2043     2749 
    3192     3670     4000     4110     3915     3538     3225     2793 
    2629     3514     4981     5742     5356     4361     3241     2415 
    2451     3331     4321     4569     3944     3225     2951     3040 
    3017     2384     1534     1355     2019     2678     2377     1601 
    1502     2115     3017     3859     4027     3591     3329     3091 
    2313     1729     2199     2991     3268     3697     4819     5655 
    5467     4818     4179     3623     3532     3851     3878     3708 
    3940     4174     3688     2674     1777     1337     1613     2744 
    4052     4569     4356     4047     3604     2691     1417      197 
    -256      438     1595     2631     3819     4901     5009     4237 
    3345     2867     3063     3437     3283     2740     2332     2428 
    3186     4421     5418     5428     4726     4093     3748     3543 
    3272     2689     1902     1640     2081     2511     2913     3595 
    4135     4303     4090     3404     2763     2808     3327     3844 
    4222     4336     4170     3878     3500     3206     3149     3122 
    2744     1815     1192     1941     3084     3045     2400     2374 
    2955     3742     4302     4214     3869     3720     3265     2253 
    1487     1414     1798     2620     3609     4220     4779     5784 
    6408     5751     4540     3669     2937     2224     1675      900 
      49      398     2193     3844     4391     4310     3788     3079 
    3181     3840     3780     3248     2906     2292     1640     1840 
    2246     2004     2169     3522     4731     4866     4544     3975 
    3046     2214     1755     1848     2775     4037     4685     4610 
    4364     4202     4234     4679     5248     5256     4617     3650 
    2498     1710     1628     1426      631      224     1240     3249 
    5027     5883     5467     4004     2813     2602     2525     2334 
    2971     4804     7308     9499    10303     9980     9718     9402 
    8502     7514     6459     5111     4105     3431     2614     2255 
    2673     3010     2725     1728        6    -1587    -1853     -128 
    3511     7915    12105    15642    17230    16105    13159     8915 
    3343    -2809    -8353   -12025   -12627    -9902    -5410    -1497 
    1170     3044     4098     5355     7909    10199    10426     8757 
    5331     -187    -6872   -12444   -14960   -14212   -11257    -7088 
   -2709      166      452     -980    -2658    -3843    -4924    -6670 
   -8148    -7717    -5213     -521     7213    17064    25320    28323 
   25515    19026    11094     3271    -2874    -5958    -5206    -1364 
    3489     8363    12708    15418    16447    15723    12829     8976 
    6160     5292     5094     3060    -1244    -5634    -8132    -7925 
   -4868     -398     2860     3154      303    -3898    -5906    -3910 
    -675      113    -1634    -4139    -5486    -2906     4244    12922 
   20258    24841    25951    24363    20860    14372     4623    -5703 
  -13293   -16083   -13231    -6029     1340     4604     3909     3348 
    5877    10604    14399    15314    13763    10127     4830     -290 
   -4965   -10234   -14045   -13370    -8671    -2533     3620     9922 
   15954    19778    19674    15263     7792      446    -3549    -3650 
   -2970    -5501   -11021   -15402   -15356   -10393    -1846     8945 
   20272    28671    31603    29897    25196    17790     8556      743 
   -2774    -3300    -4457    -7236    -9659   -10158    -9323    -8607 
   -8163    -7182    -5682    -3519      772     7350    13570    16592 
   15680    11793     6592     2207      989     3931     9049    13512 
   16083    15565    11488     6011      903    -3508    -5984    -6218 
   -6281    -6806    -6650    -6309    -6713    -7441    -7825    -6855 
   -3341     2835    10301    16187    17675    14985    10903     7284 
    5194     5259     5798     5026     3049      541    -1630    -3094 
   -3289     -970     2354     3250     1795      788     1328     2837 
    4977     7614     9958    11272    12225    13194    12761    10280 
    6743     2983     -253    -2289    -2762     -550     4639     9860 
   12051    11082     7199      692    -5688    -9026    -9204    -7366 
   -4590    -2771    -2903    -2764     -313     3233     6258     8575 
   10098    10554    10257    10164    10393     9188     5101     -646 
   -5248    -6378    -3561     1100     5154     8303    10812    11821 
   10902     9035     7361     5611     2165    -3110    -7317    -7978 
   -5923    -3339    -1682    -1262     -676     1899     6424    11475 
   15793    18183    17408    13360     7300      564    -5682    -9711 
   -9910    -6609    -2091     1740     3919     3956     3283     3754 
    4735     5175     5333     5398     5344     5024     4324     3901 
    3964     3507     2579     2651     4425     7682    11110    12345 
   10555     6913     3449     2295     3472     5154     5971     5007 
    2073    -1692    -5586   -10319   -15703   -19313   -18901   -13640 
   -3843     7929    18176    24957    27237    24972    19970    13886 
    7079      214    -4870    -6620    -5657    -3454     -159     3501 
    4734     2421     -855    -2262     -774     2720     5491     5991 
    5023     3171     1107      409     1439     2922     4201     6189 
    9363    12780    15596    16345    13088     6710       97    -5123 
   -8083    -8260    -6876    -6066    -6493    -7021    -6269    -3310 
    2324     9155    14496    17837    19241    17235    12540     8032 
    3767    -1537    -5591    -5586    -2647     1202     4985     6987 
    5954     2631    -1725    -5954    -7974    -6350    -2331     2072 
    5755     7682     7126     4953     2998     2039     2123     3562 
    5822     7901     9560    10189     9134     7794     8158     9787 
   10990    11248    10473     8379     5541     2623     -880    -4915 
   -7807    -8336    -6685    -3858    -1306     -332    -1782    -4444 
   -5125    -2992      126     3231     5780     6485     4988     2419 
     152     -583      309     1520     2988     6531    12745    19396 
   23305    22785    17887     9776     1219    -3960    -4356    -2705 
   -2018    -1830       -9     3422     6361     7396     6246     3152 
    -367    -1953     -510     2650     4739     3825      337    -3634 
   -5746    -4257      556     5767     8580     9294     9764    10224 
    9976     9115     7612     5297     3144     2430     3071     3234 
     723    -4241    -9073   -11601   -10611    -6045     -233     3765 
    4882     4549     5394     8383    11190    11672    10551     8689 
    6691     6342     8014     9660     9161     5933     1529    -1539 
   -1757      729     3977     5397     4035      994    -1845    -3022 
   -2370    -1139     -745    -1053     -660      812     2177     2552 
    2423     2925     4695     7619    10963    13014    12483    10096 
    7186     4642     2559     -260    -3570    -4626    -2558      140 
    1325      870     -828    -3123    -4509    -3505      -60     3983 
    6552     7422     7713     8725    10671    12069    11920    10392 
    7265     3107     -137    -1537    -1151     1055     4392     8117 
   11634    13266    12135     9559     6917     4452     1799    -1366 
   -4801    -7558    -8812    -8826    -7858    -5886    -3785    -1613 
    1679     5576     8957    11672    12939    11601     8094     4471 
    2623     2458     2813     3491     4513     5042     4452     3366 
    2729     2614     2795     3338     4329     5506     5925     4884 
    3029     1046    -1399    -3866    -4553    -2558     1204     5139 
    7865     8823     8390     6921     4893     3596     3510     3532 
    3303     3684     4816     6115     6878     6066     3689     1730 
    2054     4490     7122     7977     6631     3821      321    -2673 
   -3631    -2558    -1063     -116      615     1341     1347      375 
    -109     1100     3067     4445     5212     5733     5472     3699 
    1012    -1375    -2856    -2799     -951     1692     4050     5470 
    5389     4568     5062     7244     8869     7931     4533      144 
   -3261    -3850    -1271     2783     6357     8827    10021     9459 
    7321     4392      958    -2331    -4171    -4279    -2673      436 
    3356     4980     5649     5466     4961     5478     6999     7905 
    7404     6223     5545     5873     6520     7182     8611    10885 
   13169    14779    15286    14218    10851     5202    -1285    -7056 
  -10636   -11186    -9985    -8488    -6728    -5124    -4455    -4187 
   -3138     -999     1607     3812     4935     4974     4830     5370 
    6475     7330     7159     5748     3754     2828     4360     7649 
   11038    13329    13273    10908     7824     5013     3115     2328 
    1389      -62     -838    -1009    -1285    -1355    -1267    -1791 
   -2543    -1864      783     3936     5875     5923     4530     2416 
     -41    -1988    -2228     -531     2366     5479     8046     9791 
   10790    11379    12059    12737    12312    10026     6706     3734 
    1540     -631    -3408    -5694    -5872    -3958    -1173     1314 
    3028     4183     4455     3019      380    -2097    -3488    -3049 
