Origin Time       2026/01/15 07:13:00
Lat.              42.7
Long.             145.4
Depth. (km)       30
Mag.              5.7
Station Code      HKD082
Station Lat.      43.4369
Station Long.     144.0855
Station Height(m) 429
Record Time       2026/01/15 07:13:58
Sampling Freq(Hz) 100Hz
Duration Time(s)  60
Dir.              E-W
Scale Factor      7845(gal)/8223790
Max. Acc. (gal)   2.740
Last Correction   2026/01/15 07:13:58
Memo.             
[...]
   -7773    -7809    -7900    -8000    -8093    -8182    -8245    -8286 
   -8334    -8411    -8498    -8541    -8505    -8432    -8391    -8413 
   -8478    -8569    -8684    -8773    -8739    -8556    -8322    -8129 
   -7981    -7871    -7812    -7770    -7705    -7623    -7547    -7470 
   -7403    -7402    -7504    -7684    -7866    -7974    -8002    -8013 
   -8048    -8108    -8179    -8263    -8372    -8523    -8662    -8684 
   -8567    -8403    -8280    -8243    -8298    -8378    -8391    -8328 
   -8241    -8156    -8027    -7804    -7551    -7383    -7321    -7288 
   -7196    -7036    -6910    -6905    -6984    -7086    -7186    -7279 
   -7385    -7510    -7614    -7703    -7816    -7960    -8110    -8245 
   -8368    -8495    -8607    -8662    -8691    -8785    -8968    -9163 
   -9296    -9328    -9251    -9113    -8981    -8850    -8680    -8494 
   -8347    -8255    -8205    -8167    -8098    -7973    -7824    -7757 
   -7800    -7835    -7761    -7662    -7669    -7792    -7944    -8081 
   -8221    -8371    -8510    -8649    -8799    -8924    -8969    -8942 
   -8912    -8899    -8854    -8760    -8650    -8550    -8468    -8421 
   -8402    -8388    -8376    -8351    -8279    -8178    -8104    -8063 
   -8013    -7943    -7878    -7831    -7800    -7777    -7769    -7792 
   -7830    -7846    -7851    -7904    -7986    -7992    -7865    -7670 
   -7491    -7373    -7344    -7396    -7491    -7593    -7690    -7776 
   -7850    -7905    -7929    -7939    -7974    -8075    -8263    -8463 
   -8534    -8473    -8421    -8468    -8576    -8668    -8707    -8687 
   -8646    -8630    -8607    -8502    -8313    -8137    -8067    -8110 
   -8201    -8236    -8174    -8077    -8047    -8094    -8149    -8163 
   -8137    -8114    -8122    -8158    -8191    -8222    -8247    -8229 
   -8181    -8162    -8205    -8260    -8263    -8217    -8158    -8112 
   -8097    -8120    -8137    -8097    -8002    -7901    -7817    -7740 
   -7654    -7546    -7431    -7349    -7323    -7364    -7453    -7537 
   -7599    -7662    -7728    -7792    -7861    -7906    -7906    -7893 
   -7917    -7994    -8097    -8176    -8224    -8283    -8364    -8413 
   -8406    -8386    -8382    -8392    -8441    -8525    -8594    -8626 
   -8645    -8665    -8677    -8664    -8613    -8521    -8388    -8244 
   -8158    -8148    -8140    -8074    -7992    -7933    -7889    -7854 
   -7840    -7846    -7893    -8036    -8251    -8406    -8425    -8345 
   -8233    -8129    -8008    -7846    -7690    -7627    -7673    -7788 
   -7913    -7959    -7867    -7696    -7554    -7506    -7535    -7595 
   -7632    -7628    -7607    -7607    -7647    -7713    -7794    -7877 
   -7943    -7971    -7942    -7863    -7766    -7680    -7618    -7572 
   -7530    -7508    -7555    -7713    -7959    -8175    -8245    -8181 
   -8075    -8014    -8013    -8014    -7969    -7875    -7778    -7732 
   -7765    -7850    -7948    -8031    -8091    -8176    -8313    -8451 
   -8533    -8527    -8421    -8224    -7985    -7761    -7595    -7524 
   -7550    -7599    -7601    -7588    -7651    -7823    -8043    -8239 
   -8386    -8480    -8513    -8478    -8388    -8294    -8259    -8334 
   -8500    -8673    -8803    -8910    -9042    -9205    -9356    -9474 
   -9598    -9774    -9975   -10114   -10107    -9915    -9613    -9342 
   -9196    -9185    -9236    -9240    -9142    -8970    -8776    -8596 
   -8471    -8390    -8272    -8078    -7879    -7773    -7750    -7700 
   -7549    -7368    -7273    -7258    -7244    -7244    -7303    -7375 
   -7389    -7314    -7130    -6885    -6662    -6497    -6405    -6426 
   -6550    -6729    -6929    -7107    -7264    -7474    -7789    -8118 
   -8361    -8521    -8622    -8633    -8513    -8302    -8109    -8013 
   -8020    -8104    -8243    -8417    -8583    -8677    -8681    -8637 
   -8577    -8510    -8464    -8463    -8475    -8478    -8457    -8365 
   -8218    -8131    -8167    -8247    -8253    -8191    -8181    -8306 
   -8460    -8452    -8282    -8116    -8012    -7920    -7869    -7897 
   -7952    -7982    -8004    -8024    -8019    -7979    -7928    -7844 
   -7682    -7492    -7403    -7468    -7611    -7749    -7850    -7908 
   -7942    -8024    -8191    -8359    -8419    -8387    -8328    -8259 
   -8174    -8081    -7987    -7902    -7848    -7831    -7811    -7705 
   -7461    -7138    -6866    -6724    -6709    -6771    -6876    -7030 
   -7238    -7470    -7653    -7707    -7643    -7577    -7627    -7812 
   -8028    -8167    -8245    -8359    -8573    -8873    -9144    -9259 
   -9224    -9174    -9200    -9279    -9327    -9289    -9182    -9045 
   -8896    -8772    -8714    -8716    -8773    -8853    -8892    -8891 
   -8896    -8856    -8675    -8395    -8159    -8028    -7990    -8025 
   -8117    -8236    -8328    -8356    -8355    -8328    -8224    -8060 
   -7951    -7973    -8047    -8059    -8012    -7996    -8048    -8117 
   -8174    -8239    -8341    -8486    -8625    -8703    -8745    -8780 
   -8765    -8657    -8457    -8230    -8101    -8098    -8081    -7997 
   -7979    -8114    -8313    -8425    -8380    -8230    -8094    -8024 
   -8005    -8029    -8087    -8145    -8190    -8243    -8321    -8401 
   -8429    -8337    -8114    -7881    -7743    -7611    -7361    -7072 
   -6898    -6851    -6880    -7005    -7244    -7564    -7900    -8167 
   -8299    -8338    -8395    -8503    -8600    -8637    -8623    -8602 
   -8606    -8626    -8625    -8561    -8438    -8348    -8378    -8445 
   -8397    -8193    -7881    -7543    -7311    -7257    -7295    -7284 
   -7211    -7145    -7110    -7082    -7061    -7103    -7233    -7412 
   -7578    -7719    -7912    -8216    -8518    -8648    -8594    -8509 
   -8556    -8788    -9116    -9406    -9575    -9572    -9358    -8974 
   -8546    -8218    -8079    -8133    -8286    -8421    -8479    -8463 
   -8348    -8110    -7801    -7508    -7271    -7088    -6995    -7025 
   -7114    -7204    -7304    -7372    -7322    -7164    -7032    -7110 
   -7480    -7986    -8371    -8500    -8417    -8257    -8112    -7965 
   -7796    -7672    -7672    -7815    -8082    -8411    -8719    -8958 
   -9117    -9200    -9205    -9134    -9011    -8866    -8677    -8424 
   -8122    -7817    -7573    -7402    -7204    -6961    -6831    -6918 
   -7159    -7441    -7708    -7935    -8064    -8106    -8185    -8403 
   -8734    -9062    -9250    -9271    -9262    -9359    -9543    -9688 
   -9748    -9752    -9725    -9618    -9363    -8991    -8611    -8260 
   -7928    -7677    -7573    -7581    -7631    -7682    -7704    -7645 
   -7462    -7221    -7048    -7010    -7109    -7349    -7699    -8021 
   -8097    -7827    -7383    -7103    -7186    -7535    -7932    -8218 
   -8330    -8299    -8203    -8056    -7840    -7595    -7388    -7225 
   -7071    -6963    -7015    -7311    -7786    -8213    -8356    -8202 
   -7948    -7763    -7649    -7554    -7487    -7466    -7506    -7649 
   -7939    -8325    -8700    -8970    -9084    -9072    -8988    -8865 
   -8750    -8665    -8538    -8313    -8016    -7685    -7361    -7179 
   -7277    -7603    -7921    -8043    -7955    -7753    -7543    -7479 
   -7636    -7863    -7951    -7919    -7919    -8010    -8143    -8229 
   -8222    -8190    -8259    -8449    -8638    -8739    -8803    -8854 
   -8797    -8619    -8445    -8302    -8110    -7901    -7776    -7716 
   -7657    -7614    -7574    -7504    -7465    -7493    -7504    -7462 
   -7416    -7365    -7310    -7322    -7384    -7445    -7588    -7889 
   -8248    -8510    -8637    -8688    -8735    -8845    -9053    -9252 
   -9315    -9298    -9294    -9244    -9103    -9003    -9089    -9329 
   -9544    -9567    -9387    -9158    -9034    -9078    -9228    -9337 
   -9332    -9278    -9247    -9204    -9066    -8872    -8731    -8600 
   -8347    -8012    -7762    -7701    -7812    -7985    -8079    -8023 
   -7838    -7611    -7422    -7308    -7280    -7348    -7487    -7604 
   -7576    -7368    -7069    -6793    -6624    -6588    -6612    -6632 
   -6674    -6770    -6905    -7044    -7187    -7433    -7825    -8220 
   -8475    -8642    -8804    -8946    -9019    -9028    -9015    -8996 
   -8966    -8887    -8673    -8320    -7947    -7724    -7709    -7749 
   -7670    -7503    -7350    -7291    -7362    -7481    -7481    -7352 
   -7315    -7541    -7923    -8232    -8341    -8270    -8131    -8075 
   -8183    -8394    -8560    -8564    -8437    -8349    -8446    -8689 
   -8924    -9088    -9227    -9362    -9433    -9385    -9229    -9038 
   -8874    -8756    -8654    -8522    -8320    -8089    -7948    -7960 
   -8063    -8163    -8226    -8244    -8185    -8035    -7816    -7573 
   -7361    -7191    -7007    -6793    -6625    -6578    -6659    -6891 
   -7256    -7593    -7767    -7835    -7850    -7797    -7754    -7866 
   -8159    -8517    -8849    -9157    -9418    -9540    -9483    -9317 
   -9093    -8820    -8550    -8348    -8183    -7958    -7639    -7300 
   -7024    -6797    -6592    -6484    -6600    -6928    -7319    -7690 
   -8001    -8156    -8117    -7974    -7824    -7712    -7645    -7596 
   -7549    -7528    -7566    -7709    -7994    -8363    -8668    -8864 
   -9055    -9294    -9470    -9441    -9202    -8903    -8725    -8704 
   -8761    -8850    -8955    -9003    -8900    -8642    -8301    -7978 
   -7747    -7626    -7592    -7585    -7541    -7466    -7442    -7542 
   -7793    -8144    -8455    -8617    -8669    -8657    -8521    -8236 
   -7898    -7584    -7298    -7087    -7044    -7156    -7287    -7357 
   -7398    -7399    -7284    -7074    -6929    -7003    -7331    -7815 
   -8309    -8680    -8837    -8745    -8495    -8289    -8282    -8464 
   -8672    -8714    -8522    -8208    -7924    -7778    -7815    -7959 
   -8024    -7893    -7670    -7514    -7443    -7437    -7538    -7735 
   -7905    -7992    -8082    -8245    -8457    -8681    -8893    -9055 
   -9126    -9100    -9031    -8988    -8993    -9013    -9032    -9074 
   -9117    -9088    -8949    -8727    -8464    -8179    -7865    -7524 
   -7249    -7155    -7273    -7539    -7846    -8145    -8460    -8826 
   -9254    -9672    -9936    -9936    -9683    -9256    -8738    -8220 
   -7862    -7788    -7960    -8263    -8622    -9013    -9373    -9590 
   -9582    -9343    -8915    -8328    -7678    -7123    -6710    -6372 
   -6064    -5837    -5814    -6039    -6350    -6562    -6678    -6791 
   -6928    -7037    -7068    -7003    -6878    -6778    -6797    -6959 
   -7202    -7477    -7820    -8271    -8765    -9186    -9472    -9607 
   -9602    -9483    -9308    -9161    -9099    -9077    -8996    -8781 
   -8419    -8001    -7705    -7645    -7722    -7723    -7580    -7416 
   -7380    -7504    -7684    -7813    -7913    -8056    -8266    -8491 
   -8622    -8591    -8469    -8382    -8384    -8460    -8563    -8634 
   -8625    -8559    -8546    -8662    -8814    -8908    -8995    -9058 
   -8959    -8681    -8372    -8155    -8036    -7924    -7759    -7595 
   -7500    -7447    -7399    -7423    -7608    -7932    -8294    -8608 
   -8820    -8932    -8974    -8957    -8950    -9031    -9175    -9325 
   -9455    -9547    -9590    -9540    -9351    -9036    -8680    -8379 
   -8162    -7983    -7821    -7692    -7642    -7692    -7796    -7906 
   -7936    -7825    -7678    -7561    -7416    -7252    -7088    -6894 
   -6662    -6421    -6211    -6096    -6114    -6261    -6532    -6858 
   -7099    -7237    -7348    -7422    -7423    -7393    -7371    -7333 
   -7265    -7175    -7084    -7067    -7207    -7514    -7912    -8259 
   -8410    -8330    -8104    -7836    -7593    -7414    -7314    -7275 
   -7294    -7419    -7665    -8010    -8409    -8714    -8792    -8729 
   -8738    -8900    -9120    -9286    -9346    -9317    -9297    -9348 
   -9425    -9460    -9441    -9400    -9339    -9256    -9192    -9178 
   -9138    -8966    -8698    -8436    -8191    -7956    -7832    -7888 
   -8039    -8176    -8268    -8311    -8283    -8185    -8087    -8033 
   -7990    -7939    -7894    -7821    -7686    -7550    -7489    -7461 
   -7381    -7300    -7350    -7546    -7785    -8004    -8189    -8324 
   -8392    -8407    -8413    -8460    -8554    -8681    -8829    -8934 
   -8883    -8653    -8371    -8156    -8039    -8036    -8149    -8305 
   -8445    -8564    -8646    -8681    -8673    -8563    -8283    -7894 
   -7530    -7253    -7032    -6862    -6763    -6713    -6696    -6740 
   -6871    -7045    -7161    -7167    -7091    -6994    -6933    -6933 
   -6984    -7074    -7200    -7380    -7626    -7924    -8222    -8459 
   -8622    -8746    -8845    -8914    -8964    -8984    -8915    -8780 
   -8677    -8622    -8595    -8658    -8839    -9043    -9126    -9035 
   -8877    -8812    -8845    -8835    -8716    -8563    -8498    -8581 
   -8742    -8872    -8955    -9007    -9001    -8939    -8870    -8793 
   -8657    -8472    -8274    -8019    -7642    -7176    -6716    -6342 
   -6092    -5952    -5902    -5934    -6042    -6245    -6578    -7010 
   -7449    -7827    -8082    -8179    -8151    -8048    -7947    -7935 
   -8048    -8249    -8475    -8680    -8843    -8981    -9104    -9192 
   -9231    -9242    -9234    -9166    -8986    -8718    -8452    -8235 
   -7998    -7680    -7361    -7171    -7121    -7126    -7163    -7227 
   -7252    -7168    -7033    -6941    -6910    -6913    -6907    -6847 
   -6763    -6789    -7015    -7398    -7811    -8181    -8519    -8885 
   -9325    -9814   -10242   -10543   -10750   -10903   -10979   -10920 
  -10708   -10386   -10053    -9778    -9549    -9331    -9119    -8945 
   -8829    -8748    -8642    -8476    -8280    -8097    -7916    -7705 
   -7480    -7302    -7218    -7199    -7194    -7202    -7242    -7346 
   -7538    -7797    -8054    -8240    -8338    -8372    -8370    -8320 
   -8214    -8097    -8056    -8141    -8324    -8514    -8631    -8656 
   -8617    -8564    -8553    -8602    -8652    -8638    -8579    -8540 
   -8561    -8622    -8650    -8576    -8398    -8174    -7956    -7750 
   -7519    -7273    -7038    -6786    -6505    -6278    -6166    -6134 
   -6131    -6158    -6238    -6343    -6427    -6498    -6602    -6736 
   -6868    -7006    -7179    -7383    -7566    -7720    -7894    -8120 
   -8344    -8492    -8581    -8680    -8795    -8904    -9012    -9136 
   -9290    -9477    -9661    -9790    -9841    -9834    -9784    -9672 
   -9487    -9248    -8992    -8753    -8523    -8279    -8027    -7786 
   -7580    -7419    -7277    -7145    -7075    -7121    -7269    -7439 
   -7553    -7622    -7705    -7819    -7917    -7966    -7974    -7983 
   -8014    -8050    -8067    -8090    -8163    -8291    -8452    -8630 
   -8823    -8999    -9080    -8993    -8743    -8403    -8043    -7703 
   -7416    -7222    -7159    -7211    -7329    -7473    -7627    -7770 
   -7882    -7965    -8017    -8008    -7928    -7827    -7744    -7669 
   -7577    -7474    -7383    -7318    -7315    -7385    -7456    -7479 
   -7500    -7564    -7674    -7815    -7975    -8131    -8216    -8205 
   -8156    -8156    -8226    -8298    -8309    -8306    -8361    -8449 
   -8529    -8595    -8646    -8698    -8776    -8853    -8869    -8807 
   -8680    -8510    -8329    -8209    -8198    -8266    -8337    -8378 
   -8390    -8390    -8382    -8357    -8329    -8320    -8322    -8320 
   -8301    -8259    -8194    -8117    -8031    -7954    -7900    -7892 
   -7939    -8029    -8149    -8299    -8455    -8591    -8721    -8826 
   -8847    -8768    -8615    -8432    -8252    -8091    -7966    -7900 
   -7878    -7866    -7877    -7931    -7994    -8036    -8083    -8154 
   -8249    -8378    -8517    -8610    -8652    -8669    -8679    -8712 
   -8800    -8935    -9089    -9202    -9205    -9063    -8807    -8506 
   -8197    -7912    -7705    -7581    -7481    -7372    -7253    -7134 
   -7055    -7044    -7102    -7204    -7334    -7489    -7672    -7881 
   -8093    -8276    -8438    -8591    -8730    -8827    -8876    -8910 
   -8954    -8996    -9008    -8993    -8973    -8986    -9050    -9113 
   -9101    -9015    -8911    -8820    -8750    -8691    -8607    -8468 
   -8278    -8055    -7830    -7605    -7360    -7107    -6912    -6804 
   -6763    -6748    -6708    -6642    -6598    -6597    -6606    -6588 
   -6547    -6551    -6647    -6840    -7095    -7346    -7543    -7685 
   -7792    -7879    -7932    -7919    -7857    -7797    -7770    -7797 
   -7874    -7935    -7928    -7878    -7851    -7879    -7948    -8017 
   -8073    -8113    -8129    -8118    -8081    -8017    -7944    -7896 
   -7881    -7879    -7881    -7878    -7852    -7812    -7794    -7807 
   -7820    -7817    -7797    -7770    -7736    -7701    -7689    -7704 
   -7699    -7645    -7562    -7483    -7430    -7412    -7407    -7410 
   -7435    -7492    -7584    -7703    -7844    -8002    -8160    -8290 
   -8383    -8436    -8446    -8444    -8442    -8426    -8380    -8338 
   -8375    -8509    -8676    -8808    -8877    -8877    -8827    -8769 
   -8725    -8683    -8648    -8653    -8694    -8730    -8748    -8765 
   -8802    -8869    -8968    -9072    -9143    -9193    -9251    -9332 
   -9431    -9514    -9544    -9529    -9522    -9551    -9602    -9637 
   -9644    -9644    -9644    -9625    -9587    -9532    -9433    -9263 
   -9045    -8834    -8653    -8484    -8320    -8172    -8041    -7919 
   -7809    -7739    -7724    -7744    -7773    -7820    -7905    -8016 
   -8125    -8214    -8286    -8355    -8434    -8507    -8563    -8625 
   -8691    -8723    -8710    -8672    -8614    -8521    -8371    -8152 
   -7870    -7574    -7334    -7157    -6980    -6759    -6507    -6239 
   -5972    -5757    -5629    -5583    -5591    -5644    -5760    -5946 
   -6180    -6442    -6720    -6984    -7200    -7361    -7469    -7527 
   -7555    -7578    -7608    -7651    -7703    -7724    -7685    -7620 
   -7597    -7641    -7713    -7759    -7755    -7701    -7614    -7519 
   -7446    -7435    -7512    -7651    -7796    -7920    -8028    -8141 
   -8266    -8386    -8478    -8550    -8633    -8731    -8824    -8896 
   -8931    -8928    -8920    -8939    -8973    -9003    -9032    -9076 
   -9128    -9167    -9181    -9185    -9180    -9134    -9016    -8853 
   -8707    -8608    -8537    -8464    -8379    -8293    -8214    -8159 
   -8145    -8167    -8203    -8235    -8267    -8326    -8391    -8399 
   -8344    -8279    -8239    -8201    -8144    -8106    -8122    -8181 
   -8247    -8314    -8388    -8457    -8496    -8473    -8370    -8205 
   -8029    -7898    -7827    -7780    -7735    -7705    -7695    -7693 
   -7695    -7697    -7693    -7684    -7696    -7739    -7816    -7920 
   -8017    -8087    -8154    -8210    -8222    -8187    -8143    -8102 
   -8058    -8025    -8023    -8056    -8108    -8172    -8260    -8359 
   -8429    -8446    -8424    -8384    -8333    -8262    -8170    -8070 
   -7981    -7928    -7915    -7938    -7986    -8040    -8100    -8183 
   -8274    -8328    -8336    -8336    -8340    -8337    -8330    -8325 
   -8298    -8222    -8132    -8077    -8060    -8056    -8051    -8046 
   -8048    -8059    -8081    -8121    -8171    -8185    -8145    -8086 
   -8046    -8050    -8095    -8167    -8232    -8256    -8253    -8259 
   -8270    -8263    -8232    -8170    -8078    -7973    -7867    -7782 
