Origin Time       2026/01/15 07:13:00
Lat.              42.7
Long.             145.4
Depth. (km)       30
Mag.              5.7
Station Code      HKD098
Station Lat.      42.4985
Station Long.     143.2790
Station Height(m) 81
Record Time       2026/01/15 07:14:08
Sampling Freq(Hz) 100Hz
Duration Time(s)  81
Dir.              N-S
Scale Factor      7845(gal)/8223790
Max. Acc. (gal)   3.632
Last Correction   2026/01/15 07:14:08
Memo.             
[...]
   -9713    -9639    -9529    -9424    -9377    -9373    -9385    -9435 
   -9533    -9632    -9720    -9853   -10006   -10073   -10061   -10103 
  -10245   -10373   -10426   -10457   -10481   -10435   -10339   -10296 
  -10323   -10319   -10243   -10135   -10012    -9891    -9834    -9852 
   -9856    -9784    -9682    -9613    -9597    -9632    -9687    -9706 
   -9671    -9617    -9605    -9671    -9791    -9898    -9925    -9864 
   -9774    -9706    -9680    -9707    -9775    -9829    -9840    -9840 
   -9853    -9867    -9879    -9888    -9884    -9872    -9852    -9807 
   -9741    -9698    -9707    -9757    -9829    -9906    -9938    -9919 
   -9906    -9911    -9909    -9891    -9841    -9748    -9661    -9629 
   -9636    -9653    -9667    -9659    -9607    -9556    -9570    -9633 
   -9699    -9753    -9790    -9798    -9786    -9769    -9791    -9892 
  -10000   -10017    -9964    -9895    -9838    -9838    -9915   -10022 
  -10091   -10118   -10170   -10282   -10382   -10403   -10359   -10277 
  -10174   -10066    -9954    -9849    -9776    -9724    -9667    -9643 
   -9713    -9852    -9973   -10029   -10037   -10056   -10091   -10088 
  -10025    -9937    -9844    -9764    -9729    -9717    -9690    -9670 
   -9695    -9763    -9865    -9992   -10099   -10145   -10138   -10118 
  -10106   -10115   -10143   -10123   -10011    -9868    -9759    -9671 
   -9595    -9567    -9618    -9717    -9791    -9799    -9776    -9757 
   -9715    -9644    -9597    -9568    -9502    -9435    -9450    -9533 
   -9591    -9567    -9499    -9478    -9528    -9587    -9624    -9661 
   -9697    -9720    -9752    -9794    -9822    -9857    -9921   -10008 
  -10122   -10245   -10327   -10335   -10291   -10241   -10218   -10231 
  -10260   -10273   -10258   -10215   -10154   -10088   -10031    -9995 
   -9971    -9936    -9871    -9817    -9814    -9838    -9868    -9902 
   -9910    -9879    -9871    -9917    -9954    -9934    -9879    -9818 
   -9768    -9767    -9834    -9898    -9877    -9782    -9659    -9535 
   -9421    -9309    -9207    -9166    -9215    -9324    -9463    -9605 
   -9698    -9717    -9737    -9837    -9977   -10115   -10250   -10336 
  -10316   -10224   -10127   -10042    -9972    -9942    -9967   -10007 
   -9985    -9886    -9792    -9782    -9860    -9991   -10096   -10116 
  -10046    -9910    -9782    -9707    -9670    -9675    -9749    -9846 
   -9902    -9910    -9875    -9823    -9805    -9834    -9871    -9911 
   -9994   -10102   -10165   -10149   -10088   -10023    -9973    -9984 
  -10069   -10152   -10173   -10141   -10081   -10033   -10039   -10093 
  -10114   -10038    -9899    -9763    -9652    -9568    -9524    -9518 
   -9545    -9607    -9687    -9752    -9780    -9757    -9707    -9691 
   -9714    -9736    -9749    -9787    -9845    -9856    -9805    -9759 
   -9769    -9813    -9848    -9865    -9876    -9863    -9822    -9794 
   -9815    -9852    -9867    -9910   -10019   -10126   -10187   -10201 
  -10152   -10034    -9888    -9751    -9666    -9649    -9670    -9690 
   -9718    -9765    -9799    -9806    -9821    -9864    -9917    -9936 
   -9915    -9925   -10002   -10087   -10131   -10142   -10098    -9983 
   -9875    -9840    -9845    -9833    -9790    -9749    -9748    -9768 
   -9787    -9799    -9802    -9774    -9734    -9736    -9784    -9830 
   -9848    -9852    -9855    -9872    -9909    -9930    -9918    -9909 
   -9918    -9910    -9877    -9864    -9883    -9925    -9975   -10003 
   -9995    -9976    -9961    -9950    -9944    -9930    -9907    -9914 
   -9933    -9907    -9871    -9888    -9934    -9950    -9925    -9880 
   -9856    -9880    -9927    -9953    -9929    -9841    -9734    -9680 
   -9687    -9678    -9617    -9551    -9529    -9556    -9595    -9620 
   -9657    -9732    -9806    -9867    -9938    -9994    -9967    -9876 
   -9819    -9828    -9852    -9869    -9882    -9875    -9856    -9837 
   -9815    -9807    -9852    -9964   -10112   -10237   -10288   -10272 
  -10237   -10233   -10276   -10346   -10399   -10399   -10365   -10339 
  -10309   -10239   -10123   -10000    -9911    -9855    -9803    -9760 
   -9741    -9742    -9787    -9886    -9996   -10066   -10088   -10076 
  -10048   -10026   -10012    -9964    -9857    -9751    -9705    -9699 
   -9663    -9558    -9418    -9336    -9369    -9482    -9602    -9671 
   -9670    -9640    -9640    -9637    -9574    -9493    -9489    -9580 
   -9718    -9818    -9841    -9838    -9875    -9952   -10039   -10096 
  -10087   -10033    -9981    -9953    -9927    -9888    -9823    -9729 
   -9645    -9632    -9663    -9688    -9732    -9814    -9910   -10004 
  -10091   -10141   -10152   -10179   -10235   -10277   -10274   -10255 
  -10242   -10234   -10212   -10146   -10049    -9958    -9869    -9795 
   -9768    -9756    -9705    -9609    -9466    -9285    -9143    -9090 
   -9111    -9173    -9255    -9333    -9405    -9486    -9612    -9801 
   -9971   -10014    -9944    -9879    -9879    -9917    -9976   -10041 
  -10049    -9998    -9945    -9914    -9879    -9796    -9666    -9540 
   -9470    -9448    -9468    -9533    -9603    -9633    -9632    -9630 
   -9644    -9633    -9549    -9429    -9367    -9406    -9522    -9690 
   -9869   -10002   -10073   -10116   -10147   -10135   -10064    -9983 
   -9971   -10035   -10099   -10108   -10091   -10050    -9968    -9883 
   -9850    -9855    -9864    -9879    -9875    -9832    -9779    -9763 
   -9774    -9780    -9786    -9813    -9850    -9873    -9879    -9871 
   -9840    -9772    -9682    -9606    -9570    -9575    -9621    -9706 
   -9814    -9940   -10080   -10212   -10296   -10311   -10262   -10185 
  -10133   -10130   -10122   -10060    -9973    -9948    -9987   -10002 
   -9964    -9931    -9900    -9853    -9842    -9880    -9922    -9965 
   -9996    -9980    -9958    -9996   -10102   -10237   -10335   -10351 
  -10324   -10287   -10206   -10076    -9948    -9840    -9759    -9749 
   -9856   -10010   -10080   -10023    -9929    -9892    -9911    -9934 
   -9960   -10004   -10027    -9979    -9884    -9822    -9825    -9855 
   -9891    -9979   -10104   -10195   -10231   -10234   -10191   -10126 
  -10111   -10173   -10277   -10349   -10320   -10216   -10095    -9961 
   -9815    -9693    -9606    -9526    -9441    -9371    -9319    -9279 
   -9281    -9320    -9350    -9364    -9390    -9421    -9431    -9412 
   -9387    -9405    -9497    -9667    -9895   -10135   -10327   -10430 
  -10461   -10470   -10455   -10353   -10123    -9825    -9570    -9405 
   -9313    -9285    -9302    -9339    -9382    -9441    -9555    -9736 
   -9915    -9991    -9960    -9891    -9821    -9751    -9688    -9667 
   -9664    -9618    -9537    -9481    -9462    -9432    -9359    -9271 
   -9202    -9131    -9047    -8999    -8986    -8959    -8934    -8978 
   -9085    -9190    -9283    -9405    -9543    -9641    -9695    -9734 
   -9752    -9726    -9674    -9607    -9510    -9417    -9410    -9516 
   -9702    -9925   -10127   -10287   -10400   -10488   -10574   -10624 
  -10586   -10485   -10339   -10173   -10125   -10273   -10478   -10550 
  -10471   -10345   -10231   -10122   -10025   -10002   -10023    -9973 
   -9859    -9783    -9761    -9747    -9753    -9775    -9748    -9676 
   -9643    -9671    -9694    -9622    -9452    -9288    -9234    -9310 
   -9499    -9753    -9948   -10011   -10031   -10087   -10165   -10233 
  -10242   -10168   -10068   -10017   -10011   -10025   -10029    -9980 
   -9886    -9798    -9764    -9821    -9936   -10015   -10012    -9987 
  -10011   -10088   -10154   -10183   -10179   -10176   -10246   -10439 
  -10716   -11025   -11341   -11603   -11738   -11747   -11670   -11539 
  -11391   -11229   -11063   -10935   -10814   -10663   -10579   -10681 
  -10895   -11072   -11146   -11091   -10895   -10594   -10262    -9999 
   -9833    -9693    -9555    -9491    -9502    -9493    -9439    -9371 
   -9266    -9134    -9072    -9147    -9297    -9400    -9405    -9344 
   -9252    -9188    -9215    -9354    -9593    -9865   -10069   -10193 
  -10324   -10470   -10577   -10628   -10621   -10534   -10411   -10354 
  -10439   -10705   -11070   -11361   -11503   -11506   -11384   -11145 
  -10822   -10485   -10192    -9880    -9408    -8761    -8118    -7661 
   -7435    -7395    -7445    -7473    -7435    -7379    -7383    -7487 
   -7623    -7654    -7568    -7500    -7585    -7863    -8310    -8839 
   -9343    -9772   -10139   -10453   -10740   -11064   -11408   -11637 
  -11682   -11678   -11715   -11726   -11666   -11543   -11323   -10997 
  -10669   -10488   -10509   -10666   -10827   -10886   -10818   -10650 
  -10450   -10270   -10062    -9780    -9502    -9306    -9171    -9072 
   -9040    -9094    -9196    -9315    -9482    -9718    -9977   -10220 
  -10440   -10609   -10693   -10694   -10601   -10396   -10123    -9852 
   -9601    -9374    -9173    -8980    -8811    -8704    -8676    -8694 
   -8702    -8695    -8692    -8661    -8567    -8448    -8348    -8251 
   -8090    -7851    -7581    -7362    -7245    -7214    -7219    -7268 
   -7404    -7623    -7929    -8332    -8730    -9020    -9232    -9390 
   -9445    -9404    -9354    -9386    -9544    -9856   -10308   -10831 
  -11361   -11885   -12361   -12692   -12769   -12615   -12376   -12162 
  -12039   -12040   -12098   -12101   -12019   -11888   -11704   -11419 
  -11022   -10569   -10133    -9768    -9524    -9417    -9379    -9319 
   -9193    -8981    -8664    -8272    -7905    -7663    -7576    -7597 
   -7722    -7973    -8295    -8656    -9097    -9621   -10169   -10675 
  -11063   -11303   -11442   -11557   -11731   -11992   -12306   -12637 
  -12957   -13240   -13448   -13571   -13625   -13576   -13402   -13166 
  -12945   -12727   -12411   -11936   -11354   -10758   -10220    -9788 
   -9467    -9246    -9081    -8928    -8754    -8553    -8425    -8434 
   -8505    -8549    -8548    -8488    -8374    -8263    -8222    -8235 
   -8228    -8175    -8127    -8162    -8307    -8507    -8688    -8793 
   -8814    -8799    -8819    -8919    -9101    -9324    -9551    -9757 
   -9937   -10114   -10255   -10268   -10157   -10017    -9845    -9607 
   -9378    -9223    -9047    -8737    -8318    -7888    -7501    -7186 
   -6955    -6795    -6685    -6667    -6804    -7079    -7419    -7746 
   -8029    -8301    -8595    -8954    -9410    -9887   -10285   -10596 
  -10849   -11067   -11232   -11325   -11388   -11488   -11614   -11692 
  -11688   -11650   -11665   -11727   -11743   -11651   -11431   -11109 
  -10801   -10616   -10536   -10507   -10527   -10600   -10700   -10795 
  -10813   -10677   -10435   -10224   -10110   -10077   -10099   -10102 
  -10022    -9869    -9688    -9552    -9526    -9599    -9738    -9925 
  -10112   -10273   -10419   -10551   -10636   -10667   -10677   -10708 
  -10793   -10914   -11005   -11020   -10968   -10864   -10705   -10436 
  -10049    -9605    -9143    -8700    -8359    -8174    -8125    -8125 
   -8102    -8121    -8255    -8456    -8652    -8841    -9027    -9225 
   -9483    -9819   -10204   -10588   -10882   -11044   -11083   -11033 
  -10975   -10959   -10932   -10854   -10713   -10501   -10253   -10011 
   -9802    -9695    -9730    -9811    -9796    -9630    -9405    -9285 
   -9308    -9389    -9443    -9467    -9522    -9614    -9703    -9830 
  -10022   -10185   -10247   -10246   -10233   -10211   -10162   -10104 
  -10056   -10049   -10181   -10508   -10943   -11325   -11526   -11527 
  -11400   -11211   -11003   -10790   -10563   -10357   -10179    -9936 
   -9629    -9413    -9344    -9332    -9312    -9259    -9158    -9046 
   -8976    -8938    -8900    -8873    -8872    -8915    -9055    -9274 
   -9424    -9406    -9329    -9315    -9321    -9289    -9232    -9150 
   -9067    -9077    -9216    -9400    -9483    -9387    -9177    -8984 
   -8892    -8920    -8996    -9038    -9082    -9227    -9494    -9819 
  -10146   -10444   -10647   -10679   -10588   -10503   -10508   -10635 
  -10891   -11213   -11480   -11603   -11534   -11313   -11034   -10763 
  -10531   -10350   -10165    -9911    -9602    -9348    -9259    -9358 
   -9591    -9880   -10137   -10318   -10469   -10663   -10893   -11087 
  -11223   -11326   -11367   -11304   -11187   -11061   -10906   -10673 
  -10328    -9880    -9418    -9054    -8831    -8730    -8683    -8641 
   -8618    -8677    -8878    -9205    -9572    -9890   -10120   -10301 
  -10471   -10650   -10816   -10913   -10909   -10828   -10690   -10546 
  -10477   -10507   -10608   -10737   -10805   -10736   -10513   -10156 
   -9709    -9242    -8816    -8472    -8224    -8064    -8000    -8041 
   -8158    -8263    -8295    -8302    -8405    -8654    -8996    -9348 
   -9655    -9887   -10012    -9987    -9819    -9583    -9351    -9161 
   -9019    -8901    -8758    -8606    -8509    -8506    -8580    -8661 
   -8669    -8596    -8514    -8476    -8498    -8592    -8772    -9028 
   -9342    -9690   -10088   -10544   -10991   -11345   -11591   -11766 
  -11884   -11934   -11934   -11896   -11794   -11591   -11241   -10794 
  -10397   -10146   -10035   -10023   -10023    -9973    -9919    -9977 
  -10166   -10351   -10385   -10285   -10193   -10168   -10154   -10142 
  -10131   -10041    -9802    -9436    -8996    -8538    -8112    -7735 
   -7415    -7165    -7001    -6959    -7051    -7211    -7396    -7616 
   -7896    -8248    -8654    -9049    -9377    -9633    -9809    -9903 
   -9967   -10025   -10053   -10057   -10034    -9965    -9938   -10089 
  -10436   -10917   -11496   -12113   -12691   -13178   -13522   -13672 
  -13653   -13535   -13356   -13111   -12756   -12286   -11782   -11317 
  -10901   -10552   -10289   -10106    -9965    -9803    -9597    -9400 
   -9248    -9169    -9212    -9374    -9591    -9822   -10052   -10264 
  -10434   -10532   -10570   -10613   -10693   -10758   -10752   -10666 
  -10532   -10397   -10266   -10115    -9948    -9788    -9666    -9609 
   -9626    -9684    -9775    -9903    -9987    -9934    -9771    -9576 
   -9378    -9180    -9011    -8869    -8750    -8669    -8592    -8488 
   -8395    -8365    -8422    -8526    -8607    -8669    -8769    -8891 
   -8961    -8954    -8904    -8823    -8685    -8526    -8424    -8384 
   -8345    -8316    -8374    -8559    -8815    -9040    -9177    -9251 
   -9335    -9471    -9624    -9713    -9675    -9521    -9305    -9104 
   -9009    -9053    -9155    -9219    -9248    -9339    -9552    -9838 
  -10106   -10322   -10504   -10674   -10859   -11092   -11340   -11485 
  -11477   -11380   -11291   -11245   -11214   -11200   -11232   -11313 
  -11427   -11511   -11488   -11377   -11252   -11119   -10959   -10781 
  -10615   -10469   -10339   -10216   -10069    -9842    -9532    -9225 
   -8993    -8843    -8783    -8850    -9009    -9148    -9223    -9263 
   -9275    -9271    -9301    -9331    -9309    -9286    -9301    -9300 
   -9239    -9115    -8961    -8845    -8812    -8841    -8900    -8978 
   -9067    -9173    -9321    -9501    -9674    -9837   -10004   -10160 
  -10293   -10443   -10601   -10679   -10647   -10561   -10431   -10241 
  -10012    -9795    -9659    -9603    -9517    -9308    -8969    -8552 
   -8181    -7998    -8023    -8151    -8299    -8484    -8756    -9113 
   -9505    -9880   -10215   -10503   -10755   -10999   -11236   -11394 
  -11391   -11209   -10921   -10615   -10318   -10069    -9892    -9767 
   -9710    -9755    -9855    -9980   -10168   -10407   -10642   -10856 
  -11064   -11265   -11458   -11645   -11831   -12001   -12089   -12047 
  -11920   -11777   -11628   -11507   -11462   -11441   -11333   -11129 
  -10917   -10727   -10507   -10239    -9963    -9715    -9517    -9393 
   -9362    -9391    -9451    -9544    -9670    -9828   -10031   -10260 
  -10457   -10605   -10712   -10766   -10782   -10787   -10789   -10741 
  -10600   -10389   -10123    -9787    -9448    -9208    -9065    -8978 
   -8961    -9015    -9080    -9093    -9040    -8935    -8793    -8623 
   -8436    -8248    -8075    -7935    -7850    -7811    -7782    -7757 
   -7766    -7844    -7992    -8183    -8402    -8646    -8901    -9153 
   -9375    -9487    -9424    -9231    -8999    -8754    -8509    -8294 
   -8133    -8028    -7989    -8059    -8268    -8604    -9077    -9667 
  -10251   -10705   -10990   -11169   -11333   -11470   -11530   -11512 
  -11476   -11493   -11584   -11709   -11809   -11830   -11770   -11707 
  -11734   -11873   -12056   -12181   -12181   -12082   -11944   -11772 
  -11530   -11227   -10897   -10535   -10160    -9822    -9533    -9301 
   -9162    -9116    -9159    -9216    -9201    -9223    -9352    -9417 
   -9343    -9246    -9121    -8930    -8733    -8534    -8295    -8081 
   -7963    -7939    -8000    -8141    -8316    -8482    -8650    -8837 
   -9032    -9229    -9440    -9640    -9796    -9953   -10165   -10408 
  -10623   -10789   -10952   -11168   -11395   -11577   -11728   -11840 
  -11878   -11819   -11657   -11419   -11098   -10678   -10269   -10012 
   -9925    -9983   -10119   -10200   -10195   -10168   -10095    -9961 
   -9799    -9548    -9165    -8773    -8476    -8243    -8062    -7982 
   -8041    -8221    -8467    -8739    -9001    -9193    -9302    -9375 
   -9456    -9585    -9782   -10007   -10214   -10393   -10558   -10717 
  -10837   -10887   -10899   -10882   -10785   -10611   -10390   -10168 
   -9987    -9845    -9751    -9733    -9751    -9757    -9806    -9919 
  -10017   -10044   -10042   -10031    -9980    -9868    -9732    -9597 
   -9429    -9217    -9035    -8969    -9003    -9059    -9097    -9154 
   -9273    -9443    -9629    -9806    -9950   -10068   -10180   -10277 
  -10359   -10453   -10558   -10651   -10719   -10766   -10783   -10735 
  -10627   -10509   -10385   -10226   -10008    -9714    -9359    -8995 
   -8654    -8360    -8122    -7939    -7825    -7811    -7905    -8085 
   -8340    -8656    -8992    -9332    -9679    -9995   -10230   -10380 
  -10469   -10519   -10552   -10561   -10515   -10424   -10322   -10216 
  -10123   -10080   -10085   -10103   -10099   -10060   -10003    -9956 
   -9919    -9895    -9909    -9975   -10069   -10153   -10216   -10251 
  -10239   -10156   -10018    -9907    -9880    -9907    -9948   -10027 
  -10152   -10296   -10435   -10558   -10652   -10719   -10736   -10673 
  -10531   -10377   -10276   -10212   -10133    -9991    -9764    -9493 
   -9269    -9138    -9086    -9097    -9155    -9209    -9229    -9259 
   -9350    -9478    -9595    -9674    -9698    -9684    -9679    -9679 
   -9643    -9537    -9373    -9192    -9030    -8901    -8854    -8922 
   -9066    -9231    -9391    -9543    -9680    -9826   -10011   -10268 
  -10594   -10943   -11256   -11492   -11615   -11647   -11657   -11637 
  -11530   -11356   -11176   -10999   -10837   -10739   -10741   -10821 
  -10891   -10885   -10822   -10771   -10735   -10681   -10593   -10462 
  -10289   -10100    -9923    -9776    -9640    -9456    -9219    -8989 
   -8816    -8704    -8653    -8652    -8660    -8652    -8644    -8652 
   -8671    -8695    -8716    -8743    -8810    -8920    -9040    -9161 
   -9316    -9514    -9724    -9906   -10026   -10061   -10030    -9968 
   -9882    -9767    -9652    -9590    -9586    -9612    -9648    -9703 
   -9786    -9915   -10108   -10316   -10443   -10471   -10461   -10423 
  -10326   -10187   -10053    -9945    -9871    -9834    -9811    -9779 
