Origin Time       2026/01/15 07:13:00
Lat.              42.7
Long.             145.4
Depth. (km)       30
Mag.              5.7
Station Code      HKD059
Station Lat.      43.8574
Station Long.     144.4609
Station Height(m) 23
Record Time       2026/01/15 07:13:55
Sampling Freq(Hz) 100Hz
Duration Time(s)  73
Dir.              U-D
Scale Factor      7845(gal)/8223790
Max. Acc. (gal)   1.248
Last Correction   2026/01/15 07:13:56
Memo.             
[...]
  -12231   -12247   -12197   -12120   -12108   -12198   -12329   -12437 
  -12505   -12499   -12372   -12168   -12016   -12000   -12085   -12198 
  -12290   -12351   -12432   -12571   -12749   -12901   -12941   -12847 
  -12695   -12530   -12382   -12316   -12357   -12436   -12451   -12406 
  -12355   -12287   -12225   -12209   -12210   -12162   -12021   -11853 
  -11778   -11844   -11982   -12086   -12102   -12078   -12114   -12266 
  -12471   -12650   -12756   -12731   -12582   -12393   -12221   -12089 
  -12005   -11924   -11799   -11699   -11722   -11828   -11917   -11951 
  -11934   -11916   -11951   -12017   -12079   -12139   -12208   -12302 
  -12411   -12510   -12577   -12610   -12617   -12575   -12486   -12383 
  -12290   -12228   -12172   -12087   -11996   -11943   -11905   -11838 
  -11763   -11755   -11817   -11928   -12093   -12287   -12432   -12460 
  -12407   -12378   -12398   -12405   -12344   -12240   -12179   -12206 
  -12280   -12348   -12353   -12291   -12239   -12260   -12324   -12343 
  -12290   -12232   -12231   -12255   -12226   -12133   -12071   -12129 
  -12264   -12349   -12341   -12330   -12337   -12322   -12290   -12241 
  -12185   -12186   -12270   -12340   -12298   -12216   -12221   -12321 
  -12488   -12669   -12761   -12723   -12623   -12568   -12569   -12568 
  -12537   -12487   -12420   -12328   -12194   -12058   -11961   -11908 
  -11921   -12005   -12098   -12135   -12104   -12073   -12125   -12249 
  -12341   -12306   -12170   -12037   -11977   -11990   -12029   -12035 
  -11969   -11859   -11785   -11784   -11836   -11904   -11936   -11923 
  -11897   -11909   -12017   -12199   -12366   -12424   -12337   -12154 
  -11974   -11878   -11898   -12008   -12136   -12172   -12056   -11909 
  -11889   -12004   -12137   -12186   -12151   -12109   -12136   -12264 
  -12447   -12594   -12645   -12604   -12538   -12472   -12402   -12370 
  -12382   -12375   -12301   -12179   -12075   -12015   -12002   -12059 
  -12168   -12232   -12178   -12071   -12051   -12155   -12305   -12388 
  -12387   -12390   -12479   -12636   -12744   -12702   -12536   -12336 
  -12185   -12145   -12181   -12185   -12129   -12060   -12013   -11943 
  -11830   -11773   -11853   -12032   -12204   -12270   -12249   -12247 
  -12328   -12457   -12548   -12559   -12511   -12447   -12374   -12256 
  -12127   -12067   -12047   -11982   -11878   -11804   -11797   -11861 
  -11978   -12091   -12147   -12160   -12150   -12098   -12006   -11921 
  -11913   -11998   -12129   -12268   -12376   -12425   -12383   -12286 
  -12213   -12127   -11952   -11765   -11689   -11738   -11834   -11920 
  -11996   -12066   -12154   -12287   -12432   -12526   -12560   -12567 
  -12569   -12564   -12553   -12552   -12556   -12546   -12515   -12464 
  -12378   -12229   -12069   -11993   -12005   -12044   -12105   -12202 
  -12305   -12375   -12398   -12380   -12386   -12469   -12569   -12561 
  -12405   -12191   -12046   -12028   -12166   -12390   -12532   -12542 
  -12476   -12352   -12210   -12131   -12162   -12263   -12332   -12334 
  -12294   -12233   -12217   -12290   -12407   -12499   -12529   -12513 
  -12474   -12433   -12401   -12349   -12276   -12186   -12064   -11939 
  -11847   -11797   -11808   -11874   -11935   -11943   -11932   -11975 
  -12075   -12172   -12226   -12293   -12438   -12592   -12630   -12571 
  -12538   -12577   -12557   -12359   -12032   -11711   -11483   -11381 
  -11406   -11523   -11672   -11816   -11958   -12105   -12282   -12482 
  -12642   -12702   -12644   -12519   -12371   -12202   -12029   -11881 
  -11774   -11718   -11716   -11789   -11913   -12009   -12064   -12152 
  -12324   -12518   -12629   -12640   -12610   -12576   -12544   -12519 
  -12510   -12484   -12410   -12313   -12205   -12100   -12056   -12075 
  -12096   -12098   -12125   -12166   -12151   -12070   -11970   -11898 
  -11909   -12009   -12136   -12235   -12297   -12357   -12449   -12564 
  -12661   -12671   -12544   -12324   -12120   -12006   -11966   -11958 
  -11982   -12048   -12150   -12252   -12363   -12517   -12645   -12617 
  -12411   -12136   -11935   -11875   -11925   -11990   -11952   -11801 
  -11646   -11611   -11738   -11962   -12174   -12298   -12289   -12187 
  -12118   -12194   -12380   -12480   -12399   -12259   -12190   -12208 
  -12232   -12179   -12060   -11959   -11932   -11969   -12063   -12233 
  -12398   -12426   -12309   -12150   -12044   -12006   -12039   -12152 
  -12275   -12299   -12204   -12063   -12002   -12093   -12274   -12395 
  -12368   -12231   -12054   -11878   -11727   -11615   -11570   -11638 
  -11788   -11939   -12058   -12163   -12267   -12347   -12401   -12417 
  -12372   -12291   -12199   -12129   -12131   -12191   -12221   -12160 
  -12059   -11983   -11924   -11881   -11870   -11897   -11958   -12015 
  -12063   -12163   -12325   -12509   -12649   -12650   -12472   -12212 
  -12067   -12160   -12406   -12626   -12708   -12638   -12476   -12286 
  -12137   -12060   -11993   -11851   -11649   -11534   -11599   -11743 
  -11859   -11943   -12036   -12183   -12375   -12538   -12584   -12494 
  -12329   -12147   -11977   -11870   -11870   -12020   -12260   -12417 
  -12394   -12274   -12191   -12213   -12317   -12448   -12511   -12424 
  -12233   -12117   -12183   -12341   -12457   -12515   -12523   -12475 
  -12417   -12393   -12403   -12471   -12645   -12924   -13169   -13123 
  -12649   -11940   -11402   -11263   -11435   -11693   -11882   -11989 
  -12075   -12210   -12447   -12777   -13135   -13362   -13242   -12733 
  -12090   -11657   -11604   -11823   -12104   -12329   -12490   -12588 
  -12580   -12418   -12158   -11938   -11897   -12056   -12302   -12533 
  -12683   -12664   -12417   -12037   -11749   -11692   -11785   -11863 
  -11865   -11824   -11858   -12082   -12455   -12787   -12977   -13020 
  -12858   -12461   -11939   -11491   -11288   -11371   -11645   -12008 
  -12407   -12825   -13173   -13317   -13220   -12970   -12717   -12582 
  -12580   -12584   -12429   -12123   -11853   -11782   -11979   -12384 
  -12753   -12834   -12617   -12283   -12006   -11859   -11846   -11932 
  -12044   -12109   -12081   -11975   -11898   -11948   -12085   -12160 
  -12075   -11881   -11745   -11809   -12015   -12177   -12235   -12283 
  -12352   -12367   -12278   -12137   -12035   -12009   -12027   -12054 
  -12083   -12120   -12199   -12324   -12433   -12510   -12555   -12480 
  -12231   -11886   -11591   -11450   -11497   -11688   -11925   -12132 
  -12302   -12480   -12719   -12980   -13081   -12896   -12501   -12083 
  -11823   -11821   -12040   -12286   -12386   -12378   -12375   -12428 
  -12484   -12456   -12355   -12258   -12197   -12156   -12055   -11866 
  -11727   -11747   -11807   -11755   -11684   -11780   -12012   -12216 
  -12306   -12287   -12166   -11998   -11934   -12042   -12156   -12078 
  -11817   -11541   -11391   -11449   -11726   -12081   -12347   -12538 
  -12737   -12910   -12981   -12954   -12856   -12657   -12340   -11981 
  -11726   -11655   -11703   -11755   -11809   -11905   -12043   -12232 
  -12486   -12742   -12880   -12826   -12630   -12444   -12411   -12529 
  -12621   -12548   -12374   -12272   -12322   -12421   -12456   -12430 
  -12393   -12382   -12406   -12383   -12224   -11981   -11772   -11595 
  -11376   -11140   -11014   -11109   -11425   -11835   -12168   -12316 
  -12309   -12280   -12344   -12529   -12680   -12549   -12116   -11611 
  -11271   -11214   -11398   -11678   -11947   -12147   -12233   -12187 
  -12064   -11981   -12010   -12102   -12145   -12156   -12274   -12519 
  -12748   -12861   -12903   -12918   -12883   -12802   -12704   -12567 
  -12343   -12058   -11846   -11824   -11992   -12259   -12482   -12540 
  -12457   -12337   -12290   -12384   -12540   -12565   -12374   -12042 
  -11739   -11626   -11793   -12135   -12372   -12363   -12199   -12008 
  -11828   -11705   -11749   -11985   -12271   -12433   -12388   -12199 
  -12037   -12048   -12241   -12498   -12699   -12814   -12853   -12822 
  -12703   -12529   -12459   -12595   -12888   -13178   -13248   -13047 
  -12733   -12441   -12198   -11966   -11716   -11489   -11369   -11383 
  -11460   -11568   -11799   -12189   -12600   -12843   -12823   -12555 
  -12128   -11708   -11449   -11381   -11480   -11740   -12117   -12465 
  -12640   -12656   -12654   -12719   -12807   -12830   -12792   -12734 
  -12657   -12590   -12571   -12534   -12379   -12113   -11854   -11700 
  -11659   -11651   -11607   -11574   -11658   -11834   -11950   -11892 
  -11696   -11524   -11458   -11476   -11576   -11763   -12032   -12367 
  -12695   -12868   -12792   -12533   -12229   -11982   -11839   -11812 
  -11929   -12222   -12671   -13162   -13463   -13373   -12957   -12480 
  -12125   -11886   -11755   -11757   -11813   -11873   -11952   -12015 
  -12012   -11921   -11776   -11668   -11626   -11624   -11654   -11686 
  -11769   -12010   -12383   -12706   -12799   -12661   -12465   -12390 
  -12479   -12613   -12656   -12563   -12348   -12109   -11947   -11847 
  -11751   -11678   -11688   -11790   -11886   -11898   -11888   -11956 
  -12140   -12378   -12590   -12742   -12807   -12754   -12623   -12499 
  -12379   -12260   -12243   -12344   -12433   -12413   -12249   -11958 
  -11626   -11406   -11426   -11680   -12015   -12267   -12411   -12498 
  -12537   -12576   -12723   -12942   -13053   -12953   -12669   -12287 
  -11911   -11642   -11524   -11493   -11473   -11441   -11379   -11310 
  -11321   -11477   -11766   -12100   -12413   -12710   -12999   -13207 
  -13180   -12818   -12205   -11611   -11295   -11298   -11485   -11709 
  -11880   -11986   -12097   -12259   -12421   -12509   -12546   -12611 
  -12673   -12630   -12472   -12299   -12220   -12282   -12488   -12776 
  -13008   -13113   -13147   -13181   -13155   -12961   -12617   -12235 
  -11932   -11773   -11692   -11587   -11458   -11391   -11443   -11596 
  -11805   -12010   -12116   -12127   -12152   -12247   -12382   -12503 
  -12556   -12480   -12262   -12036   -11954   -12032   -12218   -12441 
  -12622   -12714   -12721   -12688   -12652   -12573   -12405   -12141 
  -11885   -11757   -11761   -11871   -12063   -12272   -12451   -12583 
  -12648   -12644   -12613   -12598   -12561   -12405   -12102   -11728 
  -11412   -11261   -11281   -11404   -11546   -11670   -11805   -11997 
  -12271   -12611   -12943   -13157   -13166   -12981   -12737   -12588 
  -12563   -12541   -12420   -12214   -12009   -11866   -11801   -11778 
  -11766   -11781   -11854   -11992   -12135   -12208   -12201   -12123 
  -12002   -11929   -11948   -12017   -12089   -12170   -12297   -12444 
  -12536   -12556   -12563   -12598   -12636   -12614   -12499   -12301 
  -12098   -12035   -12172   -12453   -12769   -12980   -13031   -13007 
  -12968   -12889   -12717   -12424   -12069   -11772   -11591   -11500 
  -11453   -11438   -11443   -11465   -11519   -11573   -11565   -11520 
  -11518   -11595   -11735   -11882   -11982   -12031   -12032   -11966 
  -11839   -11724   -11740   -11938   -12264   -12656   -13019   -13247 
  -13296   -13169   -12901   -12618   -12414   -12251   -12069   -11892 
  -11772   -11699   -11627   -11569   -11595   -11734   -11946   -12143 
  -12276   -12357   -12434   -12553   -12695   -12800   -12841   -12811 
  -12707   -12546   -12382   -12264   -12206   -12195   -12218   -12208 
  -12071   -11807   -11530   -11383   -11415   -11605   -11924   -12274 
  -12529   -12667   -12729   -12746   -12735   -12718   -12725   -12729 
  -12660   -12506   -12321   -12147   -11982   -11799   -11631   -11531 
  -11499   -11511   -11539   -11569   -11655   -11890   -12271   -12641 
  -12820   -12785   -12650   -12496   -12361   -12270   -12189   -12056 
  -11894   -11796   -11805   -11877   -11938   -11921   -11803   -11672 
  -11646   -11738   -11900   -12114   -12360   -12573   -12690   -12703 
  -12687   -12731   -12847   -12961   -12993   -12910   -12695   -12368 
  -12037   -11816   -11699   -11615   -11530   -11458   -11422   -11437 
  -11531   -11703   -11890   -12059   -12205   -12290   -12280   -12245 
  -12275   -12372   -12469   -12491   -12393   -12240   -12155   -12170 
  -12222   -12260   -12293   -12355   -12442   -12530   -12615   -12680 
  -12707   -12721   -12727   -12721   -12683   -12598   -12519   -12486 
  -12440   -12364   -12302   -12266   -12256   -12245   -12186   -12083 
  -11955   -11836   -11777   -11750   -11704   -11638   -11591   -11610 
  -11689   -11797   -11950   -12159   -12387   -12600   -12789   -12950 
  -13053   -13088   -13078   -13024   -12877   -12621   -12272   -11884 
  -11523   -11267   -11157   -11165   -11238   -11367   -11526   -11678 
  -11851   -12064   -12278   -12456   -12591   -12675   -12712   -12727 
  -12741   -12785   -12928   -13178   -13367   -13343   -13131   -12835 
  -12556   -12337   -12135   -11920   -11715   -11539   -11408   -11330 
  -11321   -11361   -11404   -11445   -11496   -11560   -11632   -11707 
  -11766   -11823   -11911   -12044   -12202   -12360   -12523   -12696 
  -12873   -13034   -13132   -13123   -12989   -12768   -12542   -12387 
  -12321   -12321   -12341   -12334   -12291   -12235   -12206   -12213 
  -12204   -12151   -12043   -11878   -11704   -11570   -11491   -11488 
  -11584   -11746   -11917   -12064   -12195   -12336   -12492   -12653 
  -12773   -12781   -12640   -12378   -12101   -11951   -11973   -12108 
  -12267   -12402   -12505   -12583   -12646   -12699   -12727   -12719 
  -12661   -12538   -12347   -12118   -11888   -11657   -11412   -11178 
  -10997   -10894   -10898   -11041   -11304   -11623   -11950   -12255 
  -12542   -12816   -13055   -13247   -13358   -13328   -13159   -12922 
  -12680   -12436   -12145   -11799   -11466   -11276   -11304   -11522 
  -11828   -12109   -12299   -12405   -12461   -12511   -12584   -12660 
  -12715   -12753   -12762   -12715   -12588   -12364   -12056   -11757 
  -11558   -11477   -11484   -11566   -11693   -11820   -11905   -11938 
  -11954   -12008   -12118   -12256   -12397   -12533   -12654   -12769 
  -12906   -13039   -13082   -12978   -12779   -12561   -12360   -12186 
  -12048   -11942   -11862   -11803   -11772   -11778   -11816   -11873 
  -11936   -12005   -12096   -12208   -12318   -12384   -12390   -12333 
  -12248   -12199   -12206   -12245   -12278   -12263   -12187   -12086 
  -12042   -12096   -12214   -12318   -12333   -12248   -12132   -12046 
  -12002   -12036   -12154   -12326   -12503   -12630   -12676   -12653 
  -12587   -12510   -12428   -12326   -12210   -12079   -11908   -11696 
  -11511   -11441   -11515   -11692   -11908   -12102   -12231   -12280 
  -12295   -12339   -12414   -12455   -12418   -12330   -12240   -12185 
  -12171   -12190   -12220   -12235   -12229   -12224   -12212   -12199 
  -12253   -12387   -12502   -12525   -12498   -12484   -12486   -12474 
  -12436   -12372   -12271   -12152   -12069   -12058   -12097   -12124 
  -12101   -12040   -11978   -11952   -11961   -11966   -11989   -12054 
  -12131   -12178   -12216   -12294   -12414   -12522   -12577   -12563 
  -12475   -12341   -12194   -12051   -11912   -11811   -11774   -11772 
  -11765   -11736   -11673   -11585   -11508   -11475   -11479   -11485 
  -11483   -11506   -11600   -11788   -12029   -12276   -12523   -12734 
  -12849   -12854   -12780   -12685   -12627   -12599   -12594   -12613 
  -12622   -12613   -12621   -12665   -12738   -12806   -12804   -12699 
  -12510   -12286   -12069   -11866   -11688   -11578   -11554   -11572 
  -11566   -11503   -11418   -11395   -11458   -11583   -11736   -11907 
  -12078   -12225   -12351   -12474   -12613   -12780   -12954   -13092 
  -13153   -13159   -13184   -13238   -13273   -13277   -13238   -13123 
  -12918   -12634   -12302   -11966   -11655   -11391   -11205   -11107 
  -11119   -11248   -11464   -11715   -11948   -12139   -12287   -12397 
  -12482   -12565   -12629   -12646   -12613   -12540   -12452   -12367 
  -12271   -12159   -12048   -11956   -11880   -11801   -11745   -11758 
  -11844   -11977   -12129   -12283   -12432   -12594   -12771   -12924 
  -13012   -13046   -13041   -12999   -12926   -12803   -12603   -12341 
  -12063   -11813   -11601   -11423   -11299   -11244   -11249   -11313 
  -11423   -11569   -11739   -11894   -12013   -12094   -12116   -12091 
  -12075   -12087   -12120   -12166   -12214   -12243   -12241   -12243 
  -12276   -12320   -12360   -12411   -12455   -12469   -12464   -12451 
  -12451   -12459   -12448   -12397   -12313   -12226   -12148   -12060 
  -11969   -11878   -11799   -11749   -11726   -11747   -11835   -11938 
  -12004   -12040   -12081   -12155   -12233   -12275   -12298   -12355 
  -12490   -12694   -12906   -13073   -13181   -13203   -13139   -13022 
  -12865   -12700   -12572   -12483   -12406   -12317   -12216   -12113 
  -12036   -12009   -12035   -12079   -12086   -12033   -11952   -11875 
  -11789   -11703   -11664   -11699   -11788   -11878   -11931   -11966 
  -12017   -12089   -12158   -12183   -12167   -12133   -12083   -12039 
  -12031   -12070   -12155   -12260   -12352   -12428   -12471   -12471 
  -12426   -12344   -12249   -12175   -12135   -12100   -12036   -11956 
  -11885   -11820   -11780   -11796   -11871   -12001   -12154   -12290 
  -12391   -12430   -12411   -12382   -12393   -12463   -12549   -12580 
  -12564   -12552   -12591   -12681   -12760   -12773   -12718   -12617 
  -12496   -12376   -12258   -12148   -12042   -11951   -11913   -11904 
  -11869   -11820   -11813   -11858   -11924   -11956   -11942   -11928 
  -11962   -12047   -12147   -12225   -12309   -12424   -12528   -12567 
  -12550   -12513   -12460   -12394   -12328   -12262   -12182   -12081 
  -11966   -11870   -11826   -11828   -11871   -11938   -12005   -12090 
  -12197   -12282   -12316   -12293   -12248   -12209   -12178   -12168 
  -12198   -12263   -12368   -12478   -12552   -12609   -12657   -12657 
  -12607   -12545   -12510   -12490   -12430   -12324   -12197   -12064 
  -11948   -11870   -11824   -11824   -11874   -11969   -12109   -12282 
  -12453   -12576   -12583   -12459   -12264   -12077   -11938   -11842 
  -11793   -11816   -11923   -12097   -12264   -12360   -12397   -12386 
  -12309   -12175   -12040   -11948   -11904   -11911   -11965   -12027 
  -12040   -11988   -11920   -11889   -11884   -11857   -11807   -11767 
  -11757   -11767   -11803   -11877   -12002   -12154   -12280   -12351 
  -12372   -12376   -12376   -12374   -12371   -12361   -12348   -12343 
  -12333   -12341   -12387   -12433   -12453   -12432   -12374   -12321 
  -12285   -12271   -12307   -12375   -12432   -12457   -12448   -12426 
  -12414   -12406   -12394   -12371   -12318   -12239   -12154   -12079 
  -12031   -12023   -12051   -12089   -12123   -12168   -12251   -12360 
  -12459   -12528   -12567   -12576   -12542   -12479   -12411   -12370 
  -12376   -12414   -12447   -12456   -12413   -12312   -12168   -12000 
  -11843   -11722   -11614   -11518   -11435   -11369   -11341   -11356 
  -11414   -11526   -11684   -11854   -12005   -12135   -12278   -12449 
  -12606   -12715   -12766   -12768   -12735   -12688   -12660   -12691 
  -12737   -12741   -12715   -12676   -12637   -12618   -12594   -12526 
  -12429   -12316   -12191   -12075   -11970   -11858   -11728   -11574 
  -11407   -11279   -11226   -11246   -11326   -11460   -11618   -11769 
  -11892   -11992   -12094   -12213   -12334   -12421   -12437   -12411 
