Origin Time       2026/01/15 07:13:00
Lat.              42.7
Long.             145.4
Depth. (km)       30
Mag.              5.7
Station Code      HKD097
Station Lat.      42.6181
Station Long.     143.4210
Station Height(m) 33
Record Time       2026/01/15 07:13:44
Sampling Freq(Hz) 100Hz
Duration Time(s)  94
Dir.              N-S
Scale Factor      7845(gal)/8223790
Max. Acc. (gal)   9.201
Last Correction   2026/01/15 07:13:28
Memo.             
[...]
  -13887   -13867   -13855   -13882   -13956   -14045   -14115   -14166 
  -14196   -14197   -14154   -14065   -13948   -13830   -13732   -13660 
  -13636   -13684   -13817   -14008   -14193   -14311   -14350   -14343 
  -14337   -14368   -14462   -14596   -14698   -14709   -14619   -14467 
  -14303   -14142   -14004   -13907   -13851   -13815   -13778   -13722 
  -13660   -13609   -13571   -13555   -13585   -13671   -13803   -13963 
  -14127   -14251   -14310   -14315   -14289   -14264   -14254   -14253 
  -14247   -14256   -14299   -14374   -14431   -14413   -14312   -14138 
  -13915   -13690   -13517   -13441   -13481   -13610   -13788   -13976 
  -14127   -14210   -14231   -14234   -14272   -14368   -14499   -14624 
  -14710   -14719   -14623   -14427   -14179   -13950   -13802   -13759 
  -13794   -13841   -13860   -13863   -13864   -13886   -13948   -14060 
  -14234   -14453   -14667   -14820   -14855   -14737   -14484   -14153 
  -13829   -13570   -13397   -13316   -13329   -13448   -13659   -13906 
  -14114   -14238   -14262   -14191   -14049   -13875   -13711   -13602 
  -13574   -13636   -13795   -14033   -14276   -14455   -14539   -14513 
  -14397   -14257   -14138   -14038   -13959   -13907   -13868   -13841 
  -13833   -13834   -13860   -13940   -14095   -14314   -14538   -14685 
  -14706   -14589   -14362   -14098   -13863   -13722   -13720   -13817 
  -13949   -14095   -14226   -14320   -14377   -14384   -14334   -14241 
  -14108   -13961   -13845   -13786   -13783   -13844   -13950   -14077 
  -14218   -14358   -14458   -14496   -14457   -14328   -14158   -14017 
  -13911   -13807   -13703   -13636   -13624   -13670   -13776   -13880 
  -13933   -13983   -14048   -14108   -14153   -14146   -14068   -13968 
  -13898   -13873   -13883   -13886   -13865   -13863   -13933   -14071 
  -14231   -14368   -14445   -14457   -14427   -14350   -14208   -14019 
  -13811   -13625   -13514   -13502   -13578   -13720   -13903   -14118 
  -14374   -14652   -14887   -15009   -14980   -14818   -14584   -14339 
  -14110   -13914   -13759   -13639   -13587   -13645   -13822   -14100 
  -14405   -14635   -14739   -14705   -14528   -14266   -13988   -13728 
  -13543   -13470   -13464   -13502   -13576   -13656   -13744   -13863 
  -14004   -14152   -14277   -14334   -14297   -14187   -14026   -13863 
  -13779   -13821   -13946   -14108   -14273   -14389   -14461   -14509 
  -14538   -14569   -14609   -14600   -14505   -14332   -14099   -13860 
  -13656   -13485   -13366   -13348   -13439   -13628   -13895   -14158 
  -14343   -14440   -14450   -14389   -14316   -14231   -14096   -13934 
  -13815   -13802   -13921   -14166   -14461   -14682   -14763   -14694 
  -14520   -14337   -14233   -14204   -14170   -14098   -14015   -13946 
  -13896   -13856   -13783   -13651   -13501   -13375   -13289   -13270 
  -13311   -13389   -13495   -13603   -13724   -13895   -14154   -14516 
  -14922   -15257   -15414   -15358   -15115   -14744   -14300   -13824 
  -13371   -13019   -12816   -12783   -12910   -13150   -13433   -13720 
  -13987   -14227   -14443   -14651   -14845   -14999   -15083   -15074 
  -14979   -14840   -14713   -14635   -14598   -14580   -14543   -14447 
  -14287   -14095   -13898   -13699   -13498   -13279   -13050   -12879 
  -12837   -12927   -13126   -13387   -13652   -13906   -14154   -14381 
  -14567   -14700   -14771   -14794   -14785   -14751   -14686   -14562 
  -14350   -14052   -13718   -13423   -13244   -13236   -13365   -13585 
  -13894   -14216   -14467   -14624   -14678   -14635   -14539   -14436 
  -14341   -14235   -14114   -13981   -13828   -13667   -13524   -13423 
  -13385   -13441   -13597   -13817   -14062   -14287   -14454   -14567 
  -14662   -14758   -14855   -14935   -14958   -14902   -14794   -14658 
  -14497   -14303   -14065   -13768   -13428   -13123   -12914   -12816 
  -12860   -13081   -13471   -13977   -14512   -14955   -15218   -15292 
  -15225   -15047   -14774   -14454   -14141   -13856   -13622   -13437 
  -13279   -13154   -13101   -13143   -13275   -13494   -13784   -14083 
  -14318   -14463   -14509   -14469   -14411   -14395   -14413   -14438 
  -14447   -14415   -14346   -14280   -14222   -14148   -14042   -13905 
  -13751   -13635   -13618   -13724   -13953   -14287   -14640   -14894 
  -14987   -14909   -14674   -14337   -13959   -13599   -13325   -13158 
  -13070   -13049   -13088   -13201   -13440   -13798   -14192   -14542 
  -14801   -14944   -14966   -14878   -14708   -14501   -14300   -14126 
  -13991   -13882   -13790   -13761   -13826   -13940   -14057   -14134 
  -14112   -13996   -13841   -13674   -13513   -13421   -13421   -13487 
  -13589   -13703   -13832   -13983   -14153   -14307   -14422   -14508 
  -14565   -14561   -14484   -14347   -14185   -14069   -14079   -14218 
  -14420   -14628   -14796   -14867   -14804   -14616   -14354   -14087 
  -13882   -13760   -13726   -13757   -13809   -13864   -13911   -13930 
  -13950   -13975   -13984   -14003   -14044   -14072   -14077   -14065 
  -14033   -13998   -13973   -13959   -13960   -13984   -14022   -14075 
  -14135   -14185   -14218   -14212   -14162   -14087   -13994   -13903 
  -13838   -13791   -13760   -13761   -13770   -13763   -13772   -13829 
  -13953   -14173   -14453   -14697   -14868   -14985   -15048   -15043 
  -14947   -14754   -14481   -14173   -13895   -13672   -13474   -13281 
  -13097   -12919   -12796   -12834   -13046   -13348   -13683   -13996 
  -14235   -14404   -14523   -14597   -14627   -14612   -14577   -14558 
  -14554   -14530   -14474   -14416   -14376   -14361   -14349   -14278 
  -14150   -14011   -13884   -13768   -13682   -13648   -13643   -13652 
  -13699   -13763   -13830   -13913   -13988   -14035   -14065   -14099 
  -14156   -14208   -14208   -14153   -14052   -13938   -13902   -13968 
  -14091   -14239   -14395   -14496   -14500   -14426   -14299   -14158 
  -14056   -13994   -13964   -13949   -13929   -13909   -13880   -13832 
  -13775   -13726   -13701   -13741   -13871   -14046   -14233   -14445 
  -14673   -14882   -15029   -15059   -14944   -14709   -14397   -14056 
  -13743   -13512   -13404   -13428   -13552   -13747   -13990   -14230 
  -14412   -14517   -14563   -14561   -14488   -14316   -14073   -13848 
  -13689   -13610   -13624   -13694   -13761   -13809   -13811   -13749 
  -13680   -13656   -13670   -13679   -13679   -13670   -13630   -13635 
  -13737   -13909   -14158   -14469   -14725   -14868   -14895   -14805 
  -14628   -14419   -14219   -14044   -13883   -13737   -13612   -13528 
  -13510   -13558   -13667   -13830   -14037   -14254   -14427   -14532 
  -14611   -14670   -14688   -14667   -14624   -14554   -14463   -14327 
  -14121   -13888   -13702   -13603   -13612   -13728   -13892   -14030 
  -14121   -14165   -14181   -14204   -14257   -14316   -14341   -14311 
  -14247   -14175   -14106   -14056   -14021   -13980   -13934   -13903 
  -13880   -13863   -13853   -13837   -13821   -13836   -13880   -13940 
  -14002   -14048   -14079   -14085   -14044   -13965   -13892   -13865 
  -13909   -13999   -14079   -14134   -14169   -14172   -14141   -14071 
  -13964   -13833   -13697   -13590   -13575   -13683   -13907   -14220 
  -14542   -14760   -14839   -14785   -14640   -14493   -14404   -14339 
  -14251   -14145   -14053   -13998   -13971   -13945   -13913   -13891 
  -13907   -13972   -14044   -14083   -14095   -14098   -14103   -14145 
  -14229   -14312   -14353   -14346   -14297   -14231   -14172   -14125 
  -14062   -13940   -13740   -13497   -13284   -13159   -13146   -13231 
  -13396   -13618   -13880   -14149   -14369   -14508   -14543   -14455 
  -14276   -14089   -13961   -13886   -13821   -13755   -13714   -13744 
  -13902   -14216   -14636   -15052   -15360   -15498   -15458   -15286 
  -15028   -14735   -14466   -14260   -14131   -14069   -14025   -13950 
  -13852   -13744   -13647   -13605   -13639   -13733   -13872   -14035 
  -14175   -14264   -14291   -14226   -14085   -13927   -13798   -13740 
  -13780   -13898   -14041   -14158   -14211   -14188   -14083   -13896 
  -13666   -13447   -13275   -13200   -13244   -13363   -13520   -13716 
  -13929   -14146   -14384   -14623   -14829   -14987   -15063   -15029 
  -14906   -14723   -14509   -14311   -14150   -13998   -13848   -13738 
  -13689   -13679   -13680   -13682   -13691   -13713   -13730   -13748 
  -13771   -13845   -14033   -14331   -14686   -15030   -15287   -15414 
  -15415   -15299   -15041   -14625   -14095   -13520   -12992   -12638 
  -12557   -12707   -12965   -13244   -13509   -13767   -14072   -14428 
  -14742   -14894   -14848   -14652   -14378   -14083   -13807   -13587 
  -13433   -13373   -13451   -13645   -13898   -14168   -14396   -14554 
  -14642   -14652   -14584   -14467   -14316   -14137   -13972   -13848 
  -13765   -13768   -13878   -14062   -14278   -14454   -14515   -14451 
  -14326   -14184   -14049   -13936   -13841   -13748   -13663   -13617 
  -13630   -13693   -13783   -13905   -14065   -14278   -14559   -14879 
  -15142   -15233   -15111   -14829   -14453   -14048   -13711   -13509 
  -13412   -13421   -13555   -13730   -13876   -13986   -14023   -14014 
  -14018   -14025   -14014   -14006   -13996   -13986   -14000   -14015 
  -13991   -13921   -13821   -13718   -13640   -13613   -13617   -13624 
  -13660   -13706   -13725   -13741   -13757   -13775   -13818   -13900 
  -14029   -14208   -14407   -14582   -14729   -14855   -14932   -14912 
  -14777   -14539   -14234   -13933   -13699   -13560   -13514   -13549 
  -13645   -13784   -13933   -14061   -14145   -14156   -14104   -14023 
  -13929   -13838   -13798   -13830   -13918   -14054   -14239   -14453 
  -14675   -14871   -14975   -14937   -14755   -14462   -14127   -13803 
  -13527   -13342   -13275   -13335   -13521   -13788   -14056   -14268 
  -14391   -14409   -14334   -14196   -14052   -13926   -13792   -13633 
  -13485   -13408   -13441   -13601   -13872   -14206   -14530   -14760 
  -14840   -14797   -14702   -14611   -14538   -14436   -14265   -14058 
  -13841   -13621   -13444   -13313   -13216   -13204   -13306   -13516 
  -13815   -14142   -14422   -14623   -14732   -14750   -14716   -14656 
  -14553   -14411   -14242   -14011   -13732   -13485   -13331   -13308 
  -13436   -13678   -13960   -14245   -14508   -14696   -14790   -14802 
  -14728   -14574   -14393   -14220   -14049   -13902   -13788   -13709 
  -13705   -13784   -13930   -14135   -14353   -14508   -14574   -14550 
  -14445   -14312   -14176   -14021   -13860   -13705   -13554   -13459 
  -13491   -13668   -13964   -14328   -14662   -14868   -14893   -14742 
  -14499   -14260   -14115   -14111   -14193   -14280   -14322   -14292 
  -14195   -14079   -13994   -13976   -14038   -14156   -14310   -14497 
  -14677   -14816   -14901   -14878   -14706   -14427   -14072   -13702 
  -13443   -13348   -13381   -13525   -13744   -13976   -14200   -14373 
  -14403   -14265   -13996   -13653   -13342   -13128   -13000   -12928 
  -12928   -13051   -13351   -13818   -14372   -14895   -15280   -15473 
  -15500   -15404   -15209   -14940   -14592   -14138   -13626   -13162 
  -12818   -12653   -12707   -12961   -13390   -13946   -14504   -14941 
  -15225   -15360   -15337   -15157   -14851   -14439   -13900   -13277 
  -12690   -12237   -12004   -12031   -12297   -12750   -13319   -13917 
  -14455   -14874   -15111   -15155   -15053   -14833   -14474   -14004 
  -13462   -12881   -12391   -12120   -12073   -12258   -12696   -13339 
  -14098   -14863   -15475   -15809   -15881   -15743   -15452   -15045 
  -14544   -13991   -13436   -12916   -12492   -12212   -12151   -12398 
  -12928   -13651   -14461   -15226   -15854   -16293   -16456   -16281 
  -15803   -15101   -14284   -13508   -12885   -12445   -12235   -12310 
  -12663   -13285   -14112   -14956   -15646   -16092   -16232   -16106 
  -15813   -15369   -14771   -14077   -13306   -12482   -11745   -11223 
  -11005   -11199   -11808   -12704   -13778   -14914   -15961   -16760 
  -17154   -17057   -16522   -15673   -14662   -13668   -12783   -12023 
  -11524   -11427   -11713   -12355   -13298   -14358   -15381   -16274 
  -16876   -17061   -16804   -16120   -15141   -14080   -13085   -12301 
  -11854   -11753   -11961   -12409   -12980   -13610   -14305   -15025 
  -15668   -16144   -16386   -16316   -15896   -15190   -14331   -13406 
  -12548   -11963   -11720   -11769   -12116   -12738   -13554   -14485 
  -15404   -16154   -16667   -16942   -17034   -16993   -16773   -16379 
  -15924   -15506   -15180   -14997   -14944   -14963   -15075   -15290 
  -15484   -15562   -15525   -15358   -15057   -14663   -14145   -13483 
  -12841   -12390   -12190   -12205   -12263   -12220   -12106   -11993 
  -11942   -12046   -12355   -12891   -13653   -14542   -15364   -15932 
  -16133   -15930   -15322   -14446   -13524   -12718   -12152   -11911 
  -11959   -12248   -12787   -13558   -14499   -15537   -16545   -17385 
  -17969   -18219   -18048   -17397   -16235   -14601   -12634   -10555 
   -8640    -7152    -6295    -6185    -6791    -7920    -9393   -11125 
  -12962   -14601   -15790   -16440   -16505   -16054   -15325   -14499 
  -13680   -13038   -12764   -12935   -13473   -14266   -15215   -16160 
  -16957   -17440   -17466   -17014   -16124   -14962   -13764   -12688 
  -11881   -11437   -11267   -11319   -11647   -12156   -12741   -13481 
  -14332   -15078   -15606   -15850   -15687   -15110   -14223   -13093 
  -11827   -10652    -9798    -9459    -9772   -10716   -12187   -14018 
  -16000   -18025   -20021   -21786   -23076   -23723   -23592   -22720 
  -21263   -19368   -17300   -15314   -13522   -12069   -11010   -10266 
   -9860    -9853   -10199   -10864   -11766   -12618   -13225   -13621 
  -13798   -13714   -13435   -13053   -12634   -12298   -12218   -12463 
  -12900   -13412   -13972   -14531   -15022   -15398   -15577   -15574 
  -15460   -15250   -15075   -15030   -15144   -15543   -16178   -16833 
  -17473   -18065   -18493   -18715   -18693   -18354   -17718   -16823 
  -15714   -14561   -13460   -12463   -11686   -11099   -10589   -10195 
   -9942    -9782    -9780    -9963   -10162   -10253   -10200    -9981 
   -9707    -9606    -9803   -10299   -11124   -12291   -13744   -15379 
  -16965   -18252   -19089   -19411   -19268   -18786   -18049   -17065 
  -15890   -14681   -13563   -12598   -11838   -11307   -11003   -11032 
  -11511   -12363   -13392   -14396   -15137   -15500   -15514   -15186 
  -14542   -13690   -12775   -11975   -11462   -11314   -11518   -12054 
  -12833   -13764   -14786   -15789   -16659   -17334   -17736   -17763 
  -17339   -16457   -15202   -13747   -12272   -10924    -9799    -8991 
   -8630    -8815    -9549   -10746   -12225   -13784   -15253   -16540 
  -17532   -18042   -17976   -17405   -16468   -15322   -14188   -13321 
  -12788   -12479   -12361   -12348   -12260   -12086   -11920   -11834 
  -11932   -12298   -12892   -13593   -14281   -14851   -15264   -15599 
  -15874   -16058   -16214   -16317   -16291   -16200   -16017   -15669 
  -15218   -14679   -14056   -13475   -13004   -12658   -12552   -12789 
  -13383   -14257   -15228   -16096   -16703   -16942   -16788   -16330 
  -15681   -14994   -14418   -13990   -13726   -13670   -13818   -14138 
  -14534   -14837   -14928   -14801   -14538   -14247   -13979   -13711 
  -13470   -13298   -13193   -13211   -13420   -13799   -14354   -15052 
  -15691   -16119   -16299   -16240   -16011   -15619   -15025   -14269 
  -13466   -12762   -12297   -12160   -12384   -12912   -13674   -14555 
  -15399   -16086   -16580   -16868   -16961   -16880   -16617   -16167 
  -15569   -14839   -13994   -13124   -12356   -11784   -11462   -11411 
  -11589   -11947   -12424   -12941   -13458   -13954   -14354   -14551 
  -14557   -14407   -14062   -13560   -12955   -12248   -11541   -10975 
  -10574   -10381   -10478   -10854   -11493   -12411   -13506   -14593 
  -15574   -16406   -16962   -17197   -17153   -16837   -16287   -15531 
  -14573   -13475   -12356   -11338   -10524    -9992    -9782    -9945 
  -10588   -11682   -13034   -14411   -15569   -16339   -16675   -16607 
  -16204   -15576   -14863   -14146   -13509   -13039   -12754   -12715 
  -12982   -13490   -14164   -14972   -15790   -16436   -16848   -17058 
  -17062   -16897   -16582   -16025   -15218   -14245   -13186   -12178 
  -11389   -10913   -10767   -10997   -11607   -12506   -13622   -14899 
  -16177   -17300   -18160   -18625   -18639   -18208   -17298   -15930 
  -14215   -12309   -10435    -8881    -7869    -7524    -7935    -9062 
  -10723   -12744   -14956   -17085   -18851   -20144   -20912   -21095 
  -20710   -19786   -18323   -16445   -14409   -12467   -10833    -9684 
   -9081    -9045    -9602   -10655   -12013   -13527   -15016   -16263 
  -17159   -17621   -17558   -16964   -15884   -14404   -12729   -11149 
   -9891    -9138    -9099    -9756   -10841   -12209   -13792   -15357 
  -16686   -17636   -17984   -17674   -16915   -15884   -14747   -13676 
  -12726   -12029   -11809   -12056   -12681   -13697   -14958   -16275 
  -17609   -18800   -19626   -19975   -19710   -18750   -17197   -15225 
  -13157   -11318    -9849    -8858    -8302    -8036    -8102    -8525 
   -9215   -10156   -11283   -12434   -13494   -14438   -15234   -15832 
  -16233   -16445   -16452   -16275   -15952   -15525   -15009   -14413 
  -13779   -13182   -12734   -12517   -12503   -12665   -12978   -13324 
  -13633   -13946   -14226   -14374   -14409   -14381   -14289   -14188 
  -14107   -14011   -13944   -14018   -14262   -14619   -15018   -15367 
  -15599   -15709   -15734   -15703   -15616   -15488   -15300   -14959 
  -14453   -13840   -13169   -12576   -12210   -12152   -12401   -12857 
  -13396   -13873   -14176   -14301   -14274   -14114   -13899   -13707 
  -13603   -13674   -13937   -14312   -14721   -15105   -15372   -15506 
  -15542   -15493   -15442   -15512   -15704   -15931   -16043   -15865 
  -15344   -14544   -13598   -12704   -12028   -11618   -11507   -11680 
  -12020   -12430   -12826   -13109   -13265   -13327   -13370   -13444 
  -13490   -13451   -13348   -13163   -12926   -12789   -12868   -13193 
  -13805   -14596   -15330   -15878   -16179   -16168   -15952   -15615 
  -15110   -14555   -14077   -13670   -13462   -13562   -13896   -14393 
  -14943   -15365   -15583   -15570   -15291   -14818   -14308   -13868 
  -13568   -13404   -13320   -13288   -13300   -13352   -13408   -13471 
  -13587   -13707   -13837   -14003   -14069   -13999   -13883   -13690 
  -13431   -13196   -12968   -12780   -12787   -13043   -13514   -14146 
  -14833   -15429   -15854   -16086   -16093   -15935   -15689   -15317 
  -14828   -14277   -13678   -13131   -12773   -12652   -12715   -12897 
  -13182   -13552   -13984   -14465   -14913   -15255   -15493   -15599 
  -15516   -15209   -14635   -13907   -13223   -12665   -12286   -12094 
  -12037   -12110   -12388   -12927   -13693   -14563   -15358   -15924 
  -16222   -16262   -16101   -15776   -15260   -14588   -13884   -13254 
  -12773   -12526   -12522   -12718   -13095   -13555   -13942   -14195 
  -14295   -14284   -14238   -14141   -13944   -13683   -13419   -13254 
  -13319   -13572   -13907   -14341   -14871   -15414   -15917   -16344 
  -16607   -16680   -16607   -16376   -15981   -15465   -14864   -14220 
  -13566   -12946   -12430   -12093   -12020   -12251   -12706   -13211 
