Origin Time       2026/01/15 07:13:00
Lat.              42.7
Long.             145.4
Depth. (km)       30
Mag.              5.7
Station Code      HKD065
Station Lat.      43.7938
Station Long.     145.0565
Station Height(m) 10
Record Time       2026/01/15 07:13:50
Sampling Freq(Hz) 100Hz
Duration Time(s)  69
Dir.              N-S
Scale Factor      7845(gal)/8223790
Max. Acc. (gal)   4.561
Last Correction   2026/01/15 07:13:51
Memo.             
[...]
    1275     1206     1146     1296     1432     1348     1425     1688 
    1667     1429     1362     1564     1929     2122     1929     1671 
    1649     1714     1707     1683     1687     1674     1637     1587 
    1436     1313     1453     1687     1741     1626     1478     1536 
    1804     1879     1610     1291     1089      961      978     1220 
    1462     1548     1644     1717     1630     1587     1701     1815 
    1854     1729     1408     1170     1201     1418     1718     1903 
    1858     1740     1715     1880     2087     2031     1941     2097 
    2097     1711     1313     1221     1436     1628     1529     1356 
    1318     1364     1495     1703     1868     1884     1826     1898 
    1999     1841     1660     1768     1741     1305     1039     1278 
    1598     1591     1377     1316     1324     1144      976      980 
    1066     1150     1183     1266     1350     1360     1572     1918 
    1962     1798     1715     1653     1516     1414     1416     1417 
    1459     1686     1981     2169     2209     2025     1672     1506 
    1642     1759     1682     1544     1397     1185     1038     1236 
    1717     2002     1903     1668     1456     1287     1217     1287 
    1412     1425     1433     1560     1530     1310     1355     1632 
    1684     1499     1316     1344     1738     2142     2039     1579 
    1223     1201     1429     1595     1644     1791     1980     1934 
    1703     1649     1771     1722     1595     1763     2037     1902 
    1459     1347     1674     1887     1722     1397     1092      996 
    1300     1760     2025     2076     1921     1583     1340     1366 
    1468     1424     1310     1267     1220     1231     1475     1744 
    1745     1563     1341     1178     1201     1352     1490     1605 
    1629     1517     1505     1653     1703     1655     1659     1591 
    1444     1455     1536     1445     1410     1584     1613     1509 
    1701     2083     2203     2027     1917     1983     1891     1566 
    1368     1381     1491     1719     1807     1556     1316     1285 
    1267     1178     1120     1239     1501     1679     1726     1698 
    1580     1443     1328     1300     1486     1695     1638     1435 
    1397     1593     1787     1784     1657     1607     1717     1836 
    1822     1694     1440     1225     1451     1964     2091     1779 
    1593     1759     2006     2030     1830     1584     1378     1248 
    1264     1443     1630     1579     1329     1242     1336     1312 
    1189     1174     1255     1381     1590     1819     1894     1876 
    2033     2168     1852     1372     1298     1443     1372     1236 
    1264     1285     1146     1007     1147     1512     1696     1607 
    1482     1487     1773     2207     2300     2077     1939     1722 
    1243      882      864     1061     1385     1715     1912     1954 
    1926     1856     1722     1660     1732     1620     1240     1054 
    1332     1848     2120     1756     1123      919     1020     1075 
    1177     1312     1440     1611     1682     1609     1548     1590 
    1706     1786     1895     2114     2196     2068     1910     1715 
    1532     1405     1277     1335     1586     1750     1819     1742 
    1420     1139     1115     1212     1335     1498     1567     1422 
    1387     1699     1971     1904     1701     1466     1209     1161 
    1397     1609     1661     1732     1732     1464     1132     1008 
    1173     1587     2050     2290     2128     1664     1293     1267 
    1429     1408     1129     1042     1374     1730     1856     1842 
    1722     1541     1333     1107     1088     1264     1310     1304 
    1452     1502     1358     1332     1530     1760     1939     2070 
    2054     1935     1904     1979     1971     1737     1475     1459 
    1507     1441     1524     1807     1918     1637     1202     1096 
    1433     1725     1669     1548     1510     1363     1167     1209 
    1440     1610     1667     1626     1541     1637     1958     2143 
    1976     1733     1669     1636     1472     1345     1401     1417 
    1194      924      862      955     1167     1539     1836     1952 
    2039     2049     1931     1733     1478     1264     1057      905 
    1123     1574     1861     2011     2165     2232     2072     1721 
    1463     1402     1302     1152     1142     1290     1517     1647 
    1559     1429     1458     1634     1756     1629     1406     1332 
    1329     1293     1277     1352     1576     1767     1638     1314 
    1107     1053     1074     1208     1425     1648     1929     2255 
    2397     2278     2015     1674     1467     1644     1958     2046 
    1930     1738     1501     1260     1144     1221     1294     1282 
    1410     1640     1761     1852     1995     2074     1975     1771 
    1722     1826     1803     1688     1598     1433     1336     1437 
    1507     1580     1813     2002     1941     1583     1158     1201 
    1640     1876     1829     1633     1314     1112     1136     1159 
    1082     1111     1337     1453     1374     1443     1607     1556 
    1404     1371     1518     1794     1921     1742     1512     1410 
    1325     1248     1279     1402     1618     1895     2018     1845 
    1536     1371     1437     1636     1842     1841     1586     1368 
    1277     1212     1310     1586     1734     1609     1385     1290 
    1347     1459     1595     1686     1668     1645     1705     1822 
    1892     1794     1674     1699     1642     1459     1402     1460 
    1563     1707     1691     1490     1350     1355     1447     1543 
    1526     1437     1490     1740     1979     2031     1903     1676 
    1463     1371     1468     1680     1746     1611     1552     1657 
    1640     1416     1406     1730     1841     1667     1703     1890 
    1865     1729     1668     1567     1399     1386     1501     1506 
    1487     1642     1749     1486     1074      974     1159     1323 
    1421     1536     1630     1637     1605     1676     1826     1861 
    1792     1777     1823     1833     1764     1595     1317      996 
     777      853     1189     1436     1528     1642     1702     1705 
    1729     1638     1474     1405     1431     1557     1775     1935 
    1907     1757     1607     1439     1270     1209     1282     1413 
    1452     1462     1679     1975     2137     2205     2065     1706 
    1520     1671     1842     1718     1402     1263     1333     1386 
    1494     1729     1840     1736     1571     1398     1277     1310 
    1439     1544     1591     1559     1458     1395     1472     1615 
    1632     1499     1397     1516     1787     1907     1814     1726 
    1679     1583     1435     1269     1155     1111     1117     1208 
    1324     1405     1516     1591     1536     1462     1456     1514 
    1659     1840     1969     2003     1872     1645     1505     1474 
    1526     1647     1660     1528     1483     1568     1584     1494 
    1451     1522     1615     1601     1448     1305     1390     1591 
    1560     1381     1456     1761     1914     1854     1763     1710 
    1721     1695     1541     1491     1652     1795     1856     1885 
    1827     1719     1582     1390     1328     1426     1414     1271 
    1251     1402     1537     1489     1339     1355     1605     1811 
    1822     1872     2061     2184     2131     1867     1475     1285 
    1354     1440     1455     1432     1431     1497     1586     1672 
    1753     1730     1582     1491     1507     1441     1325     1329 
    1350     1359     1509     1624     1490     1316     1227     1150 
    1192     1363     1495     1543     1544     1556     1551     1440 
    1389     1464     1451     1426     1588     1803     1819     1564 
    1317     1333     1433     1433     1389     1287     1113     1101 
    1371     1614     1672     1819     2070     2112     2030     2085 
    2076     1803     1541     1487     1494     1489     1499     1497 
    1551     1649     1618     1512     1520     1651     1779     1786 
    1746     1775     1742     1637     1613     1563     1416     1337 
    1327     1289     1255     1256     1313     1364     1306     1302 
    1490     1621     1618     1738     1895     1786     1559     1553 
    1701     1729     1660     1663     1680     1586     1435     1362 
    1341     1247     1152     1182     1270     1382     1588     1837 
    1968     1930     1902     2050     2224     2182     1950     1809 
    1885     1921     1741     1579     1514     1409     1381     1482 
    1480     1362     1343     1506     1695     1665     1485     1425 
    1383     1156      976     1111     1447     1645     1594     1595 
    1763     1763     1559     1487     1567     1555     1391     1302 
    1445     1628     1680     1703     1691     1621     1652     1792 
    1872     1836     1737     1571     1398     1381     1495     1571 
    1607     1617     1466     1264     1281     1387     1291     1142 
    1183     1277     1250     1233     1410     1728     1918     1852 
    1663     1394     1046      788      758     1042     1545     1830 
    1667     1354     1251     1425     1682     1842     1942     2010 
    2003     1991     2035     2034     1938     1830     1788     1861 
    1961     1953     1871     1803     1783     1799     1780     1722 
    1663     1630     1595     1386     1120     1162     1429     1640 
    1718     1617     1366     1088      982     1173     1374     1332 
    1225     1186     1166     1154     1158     1250     1382     1367 
    1324     1506     1736     1726     1630     1718     1957     2139 
    2077     1894     1915     2045     2006     1931     1966     1958 
    1848     1744     1671     1561     1456     1398     1254     1032 
    1008     1242     1499     1637     1609     1436     1279     1291 
    1451     1591     1552     1398     1293     1236     1209     1287 
    1472     1547     1393     1235     1256     1422     1713     1942 
    1856     1618     1536     1613     1647     1463     1225     1229 
    1385     1570     1854     2047     1903     1606     1499     1629 
    1804     1867     1831     1811     1799     1686     1507     1386 
    1389     1499     1498     1248      999      972     1069     1136 
    1148     1174     1286     1490     1713     1861     1925     1915 
    1759     1466     1213     1123     1165     1305     1505     1653 
    1680     1624     1665     1996     2315     2177     1875     1869 
    2006     2033     1985     1935     1873     1798     1780     1756 
    1603     1493     1520     1514     1424     1325     1312     1470 
    1647     1651     1517     1352     1275     1285     1258     1285 
    1429     1489     1474     1549     1609     1509     1293     1129 
    1170     1323     1435     1534     1584     1526     1462     1462 
    1557     1687     1664     1517     1449     1510     1594     1576 
    1521     1591     1705     1750     1830     1952     1961     1777 
    1611     1738     2004     2165     2247     2199     1965     1692 
    1517     1570     1730     1694     1559     1518     1410     1233 
    1246     1422     1474     1328     1208     1174     1066      970 
     997      931      787      888     1224     1521     1605     1467 
    1283     1212     1290     1547     1850     1975     1945     2008 
    2301     2600     2600     2362     2118     1925     1796     1845 
    2018     2047     1927     1869     1814     1622     1348     1124 
    1075     1163     1308     1582     1800     1753     1674     1688 
    1672     1615     1540     1505     1547     1575     1665     1854 
    1923     1863     1777     1557     1237     1115     1327     1621 
    1672     1557     1534     1521     1387     1291     1354     1520 
    1723     1807     1614     1359     1323     1412     1404     1166 
     857      846     1096     1312     1485     1668     1765     1729 
    1605     1502     1578     1822     2064     2242     2332     2234 
    2096     2216     2489     2633     2663     2648     2448     2015 
    1660     1578     1522     1499     1711     1821     1522     1166 
    1094     1205     1304     1414     1609     1688     1557     1576 
    1848     2010     2015     2022     1925     1728     1598     1466 
    1293     1258     1410     1629     1796     1910     2087     2305 
    2423     2444     2415     2299     2147     2095     2149     2168 
    2035     1723     1216      587       51     -253     -301      -98 
     166      309      342      197     -145     -400     -469     -550 
    -676     -720     -653     -556     -504     -390       90      977 
    1948     2785     3329     3400     3221     3152     3235     3427 
    3624     3574     3118     2305     1466     1057     1082     1169 
    1161     1042      808      735     1051     1470     1675     1710 
    1533     1023      511      498      967     1539     2031     2411 
    2489     2045     1142       94     -743    -1032     -522      805 
    2550     3905     4248     3670     2745     2088     2070     2566 
    2961     2825     2424     2138     1966     2012     2475     3123 
    3495     3377     2810     1988     1198      675      471      495 
     554      373      -83     -513     -711     -846    -1127    -1382 
   -1316     -982     -469      284      993     1370     1717     2409 
    3538     4985     6188     6342     5163     3277     1857     1622 
    2207     2724     2751     2509     2280     2181     2239     2131 
    1402      167    -1059    -1976    -2401    -2006     -594     1351 
    2862     3225     2312      679     -670    -1179     -967     -103 
    1339     2884     4063     4803     5174     5028     4221     3072 
    2160     1756     1844     2330     2893     3046     2663     2112 
    1696     1228      518     -190     -727    -1271    -1829    -2097 
   -1842    -1085      -94      681      919      877     1285     2436 
    3780     4707     5097     5030     4564     3732     2689     1733 
     842     -149     -770     -409      742     2042     2916     2948 
    2138     1075      596     1030     1926     2728     3341     3819 
    3977     3688     2929     1553     -203    -1451    -1475     -216 
    1804     3568     4137     3285     1651      326     -128      -44 
      47     -178     -702    -1170    -1352    -1144     -409      602 
    1296     1385     1094      855      936     1549     2837     4367 
    5373     5564     5101     4230     3234     2307     1534      974 
     579      283      247      676     1391     1915     1995     1796 
    1680     1883     2126     1877     1273     1027     1432     2207 
    3003     3392     2920     1682      444       48      899     2511 
    3627     3500     2673     2100     2084     2224     2070     1512 
     676      -24      -68      581     1506     2232     2272     1441 
     315     -395     -588     -442      -81      305      612     1005 
    1644     2370     2755     2497     1718      834      267      180 
     369      572      874     1580     2710     3863     4546     4363 
    3214     1513       43     -584     -334      415     1227     1844 
    2295     2768     3350     3747     3442     2458     1534     1264 
    1483     1705     1786     1927     2208     2542     2929     3341 
    3520     3161     2212     1073      348      301      777     1495 
    2060     2162     1938     1665     1393     1050      537      -29 
    -202      334     1420     2528     3133     3095     2713     2440 
    2519     2733     2586     1767      567     -301     -406      190 
    1188     2133     2640     2681     2338     1665      804      -81 
    -816    -1135     -756      513     2405     4078     4953     5125 
    4556     3136     1455      319      -99      -52      236      729 
    1537     2469     3009     2934     2357     1516      734      152 
     -67      334     1119     1737     1918     1580      850       36 
    -604     -781     -276      684     1475     1651     1437     1317 
    1298     1142      847      568      523      966     1840     2554 
    2583     2262     2307     2860     3522     3692     2911     1448 
     257       47      708     1722     2602     2911     2535     1834 
    1323     1271     1410     1239      784      510      629      951 
    1248     1551     2004     2502     2782     2856     2862     2606 
    1798      646     -168     -270       76      469      658      557 
     449      669     1124     1591     2019     2335     2467     2454 
    2397     2415     2511     2578     2569     2428     2104     1711 
    1405     1192     1053     1071     1277     1486     1479     1242 
     984      945     1134     1294     1205      972      990     1533 
    2388     3055     3096     2393     1239      128     -498     -434 
      28      422      615      739      999     1497     2050     2438 
    2717     3007     3194     3133     2894     2536     1985     1350 
     824      351     -148     -552     -764     -773     -542      -59 
     572     1151     1418     1281      985      820      835     1032 
    1452     2029     2562     2816     2751     2637     2663     2614 
    2346     2135     2196     2353     2404     2361     2307     2299 
    2427     2806     3303     3512     3240     2641     1933     1366 
    1219     1489     1779     1634     1053      445       55     -230 
    -565     -819     -660      -14      726     1136     1206     1302 
    1691     2236     2679     2933     2957     2681     2288     2162 
    2353     2511     2377     2053     1834     1777     1667     1414 
    1162     1026      922      839     1003     1470     1894     1856 
    1293      672      463      549      669      961     1478     1922 
    2254     2781     3445     3784     3570     2922     2126     1516 
    1239     1273     1497     1644     1513     1193     1011     1196 
    1513     1613     1552     1518     1588     1876     2241     2259 
    1821     1228      855      895     1169     1287     1050      567 
     205      294      688     1026     1198     1155      814      446 
     639     1494     2315     2556     2401     2180     2052     2133 
    2390     2714     3021     3123     2843     2324     1925     1833 
    1942     1996     1834     1397      641     -220     -688     -491 
     194      945     1332     1269     1124     1236     1493     1679 
    1779     1834     1908     2099     2411     2744     2901     2732 
    2307     1753     1183      789      658      672      750      923 
    1227     1642     2025     2266     2477     2782     3096     3261 
    3306     3389     3392     3049     2485     2095     2023     2118 
    2155     2064     1979     1962     1836     1426      876      492 
     275       72       59      344      679      897     1061     1297 
    1665     2019     2138     1956     1574     1179      857      600 
     398      243      182      193      108      -60      -66      230 
     753     1313     1818     2340     2901     3375     3639     3669 
    3527     3276     2898     2404     1850     1193      415     -198 
    -274      174      796     1247     1332     1148     1046     1260 
