Origin Time       2026/01/15 07:13:00
Lat.              42.7
Long.             145.4
Depth. (km)       30
Mag.              5.7
Station Code      HKD090
Station Lat.      43.1213
Station Long.     143.6183
Station Height(m) 65
Record Time       2026/01/15 07:13:59
Sampling Freq(Hz) 100Hz
Duration Time(s)  62
Dir.              E-W
Scale Factor      7845(gal)/8223790
Max. Acc. (gal)   2.663
Last Correction   2026/01/15 07:13:59
Memo.             
[...]
   15931    15975    16025    16082    16148    16222    16268    16239 
   16116    15919    15728    15637    15633    15626    15595    15627 
   15774    15973    16119    16143    16048    15919    15822    15751 
   15676    15593    15564    15630    15751    15859    15925    15958 
   15974    15993    16043    16139    16270    16403    16464    16398 
   16241    16060    15890    15734    15600    15523    15530    15610 
   15711    15776    15772    15707    15624    15592    15642    15726 
   15815    15938    16071    16158    16178    16147    16081    15997 
   15912    15847    15823    15839    15878    15940    16047    16168 
   16212    16136    16001    15893    15842    15830    15840    15882 
   15940    15979    15971    15924    15850    15727    15579    15502 
   15560    15732    15924    16066    16177    16294    16389    16393 
   16295    16155    16032    15948    15903    15866    15793    15654 
   15468    15286    15171    15195    15398    15742    16135    16474 
   16695    16767    16696    16517    16293    16110    16001    15919 
   15817    15688    15562    15507    15564    15714    15874    15965 
   15942    15853    15824    15892    15961    15970    15931    15847 
   15762    15745    15815    15921    15981    15992    16027    16087 
   16094    16013    15894    15762    15614    15498    15471    15514 
   15601    15739    15903    16042    16113    16097    16013    15903 
   15782    15697    15703    15807    15974    16163    16330    16424 
   16434    16414    16386    16297    16101    15840    15611    15472 
   15418    15448    15585    15788    15982    16167    16349    16456 
   16395    16141    15781    15491    15395    15484    15687    15928 
   16116    16191    16173    16105    16008    15897    15785    15695 
   15665    15714    15809    15911    16004    16065    16070    16024 
   15948    15884    15870    15923    16020    16148    16302    16428 
   16445    16326    16106    15854    15655    15574    15631    15800 
   16015    16189    16258    16216    16082    15885    15695    15580 
   15562    15614    15685    15734    15772    15828    15888    15909 
   15878    15809    15745    15720    15743    15795    15861    15967 
   16112    16237    16272    16183    16000    15815    15720    15728 
   15789    15874    15967    16023    16000    15889    15715    15550 
   15473    15515    15678    15920    16155    16305    16321    16194 
   15961    15700    15507    15439    15499    15668    15919    16209 
   16470    16627    16630    16468    16178    15836    15550    15404 
   15421    15574    15795    15990    16117    16163    16119    16004 
   15893    15857    15886    15946    16004    16027    15994    15924 
   15846    15776    15728    15718    15738    15777    15820    15855 
   15866    15862    15854    15847    15861    15888    15893    15840 
   15738    15647    15628    15692    15796    15893    15988    16090 
   16197    16290    16326    16275    16143    15952    15769    15678 
   15719    15869    16069    16258    16389    16422    16335    16131 
   15859    15570    15299    15117    15102    15261    15530    15817 
   16042    16163    16177    16102    15996    15921    15913    15940 
   15947    15942    15965    16004    16016    15969    15874    15786 
   15749    15770    15838    15934    16047    16159    16216    16177 
   16040    15859    15723    15692    15745    15832    15936    16054 
   16164    16239    16233    16147    16044    16006    16047    16116 
   16127    16024    15830    15611    15438    15360    15391    15534 
   15757    16017    16254    16405    16448    16380    16197    15931 
   15662    15477    15423    15460    15503    15496    15453    15434 
   15466    15526    15591    15668    15796    15990    16213    16393 
   16497    16511    16411    16197    15917    15623    15383    15292 
   15394    15641    15927    16144    16239    16232    16178    16081 
   15938    15803    15724    15709    15758    15857    15984    16125 
   16227    16225    16127    15998    15897    15826    15782    15759 
   15735    15681    15604    15545    15554    15638    15759    15898 
   16056    16233    16366    16376    16283    16171    16075    15986 
   15927    15952    16077    16248    16399    16475    16433    16267 
   16017    15742    15493    15317    15242    15275    15403    15607 
   15828    15988    16032    15967    15853    15758    15707    15711 
   15782    15893    16008    16098    16128    16066    15934    15800 
   15747    15805    15940    16090    16212    16279    16276    16201 
   16058    15894    15765    15689    15668    15700    15785    15911 
   16051    16174    16247    16254    16213    16163    16101    15997 
   15847    15699    15599    15564    15576    15580    15546    15510 
   15502    15518    15557    15616    15681    15746    15826    15907 
   15973    16043    16121    16193    16274    16348    16351    16274 
   16167    16051    15934    15849    15812    15827    15920    16078 
   16229    16321    16349    16341    16330    16306    16209    16028 
   15799    15561    15349    15187    15110    15194    15456    15774 
   16005    16106    16102    16024    15928    15867    15859    15882 
   15880    15832    15790    15795    15840    15900    15928    15892 
   15804    15714    15670    15684    15716    15720    15699    15684 
   15711    15785    15877    15959    16054    16189    16380    16603 
   16785    16864    16830    16700    16497    16274    16094    15954 
   15809    15650    15512    15433    15431    15529    15696    15847 
   15898    15851    15766    15703    15688    15697    15701    15695 
   15693    15716    15758    15817    15894    15993    16148    16355 
   16540    16664    16722    16673    16497    16266    16086    15996 
   15942    15874    15815    15805    15844    15904    15975    16067 
   16174    16270    16332    16336    16256    16104    15917    15743 
   15635    15624    15714    15900    16156    16382    16452    16313 
   15993    15576    15194    14955    14881    14956    15149    15422 
   15765    16116    16328    16278    15988    15635    15394    15311 
   15349    15472    15653    15866    16098    16328    16497    16576 
   16603    16600    16559    16487    16398    16282    16112    15881 
   15630    15418    15284    15237    15296    15472    15708    15967 
   16224    16398    16416    16320    16229    16198    16179    16116 
   15993    15850    15734    15645    15557    15462    15365    15292 
   15282    15318    15358    15417    15558    15789    16021    16178 
   16252    16285    16290    16248    16125    15890    15558    15223 
   15017    15014    15196    15475    15801    16173    16538    16785 
   16869    16829    16688    16426    16060    15672    15380    15279 
   15344    15468    15606    15751    15863    15913    15896    15807 
   15677    15587    15614    15778    16028    16263    16374    16317 
   16156    15965    15774    15634    15589    15654    15808    15994 
   16146    16204    16150    16004    15816    15647    15539    15483 
   15460    15484    15572    15709    15867    16001    16074    16081 
   16039    15942    15799    15693    15714    15836    15959    16024 
   16025    15959    15836    15685    15553    15493    15496    15519 
   15549    15592    15651    15705    15776    15897    16044    16173 
   16263    16302    16271    16164    15986    15772    15627    15623 
   15726    15885    16090    16316    16495    16555    16479    16299 
   16032    15692    15364    15164    15129    15203    15326    15469 
   15616    15747    15831    15855    15869    15924    16015    16133 
   16285    16429    16511    16532    16494    16372    16166    15901 
   15619    15373    15229    15240    15452    15836    16274    16637 
   16862    16957    16943    16818    16588    16297    15992    15738 
   15581    15506    15469    15450    15466    15520    15562    15585 
   15645    15780    15998    16283    16569    16789    16892    16843 
   16646    16340    15958    15569    15304    15228    15292    15439 
   15616    15768    15858    15863    15769    15597    15430    15354 
   15425    15641    15978    16395    16812    17116    17204    17043 
   16673    16225    15861    15668    15618    15655    15743    15846 
   15942    16025    16067    16025    15889    15680    15481    15417 
   15541    15817    16162    16453    16609    16592    16390    16032 
   15616    15264    15063    15037    15161    15383    15641    15874 
   16024    16089    16150    16263    16405    16519    16619    16745 
   16870    16929    16883    16715    16432    16074    15727    15483 
   15391    15456    15660    15957    16259    16465    16537    16517 
   16451    16343    16181    15988    15800    15616    15421    15250 
   15163    15161    15214    15310    15469    15676    15867    16004 
   16089    16154    16232    16328    16429    16517    16587    16633 
   16588    16379    16042    15693    15407    15211    15121    15133 
   15217    15340    15483    15624    15728    15792    15870    16038 
   16298    16567    16741    16765    16660    16474    16214    15896 
   15581    15346    15244    15296    15461    15664    15865    16047 
   16170    16168    15989    15647    15271    15034    15049    15268 
   15568    15897    16272    16673    17035    17267    17274    17055 
   16711    16325    15930    15584    15367    15326    15489    15820 
   16168    16387    16468    16505    16564    16595    16482    16159 
   15674    15140    14655    14324    14191    14208    14343    14616 
   15013    15477    15955    16441    16937    17325    17428    17205 
   16783    16303    15854    15457    15106    14817    14647    14654 
   14872    15264    15705    16083    16341    16433    16336    16094 
   15815    15622    15581    15661    15739    15682    15481    15268 
   15159    15155    15236    15387    15580    15786    16000    16197 
   16295    16228    16069    15950    15927    16005    16164    16360 
   16553    16677    16657    16470    16154    15738    15244    14774 
   14462    14316    14272    14318    14500    14835    15264    15715 
   16159    16600    17030    17423    17712    17805    17683    17415 
   17042    16579    16092    15649    15273    14980    14793    14725 
   14814    15083    15483    15919    16306    16582    16714    16703 
   16559    16313    16047    15826    15693    15735    15985    16322 
   16582    16684    16591    16260    15726    15132    14678    14503 
   14585    14823    15151    15527    15903    16225    16432    16484 
   16402    16244    16110    16063    16042    15959    15815    15672 
   15584    15547    15518    15479    15492    15634    15904    16208 
   16417    16483    16436    16275    15952    15449    14821    14231 
   13880    13892    14276    14967    15817    16661    17373    17876 
   18160    18268    18235    18038    17666    17170    16603    16031 
   15592    15402    15445    15585    15699    15746    15755    15743 
   15668    15516    15345    15206    15118    15074    15053    15047 
   15091    15252    15512    15790    16040    16256    16390    16389 
   16243    15993    15723    15523    15417    15375    15411    15574 
   15884    16303    16756    17151    17474    17759    17938    17872 
   17528    16968    16281    15579    14963    14482    14180    14119 
   14318    14728    15238    15703    16004    16114    16063    15898 
   15732    15681    15753    15884    15998    16050    16054    16060 
   16110    16193    16228    16127    15866    15519    15226    15088 
   15133    15341    15662    16044    16463    16880    17211    17365 
   17316    17140    16942    16764    16580    16366    16127    15907 
   15738    15589    15388    15093    14744    14435    14257    14269 
   14485    14895    15475    16127    16700    17095    17311    17382 
   17334    17174    16904    16546    16208    16000    15932    15932 
   15938    15924    15911    15919    15912    15850    15782    15789 
   15905    16086    16216    16189    16020    15781    15518    15259 
   15047    14943    15016    15284    15670    16023    16260    16407 
   16505    16532    16401    16052    15612    15322    15282    15427 
   15684    16017    16387    16692    16783    16545    15998    15315 
   14719    14365    14303    14504    14890    15371    15885    16394 
   16823    17073    17111    17010    16868    16711    16497    16205 
   15871    15516    15160    14872    14740    14818    15161    15724 
   16326    16792    17064    17150    17039    16717    16236    15728 
   15338    15134    15117    15259    15499    15745    15943    16093 
   16198    16200    16052    15812    15553    15319    15191    15237 
   15452    15738    15977    16135    16256    16379    16486    16525 
   16460    16259    15923    15558    15300    15186    15195    15310 
   15512    15784    16073    16314    16488    16599    16634    16579 
   16421    16151    15797    15441    15198    15148    15263    15434 
   15542    15523    15425    15348    15322    15326    15360    15457 
   15665    15988    16375    16779    17153    17470    17716    17834 
   17778    17550    17169    16676    16168    15726    15402    15236 
   15230    15353    15549    15770    15973    16120    16175    16032 
   15591    14917    14195    13595    13230    13120    13232    13574 
   14191    15057    16042    16930    17527    17768    17734    17539 
   17271    16981    16699    16472    16322    16247    16248    16301 
   16337    16314    16229    16098    15948    15790    15596    15344 
   15048    14805    14752    14966    15380    15873    16378    16864 
   17265    17489    17462    17165    16661    16052    15458    14955 
   14571    14332    14304    14539    14998    15520    15925    16159 
   16282    16345    16363    16366    16375    16363    16312    16256 
   16258    16341    16480    16650    16866    17100    17232    17143 
   16792    16236    15622    15121    14847    14851    15148    15646 
   16167    16545    16677    16549    16218    15774    15309    14933 
   14739    14713    14804    15001    15275    15564    15828    16013 
   16073    16040    15990    16013    16205    16542    16852    16943 
   16733    16256    15645    15056    14634    14486    14696    15253 
   16040    16866    17504    17772    17647    17226    16669    16143 
   15753    15534    15485    15573    15720    15826    15759    15462 
   15047    14715    14605    14743    15070    15481    15859    16079 
   16038    15734    15277    14829    14580    14659    15068    15726 
   16518    17308    17942    18256    18098    17477    16602    15736 
   15076    14725    14724    15044    15564    16089    16468    16657 
   16721    16727    16695    16646    16615    16565    16433    16206 
   15882    15468    15016    14612    14337    14197    14185    14331 
   14682    15228    15858    16414    16821    17086    17197    17138 
   16954    16686    16322    15870    15387    14983    14806    14952 
   15402    16048    16725    17278    17605    17659    17413    16885 
   16156    15353    14643    14195    14096    14331    14827    15520 
   16324    17095    17648    17787    17424    16680    15809    15044 
   14557    14439    14651    15012    15319    15456    15394    15205 
   15013    14956    15160    15678    16422    17184    17740    17926 
   17682    17074    16244    15379    14693    14332    14364    14775 
   15437    16186    16897    17425    17624    17443    16964    16359 
   15795    15390    15194    15206    15398    15700    16005    16220 
   16290    16244    16200    16227    16254    16168    15942    15633 
   15338    15130    15005    14931    14948    15121    15437    15835 
   16202    16386    16333    16133    15874    15583    15272    14995 
   14881    15020    15384    15901    16494    17061    17505    17783 
   17895    17857    17687    17369    16850    16141    15363    14686 
   14272    14164    14300    14557    14806    14976    15043    14993 
   14847    14666    14509    14418    14446    14663    15078    15634 
   16281    16945    17510    17902    18110    18175    18100    17848 
   17436    16954    16464    15981    15538    15203    15049    15110 
   15385    15834    16359    16837    17140    17181    16954    16519 
   15979    15477    15118    14955    15013    15269    15670    16147 
   16618    17010    17254    17274    17038    16617    16136    15682 
   15276    14912    14597    14395    14369    14540    14924    15492 
   16131    16695    17057    17124    16912    16510    15988    15446 
   15051    14933    15120    15527    16017    16436    16667    16652 
   16421    16104    15842    15676    15622    15727    15970    16237 
   16398    16372    16164    15853    15496    15113    14789    14692 
   14882    15271    15727    16127    16362    16374    16147    15722 
   15245    14909    14814    14936    15191    15508    15873    16326 
   16822    17185    17269    17045    16587    16071    15650    15371 
   15267    15371    15606    15812    15903    15878    15759    15607 
   15502    15503    15672    16002    16433    16885    17223    17334 
   17192    16811    16225    15457    14612    13926    13598    13702 
   14214    15007    15869    16529    16816    16760    16471    16087 
   15730    15483    15441    15639    16027    16541    17065    17459 
   17610    17446    17019    16447    15801    15203    14794    14652 
   14787    15165    15676    16105    16282    16214    15996    15701 
   15404    15124    14899    14823    14931    15198    15572    15970 
   16312    16582    16812    17022    17190    17269    17196    16968 
   16645    16249    15772    15253    14760    14381    14211    14273 
   14504    14812    15109    15306    15363    15327    15271    15242 
   15264    15350    15533    15873    16386    16965    17456    17730 
   17721    17479    17139    16772    16394    16048    15804    15695 
   15727    15890    16112    16294    16393    16410    16367    16301 
   16214    16056    15776    15380    14918    14474    14152    14022 
   14116    14431    14910    15466    16043    16576    16980    17163 
   17073    16754    16326    15890    15515    15267    15217    15422 
   15885    16518    17143    17560    17651    17379    16792    16033 
   15271    14682    14426    14559    15048    15819    16738    17583 
   18141    18311    18092    17594    17008    16486    16090    15844 
   15749    15788    15959    16209    16384    16370    16177    15871 
   15527    15206    14937    14725    14593    14555    14609    14739 
   14929    15174    15452    15700    15831    15812    15718    15674 
   15754    15940    16168    16407    16649    16860    16987    16981 
   16841    16622    16386    16155    15932    15738    15599    15557 
   15626    15746    15819    15792    15668    15487    15304    15144 
   15039    15083    15367    15877    16528    17194    17729    18000 
   17903    17402    16573    15564    14565    13778    13338    13301 
   13644    14249    14979    15714    16324    16717    16883    16914 
