Origin Time       2026/01/15 07:13:00
Lat.              42.7
Long.             145.4
Depth. (km)       30
Mag.              5.7
Station Code      HKD095
Station Lat.      42.9311
Station Long.     143.2137
Station Height(m) 35
Record Time       2026/01/15 07:14:07
Sampling Freq(Hz) 100Hz
Duration Time(s)  77
Dir.              U-D
Scale Factor      7845(gal)/8223790
Max. Acc. (gal)   0.876
Last Correction   2026/01/15 07:14:08
Memo.             
[...]
    4554     4502     4428     4341     4294     4313     4387     4467 
    4507     4498     4500     4595     4719     4738     4681     4648 
    4644     4639     4642     4680     4729     4758     4789     4818 
    4822     4814     4807     4780     4707     4591     4472     4403 
    4423     4503     4558     4572     4606     4666     4691     4631 
    4537     4507     4519     4487     4429     4394     4428     4541 
    4634     4661     4653     4585     4504     4540     4665     4714 
    4639     4530     4452     4429     4477     4550     4558     4483 
    4390     4376     4473     4558     4552     4542     4565     4567 
    4557     4579     4641     4692     4692     4710     4812     4884 
    4807     4687     4650     4599     4434     4278     4302     4500 
    4658     4635     4542     4488     4457     4464     4537     4622 
    4658     4633     4606     4662     4745     4730     4693     4761 
    4824     4760     4641     4564     4518     4482     4455     4432 
    4419     4415     4440     4519     4603     4623     4587     4509 
    4442     4457     4499     4509     4525     4557     4581     4618 
    4644     4631     4656     4714     4687     4603     4568     4564 
    4545     4504     4456     4482     4631     4753     4698     4584 
    4587     4644     4638     4596     4592     4664     4764     4785 
    4743     4739     4779     4808     4795     4741     4684     4644 
    4607     4595     4606     4549     4417     4328     4322     4378 
    4482     4540     4502     4487     4553     4622     4630     4571 
    4534     4602     4689     4702     4680     4673     4699     4746 
    4739     4646     4530     4464     4486     4545     4536     4475 
    4457     4507     4568     4580     4568     4585     4608     4615 
    4677     4781     4783     4671     4592     4618     4689     4707 
    4669     4681     4783     4873     4837     4718     4650     4650 
    4621     4534     4500     4584     4656     4619     4577     4627 
    4737     4800     4768     4703     4639     4526     4403     4417 
    4575     4656     4533     4374     4386     4526     4592     4529 
    4484     4548     4648     4664     4548     4414     4405     4477 
    4502     4471     4486     4556     4591     4571     4572     4614 
    4595     4483     4388     4403     4526     4635     4626     4617 
    4703     4781     4757     4646     4546     4579     4696     4727 
    4641     4552     4560     4650     4700     4679     4696     4783 
    4814     4725     4634     4668     4726     4691     4654     4688 
    4684     4607     4540     4506     4507     4553     4571     4540 
    4541     4563     4510     4405     4356     4396     4455     4457 
    4386     4325     4401     4577     4707     4693     4599     4612 
    4757     4810     4730     4684     4680     4637     4576     4563 
    4606     4637     4627     4617     4592     4541     4500     4504 
    4531     4511     4433     4382     4402     4438     4460     4477 
    4496     4517     4546     4576     4629     4715     4800     4841 
    4841     4834     4811     4730     4693     4822     4993     4992 
    4831     4714     4710     4669     4509     4383     4382     4372 
    4293     4243     4290     4411     4521     4536     4483     4468 
    4515     4536     4496     4492     4567     4629     4638     4653 
    4700     4745     4741     4681     4637     4606     4519     4446 
    4492     4585     4617     4579     4558     4622     4684     4629 
    4530     4529     4579     4546     4450     4448     4576     4671 
    4657     4642     4630     4522     4379     4361     4437     4438 
    4374     4398     4531     4652     4675     4644     4637     4656 
    4671     4653     4577     4494     4487     4571     4657     4683 
    4680     4683     4681     4654     4604     4564     4534     4496 
    4518     4635     4718     4687     4627     4606     4615     4625 
    4610     4598     4598     4565     4506     4456     4440     4490 
    4568     4588     4573     4573     4552     4480     4417     4429 
    4475     4456     4410     4472     4625     4707     4691     4720 
    4791     4760     4672     4691     4749     4704     4639     4669 
    4704     4653     4588     4594     4648     4681     4652     4583 
    4563     4552     4455     4382     4457     4581     4626     4614 
    4621     4638     4606     4548     4552     4634     4684     4634 
    4595     4649     4696     4673     4662     4704     4712     4644 
    4600     4650     4720     4729     4679     4569     4415     4330 
    4384     4490     4536     4509     4467     4445     4440     4468 
    4519     4531     4492     4467     4459     4444     4476     4594 
    4704     4733     4727     4754     4815     4837     4756     4610 
    4540     4596     4638     4583     4526     4527     4538     4541 
    4580     4662     4734     4762     4788     4838     4860     4819 
    4789     4779     4704     4611     4600     4630     4615     4567 
    4522     4444     4297     4197     4240     4344     4422     4472 
    4513     4591     4707     4792     4842     4884     4884     4823 
    4738     4658     4594     4575     4606     4641     4649     4646 
    4669     4727     4783     4784     4696     4554     4446     4399 
    4388     4422     4492     4545     4553     4556     4610     4668 
    4654     4639     4680     4695     4621     4513     4486     4585 
    4675     4618     4484     4406     4368     4301     4234     4226 
    4257     4302     4332     4368     4461     4553     4576     4611 
    4699     4754     4712     4610     4561     4641     4722     4679 
    4591     4588     4664     4730     4733     4720     4742     4757 
    4722     4673     4633     4581     4545     4575     4666     4753 
    4777     4758     4756     4774     4801     4806     4770     4739 
    4761     4789     4727     4592     4531     4615     4725     4679 
    4471     4326     4380     4473     4441     4361     4337     4363 
    4413     4465     4509     4549     4561     4544     4541     4575 
    4608     4621     4654     4720     4756     4733     4692     4672 
    4693     4739     4689     4491     4298     4251     4298     4311 
    4257     4202     4230     4347     4473     4548     4588     4623 
    4671     4780     4947     5038     4976     4873     4806     4725 
    4604     4487     4438     4464     4482     4475     4473     4459 
    4477     4565     4634     4648     4693     4770     4796     4791 
    4833     4884     4847     4734     4654     4645     4621     4513 
    4374     4294     4272     4243     4212     4221     4267     4320 
    4363     4388     4409     4422     4429     4484     4596     4658 
    4642     4676     4796     4849     4757     4629     4567     4560 
    4548     4537     4564     4579     4550     4564     4691     4839 
    4837     4668     4510     4488     4545     4581     4596     4629 
    4653     4644     4673     4773     4850     4865     4881     4905 
    4866     4777     4739     4761     4745     4684     4649     4634 
    4598     4567     4581     4612     4611     4608     4662     4715 
    4646     4487     4394     4425     4487     4426     4232     4078 
    4089     4195     4309     4448     4571     4557     4457     4469 
    4596     4673     4652     4603     4591     4648     4730     4758 
    4695     4625     4669     4754     4734     4649     4615     4626 
    4637     4638     4638     4634     4572     4480     4511     4648 
    4689     4607     4521     4504     4548     4552     4487     4437 
    4395     4340     4348     4415     4479     4544     4603     4622 
    4618     4627     4660     4688     4665     4625     4638     4679 
    4677     4606     4527     4519     4536     4518     4509     4529 
    4545     4533     4515     4538     4576     4563     4507     4463 
    4433     4379     4311     4303     4388     4452     4392     4332 
    4382     4434     4426     4405     4387     4386     4410     4465 
    4579     4720     4851     4970     5084     5223     5337     5297 
    5121     4942     4784     4641     4576     4587     4591     4556 
    4491     4423     4374     4330     4326     4376     4402     4372 
    4361     4415     4504     4542     4556     4650     4734     4698 
    4691     4789     4833     4752     4648     4621     4631     4603 
    4568     4525     4436     4411     4487     4567     4691     4876 
    4977     4961     4891     4795     4712     4680     4687     4661 
    4558     4475     4498     4572     4649     4726     4726     4623 
    4542     4533     4511     4446     4392     4368     4368     4390 
    4428     4517     4656     4784     4842     4811     4737     4675 
    4662     4722     4757     4675     4591     4608     4637     4598 
    4550     4538     4525     4519     4533     4473     4365     4376 
    4503     4608     4661     4666     4634     4646     4738     4793 
    4722     4619     4594     4625     4658     4711     4797     4862 
    4831     4758     4753     4823     4887     4907     4912     4873 
    4747     4607     4550     4552     4545     4527     4498     4463 
    4436     4422     4465     4576     4621     4523     4363     4245 
    4234     4298     4356     4394     4417     4403     4342     4249 
    4218     4295     4376     4395     4380     4347     4332     4355 
    4375     4398     4452     4527     4637     4795     4926     4935 
    4885     4862     4787     4642     4546     4540     4545     4477 
    4351     4272     4302     4409     4506     4553     4600     4664 
    4683     4679     4754     4851     4833     4749     4710     4723 
    4773     4823     4828     4793     4768     4733     4656     4633 
    4712     4738     4641     4536     4496     4533     4615     4644 
    4596     4541     4530     4576     4600     4527     4438     4450 
    4529     4553     4467     4391     4449     4536     4538     4541 
    4598     4631     4637     4723     4930     5117     5177     5159 
    5081     4931     4777     4654     4546     4455     4394     4369 
    4388     4446     4491     4500     4525     4567     4544     4452 
    4409     4475     4534     4514     4546     4716     4903     4976 
    4957     4959     5022     5046     5017     5031     5050     4938 
    4727     4625     4665     4658     4521     4341     4209     4145 
    4159     4266     4402     4456     4433     4422     4449     4440 
    4365     4355     4467     4577     4611     4588     4515     4437 
    4384     4328     4293     4340     4414     4403     4321     4276 
    4322     4415     4503     4575     4599     4546     4499     4526 
    4577     4650     4776     4895     4970     5009     4990     4897 
    4768     4661     4598     4564     4502     4360     4261     4326 
    4419     4465     4553     4635     4634     4592     4558     4553 
    4556     4557     4642     4831     4990     5050     5036     5005 
    5020     5008     4838     4627     4557     4561     4502     4403 
    4379     4495     4706     4873     4880     4774     4718     4743 
    4774     4800     4835     4853     4811     4729     4677     4672 
    4665     4590     4476     4471     4575     4630     4579     4507 
    4491     4534     4579     4569     4556     4631     4718     4707 
    4677     4716     4746     4662     4509     4396     4336     4283 
    4263     4352     4507     4579     4580     4623     4648     4587 
    4534     4522     4459     4376     4417     4581     4719     4707 
    4576     4496     4510     4477     4384     4324     4291     4267 
    4307     4423     4504     4436     4287     4236     4348     4563 
    4765     4899     4999     5078     5104     5030     4884     4780 
    4756     4741     4707     4703     4742     4803     4861     4847 
    4731     4611     4533     4423     4283     4179     4091     4005 
    4024     4195     4399     4531     4630     4741     4814     4797 
    4746     4745     4739     4668     4608     4588     4525     4407 
    4342     4410     4490     4428     4313     4309     4342     4293 
    4216     4230     4353     4494     4548     4564     4646     4772 
    4911     5059     5101     4950     4760     4729     4828     4865 
    4750     4599     4523     4461     4347     4290     4375     4460 
    4413     4295     4220     4216     4236     4276     4407     4599 
    4708     4680     4590     4521     4536     4623     4745     4861 
    4897     4850     4827     4868     4907     4926     4942     4908 
    4784     4664     4669     4725     4679     4557     4488     4491 
    4495     4457     4407     4411     4438     4353     4158     4024 
    4016     4000     3892     3828     3971     4230     4376     4402 
    4467     4596     4737     4857     4938     5004     5073     5108 
    5112     5090     5046     5008     4957     4855     4743     4676 
    4614     4519     4467     4541     4672     4695     4607     4557 
    4548     4514     4476     4434     4402     4376     4309     4286 
    4392     4510     4542     4525     4504     4507     4526     4590 
    4712     4774     4710     4642     4653     4696     4769     4897 
    5034     5124     5166     5130     5013     4945     4950     4884 
    4764     4706     4634     4531     4518     4560     4514     4352 
    4167     4047     3929     3753     3672     3797     3952     4008 
    4105     4330     4531     4608     4638     4688     4747     4783 
    4815     4923     5073     5116     4996     4819     4691     4630 
    4591     4471     4303     4268     4356     4419     4483     4648 
    4843     4939     4920     4838     4770     4747     4679     4571 
    4552     4606     4671     4700     4642     4568     4507     4396 
    4293     4194     4064     4060     4225     4395     4490     4506 
    4459     4433     4479     4557     4617     4622     4607     4633 
    4712     4855     5043     5165     5229     5300     5278     5128 
    4973     4916     4969     5053     5017     4801     4585     4534 
    4498     4384     4329     4310     4230     4209     4329     4480 
    4530     4450     4318     4266     4338     4417     4413     4436 
    4519     4506     4388     4353     4428     4453     4422     4465 
    4607     4758     4804     4716     4606     4548     4471     4333 
    4228     4253     4413     4600     4680     4644     4596     4581 
    4603     4689     4761     4699     4550     4469     4513     4608 
    4688     4746     4788     4816     4878     4970     4941     4764 
    4629     4608     4577     4434     4257     4224     4295     4311 
    4325     4421     4549     4668     4750     4725     4611     4514 
    4459     4442     4480     4536     4608     4719     4784     4781 
    4812     4897     4968     4992     4953     4861     4714     4487 
    4253     4109     4039     3996     3951     3935     4009     4149 
    4302     4434     4498     4542     4675     4828     4835     4757 
    4791     4889     4900     4858     4819     4716     4549     4440 
    4486     4610     4662     4625     4587     4607     4645     4654 
    4691     4760     4799     4843     4897     4877     4822     4847 
    4942     4968     4865     4741     4710     4745     4716     4564 
    4423     4432     4495     4482     4411     4363     4369     4445 
    4572     4653     4595     4487     4459     4492     4554     4653 
    4760     4874     4934     4833     4689     4650     4679     4737 
    4791     4749     4599     4430     4291     4206     4207     4247 
    4297     4378     4422     4423     4475     4552     4577     4538 
    4490     4523     4627     4720     4729     4644     4598     4639 
    4676     4671     4653     4688     4800     4901     4945     4942 
    4918     4938     4999     4985     4806     4515     4278     4193 
    4228     4302     4368     4437     4537     4668     4803     4899 
    4932     4936     4922     4847     4765     4793     4851     4787 
    4649     4544     4464     4371     4245     4140     4166     4276 
    4321     4282     4264     4306     4355     4391     4464     4572 
    4626     4631     4708     4846     4887     4806     4710     4645 
    4595     4564     4572     4604     4633     4665     4710     4711 
    4619     4496     4444     4441     4399     4348     4365     4403 
    4394     4414     4531     4666     4715     4704     4746     4860 
    4972     5023     5017     5019     5026     4984     4901     4814 
    4756     4780     4878     4953     4936     4874     4866     4912 
    4900     4804     4684     4595     4588     4639     4668     4649 
    4602     4571     4596     4631     4600     4523     4456     4421 
    4374     4255     4139     4136     4195     4236     4241     4190 
    4112     4083     4164     4352     4500     4518     4545     4706 
    4932     5086     5096     5038     5032     5008     4881     4770 
    4757     4762     4710     4571     4422     4341     4274     4180 
    4105     4081     4105     4153     4195     4214     4274     4383 
    4417     4409     4526     4715     4858     4962     5008     4962 
    4914     4920     4892     4795     4695     4590     4465     4369 
    4293     4233     4234     4259     4313     4423     4492     4513 
    4591     4695     4742     4769     4814     4854     4899     4946 
    4996     5067     5054     4887     4691     4526     4371     4259 
    4226     4291     4415     4518     4596     4676     4692     4607 
    4515     4503     4509     4468     4417     4379     4345     4311 
    4315     4402     4530     4626     4673     4657     4598     4577 
    4564     4490     4446     4522     4633     4672     4687     4757 
    4841     4878     4897     4919     4896     4808     4708     4696 
    4803     4873     4769     4633     4630     4687     4700     4658 
    4592     4540     4464     4355     4321     4392     4438     4413 
    4399     4429     4450     4460     4444     4359     4290     4336 
    4430     4522     4600     4592     4546     4596     4683     4664 
    4583     4577     4644     4644     4503     4328     4244     4248 
    4288     4334     4368     4386     4388     4421     4522     4604 
    4585     4552     4633     4803     4919     4887     4754     4650 
    4626     4590     4499     4455     4515     4600     4631     4657 
    4750     4903     5030     5055     5012     5015     5084     5113 
    5049     4946     4881     4826     4734     4646     4572     4482 
    4428     4426     4360     4237     4224     4305     4336     4320 
    4328     4387     4482     4571     4644     4693     4714     4716 
    4718     4761     4857     4932     4950     4936     4935     4927 
    4893     4876     4841     4757     4661     4498     4288     4213 
    4251     4236     4131     4032     4072     4218     4294     4249 
    4174     4186     4324     4475     4544     4592     4685     4762 
    4818     4916     5007     4999     4954     4942     4896     4797 
    4742     4761     4787     4777     4741     4691     4615     4541 
    4518     4519     4457     4359     4374     4500     4576     4548 
