Origin Time       2026/01/15 07:13:00
Lat.              42.7
Long.             145.4
Depth. (km)       30
Mag.              5.7
Station Code      HKD081
Station Lat.      43.6427
Station Long.     144.3901
Station Height(m) 130
Record Time       2026/01/15 07:13:44
Sampling Freq(Hz) 100Hz
Duration Time(s)  77
Dir.              N-S
Scale Factor      7845(gal)/8223790
Max. Acc. (gal)   2.681
Last Correction   2026/01/15 07:13:45
Memo.             
[...]
   -4078    -4149    -4144    -4121    -4104    -4120    -4212    -4317 
   -4330    -4264    -4226    -4286    -4406    -4502    -4492    -4334 
   -4067    -3817    -3681    -3659    -3693    -3748    -3842    -3991 
   -4136    -4175    -4040    -3762    -3500    -3443    -3634    -3886 
   -3962    -3786    -3478    -3226    -3130    -3115    -3063    -2988 
   -2974    -3063    -3238    -3414    -3491    -3474    -3457    -3493 
   -3572    -3653    -3721    -3761    -3767    -3785    -3856    -3964 
   -4062    -4121    -4124    -4043    -3877    -3719    -3692    -3836 
   -4108    -4411    -4626    -4657    -4482    -4125    -3684    -3365 
   -3365    -3655    -4014    -4229    -4206    -3985    -3703    -3503 
   -3456    -3518    -3582    -3566    -3442    -3261    -3103    -3033 
   -3063    -3180    -3372    -3582    -3723    -3757    -3711    -3622 
   -3543    -3561    -3738    -4064    -4453    -4774    -4943    -4954 
   -4876    -4791    -4734    -4676    -4572    -4422    -4237    -4035 
   -3851    -3711    -3589    -3451    -3300    -3190    -3208    -3388 
   -3661    -3890    -3948    -3797    -3515    -3233    -3048    -2980 
   -3007    -3111    -3287    -3484    -3601    -3622    -3646    -3778 
   -4025    -4302    -4504    -4581    -4522    -4357    -4226    -4283 
   -4502    -4685    -4676    -4491    -4268    -4118    -4063    -4068 
   -4066    -4002    -3885    -3746    -3605    -3439    -3208    -2960 
   -2814    -2828    -2955    -3087    -3117    -2995    -2772    -2558 
   -2473    -2583    -2825    -3069    -3260    -3431    -3631    -3862 
   -4060    -4137    -4051    -3840    -3639    -3601    -3757    -3989 
   -4168    -4239    -4202    -4122    -4068    -4063    -4094    -4117 
   -4066    -3937    -3800    -3723    -3713    -3728    -3743    -3773 
   -3839    -3925    -4005    -4032    -3986    -3937    -3973    -4055 
   -4093    -4091    -4128    -4229    -4322    -4313    -4166    -3897 
   -3581    -3335    -3244    -3325    -3541    -3773    -3889    -3855 
   -3750    -3694    -3759    -3928    -4098    -4185    -4198    -4166 
   -4091    -4013    -3970    -3958    -3983    -4077    -4248    -4440 
   -4541    -4476    -4225    -3829    -3411    -3129    -3067    -3179 
   -3334    -3395    -3316    -3181    -3127    -3250    -3564    -3935 
   -4175    -4185    -3970    -3661    -3460    -3495    -3766    -4170 
   -4531    -4730    -4722    -4503    -4176    -3955    -3959    -4120 
   -4295    -4369    -4324    -4226    -4135    -4036    -3917    -3792 
   -3674    -3585    -3520    -3414    -3203    -2907    -2651    -2569 
   -2681    -2903    -3156    -3387    -3565    -3670    -3676    -3578 
   -3412    -3241    -3148    -3168    -3237    -3265    -3264    -3338 
   -3565    -3929    -4353    -4735    -4961    -4957    -4746    -4441 
   -4160    -3933    -3739    -3570    -3472    -3501    -3669    -3924 
   -4180    -4347    -4364    -4257    -4113    -4017    -4017    -4098 
   -4194    -4230    -4164    -3981    -3723    -3491    -3357    -3337 
   -3408    -3520    -3622    -3696    -3720    -3669    -3553    -3453 
   -3430    -3438    -3415    -3353    -3284    -3268    -3357    -3534 
   -3715    -3858    -3983    -4108    -4221    -4309    -4355    -4342 
   -4256    -4139    -4079    -4102    -4175    -4244    -4249    -4199 
   -4198    -4290    -4369    -4332    -4207    -4083    -3994    -3920 
   -3809    -3613    -3334    -3040    -2829    -2760    -2841    -3032 
   -3289    -3574    -3821    -4020    -4205    -4352    -4392    -4282 
   -4028    -3721    -3511    -3499    -3681    -3989    -4348    -4679 
   -4880    -4866    -4653    -4348    -4105    -4045    -4139    -4209 
   -4094    -3778    -3362    -2987    -2748    -2671    -2700    -2783 
   -2924    -3126    -3338    -3473    -3491    -3437    -3387    -3384 
   -3433    -3520    -3604    -3611    -3534    -3485    -3572    -3777 
   -3978    -4050    -3985    -3901    -3912    -4045    -4257    -4484 
   -4676    -4768    -4699    -4465    -4120    -3766    -3565    -3628 
   -3897    -4180    -4313    -4224    -3948    -3588    -3284    -3141 
   -3152    -3273    -3496    -3770    -3994    -4081    -4001    -3850 
   -3781    -3871    -4062    -4201    -4185    -4052    -3910    -3839 
   -3842    -3851    -3793    -3634    -3419    -3253    -3188    -3192 
   -3264    -3442    -3717    -3990    -4155    -4187    -4176    -4239 
   -4422    -4644    -4785    -4779    -4606    -4291    -3951    -3704 
   -3597    -3586    -3564    -3484    -3396    -3357    -3366    -3418 
   -3526    -3677    -3801    -3812    -3708    -3569    -3470    -3445 
   -3512    -3645    -3780    -3897    -3994    -4029    -3967    -3819 
   -3632    -3469    -3370    -3341    -3330    -3275    -3165    -3055 
   -3029    -3196    -3591    -4077    -4448    -4602    -4567    -4421 
   -4282    -4228    -4218    -4155    -4020    -3870    -3767    -3735 
   -3773    -3851    -3908    -3892    -3832    -3811    -3888    -4017 
   -4062    -3942    -3717    -3519    -3456    -3578    -3825    -4017 
   -4010    -3875    -3827    -3990    -4290    -4521    -4538    -4336 
   -3955    -3485    -3069    -2828    -2813    -3002    -3294    -3545 
   -3627    -3546    -3499    -3666    -3978    -4220    -4256    -4124 
   -3962    -3858    -3819    -3839    -3863    -3801    -3632    -3431 
   -3315    -3365    -3569    -3842    -4079    -4197    -4201    -4143 
   -4066    -3983    -3863    -3640    -3333    -3121    -3188    -3499 
   -3838    -4037    -4072    -4014    -3948    -3946    -4036    -4194 
   -4324    -4338    -4257    -4174    -4125    -4047    -3883    -3658 
   -3460    -3343    -3279    -3219    -3176    -3145    -3127    -3177 
   -3329    -3524    -3676    -3739    -3719    -3667    -3615    -3547 
   -3488    -3473    -3466    -3466    -3562    -3792    -4074    -4294 
   -4384    -4356    -4266    -4156    -4063    -4029    -4095    -4267 
   -4488    -4653    -4671    -4567    -4446    -4341    -4186    -3946 
   -3697    -3524    -3438    -3377    -3289    -3159    -2990    -2843 
   -2801    -2878    -3044    -3271    -3512    -3726    -3855    -3863 
   -3836    -3931    -4149    -4320    -4328    -4233    -4124    -3983 
   -3770    -3542    -3420    -3443    -3538    -3600    -3588    -3524 
   -3442    -3407    -3512    -3770    -4063    -4264    -4324    -4284 
   -4214    -4175    -4206    -4261    -4209    -3954    -3570    -3273 
   -3226    -3411    -3700    -3979    -4176    -4271    -4284    -4260 
   -4240    -4261    -4286    -4213    -4028    -3807    -3619    -3523 
   -3550    -3670    -3802    -3867    -3839    -3754    -3659    -3591 
   -3577    -3655    -3817    -3979    -4018    -3888    -3716    -3673 
   -3771    -3875    -3874    -3748    -3547    -3349    -3249    -3330 
   -3541    -3740    -3878    -4032    -4257    -4509    -4681    -4679 
   -4430    -3981    -3497    -3144    -2983    -2988    -3106    -3323 
   -3622    -3902    -4024    -3901    -3601    -3298    -3119    -3109 
   -3254    -3476    -3655    -3730    -3712    -3600    -3393    -3169 
   -3026    -3034    -3237    -3584    -3959    -4280    -4510    -4656 
   -4725    -4664    -4444    -4159    -3959    -3933    -4044    -4168 
   -4185    -4024    -3730    -3466    -3396    -3515    -3667    -3701 
   -3588    -3410    -3231    -3068    -2980    -3045    -3242    -3488 
   -3701    -3828    -3906    -3986    -4074    -4168    -4249    -4310 
   -4379    -4457    -4482    -4406    -4268    -4166    -4149    -4210 
   -4342    -4521    -4658    -4680    -4611    -4546    -4526    -4523 
   -4536    -4560    -4496    -4244    -3800    -3273    -2818    -2524 
   -2400    -2444    -2631    -2883    -3144    -3388    -3601    -3765 
   -3873    -3935    -3979    -4017    -4035    -4056    -4094    -4097 
   -4023    -3923    -3906    -4033    -4244    -4438    -4542    -4472 
   -4201    -3831    -3526    -3354    -3279    -3265    -3311    -3418 
   -3612    -3910    -4244    -4450    -4379    -3981    -3384    -2845 
   -2558    -2546    -2731    -2978    -3176    -3288    -3352    -3424 
   -3519    -3591    -3619    -3643    -3677    -3666    -3572    -3477 
   -3527    -3767    -4063    -4222    -4162    -3929    -3651    -3458 
   -3404    -3458    -3591    -3773    -3989    -4217    -4376    -4359 
   -4147    -3840    -3564    -3430    -3501    -3736    -4025    -4278 
   -4476    -4626    -4707    -4720    -4737    -4803    -4841    -4734 
   -4459    -4083    -3701    -3418    -3296    -3341    -3485    -3627 
   -3680    -3646    -3605    -3635    -3740    -3847    -3913    -3971 
   -4013    -3991    -3893    -3736    -3585    -3555    -3720    -4021 
   -4298    -4415    -4371    -4266    -4198    -4187    -4185    -4135 
   -4004    -3817    -3627    -3454    -3285    -3090    -2880    -2728 
   -2694    -2806    -3036    -3288    -3472    -3542    -3500    -3422 
   -3420    -3545    -3743    -3896    -3873    -3665    -3423    -3292 
   -3302    -3430    -3642    -3871    -4051    -4128    -4125    -4143 
   -4243    -4425    -4654    -4841    -4909    -4884    -4803    -4657 
   -4444    -4212    -4079    -4162    -4434    -4729    -4889    -4870 
   -4693    -4403    -4029    -3596    -3215    -3064    -3187    -3460 
   -3681    -3694    -3489    -3231    -3163    -3342    -3599    -3761 
   -3765    -3638    -3443    -3248    -3136    -3246    -3635    -4185 
   -4675    -4918    -4838    -4473    -3947    -3456    -3181    -3179 
   -3361    -3592    -3753    -3800    -3754    -3692    -3766    -4050 
   -4407    -4658    -4703    -4503    -4050    -3384    -2667    -2160 
   -2037    -2277    -2678    -2991    -3113    -3137    -3177    -3272 
   -3420    -3624    -3838    -3974    -3970    -3811    -3505    -3132 
   -2871    -2875    -3133    -3504    -3828    -4029    -4137    -4206 
   -4267    -4315    -4299    -4156    -3885    -3562    -3329    -3280 
   -3381    -3565    -3834    -4195    -4600    -4966    -5235    -5391 
   -5448    -5417    -5279    -4980    -4483    -3888    -3419    -3254 
   -3366    -3605    -3869    -4140    -4426    -4684    -4847    -4907 
   -4876    -4714    -4421    -4078    -3738    -3384    -3048    -2867 
   -2937    -3211    -3535    -3794    -3954    -3937    -3650    -3171 
   -2755    -2608    -2716    -2886    -2957    -2928    -2918    -3030 
   -3223    -3306    -3122    -2755    -2478    -2500    -2764    -3078 
   -3300    -3406    -3443    -3501    -3713    -4139    -4649    -4982 
   -4918    -4432    -3731    -3140    -2957    -3261    -3808    -4233 
   -4334    -4149    -3832    -3535    -3358    -3352    -3507    -3750 
   -3985    -4140    -4152    -4027    -3885    -3828    -3801    -3684 
   -3446    -3183    -3025    -3044    -3256    -3638    -4104    -4483 
   -4615    -4452    -4074    -3655    -3407    -3484    -3874    -4391 
   -4810    -4989    -4892    -4600    -4279    -4091    -4114    -4261 
   -4372    -4413    -4417    -4328    -4072    -3659    -3157    -2710 
   -2524    -2733    -3271    -3863    -4228    -4243    -3950    -3515 
   -3141    -2928    -2849    -2852    -2940    -3145    -3381    -3495 
   -3404    -3144    -2863    -2756    -2932    -3352    -3870    -4267 
   -4357    -4126    -3797    -3700    -4012    -4618    -5206    -5451 
   -5209    -4595    -3924    -3541    -3615    -4067    -4600    -4827 
   -4530    -3874    -3271    -3045    -3219    -3566    -3836    -3923 
   -3890    -3890    -3962    -4029    -4064    -4121    -4212    -4284 
   -4342    -4445    -4618    -4823    -4958    -4860    -4453    -3888 
   -3476    -3412    -3593    -3746    -3676    -3414    -3173    -3152 
   -3410    -3908    -4498    -4922    -4993    -4753    -4407    -4149 
   -4023    -3898    -3650    -3304    -3037    -3072    -3453    -3933 
   -4229    -4307    -4357    -4486    -4579    -4476    -4179    -3871 
   -3728    -3730    -3717    -3636    -3623    -3802    -4070    -4163 
   -3958    -3603    -3376    -3414    -3634    -3823    -3761    -3342 
   -2722    -2284    -2315    -2722    -3137    -3257    -3009    -2562 
   -2277    -2517    -3361    -4491    -5363    -5557    -5046    -4213 
   -3609    -3569    -3940    -4236    -4091    -3547    -2945    -2629 
   -2724    -3129    -3619    -3947    -3990    -3780    -3412    -3040 
   -2852    -2997    -3480    -4082    -4461    -4464    -4237    -4041 
   -4023    -4079    -4000    -3751    -3493    -3325    -3187    -3044 
   -3017    -3281    -3897    -4727    -5499    -5989    -6124    -5942 
   -5524    -4935    -4236    -3557    -3040    -2748    -2694    -2863 
   -3226    -3697    -4077    -4151    -3865    -3368    -2886    -2569 
   -2475    -2608    -2918    -3369    -3943    -4526    -4914    -4995 
   -4866    -4747    -4824    -5084    -5341    -5405    -5151    -4549 
   -3692    -2810    -2205    -2104    -2520    -3289    -4155    -4874 
   -5341    -5571    -5622    -5532    -5283    -4880    -4403    -3962 
   -3623    -3412    -3318    -3289    -3252    -3136    -2922    -2674 
   -2517    -2544    -2718    -2920    -3053    -3090    -3049    -3019 
   -3083    -3225    -3384    -3578    -3883    -4315    -4770    -5063 
   -5053    -4774    -4448    -4330    -4499    -4801    -4986    -4862 
   -4396    -3701    -2967    -2424    -2311    -2704    -3442    -4185 
   -4596    -4479    -3882    -3129    -2643    -2682    -3134    -3558 
   -3532    -2997    -2257    -1786    -1885    -2452    -3149    -3724 
   -4108    -4293    -4207    -3746    -2920    -1954    -1208     -989 
   -1401    -2222    -3003    -3385    -3353    -3183    -3242    -3761 
   -4602    -5346    -5632    -5367    -4738    -4114    -3820    -3954 
   -4383    -4807    -4947    -4791    -4498    -4178    -3882    -3634 
   -3412    -3175    -2940    -2845    -3036    -3511    -4106    -4591 
   -4793    -4699    -4468    -4288    -4206    -4144    -4072    -4106 
   -4398    -4946    -5563    -5950    -5910    -5548    -5161    -4953 
   -4941    -5017    -5001    -4754    -4298    -3813    -3505    -3430 
   -3485    -3568    -3665    -3808    -3990    -4166    -4278    -4295 
   -4186    -3936    -3562    -3113    -2683    -2423    -2451    -2709 
   -2999    -3164    -3181    -3153    -3226    -3443    -3692    -3805 
   -3750    -3653    -3649    -3769    -3959    -4117    -4183    -4217 
   -4317    -4504    -4707    -4760    -4487    -3906    -3275    -2875 
   -2791    -2890    -2960    -2922    -2871    -2951    -3192    -3470 
   -3635    -3647    -3572    -3473    -3349    -3175    -3010    -2949 
   -2980    -2955    -2728    -2378    -2219    -2513    -3214    -3967 
   -4386    -4314    -3897    -3437    -3227    -3400    -3881    -4488 
   -4988    -5166    -4999    -4672    -4436    -4417    -4527    -4571 
   -4391    -3951    -3364    -2816    -2447    -2327    -2408    -2538 
   -2619    -2690    -2812    -3006    -3289    -3670    -4135    -4567 
   -4799    -4810    -4770    -4822    -4935    -5007    -4996    -4954 
   -4916    -4854    -4753    -4649    -4587    -4596    -4653    -4638 
   -4479    -4221    -3919    -3578    -3234    -2987    -2956    -3146 
   -3392    -3489    -3426    -3321    -3219    -3122    -3105    -3279 
   -3667    -4156    -4550    -4712    -4621    -4317    -3863    -3365 
   -2992    -2926    -3199    -3649    -4029    -4170    -4035    -3699 
   -3318    -3059    -2948    -2845    -2693    -2664    -2952    -3485 
   -4014    -4380    -4608    -4800    -4985    -5073    -4962    -4614 
   -4066    -3504    -3186    -3188    -3385    -3626    -3820    -3913 
   -3861    -3651    -3383    -3215    -3242    -3514    -4028    -4617 
   -5019    -5090    -4865    -4452    -4014    -3721    -3663    -3794 
   -3933    -3906    -3699    -3441    -3264    -3164    -3046    -2902 
   -2820    -2887    -3142    -3564    -4045    -4465    -4745    -4835 
   -4698    -4363    -3978    -3735    -3721    -3893    -4102    -4148 
   -3900    -3458    -3100    -3061    -3384    -3890    -4313    -4534 
   -4626    -4710    -4850    -5020    -5139    -5163    -5074    -4870 
   -4579    -4279    -4054    -3909    -3777    -3570    -3257    -2976 
   -2991    -3438    -4167    -4814    -5031    -4733    -4158    -3672 
   -3483    -3492    -3412    -3083    -2678    -2558    -2879    -3454 
   -3959    -4222    -4279    -4226    -4090    -3888    -3743    -3815 
   -4114    -4436    -4475    -4074    -3387    -2781    -2593    -2967 
   -3778    -4700    -5371    -5539    -5170    -4468    -3792    -3477 
   -3630    -4081    -4534    -4754    -4635    -4205    -3619    -3122 
   -2883    -2924    -3148    -3387    -3511    -3523    -3512    -3520 
   -3507    -3412    -3210    -2974    -2866    -2992    -3302    -3620 
   -3766    -3699    -3550    -3468    -3477    -3488    -3389    -3168 
   -2934    -2843    -3009    -3418    -3912    -4337    -4657    -4884 
   -5038    -5124    -5078    -4819    -4328    -3685    -3102    -2794 
   -2794    -2952    -3072    -3065    -3024    -3071    -3202    -3341 
   -3449    -3516    -3558    -3574    -3531    -3430    -3331    -3287 
   -3291    -3325    -3399    -3514    -3647    -3836    -4140    -4527 
   -4855    -4977    -4858    -4576    -4237    -3924    -3666    -3481 
   -3427    -3565    -3886    -4290    -4599    -4668    -4465    -4098 
   -3755    -3634    -3785    -4056    -4291    -4472    -4625    -4727 
   -4718    -4531    -4180    -3743    -3262    -2749    -2280    -1991 
   -1971    -2180    -2479    -2743    -2895    -2917    -2845    -2756 
   -2698    -2710    -2852    -3140    -3484    -3765    -3962    -4190 
   -4544    -4950    -5250    -5339    -5224    -5008    -4776    -4529 
   -4297    -4178    -4228    -4421    -4657    -4766    -4596    -4152 
   -3613    -3199    -3015    -3030    -3126    -3175    -3100    -2926 
   -2775    -2771    -2911    -3100    -3294    -3524    -3786    -3969 
   -3977    -3882    -3894    -4156    -4604    -4993    -5097    -4845 
   -4307    -3694    -3238    -3061    -3156    -3404    -3649    -3805 
   -3928    -4104    -4320    -4491    -4553    -4518    -4446    -4383 
   -4321    -4243    -4191    -4245    -4374    -4387    -4121    -3635 
   -3187    -3013    -3103    -3238    -3200    -2947    -2644    -2515 
   -2625    -2910    -3245    -3450    -3379    -3051    -2654    -2394 
   -2389    -2578    -2766    -2828    -2817    -2898    -3208    -3766 
   -4448    -5063    -5449    -5548    -5387    -5078    -4793    -4673 
   -4715    -4764    -4658    -4372    -4005    -3699    -3542    -3519 
   -3564    -3655    -3829    -4082    -4301    -4349    -4213    -4032 
   -3952    -3975    -3974    -3843    -3605    -3362    -3186    -3072 
   -2980    -2890    -2851    -2926    -3136    -3437    -3769    -4120 
   -4537    -5035    -5503    -5738    -5578    -5005    -4183    -3419 
   -2979    -2926    -3138    -3412    -3588    -3649    -3708    -3869 
   -4152    -4465    -4615    -4444    -4036    -3699    -3680    -3933 
   -4176    -4174    -3974    -3835    -3952    -4303    -4661    -4749 
   -4476    -4010    -3622    -3477    -3545    -3657    -3658    -3532 
   -3373    -3283    -3304    -3403    -3520    -3600    -3615    -3609 
   -3634    -3662    -3677    -3734    -3871    -4062    -4232    -4336 
   -4376    -4388    -4405    -4436    -4492    -4550    -4502    -4261 
