Origin Time       2026/01/15 07:13:00
Lat.              42.7
Long.             145.4
Depth. (km)       30
Mag.              5.7
Station Code      HKD076
Station Lat.      43.0509
Station Long.     144.8498
Station Height(m) 2
Record Time       2026/01/15 07:13:27
Sampling Freq(Hz) 100Hz
Duration Time(s)  110
Dir.              E-W
Scale Factor      7845(gal)/8223790
Max. Acc. (gal)   9.979
Last Correction   2026/01/15 07:13:27
Memo.             
[...]
     252      251      243      245      245      238      238      243 
     244      244      245      248      248      247      251      251 
     245      244      251      253      248      249      249      240 
     236      234      236      241      238      230      237      244 
     238      243      252      252      252      255      245      240 
     244      238      236      237      232      232      236      236 
     243      245      243      245      243      236      238      243 
     241      241      238      233      238      244      238      238 
     241      236      237      240      233      233      243      240 
     230      232      233      232      232      233      237      236 
     228      233      241      236      234      243      243      245 
     245      236      237      245      243      241      245      244 
     247      252      252      248      249      251      249      249 
     249      251      252      251      255      259      257      256 
     256      249      244      245      244      243      248      249 
     247      251      252      251      249      248      251      253 
     252      249      248      244      243      247      247      245 
     244      243      240      241      243      241      243      241 
     234      236      236      234      234      230      226      232 
     233      232      230      228      226      224      222      225 
     226      226      224      229      234      229      230      234 
     234      234      232      234      240      237      233      237 
     240      240      247      252      249      249      252      251 
     255      255      256      259      252      251      256      251 
     251      259      260      255      256      260      256      257 
     263      257      255      252      251      256      259      260 
     263      256      251      252      251      245      241      238 
     237      240      241      237      234      232      228      232 
     233      232      233      232      229      230      229      226 
     229      228      224      224      222      222      229      226 
     221      229      232      226      230      236      232      229 
     232      236      234      236      237      240      241      241 
     241      240      238      240      245      248      248      247 
     247      248      248      253      261      257      251      256 
     259      251      247      247      243      243      249      251 
     248      244      241      244      244      243      247      247 
     244      248      249      245      251      259      256      253 
     260      263      257      255      251      248      249      244 
     236      236      230      228      234      234      236      238 
     233      230      234      236      234      234      233      234 
     238      233      232      238      234      232      241      241 
     232      233      237      237      240      240      237      238 
     234      236      245      243      241      249      245      238 
     241      243      241      243      245      248      247      238 
     240      248      245      244      251      249      245      247 
     245      243      244      248      255      255      248      245 
     252      251      245      248      245      241      243      243 
     241      245      243      238      240      237      237      243 
     243      240      244      245      241      244      245      243 
     244      243      237      238      240      236      236      236 
     233      236      236      234      237      238      234      236 
     240      234      236      240      240      243      244      238 
     241      244      240      243      244      237      236      241 
     243      245      249      248      245      245      243      243 
     245      245      248      249      248      247      247      247 
     247      248      248      247      245      244      245      251 
     249      248      247      245      251      253      244      243 
     248      243      240      248      248      243      238      238 
     244      247      243      240      238      234      237      241 
     240      236      238      240      237      236      238      241 
     238      233      234      241      244      247      252      247 
     240      241      243      238      240      241      238      234 
     232      233      236      230      230      237      238      240 
     243      240      238      243      245      243      238      237 
     243      244      240      240      244      243      241      243 
     245      244      245      245      247      249      247      243 
     244      241      238      243      240      238      247      248 
     247      252      255      255      259      263      261      263 
     261      260      260      253      249      253      252      249 
     251      248      245      245      244      240      236      234 
     234      234      232      230      234      233      233      240 
     243      238      238      241      240      244      256      272 
     283      275      256      228      199      209      252      272 
     244      197      178      210      278      307      255      175 
     148      191      271      367      444      452      405      340 
     283      294      355      356      315      333      419      519 
     562      526      468      463      510      490      365      283 
     310      372      463      592      670      599      414      232 
      95       52      156      284      338      383      318       64 
     -93       49      297      376      164     -174     -274       36 
     558      904      951      880      670      237     -141     -195 
      13      336      643      832      892      878      778      557 
     418      517      657      664      503      207       45      182 
     352      338      170     -122     -388     -413     -202       91 
     326      383      171     -268     -685     -900    -1032    -1150 
   -1112     -892     -611     -384     -352     -511     -475      -63 
     214       14     -336     -468     -203      336      589      319 
      22       44      159      136       75      186      507      993 
    1475     1588     1290      936      587      193       72      306 
     557      710      811      766      507      108     -306     -607 
    -669     -488     -318     -333     -415     -449     -449     -490 
    -542     -349      162      564      421     -118     -419     -195 
     197      500      639      378      -83     -163      164      587 
    1047     1416     1493     1420     1306      974      538      400 
     589      838      977      935      842      942     1213     1439 
    1436     1236     1104     1066      907      591      193     -125 
     -70      260      326       -5     -405     -704     -804     -444 
     236      571      396      230      211      139       89        9 
    -292     -629     -739     -741     -778     -670     -218      379 
     715      603      156     -329     -511     -232      391     1027 
    1285     1043      599      365      422      517      494      392 
     243      166      291      468      461      261      128      286 
     567      700      652      396       12     -232     -274     -334 
    -595    -1063    -1574    -1852    -1657    -1059     -464     -178 
    -199     -380     -457     -247       94      336      467      544 
     492      186     -210     -259      184      842     1308     1260 
     781      315      194      467      963     1472     1899     2061 
    1769     1185      619      217       91      345      858     1333 
    1547     1433      982      345     -102     -145       86      418 
     653      531        2     -719    -1296    -1433    -1170     -723 
    -209      217      440      589      702      591      351      351 
     645     1003     1318     1528     1578     1530     1298      746 
     136     -174     -157       56      368      708      970      973 
     760      600      594      726      942      996      738      322 
     -60     -263     -201      -16       97       22     -356     -947 
   -1339    -1267     -878     -454     -197     -159     -295     -658 
   -1317    -1941    -1996    -1474     -880     -573     -502     -472 
    -417     -325     -197      -58      170      472      549      306 
      82       94      301      642      936      907      567      179 
     -60      -25      319      758     1011     1048     1007      935 
     735      422      243      276      365      468      587      641 
     653      662      615      560      581      600      463      174 
     -52      -68       28       32     -202     -579     -855     -958 
    -787     -311       60       54     -106     -194      -99      234 
     695     1150     1557     1834     1848     1582     1266     1188 
    1362     1566     1594     1417     1251     1301     1471     1522 
    1323      936      607      460      438      548      773      982 
    1093      986      565      -25     -477     -558     -310      -49 
       6     -139     -521    -1077    -1436    -1301     -795     -282 
     -13      -58     -338     -688     -967     -961     -483      170 
     504      513      471      496      606      797     1017     1213 
    1321     1231      850      288      -97      -54      324      707 
     777      473      116       32      133      143       44      -13 
      -8       14       13      -60     -201     -394     -685     -962 
    -959     -702     -476     -340     -214     -133      -82      -71 
    -236     -500     -587     -465     -338     -275     -248     -222 
    -118       43      167      272      441      673      924     1155 
    1318     1425     1518     1563     1479     1220      827      504 
     456      710     1196     1661     1767     1547     1233      800 
     295      -41     -198     -271     -282     -309     -415     -530 
    -575     -540     -472     -454     -471     -411     -283     -202 
    -221     -321     -390     -233      103      329      261      -60 
    -441     -603     -499     -334     -237     -130      170      699 
    1208     1537     1702     1647     1362     1038      858      841 
     878      820      592      326      234      301      303      248 
     267      241       90      -62     -232     -437     -490     -352 
    -241     -283     -438     -625     -751     -774     -723     -658 
    -608     -538     -434     -351     -330     -392     -529     -606 
    -449      -87      305      587      731      803      874      973 
    1132     1355     1586     1787     1906     1902     1863     1782 
    1460      903      426      284      442      689      799      668 
     438      282       71     -255     -450     -496     -553     -506 
    -256       36      260      417      534      614      546      282 
      24       16      179      222        5     -392     -707     -643 
    -228      259      631      880     1100     1360     1597     1732 
    1691     1389     1019      818      673      465      268      156 
     214      423      542      394        4     -426     -629     -610 
    -589     -627     -608     -502     -445     -506     -542     -456 
    -270      -27       97      -41     -259     -352     -332     -251 
    -144       55      442      866     1124     1128      857      510 
     353      329      245       85      -74     -114       16      201 
     336      419      440      400      364      341      257       94 
     -71     -133      -54       45       10      -91      -93      -22 
     -14      -76     -148     -144       33      284      405      403 
     287      -55     -384     -317       93      668     1333     1769 
    1695     1348     1028      718      367       18     -287     -467 
    -396      -99      194      283      211      110       47      103 
     211       91     -295     -646     -708     -365      395     1221 
    1617     1471     1032      621      434      411      353      191 
      18      -86     -186     -260     -108      167       98     -413 
    -882     -859     -298      498     1077     1152      765       89 
    -661    -1178    -1278    -1065     -726     -452     -440     -625 
    -741     -714     -627     -507     -459     -689    -1208    -1690 
   -1768    -1356     -670      -56      260      314      237      128 
     103      220      400      553      660      783     1035     1405 
    1714     1726     1210      175    -1036    -2084    -2714    -2651 
   -1850     -571      924     2339     3402     4126     4692     5175 
    5482     5440     4930     3865     2185       82    -1992    -3539 
   -4170    -3693    -2091      427     3252     5545     6698     6629 
    5730     4398     2705      614    -1653    -3447    -4033    -3267 
   -1728     -302      272      -40     -514     -430      438     1966 
    3707     5053     5575     5185     4060     2397      369    -1582 
   -2941    -3607    -3705    -3134    -1695      546     3114     5105 
    5602     4137      897    -3099    -6335    -7732    -7165    -5259 
   -3028    -1358     -552     -372     -519    -1015    -1942    -2764 
   -2465     -565     2276     4637     5277     3877      973    -2560 
   -5945    -8627   -10157   -10219    -8849    -6370    -3346     -494 
    1757     3353     4340     4891     5066     4564     3225     1314 
    -726    -2415    -3437    -3632    -2820    -1058     1078     2830 
    3890     4619     5502     6423     6721     5869     3840     1074 
   -1641    -3537    -4207    -3512    -1529     1148     3406     4244 
    3530     2010      680      186      498     1192     1937     2577 
    2968     2822     1753     -315    -2721    -4216    -3817    -1682 
     994     3048     4104     4365     4032     3083     1715      618 
     398      963     1609     1637      965      129     -194      345 
    1413     2138     1876      761     -573    -1605    -2130    -2231 
   -2280    -2544    -2740    -2330    -1175      191      923      795 
     592     1242     2953     5219     7128     7801     6814     4627 
    2421     1104      688      631      486      195     -176     -623 
   -1013    -1123     -859     -433     -307     -812    -1899    -3335 
   -4716    -5417    -5035    -3747    -2077     -592      257      368 
      -6     -666    -1595    -2724    -3994    -5208    -5702    -4868 
   -2945     -858      579     1159     1196     1092      940      577 
      33     -344     -290      162      854     1541     1783     1264 
     248     -641    -1216    -1941    -3079    -4113    -4275    -3302 
   -1532      418     1850     2215     1506      321     -665    -1213 
   -1456    -1561    -1491    -1050     -442     -415    -1293    -2409 
   -3028    -3076    -2681    -1898     -949       24     1134     2470 
    3892     4959     5271     4969     4585     4540     4807     4762 
    3796     2305     1525     2200     3939     5856     7306     7990 
    7858     6970     5421     3566     2122     1715     2342     3443 
    4572     5641     6540     7028     6928     6069     4414     2312 
     294    -1255    -2139    -2448    -2590    -2825    -3026    -3080 
   -2961    -2586    -2019    -1439     -908     -453     -101      278 
     943     1896     2735     3041     2716     1914      974      216 
    -403    -1171    -2173    -3215    -4222    -5236    -5918    -5768 
   -4791    -3499    -2617    -2651    -3437    -4348    -4851    -4806 
   -4375    -3843    -3456    -3253    -3103    -2968    -2975    -3261 
   -3854    -4558    -4992    -4927    -4388    -3430    -2334    -1753 
   -2085    -2913    -3441    -3318    -2619    -1259      869     3335 
    5274     5969     5304     3738     1814      -25    -1344    -2035 
   -2355    -2369    -1806     -442     1489     3308     4477     4895 
    4540     3493     2247     1445     1347     1732     2176     2332 
    2107     1682     1298     1044      853      567      234      156 
     425      807     1039     1004      858      988     1748     3083 
    4446     5262     5320     4693     3559     2131      723     -198 
    -195      872     2635     4175     4703     4411     4083     3909 
    3427     2382     1117      396      770     1942     3106     3771 
    3997     3881     3260     2106      803     -120     -373     -122 
     174      189      -48     -284     -388     -596    -1132    -1759 
   -2074    -1937    -1375     -657     -299     -541    -1121    -1601 
   -1655    -1404    -1395    -1926    -2681    -3181    -3207    -2844 
   -2253    -1382     -226      834     1444     1553     1231      700 
     341      425      901     1371     1305      515     -710    -1922 
   -2824    -3349    -3550    -3443    -3072    -2647    -2393    -2349 
   -2412    -2574    -2878    -3226    -3446    -3501    -3418    -3200 
   -2952    -2801    -2614    -2133    -1335     -425      310      614 
     500      163     -326     -919    -1405    -1644    -1665    -1348 
    -554      454     1277     1803     2103     2170     2026     1753 
    1441     1391     1983     3065     3982     4294     4253     4490 
    5313     6324     6708     6014     4469     2633     1077      159 
    -103       20       81     -274     -943    -1460    -1432     -819 
      94     1097     2239     3403     4230     4638     4741     4600 
    4405     4270     3923     3138     2135     1312      926      965 
    1170     1270     1098      635       68     -414     -764     -909 
    -757     -352      167      596      661      363      179      504 
    1178     1755     1746      900     -452    -1736    -2675    -3289 
   -3701    -3900    -3635    -2836    -1934    -1516    -1775    -2478 
   -3377    -4353    -5128    -5265    -4549    -3153    -1567     -418 
     -49     -299     -812    -1254    -1437    -1513    -1540    -1351 
   -1081     -882     -673     -387      156      955     1524     1503 
     789     -515    -1691    -2053    -1668     -810      201      869 
    1102     1224     1325     1474     2012     2960     3808     4260 
    4351     4063     3566     3114     2668     2209     1895     1834 
    1992     2180     2191     1867     1148      302     -259     -440 
    -437     -405     -247      251     1089     1898     2228     1968 
    1354      693      330      510     1016     1402     1513     1505 
    1660     2038     2201     1813     1192      761      473       81 
    -442     -932    -1308    -1629    -1926    -2060    -1860    -1366 
    -734     -157      106      -70     -639    -1332    -1636    -1294 
    -623     -105      155      400      756     1019      957      685 
     569      720     1008     1287     1275      845      422      510 
    1074     1669     1887     1567      731     -445    -1629    -2482 
   -2941    -3169    -3287    -3331    -3325    -3237    -3084    -3006 
   -3071    -3211    -3357    -3362    -3014    -2326    -1552     -963 
    -629     -318      251     1088     1896     2328     2288     1931 
    1444      982      746      857     1266     1890     2631     3257 
