Origin Time       2026/01/15 07:13:00
Lat.              42.7
Long.             145.4
Depth. (km)       30
Mag.              5.7
Station Code      HKD086
Station Lat.      42.8542
Station Long.     143.8579
Station Height(m) 9
Record Time       2026/01/15 07:13:37
Sampling Freq(Hz) 100Hz
Duration Time(s)  122
Dir.              U-D
Scale Factor      7845(gal)/8223790
Max. Acc. (gal)   3.823
Last Correction   2026/01/15 07:13:37
Memo.             
[...]
   -7522    -7732    -7851    -7919    -7967    -8041    -8212    -8478 
   -8822    -9180    -9394    -9354    -9050    -8532    -7970    -7607 
   -7516    -7630    -7862    -8062    -8087    -7954    -7763    -7658 
   -7742    -7948    -8160    -8345    -8499    -8661    -8880    -9078 
   -9147    -9109    -8985    -8752    -8518    -8421    -8475    -8676 
   -8957    -9109    -8992    -8675    -8341    -8183    -8252    -8417 
   -8534    -8506    -8251    -7894    -7727    -7793    -7916    -7966 
   -7908    -7801    -7758    -7851    -8081    -8303    -8415    -8487 
   -8629    -8900    -9240    -9444    -9348    -9001    -8679    -8579 
   -8619    -8687    -8662    -8395    -7940    -7469    -7083    -6899 
   -6975    -7190    -7450    -7738    -8013    -8226    -8326    -8274 
   -8131    -7971    -7815    -7759    -7946    -8351    -8853    -9320 
   -9563    -9468    -9138    -8795    -8557    -8432    -8445    -8537 
   -8548    -8442    -8266    -8048    -7936    -8005    -8132    -8317 
   -8671    -9043    -9181    -9039    -8668    -8178    -7790    -7642 
   -7732    -7981    -8189    -8324    -8537    -8748    -8795    -8727 
   -8627    -8506    -8452    -8529    -8596    -8536    -8390    -8191 
   -7935    -7658    -7452    -7368    -7365    -7511    -7942    -8523 
   -8980    -9182    -9092    -8770    -8403    -8172    -8118    -8114 
   -8091    -8081    -8019    -7973    -8055    -8131    -8183    -8318 
   -8378    -8262    -8118    -8066    -8141    -8280    -8383    -8465 
   -8499    -8370    -8155    -8056    -8116    -8221    -8276    -8283 
   -8268    -8270    -8351    -8521    -8711    -8769    -8577    -8279 
   -8068    -7971    -8028    -8198    -8348    -8498    -8630    -8640 
   -8581    -8550    -8545    -8608    -8761    -8889    -8888    -8698 
   -8303    -7870    -7643    -7659    -7832    -8156    -8536    -8718 
   -8657    -8577    -8515    -8316    -8089    -8014    -8043    -8151 
   -8303    -8384    -8498    -8710    -8822    -8789    -8685    -8455 
   -8135    -7832    -7516    -7171    -6860    -6689    -6809    -7217 
   -7722    -8251    -8803    -9283    -9682   -10072   -10384   -10438 
  -10212    -9871    -9475    -8935    -8343    -7885    -7585    -7445 
   -7514    -7723    -7943    -8106    -8218    -8361    -8580    -8770 
   -8841    -8861    -8892    -8907    -8905    -8896    -8802    -8544 
   -8167    -7767    -7466    -7356    -7437    -7708    -8106    -8406 
   -8430    -8293    -8237    -8284    -8322    -8382    -8453    -8403 
   -8262    -8116    -7923    -7654    -7384    -7245    -7356    -7663 
   -7946    -8091    -8148    -8160    -8260    -8559    -8923    -9225 
   -9413    -9382    -9223    -9108    -8941    -8739    -8715    -8731 
   -8592    -8417    -8217    -7911    -7608    -7415    -7302    -7264 
   -7339    -7542    -7824    -8108    -8302    -8411    -8487    -8467 
   -8341    -8275    -8360    -8502    -8579    -8546    -8406    -8199 
   -8070    -8108    -8233    -8345    -8395    -8352    -8249    -8121 
   -7989    -7892    -7815    -7746    -7701    -7670    -7673    -7746 
   -7878    -8068    -8294    -8498    -8641    -8698    -8738    -8897 
   -9148    -9288    -9267    -9216    -9136    -9059    -9139    -9306 
   -9371    -9308    -9094    -8671    -8105    -7541    -7095    -6939 
   -7183    -7663    -8082    -8170    -7904    -7630    -7569    -7700 
   -8100    -8664    -9116    -9416    -9560    -9535    -9498    -9547 
   -9609    -9587    -9410    -9090    -8707    -8375    -8156    -8025 
   -7929    -7790    -7537    -7186    -6903    -6856    -7032    -7327 
   -7618    -7719    -7635    -7588    -7723    -8083    -8573    -8915 
   -9063    -9193    -9277    -9301    -9420    -9582    -9597    -9444 
   -9228    -8986    -8653    -8310    -8154    -8100    -8019    -7951 
   -7873    -7801    -7786    -7776    -7875    -8124    -8294    -8344 
   -8399    -8428    -8426    -8511    -8711    -8914    -9003    -9008 
   -9054    -9124    -9178    -9350    -9602    -9639    -9401    -9046 
   -8625    -8222    -7951    -7854    -7912    -7974    -7881    -7707 
   -7570    -7454    -7418    -7538    -7697    -7724    -7585    -7406 
   -7290    -7236    -7281    -7464    -7730    -8036    -8391    -8779 
   -9119    -9319    -9405    -9510    -9664    -9709    -9498    -9146 
   -8874    -8681    -8436    -8113    -7858    -7786    -7873    -8114 
   -8460    -8662    -8677    -8733    -8878    -9018    -9107    -9069 
   -8808    -8376    -7975    -7711    -7569    -7623    -7843    -8062 
   -8268    -8511    -8719    -8770    -8640    -8469    -8291    -8068 
   -7931    -7909    -7889    -7938    -8170    -8471    -8610    -8540 
   -8411    -8316    -8247    -8236    -8220    -8073    -7754    -7346 
   -7101    -7221    -7561    -7906    -8213    -8415    -8460    -8482 
   -8627    -8827    -8930    -8919    -8750    -8409    -8102    -7906 
   -7695    -7441    -7195    -7098    -7296    -7612    -7813    -7911 
   -7928    -7987    -8244    -8576    -8764    -8691    -8378    -7986 
   -7695    -7612    -7642    -7595    -7560    -7739    -8012    -8209 
   -8429    -8662    -8731    -8641    -8496    -8355    -8303    -8392 
   -8550    -8695    -8745    -8618    -8492    -8607    -8795    -8816 
   -8710    -8502    -8236    -8081    -7990    -7916    -7970    -8062 
   -8097    -8158    -8226    -8322    -8459    -8448    -8357    -8445 
   -8617    -8734    -8878    -8953    -8802    -8598    -8577    -8762 
   -9077    -9292    -9112    -8596    -8093    -7862    -7916    -8102 
   -8298    -8448    -8484    -8406    -8271    -8170    -8293    -8661 
   -9047    -9254    -9188    -8927    -8681    -8554    -8448    -8198 
   -7830    -7460    -7140    -6982    -7083    -7348    -7636    -7924 
   -8247    -8523    -8579    -8503    -8580    -8816    -9032    -9124 
   -8974    -8608    -8306    -8217    -8206    -8191    -8251    -8401 
   -8590    -8734    -8698    -8455    -8131    -7902    -7900    -8048 
   -8166    -8220    -8260    -8290    -8392    -8615    -8679    -8378 
   -8014    -7904    -8016    -8291    -8703    -9067    -9159    -9016 
   -8806    -8549    -8297    -8167    -8121    -8127    -8199    -8276 
   -8398    -8546    -8541    -8405    -8222    -7998    -7825    -7686 
   -7535    -7470    -7392    -7132    -6859    -6793    -7010    -7588 
   -8395    -9113    -9614    -9917   -10034    -9956    -9751    -9568 
   -9316    -8870    -8486    -8247    -7902    -7515    -7221    -6940 
   -6818    -6980    -7272    -7696    -8216    -8496    -8460    -8352 
   -8291    -8355    -8669    -9112    -9400    -9467    -9398    -9232 
   -9001    -8738    -8459    -8155    -7831    -7572    -7406    -7263 
   -7183    -7327    -7731    -8256    -8721    -9024    -9224    -9302 
   -9128    -8768    -8482    -8372    -8330    -8233    -8097    -8060 
   -8164    -8309    -8426    -8418    -8279    -8217    -8352    -8649 
   -8931    -8949    -8806    -8754    -8760    -8729    -8584    -8274 
   -8008    -7888    -7727    -7527    -7384    -7213    -7086    -7227 
   -7641    -8101    -8434    -8668    -8905    -9165    -9354    -9421 
   -9467    -9498    -9333    -9013    -8714    -8434    -8267    -8363 
   -8514    -8419    -8052    -7523    -7052    -6941    -7204    -7577 
   -7834    -7804    -7445    -6960    -6650    -6667    -6997    -7677 
   -8645    -9540   -10102   -10307   -10188    -9949    -9805    -9738 
   -9647    -9437    -9069    -8635    -8245    -7948    -7778    -7740 
   -7842    -8056    -8306    -8564    -8765    -8795    -8710    -8669 
   -8762    -8978    -9204    -9362    -9478    -9504    -9309    -8920 
   -8540    -8247    -7978    -7761    -7616    -7487    -7431    -7519 
   -7685    -7963    -8387    -8749    -8942    -9092    -9215    -9274 
   -9213    -8873    -8298    -7681    -7128    -6762    -6659    -6741 
   -6889    -6982    -6978    -7003    -7171    -7369    -7447    -7458 
   -7587    -7902    -8286    -8580    -8675    -8571    -8397    -8268 
   -8230    -8283    -8398    -8537    -8694    -8969    -9340    -9636 
   -9872    -9987    -9810    -9559    -9467    -9417    -9441    -9616 
   -9744    -9687    -9474    -9128    -8715    -8349    -8041    -7668 
   -7261    -7053    -7069    -7171    -7393    -7781    -8102    -8081 
   -7782    -7388    -6899    -6434    -6291    -6517    -7002    -7657 
   -8283    -8768    -9131    -9231    -9011    -8787    -8787    -8914 
   -9135    -9448    -9667    -9668    -9416    -8916    -8262    -7566 
   -7018    -6817    -6879    -7020    -7157    -7177    -7049    -6912 
   -6905    -7155    -7576    -7935    -8257    -8580    -8796    -8916 
   -8989    -9023    -9009    -8916    -8893    -9092    -9370    -9607 
   -9810    -9909    -9891    -9767    -9479    -9107    -8793    -8646 
   -8676    -8617    -8239    -7744    -7404    -7267    -7334    -7543 
   -7728    -7827    -7844    -7812    -7797    -7740    -7541    -7312 
   -7276    -7518    -7906    -8311    -8727    -9049    -9184    -9224 
   -9173    -9000    -8919    -9078    -9319    -9458    -9468    -9304 
   -8881    -8295    -7801    -7516    -7375    -7387    -7607    -7851 
   -7912    -7819    -7636    -7438    -7338    -7391    -7651    -8005 
   -8191    -8194    -8145    -8106    -8224    -8586    -9005    -9317 
   -9547    -9655    -9641    -9644    -9651    -9535    -9323    -9009 
   -8490    -7886    -7410    -7032    -6733    -6547    -6324    -6084 
   -6073    -6376    -6967    -7794    -8700    -9549   -10253   -10656 
  -10638   -10255    -9690    -9132    -8788    -8745    -8861    -8947 
   -9016    -9161    -9313    -9390    -9398    -9236    -8773    -8151 
   -7600    -7159    -6804    -6601    -6593    -6640    -6608    -6633 
   -6771    -6825    -6871    -7118    -7507    -7979    -8521    -8914 
   -9097    -9306    -9566    -9730    -9765    -9580    -9127    -8640 
   -8452    -8614    -8850    -8964    -8951    -8791    -8506    -8163 
   -7728    -7250    -6874    -6650    -6648    -6941    -7368    -7654 
   -7769    -7840    -7811    -7676    -7658    -7755    -7881    -8197 
   -8660    -9049    -9288    -9247    -8945    -8672    -8499    -8370 
   -8372    -8371    -8124    -7776    -7524    -7335    -7226    -7253 
   -7380    -7615    -8050    -8716    -9502   -10196   -10605   -10693 
  -10655   -10608   -10440   -10165    -9922    -9706    -9466    -9151 
   -8718    -8299    -7992    -7746    -7645    -7731    -7767    -7573 
   -7342    -7260    -7204    -7203    -7322    -7342    -7268    -7271 
   -7315    -7468    -7789    -8105    -8370    -8679    -8907    -8955 
   -8954    -8950    -8958    -9084    -9324    -9479    -9412    -9313 
   -9382    -9514    -9616    -9612    -9441    -9250    -9072    -8698 
   -8095    -7429    -6899    -6652    -6642    -6671    -6574    -6365 
   -6169    -6053    -6052    -6218    -6555    -7022    -7512    -7894 
   -8144    -8421    -8822    -9197    -9508    -9972   -10492   -10783 
  -10929   -11017   -10871   -10477    -9919    -9151    -8266    -7499 
   -6995    -6914    -7261    -7711    -8033    -8240    -8391    -8533 
   -8598    -8534    -8456    -8405    -8340    -8364    -8591    -8968 
   -9356    -9728   -10135   -10419   -10373   -10084    -9670    -9157 
   -8641    -8217    -7943    -7765    -7489    -7152    -6907    -6670 
   -6421    -6374    -6539    -6841    -7331    -7820    -8019    -7982 
   -7844    -7676    -7631    -7766    -8014    -8353    -8762    -9154 
   -9405    -9501    -9529    -9424    -9089    -8623    -8136    -7673 
   -7311    -7105    -7041    -7114    -7322    -7604    -7809    -7844 
   -7800    -7854    -8144    -8698    -9390   -10021   -10401   -10497 
  -10440   -10255    -9837    -9247    -8604    -8013    -7684    -7720 
   -7917    -8010    -7832    -7371    -6874    -6585    -6463    -6411 
   -6370    -6291    -6293    -6500    -6874    -7420    -8108    -8833 
   -9649   -10546   -11273   -11700   -11801   -11488   -10848   -10122 
   -9459    -8883    -8324    -7766    -7260    -6814    -6521    -6512 
   -6655    -6779    -7015    -7456    -7927    -8367    -8775    -8939 
   -8796    -8561    -8379    -8320    -8363    -8401    -8498    -8750 
   -9046    -9204    -9120    -8857    -8554    -8249    -8002    -7933 
   -8020    -8097    -8031    -7781    -7406    -7009    -6698    -6563 
   -6655    -6968    -7380    -7740    -7985    -8094    -8179    -8364 
   -8621    -8915    -9246    -9566    -9930   -10386   -10795   -11055 
  -11125   -10943   -10538   -10034    -9533    -9128    -8955    -9072 
   -9305    -9425    -9320    -8951    -8317    -7537    -6863    -6357 
   -5836    -5281    -4816    -4476    -4375    -4634    -5196    -6033 
   -7136    -8262    -9216   -10034   -10666   -11021   -11172   -11191 
  -11065   -10805   -10459    -9953    -9200    -8384    -7738    -7271 
   -6993    -6970    -7155    -7469    -7904    -8433    -8950    -9347 
   -9566    -9552    -9290    -8846    -8330    -7886    -7485    -6978 
   -6374    -5827    -5456    -5305    -5344    -5537    -5872    -6303 
   -6836    -7550    -8357    -9042    -9485    -9693    -9765    -9753 
   -9667    -9616    -9633    -9697    -9810    -9853    -9784    -9747 
   -9822    -9937    -9911    -9720    -9454    -9038    -8449    -7840 
   -7240    -6647    -6134    -5729    -5545    -5687    -6002    -6335 
   -6619    -6860    -7303    -8079    -9000    -9904   -10694   -11311 
  -11823   -12205   -12339   -12098   -11385   -10357    -9325    -8418 
   -7593    -6891    -6424    -6104    -5848    -5767    -5792    -5806 
   -5884    -5992    -6104    -6393    -6878    -7398    -7966    -8629 
   -9290    -9991   -10763   -11372   -11646   -11574   -11101   -10349 
   -9564    -8815    -8256    -8064    -8168    -8545    -9105    -9468 
   -9478    -9261    -8866    -8444    -8139    -7861    -7663    -7654 
   -7578    -7227    -6718    -6208    -5842    -5783    -6087    -6643 
   -7250    -7838    -8432    -8966    -9364    -9594    -9589    -9335 
   -8946    -8478    -7939    -7469    -7248    -7323    -7635    -8037 
   -8421    -8764    -8974    -9012    -8947    -8658    -8048    -7360 
   -6809    -6448    -6338    -6442    -6696    -7064    -7473    -7969 
   -8617    -9271    -9778   -10126   -10303   -10409   -10646   -10887 
  -10804   -10385    -9767    -9030    -8376    -7982    -7805    -7782 
   -7932    -8197    -8460    -8660    -8726    -8581    -8195    -7619 
   -6990    -6431    -6057    -5917    -5933    -6115    -6500    -6964 
   -7406    -7819    -8203    -8649    -9219    -9774   -10177   -10439 
  -10507   -10301    -9850    -9225    -8595    -8116    -7776    -7607 
   -7624    -7665    -7645    -7645    -7744    -8020    -8464    -9005 
   -9572   -10030   -10238   -10119    -9699    -9103    -8383    -7636 
   -7111    -6855    -6659    -6438    -6234    -6039    -5922    -6065 
   -6508    -7114    -7817    -8603    -9315    -9761    -9850    -9591 
   -9138    -8689    -8345    -8122    -8005    -7974    -7966    -7970 
   -8100    -8309    -8411    -8472    -8671    -8977    -9304    -9609 
   -9805    -9873    -9868    -9798    -9616    -9228    -8665    -8147 
   -7746    -7379    -7155    -7211    -7441    -7765    -8116    -8264 
   -8203    -8167    -8225    -8384    -8638    -8864    -9038    -9205 
   -9329    -9472    -9668    -9687    -9398    -8943    -8480    -8128 
   -7986    -8100    -8425    -8741    -8858    -8833    -8716    -8479 
   -8178    -7892    -7639    -7510    -7584    -7785    -8021    -8216 
   -8262    -8208    -8236    -8378    -8506    -8502    -8356    -8179 
   -8048    -7954    -7894    -7869    -7900    -8068    -8374    -8710 
   -9009    -9184    -9121    -8831    -8509    -8334    -8355    -8623 
   -9090    -9482    -9643    -9655    -9529    -9229    -8897    -8610 
   -8272    -7928    -7713    -7589    -7457    -7268    -7072    -6990 
   -7011    -7052    -7061    -7010    -6970    -7111    -7408    -7711 
   -8046    -8434    -8765    -9045    -9342    -9516    -9416    -9138 
   -8793    -8336    -7797    -7287    -6918    -6831    -7021    -7319 
   -7597    -7786    -7904    -8063    -8309    -8657    -9066    -9389 
   -9582    -9679    -9697    -9683    -9613    -9448    -9266    -9166 
   -9154    -9151    -9119    -9046    -8920    -8791    -8723    -8707 
   -8661    -8553    -8387    -8172    -7935    -7639    -7290    -6984 
   -6779    -6759    -7010    -7442    -7898    -8303    -8635    -8911 
   -9097    -9202    -9347    -9518    -9603    -9543    -9224    -8633 
   -7978    -7449    -7059    -6762    -6627    -6652    -6683    -6754 
   -6924    -7049    -7129    -7229    -7264    -7273    -7311    -7318 
   -7350    -7512    -7726    -7846    -7852    -7874    -8000    -8243 
   -8644    -9135    -9521    -9752    -9886    -9965   -10054   -10195 
  -10434   -10791   -11141   -11353   -11437   -11418   -11245   -10874 
  -10358    -9736    -8992    -8208    -7485    -6918    -6569    -6358 
   -6196    -6091    -5965    -5746    -5528    -5428    -5464    -5609 
   -5869    -6185    -6478    -6831    -7384    -8093    -8762    -9328 
   -9834   -10181   -10304   -10386   -10494   -10519   -10536   -10671 
  -10812   -10905   -11032   -11109   -11049   -10887   -10592   -10118 
   -9506    -8785    -7975    -7136    -6389    -5840    -5467    -5215 
   -5103    -5128    -5224    -5343    -5532    -5807    -6052    -6224 
   -6455    -6786    -7173    -7635    -8187    -8730    -9116    -9313 
   -9390    -9412    -9436    -9495    -9545    -9526    -9412    -9256 
   -9150    -9062    -8910    -8712    -8490    -8253    -8136    -8176 
   -8230    -8272    -8383    -8536    -8671    -8769    -8770    -8619 
   -8390    -8199    -8046    -7948    -7982    -8056    -8074    -8083 
   -8071    -8017    -8024    -8114    -8256    -8379    -8343    -8166 
   -7997    -7846    -7661    -7476    -7299    -7150    -7182    -7508 
   -8062    -8703    -9289    -9630    -9625    -9374    -9007    -8614 
   -8340    -8249    -8222    -8182    -8128    -8013    -7921    -7983 
   -8124    -8279    -8444    -8507    -8436    -8284    -8136    -8112 
   -8166    -8186    -8199    -8152    -8004    -7875    -7798    -7728 
   -7659    -7581    -7565    -7690    -7855    -7969    -8090    -8239 
   -8444    -8799    -9281    -9730    -9998   -10061    -9969    -9697 
   -9296    -8908    -8532    -8183    -7986    -7906    -7893    -8029 
   -8243    -8352    -8332    -8237    -8041    -7754    -7562    -7539 
   -7520    -7510    -7626    -7771    -7920    -8193    -8511    -8772 
   -9053    -9312    -9445    -9529    -9559    -9489    -9447    -9427 
   -9296    -9151    -9074    -8989    -8964    -9062    -9157    -9225 
   -9308    -9332    -9309    -9283    -9283    -9327    -9277    -9036 
   -8694    -8293    -7838    -7435    -7233    -7225    -7295    -7443 
   -7681    -7898    -8063    -8213    -8357    -8468    -8473    -8426 
   -8418    -8384    -8286    -8148    -7975    -7881    -7913    -7938 
   -7933    -7986    -8031    -8041    -8101    -8181    -8203    -8183 
   -8179    -8248    -8361    -8438    -8482    -8533    -8622    -8780 
   -8945    -8993    -8931    -8826    -8712    -8631    -8527    -8340 
   -8094    -7809    -7572    -7514    -7627    -7834    -8105    -8421 
