Origin Time       2026/01/15 07:13:00
Lat.              42.7
Long.             145.4
Depth. (km)       30
Mag.              5.7
Station Code      HKD072
Station Lat.      43.1948
Station Long.     145.5209
Station Height(m) 46
Record Time       2026/01/15 07:13:29
Sampling Freq(Hz) 100Hz
Duration Time(s)  107
Dir.              E-W
Scale Factor      7845(gal)/8223790
Max. Acc. (gal)   14.608
Last Correction   2026/01/15 07:13:29
Memo.             
[...]
  -14557   -14557   -14555   -14554   -14555   -14557   -14555   -14558 
  -14558   -14555   -14555   -14557   -14557   -14558   -14558   -14557 
  -14554   -14554   -14557   -14554   -14554   -14557   -14557   -14555 
  -14555   -14558   -14557   -14557   -14555   -14554   -14557   -14558 
  -14557   -14555   -14557   -14555   -14554   -14555   -14557   -14557 
  -14557   -14553   -14554   -14557   -14557   -14554   -14554   -14555 
  -14557   -14555   -14555   -14558   -14558   -14558   -14558   -14557 
  -14557   -14557   -14557   -14555   -14557   -14558   -14555   -14554 
  -14555   -14557   -14554   -14553   -14554   -14555   -14557   -14558 
  -14555   -14554   -14555   -14559   -14559   -14557   -14557   -14559 
  -14559   -14559   -14559   -14558   -14555   -14553   -14554   -14555 
  -14557   -14558   -14557   -14554   -14554   -14557   -14555   -14555 
  -14558   -14557   -14558   -14561   -14561   -14559   -14561   -14557 
  -14555   -14558   -14558   -14557   -14558   -14555   -14550   -14553 
  -14558   -14557   -14555   -14555   -14557   -14557   -14555   -14557 
  -14557   -14557   -14557   -14557   -14555   -14555   -14558   -14557 
  -14555   -14557   -14558   -14558   -14557   -14554   -14555   -14558 
  -14558   -14557   -14559   -14561   -14558   -14557   -14554   -14555 
  -14559   -14561   -14559   -14558   -14555   -14555   -14557   -14555 
  -14553   -14557   -14559   -14557   -14557   -14558   -14557   -14557 
  -14558   -14558   -14559   -14558   -14557   -14558   -14558   -14557 
  -14559   -14559   -14557   -14555   -14554   -14557   -14557   -14554 
  -14554   -14558   -14559   -14559   -14557   -14555   -14557   -14557 
  -14557   -14558   -14555   -14555   -14558   -14559   -14558   -14554 
  -14554   -14557   -14555   -14555   -14557   -14558   -14558   -14555 
  -14555   -14558   -14558   -14557   -14557   -14554   -14555   -14557 
  -14557   -14557   -14557   -14558   -14561   -14559   -14557   -14557 
  -14555   -14553   -14554   -14554   -14555   -14557   -14557   -14557 
  -14558   -14559   -14561   -14558   -14557   -14558   -14557   -14554 
  -14557   -14557   -14554   -14554   -14554   -14553   -14553   -14555 
  -14558   -14555   -14554   -14558   -14558   -14558   -14559   -14558 
  -14555   -14555   -14557   -14557   -14554   -14554   -14554   -14554 
  -14554   -14555   -14557   -14557   -14557   -14558   -14558   -14558 
  -14558   -14557   -14557   -14555   -14553   -14554   -14555   -14554 
  -14555   -14555   -14554   -14554   -14555   -14558   -14559   -14558 
  -14557   -14555   -14555   -14558   -14559   -14559   -14557   -14555 
  -14557   -14558   -14557   -14557   -14555   -14555   -14557   -14555 
  -14554   -14555   -14555   -14557   -14558   -14558   -14557   -14557 
  -14558   -14558   -14557   -14558   -14557   -14554   -14555   -14557 
  -14555   -14554   -14557   -14557   -14554   -14555   -14558   -14559 
  -14558   -14557   -14557   -14557   -14557   -14557   -14557   -14555 
  -14555   -14558   -14559   -14557   -14555   -14557   -14555   -14555 
  -14557   -14557   -14559   -14559   -14558   -14557   -14557   -14554 
  -14557   -14561   -14558   -14554   -14555   -14558   -14557   -14557 
  -14557   -14554   -14554   -14555   -14555   -14555   -14555   -14557 
  -14555   -14554   -14555   -14558   -14559   -14561   -14558   -14555 
  -14557   -14557   -14553   -14553   -14554   -14555   -14557   -14554 
  -14553   -14555   -14557   -14554   -14557   -14559   -14558   -14557 
  -14558   -14557   -14555   -14554   -14554   -14557   -14558   -14555 
  -14554   -14558   -14559   -14559   -14558   -14557   -14555   -14558 
  -14557   -14554   -14554   -14558   -14558   -14555   -14554   -14555 
  -14555   -14555   -14557   -14557   -14554   -14555   -14561   -14559 
  -14555   -14557   -14558   -14558   -14558   -14558   -14557   -14555 
  -14554   -14557   -14558   -14558   -14555   -14551   -14553   -14557 
  -14557   -14557   -14557   -14557   -14557   -14557   -14558   -14559 
  -14558   -14557   -14558   -14557   -14554   -14555   -14557   -14555 
  -14554   -14555   -14555   -14555   -14557   -14557   -14557   -14559 
  -14558   -14558   -14558   -14555   -14557   -14558   -14557   -14557 
  -14555   -14555   -14558   -14557   -14555   -14557   -14557   -14557 
  -14555   -14555   -14559   -14561   -14557   -14557   -14558   -14557 
  -14557   -14557   -14555   -14554   -14557   -14558   -14554   -14554 
  -14557   -14557   -14557   -14558   -14555   -14555   -14555   -14555 
  -14557   -14558   -14557   -14554   -14554   -14555   -14554   -14553 
  -14557   -14557   -14555   -14558   -14559   -14557   -14557   -14559 
  -14559   -14557   -14557   -14555   -14554   -14555   -14557   -14555 
  -14554   -14557   -14557   -14555   -14558   -14559   -14559   -14559 
  -14558   -14557   -14555   -14557   -14558   -14558   -14555   -14555 
  -14557   -14557   -14557   -14557   -14558   -14559   -14561   -14559 
  -14557   -14558   -14559   -14558   -14555   -14554   -14554   -14554 
  -14555   -14558   -14558   -14555   -14557   -14558   -14558   -14557 
  -14557   -14558   -14558   -14555   -14555   -14555   -14554   -14558 
  -14559   -14558   -14555   -14554   -14554   -14557   -14557   -14557 
  -14558   -14558   -14558   -14557   -14557   -14557   -14557   -14555 
  -14557   -14558   -14558   -14559   -14558   -14557   -14557   -14558 
  -14557   -14555   -14557   -14557   -14558   -14558   -14557   -14557 
  -14557   -14558   -14558   -14557   -14557   -14559   -14561   -14559 
  -14558   -14558   -14557   -14557   -14558   -14557   -14555   -14557 
  -14555   -14553   -14557   -14559   -14559   -14558   -14559   -14561 
  -14559   -14557   -14557   -14558   -14558   -14557   -14557   -14555 
  -14555   -14558   -14558   -14557   -14557   -14557   -14558   -14561 
  -14561   -14559   -14559   -14562   -14563   -14565   -14570   -14578 
  -14582   -14585   -14588   -14585   -14585   -14592   -14601   -14609 
  -14611   -14605   -14596   -14580   -14562   -14546   -14528   -14505 
  -14478   -14459   -14461   -14478   -14497   -14509   -14520   -14532 
  -14544   -14566   -14617   -14700   -14796   -14875   -14908   -14883 
  -14823   -14755   -14696   -14621   -14503   -14376   -14308   -14318 
  -14378   -14434   -14426   -14353   -14262   -14226   -14299   -14455 
  -14615   -14748   -14850   -14898   -14886   -14820   -14693   -14523 
  -14377   -14326   -14349   -14368   -14354   -14335   -14314   -14272 
  -14264   -14315   -14364   -14384   -14426   -14542   -14736   -14925 
  -14985   -14904   -14755   -14634   -14638   -14796   -15001   -15117 
  -15086   -14909   -14656   -14401   -14122   -13848   -13733   -13859 
  -14152   -14474   -14696   -14775   -14740   -14604   -14416   -14273 
  -14207   -14226   -14369   -14592   -14779   -14891   -14979   -15087 
  -15198   -15277   -15344   -15454   -15608   -15673   -15456   -14874 
  -14114   -13545   -13354   -13396   -13478   -13528   -13539   -13576 
  -13741   -14025   -14320   -14551   -14733   -14939   -15184   -15399 
  -15542   -15591   -15449   -15105   -14742   -14555   -14567   -14681 
  -14767   -14725   -14521   -14203   -13918   -13842   -13990   -14188 
  -14284   -14258   -14215   -14273   -14458   -14748   -15087   -15299 
  -15252   -15030   -14812   -14704   -14739   -14872   -14940   -14766 
  -14330   -13792   -13367   -13161   -13186   -13420   -13784   -14172 
  -14538   -14926   -15395   -15901   -16276   -16384   -16272   -16017 
  -15577   -14991   -14449   -14026   -13641   -13215   -12784   -12491 
  -12499   -12853   -13451   -14152   -14847   -15453   -15907   -16105 
  -15981   -15646   -15299   -15053   -14912   -14787   -14611   -14408 
  -14246   -14143   -14062   -13984   -13934   -13899   -13825   -13751 
  -13759   -13867   -14138   -14655   -15280   -15681   -15711   -15597 
  -15601   -15674   -15619   -15344   -14898   -14385   -13892   -13539 
  -13414   -13495   -13690   -13840   -13775   -13558   -13439   -13571 
  -13961   -14553   -15221   -15809   -16200   -16349   -16299   -16093 
  -15716   -15161   -14511   -13964   -13680   -13590   -13533   -13495 
  -13549   -13705   -13891   -14062   -14292   -14666   -15130   -15519 
  -15697   -15619   -15365   -15084   -14831   -14516   -14104   -13770 
  -13761   -14094   -14461   -14581   -14445   -14184   -13937   -13811 
  -13853   -14085   -14503   -15026   -15515   -15813   -15800   -15462 
  -14945   -14526   -14388   -14445   -14496   -14497   -14570   -14781 
  -14989   -14989   -14715   -14269   -13836   -13548   -13467   -13635 
  -14035   -14531   -14912   -15070   -15003   -14752   -14424   -14211 
  -14223   -14357   -14416   -14343   -14245   -14265   -14492   -14864 
  -15205   -15425   -15566   -15606   -15458   -15113   -14683   -14349 
  -14153   -13987   -13770   -13543   -13425   -13558   -13984   -14542 
  -14953   -15084   -15032   -14893   -14617   -14258   -14080   -14185 
  -14408   -14665   -15001   -15336   -15511   -15441   -15110   -14602 
  -14114   -13837   -13861   -14143   -14553   -14940   -15171   -15169 
  -14932   -14565   -14288   -14277   -14500   -14770   -14937   -14932 
  -14692   -14193   -13522   -12858   -12510   -12760   -13558   -14562 
  -15472   -16131   -16448   -16399   -16109   -15785   -15581   -15511 
  -15395   -15018   -14399   -13757   -13198   -12727   -12536   -12800 
  -13342   -13903   -14480   -15114   -15651   -15823   -15529   -15002 
  -14577   -14451   -14652   -14964   -15102   -15012   -14777   -14438 
  -14048   -13722   -13595   -13752   -14067   -14310   -14434   -14527 
  -14612   -14654   -14658   -14673   -14706   -14767   -14944   -15295 
  -15653   -15741   -15473   -14998   -14523   -14169   -13876   -13556 
  -13320   -13262   -13301   -13424   -13749   -14308   -14948   -15457 
  -15734   -15743   -15503   -15195   -15018   -14910   -14658   -14239 
  -13856   -13662   -13628   -13694   -13895   -14287   -14828   -15333 
  -15592   -15574   -15383   -15098   -14806   -14557   -14305   -14095 
  -14002   -13975   -13975   -14014   -14084   -14285   -14732   -15291 
  -15630   -15550   -15157   -14708   -14427   -14442   -14662   -14836 
  -14798   -14550   -14210   -13888   -13644   -13574   -13790   -14256 
  -14755   -15082   -15199   -15126   -14864   -14538   -14359   -14349 
  -14341   -14373   -14604   -14912   -15067   -15003   -14794   -14586 
  -14484   -14424   -14291   -14075   -13848   -13618   -13402   -13363 
  -13703   -14428   -15265   -15901   -16247   -16325   -16094   -15530 
  -14829   -14332   -14146   -14076   -13975   -13861   -13776   -13757 
  -13807   -13849   -13844   -13900   -14192   -14797   -15566   -16163 
  -16328   -16062   -15542   -14997   -14581   -14278   -14040   -13940 
  -13976   -13959   -13822   -13683   -13601   -13582   -13652   -13810 
  -14053   -14403   -14871   -15388   -15712   -15626   -15280   -14970 
  -14754   -14613   -14640   -14816   -14967   -14963   -14810   -14638 
  -14505   -14246   -13776   -13351   -13270   -13558   -13972   -14231 
  -14319   -14443   -14651   -14882   -15171   -15515   -15840   -16087 
  -16106   -15753   -15111   -14373   -13597   -12857   -12460   -12718 
  -13549   -14513   -15157   -15327   -15180   -14921   -14729   -14751 
  -14952   -15171   -15300   -15279   -15068   -14698   -14276   -13946 
  -13810   -13830   -13911   -14029   -14214   -14424   -14580   -14675 
  -14779   -14908   -14994   -15045   -15187   -15415   -15522   -15411 
  -15176   -14898   -14565   -14172   -13826   -13672   -13709   -13772 
  -13721   -13618   -13679   -13994   -14446   -14895   -15288   -15608 
  -15808   -15800   -15570   -15228   -14866   -14519   -14222   -14035 
  -14011   -14122   -14235   -14195   -13996   -13771   -13613   -13579 
  -13737   -14083   -14521   -14956   -15302   -15471   -15438   -15261 
  -14987   -14678   -14447   -14351   -14335   -14310   -14246   -14237 
  -14391   -14644   -14818   -14785   -14589   -14443   -14554   -14908 
  -15263   -15307   -14941   -14401   -13987   -13790   -13738   -13757 
  -13879   -14165   -14561   -14910   -15142   -15280   -15325   -15199 
  -14875   -14484   -14203   -14110   -14237   -14520   -14796   -14991 
  -15155   -15259   -15176   -14814   -14231   -13614   -13197   -13174 
  -13549   -14100   -14634   -15111   -15572   -16015   -16263   -16108 
  -15604   -15001   -14461   -14083   -13923   -13888   -13899   -13999 
  -14187   -14392   -14551   -14608   -14539   -14366   -14216   -14305 
  -14644   -14976   -15076   -14901   -14571   -14291   -14161   -14123 
  -14077   -13963   -13805   -13714   -13780   -13981   -14193   -14268 
  -14148   -13915   -13714   -13635   -13707   -13886   -14060   -14129 
  -14025   -13748   -13420   -13230   -13292   -13545   -13765   -13683 
  -13247   -12665   -12112   -11588   -11063   -10516    -9973    -9613 
   -9647   -10076   -10697   -11330   -11920   -12506   -13142   -13834 
  -14461   -14808   -14874   -14918   -15091   -15296   -15400   -15403 
  -15427   -15596   -15962   -16584   -17523   -18712   -19876   -20641 
  -20783   -20421   -19953   -19615   -19300   -18751   -17729   -16236 
  -14656   -13494   -12981   -13042   -13586   -14742   -16667   -19191 
  -21913   -24409   -26196   -26846   -26223   -24514   -22076   -19272 
  -16414   -13647   -10906    -8158    -5583    -3554    -2366    -2049 
   -2616    -4182    -6767   -10228   -14283   -18513   -22331   -25070 
  -26184   -25404   -22916   -19346   -15580   -12380    -9925    -7913 
   -5896    -3528    -1035      710      758    -1358    -5458   -10764 
  -16104   -20525   -23730   -25902   -27457   -28719   -29605   -29751 
  -28763   -26334   -22505   -17818   -13116    -9193    -6432    -4588 
   -3096    -1636     -433     -186    -1583    -4698    -8962   -13709 
  -18414   -22511   -25412   -26698   -26238   -24277   -21351   -17922 
  -14269   -10762    -7954    -6223    -5563    -5834    -6917    -8634 
  -10777   -13293   -16220   -19242   -21628   -22689   -22199   -20353 
  -17535   -14246   -11080    -8640    -7415    -7591    -8903   -10783 
  -12730   -14501   -16029   -17485   -19257   -21559   -24084   -26106 
  -26866   -26092   -24146   -21427   -18094   -14493   -11199    -8581 
   -6717    -5444    -4576    -4217    -4588    -5518    -6713    -8414 
  -11094   -14781   -18928   -22711   -25478   -26836   -26411   -24128 
  -20528   -16417   -12451    -9082    -6694    -5583    -5875    -7466 
   -9841   -12164   -13927   -15412   -17204   -19430   -21774   -23703 
  -24513   -23674   -21240   -17807   -14094   -10577    -7476    -4970 
   -3392    -3063    -3964    -5873    -8529   -11556   -14611   -17469 
  -19805   -21301   -21851   -21471   -20266   -18482   -16483   -14688 
  -13340   -12370   -11697   -11547   -12168   -13477   -15265   -17381 
  -19469   -20993   -21600   -21296   -20376   -19170   -17797   -16105 
  -13806   -10821    -7565    -4808    -3115    -2513    -2849    -4079 
   -6115    -8783   -11924   -15292   -18396   -20729   -22144   -22817 
  -22937   -22603   -21987   -21267   -20406   -19336   -18118   -16629 
  -14558   -11912    -9144    -6837    -5522    -5520    -6712    -8525 
  -10378   -12112   -13861   -15762   -17836   -19858   -21313   -21613 
  -20534   -18493   -16216   -14272   -12982   -12479   -12677   -13259 
  -13801   -14049   -13991   -13652   -12999   -12121   -11385   -11203 
  -11682   -12700   -14126   -15687   -16931   -17577   -17674   -17599 
  -17937   -18881   -19789   -19705   -18220   -15803   -13375   -11497 
  -10133    -9170    -8626    -8453    -8645    -9351   -10717   -12664 
  -14785   -16588   -17848   -18574   -18974   -19467   -20291   -21084 
  -21169   -20115   -17923   -15034   -12190   -10003    -8565    -7631 
   -7150    -7483    -9054   -11836   -15178   -18095   -19812   -20263 
  -19942   -19287   -18477   -17618   -16758   -15747   -14462   -13073 
  -11816   -10800   -10088    -9747    -9836   -10351   -11205   -12336 
  -13729   -15246   -16664   -17926   -19105   -20059   -20433   -20001 
  -18802   -17123   -15469   -14380   -14046   -14202   -14463   -14523 
  -14112   -13146   -11758   -10196    -8704    -7527    -6967    -7234 
   -8291    -9967   -12021   -14125   -15961   -17311   -18069   -18320 
  -18331   -18388   -18557   -18586   -18169   -17235   -16055   -15037 
  -14326   -13709   -12984   -12252   -11761   -11627   -11889   -12591 
  -13653   -14995   -16632   -18391   -19816   -20493   -20359   -19668 
  -18632   -17288   -15700   -14011   -12318   -10783    -9664    -9073 
   -8911    -9121    -9674   -10347   -10914   -11457   -12221   -13379 
  -14926   -16690   -18378   -19589   -19862   -19141   -18002   -17043 
  -16420   -15994   -15556   -14998   -14445   -14121   -14170   -14582 
  -15168   -15722   -16078   -16077   -15654   -14909   -13999   -13038 
  -12055   -11106   -10368   -10000   -10037   -10550   -11726   -13531 
  -15546   -17270   -18341   -18596   -18216   -17593   -16945   -16232 
  -15354   -14334   -13302   -12376   -11600   -11033   -10764   -10868 
  -11354   -12150   -13197   -14476   -15835   -16931   -17510   -17662 
  -17689   -17752   -17821   -17838   -17702   -17177   -16133   -14800 
  -13547   -12519   -11722   -11264   -11211   -11380   -11583   -11862 
  -12312   -12915   -13644   -14493   -15419   -16322   -17103   -17659 
  -17717   -16995   -15610   -14098   -12924   -12135   -11576   -11252 
  -11292   -11801   -12750   -13976   -15264   -16430   -17355   -17957 
  -18091   -17633   -16669   -15411   -14052   -12785   -11770   -11063 
  -10687   -10701   -11105   -11672   -12143   -12665   -13714   -15554 
  -17849   -19822   -20976   -21537   -21996   -22418   -22469   -21917 
  -20792   -19271   -17493   -15375   -12758    -9868    -7331    -5772 
   -5514    -6504    -8356   -10543   -12611   -14229   -15206   -15606 
  -15684   -15707   -15838   -16006   -15881   -15198   -14026   -12622 
  -11279   -10293    -9884   -10187   -11314   -13221   -15600   -18011 
  -19978   -21085   -21193   -20494   -19302   -17938   -16721   -15866 
  -15337   -14860   -14149   -13176   -12253   -11817   -12051   -12679 
  -13200   -13358   -13261   -13090   -12887   -12731   -12765   -12916 
  -12969   -12906   -13039   -13734   -14901   -15973   -16522   -16626 
  -16555   -16376   -15962   -15182   -14048   -12799   -11769   -11250 
  -11448   -12295   -13466   -14652   -15699   -16595   -17462   -18396 
  -19275   -19680   -19126   -17498   -15163   -12745   -10866    -9929 
   -9991   -10800   -11974   -13181   -14184   -14871   -15282   -15507 
  -15580   -15484   -15286   -15184   -15326   -15618   -15759   -15523 
  -14978   -14361   -13848   -13551   -13494   -13657   -14119   -14935 
  -15940   -16746   -16919   -16235   -14754   -12791   -10967   -10069 
  -10590   -12291   -14378   -16100   -17135   -17582   -17701   -17562 
  -17059   -16244   -15394   -14742   -14245   -13709   -13047   -12347 
  -11732   -11280   -11052   -11183   -11838   -12984   -14374   -15750 
  -16984   -18076   -19005   -19570   -19512   -18783   -17644   -16533 
  -15808   -15469   -15230   -14829   -14150   -13254   -12330   -11547 
  -10972   -10623   -10589   -10994   -11850   -13173   -15006   -17163 
  -19255   -20872   -21676   -21618   -20966   -20020   -18901   -17528 
  -15799   -13743   -11543    -9517    -7967    -6994    -6520    -6508 
