Origin Time       2026/01/15 07:13:00
Lat.              42.7
Long.             145.4
Depth. (km)       30
Mag.              5.7
Station Code      HKD065
Station Lat.      43.7938
Station Long.     145.0565
Station Height(m) 10
Record Time       2026/01/15 07:13:50
Sampling Freq(Hz) 100Hz
Duration Time(s)  69
Dir.              E-W
Scale Factor      7845(gal)/8223790
Max. Acc. (gal)   4.344
Last Correction   2026/01/15 07:13:51
Memo.             
[...]
    7726     7743     7858     7959     7982     7951     7986     8148 
    8222     8012     7790     7838     7938     7824     7572     7458 
    7593     7796     7929     8019     8043     7965     7778     7545 
    7392     7389     7570     7912     8147     8043     7801     7728 
    7805     7875     7861     7759     7662     7653     7720     7828 
    7939     7978     7884     7754     7761     7890     8050     8193 
    8170     7921     7713     7750     7890     7935     7893     7865 
    7869     7882     7892     7808     7636     7553     7618     7744 
    7879     7920     7820     7705     7595     7454     7418     7543 
    7744     7919     7977     7950     7925     7838     7628     7487 
    7638     7998     8326     8461     8302     7912     7576     7452 
    7472     7588     7766     7927     8033     8083     8070     8024 
    7919     7750     7682     7786     7908     7901     7749     7566 
    7474     7469     7542     7672     7805     7943     8071     8110 
    7990     7761     7641     7796     8112     8276     8097     7730 
    7580     7813     8032     7847     7450     7261     7443     7857 
    8171     8191     8051     7958     7904     7807     7705     7678 
    7717     7734     7591     7385     7453     7800     8035     7979 
    7797     7734     7901     8081     8029     7905     7878     7881 
    7893     7948     8037     8097     8019     7848     7757     7750 
    7753     7790     7909     8082     8213     8193     7977     7722 
    7669     7819     7969     7990     7875     7744     7747     7847 
    7869     7769     7673     7666     7666     7615     7622     7750 
    7909     7996     7877     7547     7273     7279     7507     7735 
    7813     7755     7626     7512     7561     7817     8120     8290 
    8293     8206     8117     8058     8008     7919     7800     7789 
    7935     8059     8044     7992     8001     8013     7886     7645 
    7592     7893     8243     8328     8168     7871     7577     7396 
    7294     7312     7503     7666     7676     7663     7636     7503 
    7372     7410     7632     7902     8019     7954     7827     7738 
    7744     7766     7616     7358     7292     7488     7776     8064 
    8290     8279     8019     7798     7773     7821     7920     8025 
    8023     8081     8303     8410     8320     8181     7965     7682 
    7516     7576     7807     8040     8149     8121     7966     7781 
    7681     7647     7628     7607     7678     7940     8095     7879 
    7619     7630     7797     7906     7855     7722     7672     7730 
    7825     7902     7865     7638     7352     7292     7566     7952 
    8166     8137     7966     7777     7636     7562     7650     7951 
    8226     8240     8090     7939     7803     7707     7690     7697 
    7669     7692     7865     8112     8257     8187     7908     7607 
    7581     7863     8160     8245     8058     7723     7539     7581 
    7695     7816     7840     7682     7522     7518     7561     7611 
    7754     7882     7873     7857     7901     7896     7788     7595 
    7398     7392     7650     7959     8098     8024     7821     7635 
    7515     7438     7458     7643     7935     8163     8170     8008 
    7894     7875     7827     7784     7844     7904     7869     7850 
    7920     7987     7965     7867     7777     7781     7824     7824 
    7846     7929     8002     8067     8127     8047     7842     7731 
    7793     7966     8089     8023     7915     7933     8009     8010 
    7866     7704     7720     7788     7668     7466     7416     7551 
    7803     8059     8164     8078     7902     7735     7615     7615 
    7753     7909     8025     8098     8051     7873     7659     7489 
    7437     7472     7507     7658     8000     8271     8257     8097 
    8027     8074     8087     7985     7882     7921     8029     8004 
    7820     7645     7592     7654     7758     7804     7769     7746 
    7801     7932     8052     8009     7861     7796     7796     7739 
    7650     7616     7616     7592     7557     7515     7487     7561 
    7692     7678     7557     7596     7869     8166     8174     7766 
    7285     7159     7365     7626     7726     7670     7670     7820 
    8006     8110     8041     7861     7771     7763     7763     7909 
    8154     8233     8124     7993     7932     7939     7986     7989 
    7904     7865     7966     8052     8009     7896     7819     7865 
    7932     7821     7665     7755     7927     7781     7329     7013 
    7202     7743     8158     8293     8334     8356     8280     8052 
    7804     7757     7905     8050     8032     7852     7695     7709 
    7780     7727     7519     7291     7322     7709     8133     8247 
    8050     7821     7792     7893     7993     8059     8019     7931 
    7905     7840     7719     7705     7788     7893     8009     8071 
    8078     8101     8095     7955     7677     7407     7322     7473 
    7685     7703     7516     7402     7522     7716     7794     7801 
    7832     7877     7862     7828     7928     8081     8035     7813 
    7565     7361     7317     7479     7751     8029     8201     8163 
    7986     7827     7701     7568     7466     7442     7549     7784 
    8001     8071     8066     8060     7969     7794     7738     7820 
    7843     7771     7824     8098     8375     8388     8154     7821 
    7531     7406     7443     7564     7730     7859     7882     7801 
    7676     7693     7920     8127     8132     8035     7982     7986 
    7965     7815     7554     7410     7541     7820     8052     8104 
    8002     7908     7817     7661     7561     7645     7928     8299 
    8413     8054     7527     7284     7430     7770     8037     8105 
    8070     8087     8162     8170     8063     7969     7965     7979 
    7931     7846     7784     7742     7730     7746     7722     7612 
    7481     7425     7460     7515     7492     7447     7483     7512 
    7464     7449     7533     7658     7757     7778     7724     7643 
    7565     7528     7585     7700     7750     7716     7753     7959 
    8206     8293     8205     8089     8008     7955     8004     8232 
    8495     8526     8275     7962     7821     7900     8041     8064 
    7933     7746     7587     7547     7680     7857     7921     7890 
    7817     7717     7670     7699     7676     7547     7404     7333 
    7342     7415     7550     7707     7859     8009     8050     7925 
    7844     7973     8182     8294     8243     8046     7839     7719 
    7615     7496     7454     7582     7850     8060     8047     7854 
    7685     7700     7904     8183     8310     8190     8020     7905 
    7800     7744     7719     7669     7658     7676     7704     7863 
    8097     8125     7905     7653     7538     7654     7921     8054 
    7989     7933     7913     7807     7639     7491     7423     7510 
    7693     7844     7925     7889     7774     7761     7908     8158 
    8411     8448     8189     7847     7604     7476     7504     7726 
    7993     8158     8236     8172     7908     7619     7497     7511 
    7545     7516     7387     7245     7250     7416     7612     7734 
    7773     7765     7766     7843     7966     7981     7776     7473 
    7329     7462     7780     8048     8104     8016     7890     7801 
    7879     8029     8020     7966     8091     8255     8239     8062 
    7824     7599     7447     7441     7655     8012     8284     8295 
    8025     7693     7569     7638     7747     7858     7948     8021 
    8125     8208     8143     7970     7871     7906     8012     8160 
    8287     8272     8054     7724     7501     7533     7765     8037 
    8174     8058     7755     7457     7307     7350     7568     7843 
    8006     7974     7830     7738     7744     7738     7620     7462 
    7360     7308     7353     7585     7843     7879     7754     7662 
    7665     7767     7916     8043     8124     8109     7998     7952 
    8059     8179     8143     8009     7943     7952     7990     8066 
    8083     7960     7774     7639     7638     7755     7893     7966 
    7892     7695     7538     7487     7514     7599     7655     7639 
    7651     7738     7789     7743     7653     7562     7496     7520 
    7680     7885     7987     7963     7878     7722     7592     7701 
    7977     8116     8071     8013     8066     8216     8260     8029 
    7672     7489     7601     7892     8163     8230     8033     7761 
    7663     7749     7857     7885     7848     7823     7848     7865 
    7839     7840     7874     7898     7921     7935     7966     8023 
    8021     7940     7812     7654     7511     7443     7474     7533 
    7538     7539     7566     7593     7684     7888     8095     8141 
    7959     7727     7709     7897     8083     8143     8070     7960 
    7928     7985     8082     8143     8116     8041     7967     7827 
    7628     7522     7553     7587     7504     7384     7441     7716 
    8009     8187     8253     8212     8048     7816     7630     7562 
    7596     7630     7589     7524     7558     7711     7846     7866 
    7871     7998     8209     8287     8125     7886     7757     7774 
    7886     7997     8085     8171     8224     8214     8093     7827 
    7581     7535     7611     7639     7611     7620     7703     7788 
    7811     7766     7707     7731     7865     7986     7973     7844 
    7728     7735     7854     7975     7996     7898     7732     7558 
    7418     7354     7441     7672     7863     7878     7789     7723 
    7708     7742     7807     7838     7770     7636     7564     7600 
    7643     7639     7681     7815     7935     7935     7819     7696 
    7676     7789     8023     8259     8364     8370     8321     8216 
    8101     7958     7819     7839     7920     7819     7615     7553 
    7666     7809     7862     7800     7724     7774     7933     8040 
    8029     7940     7830     7784     7797     7722     7620     7685 
    7792     7780     7727     7692     7676     7673     7634     7574 
    7555     7595     7689     7792     7892     8016     8114     8137 
    8100     7975     7786     7685     7763     7948     8098     8164 
    8168     8101     8021     7998     7965     7916     7906     7912 
    7933     7942     7902     7859     7819     7778     7771     7735 
    7650     7604     7593     7570     7550     7573     7692     7867 
    7921     7798     7658     7630     7685     7731     7734     7713 
    7682     7639     7636     7750     7923     7960     7823     7668 
    7581     7570     7690     7881     8035     8205     8356     8306 
    8132     8089     8175     8197     8127     8079     8077     8074 
    8051     8012     7921     7744     7531     7325     7141     7094 
    7186     7207     7182     7318     7566     7746     7813     7813 
    7750     7565     7338     7245     7308     7420     7492     7547 
    7666     7771     7717     7603     7577     7595     7595     7641 
    7813     8109     8378     8505     8532     8510     8424     8257 
    8068     7971     8059     8278     8448     8476     8421     8395 
    8449     8453     8251     7896     7604     7546     7715     7947 
    8073     8108     8168     8209     8174     8164     8268     8425 
    8455     8251     7975     7819     7713     7589     7557     7645 
    7773     7923     8079     8164     8144     8106     8154     8330 
    8596     8812     8910     8926     8796     8526     8351     8368 
    8456     8577     8667     8590     8449     8446     8519     8495 
    8407     8409     8518     8614     8650     8668     8606     8421 
    8286     8245     8068     7736     7515     7499     7511     7391 
    7156     6937     6841     6801     6567     6097     5665     5427 
    5393     5617     5958     6208     6326     6264     6030     5792 
    5595     5401     5273     5152     4914     4696     4684     4842 
    5146     5525     5745     5760     5745     5830     6114     6662 
    7341     7886     8168     8263     8316     8334     8154     7719 
    7352     7402     7847     8388     8842     9290     9767     9990 
    9726     9174     8762     8748     9088     9606    10165    10689 
   11030    10986    10481     9680     8922     8586     8849     9540 
   10316    10928    11172    10851    10050     9219     8856     9093 
    9552     9782     9705     9483     9235     8970     8648     8175 
    7422     6512     5980     6247     7079     7835     8027     7538 
    6693     6104     6176     6779     7439     7695     7383     6755 
    6207     5886     5705     5648     5760     5857     5675     5240 
    4881     5000     5745     6731     7362     7449     7273     7217 
    7481     8012     8554     8843     8780     8428     7947     7620 
    7653     7885     8054     8179     8352     8560     8815     9086 
    9205     9070     8808     8584     8341     7940     7391     6754 
    6160     6050     6941     8816    10878    11915    11209     9180 
    7015     5796     5787     6330     6500     6015     5427     5463 
    6307     7554     8591     8977     8764     8356     8023     7788 
    7638     7533     7406     7294     7325     7592     8010     8241 
    7906     6918     5616     4594     4371     5108     6485     7890 
    8895     9408     9444     9180     9054     9391    10152    11086 
   11909    12378    12298    11568    10308     8938     8062     8082 
    8812     9580     9776     9267     8267     7025     5907     5436 
    5863     6871     7758     7938     7464     6948     6920     7469 
    8280     8853     8927     8652     8270     7844     7323     6720 
    6089     5568     5540     6316     7638     8811     9188     8667 
    7886     7557     7735     8097     8471     8837     9058     8853 
    8172     7392     6848     6519     6335     6340     6615     7229 
    8078     8731     8792     8289     7491     6710     6346     6631 
    7402     8259     8827     8972     8878     8754     8536     8005 
    7115     6065     5235     5117     5867     6968     7715     7693 
    6867     5640     4820     5155     6762     8950    10500    10492 
    9101     7439     6728     7365     8684     9834    10458    10561 
   10268     9714     8949     7955     6837     5919     5556     5922 
    6856     7871     8484     8448     7831     7033     6416     5948 
    5495     5270     5722     7110     9130    10916    11642    11163 
    9994     8785     7897     7333     6979     6736     6558     6423 
    6280     6200     6459     7134     7843     8189     8210     8216 
    8333     8467     8621     8904     9200     9231     8992     8773 
    8726     8594     8046     7244     6675     6448     6312     6204 
    6282     6666     7256     7803     8221     8606     9057     9558 
    9833     9499     8460     6966     5590     5151     6068     7738 
    8915     8796     7715     6650     6338     6893     7789     8394 
    8637     8814     9040     9223     9204     8949     8673     8672 
    9051     9632    10064    10076     9599     8738     7773     7065 
    6721     6552     6454     6508     6856     7535     8183     8409 
    8399     8502     8614     8517     8262     7979     7653     7338 
    7265     7387     7277     6754     6100     5752     5973     6632 
    7277     7533     7371     6984     6594     6427     6631     7118 
    7668     8182     8779     9540    10262    10546    10069     8865 
    7442     6496     6435     7207     8401     9443     9842     9460 
    8565     7554     6679     6137     6123     6610     7312     7892 
    8133     8140     8162     8159     8047     8086     8451     8829 
    8816     8432     8058     8019     8225     8247     7796     7102 
    6577     6195     5664     5009     4591     4791     5730     7144 
    8545     9548    10099    10350    10327    10033     9679     9433 
    9201     8885     8544     8229     7898     7489     7061     6802 
    6859     7161     7472     7616     7560     7356     7190     7242 
    7449     7584     7555     7533     7753     8248     8806     9101 
    8849     8051     7204     6948     7325     7732     7684     7222 
    6724     6586     6821     7080     7196     7358     7761     8329 
    8808     8939     8519     7533     6359     5630     5755     6539 
    7345     7813     8209     8808     9340     9400     8904     8068 
    7384     7375     8002     8685     9013     9077     9167     9471 
    9987    10508    10785    10693    10227     9661     9427     9524 
    9517     9182     8739     8515     8563     8544     8020     6988 
    5973     5475     5505     5736     5886     5952     6153     6602 
    7088     7261     7036     6797     7006     7582     8054     8168 
    7985     7669     7518     7744     8170     8336     7900     6945 
    5983     5553     5881     6772     7709     8191     8120     7824 
    7696     7742     7739     7708     7890     8370     8928     9209 
    8945     8167     7277     6798     6953     7580     8244     8422 
    7830     6690     5655     5254     5459     5971     6608     7254 
    7792     8139     8237     8122     7838     7389     6978     6891 
    7125     7389     7542     7682     7847     7977     8067     8016 
    7697     7398     7615     8352     9094     9364     9103     8700 
    8594     8818     9088     9097     8694     8029     7460     7275 
    7553     8143     8735     9026     8907     8510     8051     7794 
    8035     8757     9522     9921     9890     9536     8939     8216 
    7545     7160     7207     7553     7983     8394     8617     8469 
    8086     7812     7774     7890     8075     8164     7962     7500 
    6990     6585     6324     6230     6361     6651     6867     6921 
    6964     7095     7258     7375     7344     7064     6571     6012 
    5555     5382     5552     5872     6146     6453     6972     7674 
    8307     8621     8575     8367     8298     8529     8934     9250 
    9329     9290     9362     9499     9417     9038     8608     8311 
    8056     7757     7479     7292     7218     7295     7604     8121 
    8667     9090     9351     9479     9585     9706     9688     9344 
    8599     7497     6276     5422     5351     5888     6415     6519 
    6237     5875     5838     6304     6976     7507     7874     8093 
    8017     7599     7041     6664     6654     6886     7102     7245 
    7447     7777     8193     8642     8995     9132     9142     9202 
    9254     9077     8680     8297     8075     8036     8181     8426 
    8560     8432     8108     7804     7628     7460     7164     6832 
    6660     6721     6897     7036     7149     7431     8008     8681 
    9080     9019     8604     8083     7662     7410     7269     7199 
    7246     7441     7758     8202     8723     9151     9308     9136 
    8731     8313     8089     8102     8263     8456     8550     8475 
    8271     8028     7812     7651     7539     7519     7697     8044 
    8383     8637     8796     8772     8549     8290     8147     8040 
    7744     7184     6519     6043     5979     6250     6570     6741 
    6760     6762     6909     7214     7542     7857     8252     8671 
