Origin Time       2026/01/15 07:13:00
Lat.              42.7
Long.             145.4
Depth. (km)       30
Mag.              5.7
Station Code      HKD078
Station Lat.      43.1488
Station Long.     144.4976
Station Height(m) 25
Record Time       2026/01/15 07:13:31
Sampling Freq(Hz) 100Hz
Duration Time(s)  107
Dir.              U-D
Scale Factor      7845(gal)/8223790
Max. Acc. (gal)   9.973
Last Correction   2026/01/15 07:13:31
Memo.             
[...]
    7418     7410     7407     7403     7406     7415     7427     7434 
    7427     7416     7420     7431     7429     7422     7422     7418 
    7404     7403     7414     7423     7426     7423     7414     7403 
    7400     7415     7442     7452     7433     7416     7412     7411 
    7422     7437     7434     7419     7415     7415     7416     7425 
    7429     7425     7420     7415     7404     7396     7402     7422 
    7438     7434     7422     7422     7429     7423     7419     7429 
    7434     7427     7422     7414     7402     7400     7404     7410 
    7422     7434     7433     7430     7423     7410     7404     7408 
    7399     7373     7341     7296     7248     7195     7115     7022 
    6956     6902     6858     6879     6993     7129     7249     7445 
    7703     7788     7631     7516     7744     8230     8390     7832 
    7125     7078     7519     7678     7312     6858     6799     7132 
    7530     7790     7677     7171     6936     7292     7572     7277 
    6633     6076     5958     6384     7246     8110     8206     7870 
    8388     9194     8834     8105     7905     7206     5983     5570 
    5679     5305     5166     6232     7534     7713     7469     8000 
    8721     9061     9587    10103     9740     8719     7942     7372 
    6501     5809     5867     6370     7096     7809     8041     7977 
    7789     7508     8027     9366     9714     8445     7160     6890 
    6941     6988     7603     8135     7474     6650     6806     7152 
    7477     8105     8104     7574     7670     7719     7021     6651 
    6790     6600     6531     6837     6723     6825     7889     8370 
    7495     6832     7531     9174    10376    10251     9427     8302 
    6879     6276     6706     6378     4702     3453     4252     6334 
    7410     7285     8098    10066    11034    10239     8800     7246 
    5621     4653     4653     5066     5512     5999     6697     7414 
    8000     9155    10639    11291    11435    11248     9755     7591 
    6443     6303     5957     5150     4619     4330     4423     6278 
    9162    10023     8384     6592     6096     6399     6671     6995 
    7546     7889     7724     7508     7620     7495     7165     7484 
    7605     6349     5093     5398     6561     7913     9428     9790 
    8754     8594     9556     9309     7655     6766     7650     8950 
    8928     7496     5765     4652     4583     5552     6752     7412 
    8051     8826     8575     7782     8143     8691     7897     7202 
    7784     7987     6875     6065     6928     8953    10255     9570 
    8124     7152     6388     6286     6701     6183     5243     5580 
    7272     8920     9200     8298     7180     6774     7722     8537 
    7447     5792     5360     5768     6295     6771     6858     6488 
    6613     8190    10347    11129    10308     9505     9412     8854 
    6947     4665     3532     4301     6454     7823     7415     7356 
    8546     8899     7785     6762     6345     6146     6798     8735 
    9953     8538     6238     5186     4552     4060     4946     6208 
    6666     7892     9813    10222     9456     8596     7291     6324 
    7038     8853     9944     9491     8371     7377     6500     6170 
    6451     6274     5665     6073     7638     8378     7267     6254 
    6882     8356     9778     9967     7906     5182     4243     5393 
    7003     7591     7373     6920     6201     6154     7180     7688 
    7624     8357     8930     8128     6920     6058     5647     6540 
    8687    10044     9405     8212     8127     8880     9452     9250 
    7898     5996     5170     6018     7350     7730     7234     7438 
    9204    11203    11345     9373     7184     6353     6577     6446 
    5139     3793     4120     5584     6463     6817     7276     7254 
    6920     7318     8282     8739     7978     6694     6231     6430 
    6835     8095     9936    10724     9605     7365     5798     5988 
    6945     7280     6863     6065     5664     6539     8202     9414 
    9969    10272    10342    10188     9634     7828     4831     2284 
    1487     2683     5227     7562     8689     8881     8685     8954 
   10404    11662    10523     7628     5607     5202     4985     4293 
    4036     4639     5605     6745     8137     9602    10895    11587 
   10663     8163     6389     7068     9175    10305     9150     7024 
    5822     5927     7284     8857     8737     7292     6214     5734 
    5875     6744     7491     7469     6910     6214     5768     6043 
    7191     8372     8506     8073     8220     8237     7053     5950 
    6165     6610     6659     7408     8757     9085     8583     8835 
    9479     9247     8638     8650     8287     6118     3859     4158 
    6008     7209     8129     9124     8893     7828     7946     9082 
    9401     8414     7074     5950     4870     4587     5749     6687 
    6382     6440     7608     8775     9439    10048    10478     9775 
    7805     5850     4684     4075     4340     5574     6525     6705 
    7084     7854     8611     9591    10108     8586     5937     5036 
    6369     8058     8808     8502     7497     6272     5860     7041 
    8553     8989     9035     9171     8340     6606     5679     5921 
    5941     5526     6165     8125     9640     9599     8534     6905 
    4892     3396     3150     3681     4754     6640     8533     9769 
   10974    11902    11375     9779     8592     8217     8058     7479 
    6103     4401     3626     4453     6318     7969     8438     8270 
    9051    10912    12016    11182     9316     7911     7244     6400 
    5124     4575     5294     6508     7651     8542     8691     8073 
    7952     9155    10415     9981     7858     5844     5456     6035 
    6114     5784     6107     7007     7387     7207     7414     7693 
    7249     6961     7599     7944     7090     5996     5815     6411 
    6747     6309     5668     5802     7188     8892     9544     9072 
    8245     7825     8044     8564     8932     8357     6839     5972 
    6400     7009     7196     7238     7118     6791     6926     8078 
    9467     9860     9370     8727     7587     5833     4522     4063 
    4145     4986     6529     7589     7507     7276     7408     7462 
    7842     8749     9146     8550     8000     8395     8677     7716 
    6642     6427     6435     6785     7977     8938     8522     7319 
    6779     7380     8347     8961     9058     8657     8095     7690 
    7280     6772     6407     6073     5354     4731     5174     6583 
    8472    10142    10017     7870     5807     5405     6363     7632 
    8001     6867     5864     6975     8866     9254     8278     6895 
    6170     7165     8996     9691     8704     7194     6775     7713 
    8629     8519     7680     6455     5146     4861     6088     7515 
    7809     7107     6709     7361     8240     9080    10435    11199 
   10343     9086     8027     6538     5545     5721     5551     4661 
    4509     5292     5867     5346     4171     4167     6138     8957 
   11499    12839    12052     9748     7765     6895     6590     6477 
    6666     6868     6620     6291     6411     6775     7372     8464 
    9657    10365    10428     9749     8295     6836     6367     6724 
    7226     7812     8278     7942     6866     5940     5459     5030 
    4992     5782     6110     5188     4885     6203     7717     8883 
   10019    10555    10386    10025     9460     8980     8735     7905 
    6534     5859     6278     6721     6002     4749     4846     6608 
    8702     9987     9764     8143     6562     6188     6745     7541 
    8220     8672     8880     8540     7163     5152     3765     3418 
    3744     4845     6826     9036    10447    10924    11456    11874 
   10708     8229     6060     4734     4104     4140     4627     4897 
    4723     5476     8070    10791    11834    11422    10389     9389 
    8698     7680     6285     5636     5940     6428     6608     6466 
    6616     7364     8020     8105     7699     6667     5142     4055 
    4152     5070     6022     7038     8673    10503    11330    10924 
   10165     9531     8851     8135     6907     4792     3318     3711 
    4999     6250     7431     8549     9331     9644    10092    10530 
    9794     8110     6623     5894     6207     7053     7302     6755 
    6262     6443     7038     7503     7812     8174     8206     7352 
    6093     5690     6875     9028    10525    10261     8325     6115 
    5863     7754     9065     8114     6126     4376     3393     4332 
    7149     9521     9937     9602    10247    11371    11118     9094 
    6289     3952     3303     4113     5115     6223     7446     7794 
    7290     7314     8402     9486     9850     9909     9285     7026 
    4307     3661     5239     6816     7238     7250     7408     7492 
    7786     8461     8394     7353     6891     7076     6396     5131 
    4595     5169     7249    10280    12090    11950    11076    10093 
    8815     7557     6875     6412     5630     4657     3538     2745 
    3499     5998     8629     9436     8438     7222     6446     6517 
    7863     8926     8310     7339     7740     9432    10717     9832 
    7323     5290     4372     4406     5517     6582     6450     6161 
    6866     7875     8581     9425    10299    10832    11225    10783 
    8648     6023     4564     4013     3423     3127     4012     5837 
    7825     9441    10115    10069    10280    10809    11091    10561 
    8415     5351     3512     3439     4148     5038     5695     6007 
    6552     7546     8542     9481    10351    10446     9552     8433 
    7317     5787     4369     4465     6369     8688     9937     9826 
    8949     7866     7105     7160     7735     7875     6998     5674 
    5489     7132     9070     9400     8475     8279     9155     9417 
    8487     7410     6728     6625     7323     8082     8001     6961 
    5525     5020     5911     6912     7167     7128     7354     7997 
    8569     8275     7601     7927     8683     8033     6157     4556 
    3962     4880     7061     8507     8222     7740     8392     9898 
   10990    10531     8846     6934     5651     5757     6443     5927 
    4249     3071     3728     5958     8135     9387     9809     9136 
    8083     7993     8345     8737    10184    11785    11337     9042 
    6664     5238     4912     5265     5819     6185     5745     4882 
    5301     7300     9204    10231    10920    11032     9769     7442 
    5081     3125     1714     1493     3092     6114     9219    11287 
   12129    11965    10669     8742     7803     8158     8266     7122 
    5101     3835     4656     6660     8322     9066     8804     7858 
    6608     5509     5058     5003     4806     4606     4830     5251 
    5238     5263     6251     7484     8284     9539    10881    10744 
    9274     7518     6072     5584     6404     7762     8114     7071 
    6064     5956     6608     8665    11886    13649    12253     8835 
    5490     3609     3261     3816     4596     5074     5886     8031 
   10758    12577    13053    12341    10794     9113     7865     7214 
    7203     7546     7242     5413     2828     1518     2457     4841 
    7643    10102    11126    10536    10091    10735    11133    10588 
    9580     8008     6204     5225     5063     5115     5440     5846 
    5613     4996     5094     6320     8190     9964    11164    11553 
   11030    10176     9636     9112     8429     7808     6824     5358 
    4126     3437     3177     3372     4236     5825     7317     8004 
    8266     8284     7912     7711     8206     9030     9274     8536 
    7446     6382     4977     4054     5131     7560     9431    10289 
   10511    10125     9169     7678     5692     3608     2160     2326 
    4685     8387    11875    14528    16206    16052    13255     8549 
    4348     2768     3357     4139     4233     3846     3538     4467 
    7044     9428     9571     8021     6774     6727     7641     8887 
    9672     9493     8559     7811     7933     8545     9078     9193 
    8506     7483     7234     7404     6528     4747     3839     4681 
    6565     8340     9283     9778    10755    12019    12240    10673 
    8083     5509     3086     1406     1610     3195     4720     6012 
    7315     7990     7711     7412     8257    10072    11217    11198 
   11110    10338     7982     5825     4974     4168     2967     2374 
    2743     3792     6069     9798    13278    14665    13710    11437 
    9579     9261     9574     8938     7422     5971     4394     1979 
    -685    -1962    -1204      769     3337     6386     9154    11018 
   12706    14640    15444    14010    11416     9184     7530     6455 
    6442     7323     8093     8235     8209     8186     7735     7597 
    8941    10365     9890     8561     8035     7815     7460     7749 
    8486     8640     8286     7843     6948     5402     4274     4595 
    5300     5281     5351     5549     4891     4062     4507     6176 
    7884     8757     8517     7354     6394     6933     8804    10864 
   12333    12810    12405    12101    12199    11364     8985     6299 
    4517     3929     3762     2670     1034      915     3111     6532 
    9544    10901    10779    10251     9499     8098     6124     4131 
    2921     2893     3875     5798     8186    10065    11005    10781 
    9320     7673     6606     4920     1526    -2053    -3036     -256 
    5124    10910    15040    16274    14746    11745     8827     6986 
    6322     6358     6423     6035     5435     5555     7199     9849 
   11805    12429    12398    11564     9525     6853     4122     2182 
    2376     4773     7909    10077    10030     7993     5949     5387 
    5805     5782     4310     2203     1537     2486     3437     3997 
    5263     7843    10978    13350    13937    12480     9798     7173 
    5359     4492     4995     7256     9973    11248    11065    10473 
   10098    10214    10485     9977     8164     5544     2965     1055 
     553     1325     1954     2349     4368     8712    13312    15438 
   14616    12735    11672    11654    11294     9097     5475     1949 
    -940    -2853    -2789     -693     2061     4437     6596     8992 
   11371    13059    13941    14008    12793    10638     8515     6170 
    3354     1390     1005     1453     2756     5611     9246    11994 
   13247    13485    13266    12714    11778    10404     8537     6852 
    6259     6463     6789     7254     7761     7700     6496     4236 
    1960      720      788     2209     5013     8862    13005    15919 
   15867    12896     9088     6381     5108     4590     4338     4602 
    5773     8043    11443    14596    15223    13354    10968     8924 
    7141     5913     5138     4199     3200     2914     3902     6126 
    8600    10012    10160     9741     9304     9101     8557     6616 
    3657     1186      261     1491     4703     8653    12268    14989 
   16052    15010    12537     9794     7226     4683     2695     2193 
    3019     4476     6313     8190     9529     9898     8964     6839 
    4703     4434     6998    10848    12771    11279     8218     6280 
    6373     7978    10318    12294    12692    11334     8769     4988 
     454    -2790    -2978     -226     4176     8586    11411    12032 
   11210    10291     9961     9671     8699     7302     5865     4449 
    3638     3789     4214     4444     4897     6245     9031    12835 
   16009    17242    16162    12646     7423     2366     -904    -1784 
    -392     2612     6374    10253    13545    15145    14454    12063 
    8584     4332      430    -1613    -1038     1615     4696     7179 
    9369    11318    12580    13158    13227    12723    11510     9412 
    6469     3269      866      271     1776     4657     7638     9653 
   10501    10864    11152    10612     8553     5906     3935     2604 
    2138     3323     5312     6948     8725    10565    11318    10821 
    9367     7272     5748     5880     7645     9945    10939     9967 
    7993     5593     3265     2328     3165     4711     6245     7754 
    8991     9634     9769     9247     7431     4560     2617     3331 
    5782     7793     8576     8660     8731     9374    10813    12063 
   11388     8554     5401     3669     3287     3681     5076     6835 
    7547     7604     8195     8935     9100     9174     9767    10849 
   12236    13413    13582    12523    10685     8561     6430     4537 
    3191     2457     2165     2300     2695     3006     3609     5094 
    7177     9127    10216    10417    10912    12048    12264    10389 
    7052     3743     1918     2539     5420     8934    11257    11920 
   11453    10100     7832     5300     3948     4700     7152    10237 
   12474    12579    10898     8711     6647     4945     3915     3777 
    4627     6211     7744     8495     8483     8330     8298     8098 
    7658     7063     6488     6493     7136     7628     7546     7380 
    7819     8685     9234     9184     8518     7361     6115     5016 
    4337     4410     4807     4851     4633     4498     4507     4900 
    6073     8005    10189    11832    11963    10052     6679     3292 
    1506     2376     5570     9493    12604    14436    15102    14381 
   12232     9506     7061     4939     2920     1232      422      540 
    1156     1954     2668     3435     4780     6538     8136     9598 
   11026    12170    12731    12617    12148    11708    11267    10644 
    9811     8865     7719     5979     3676     1795     1350     2293 
    3924     5714     7245     8050     7970     7541     7622     8617 
   10293    11808    12133    11323    10427     9740     8465     6143 
    3474     1528      953     1954     4043     6370     8849    11651 
   13930    14667    14218    13352    11796     9281     6779     5287 
    4824     5476     7391     9518    10600    10679    10305     9263 
    7083     4302     1822     -284    -1417     -295     2571     5336 
    6968     7538     8074     9433    11246    12807    13316    12114 
    9850     7522     5244     3470     3150     3998     5196     7001 
    9521    11763    12800    12627    11900    11152    10426     9493 
    7932     5479     2710      908      839     2076     4079     6856 
    9833    11761    12243    11963    11499    10872    10207     9744 
    9302     8611     7609     6048     3981     2412     2083     2431 
    2647     2698     3048     3843     4837     6145     8043     9903 
   10733    10759    11052    11781    12152    11888    11627    11674 
   11469    10586     9128     7392     6139     6126     6615     6281 
    5418     4908     4739     4923     5458     5734     5482     5074 
    4841     5077     5981     7183     8199     8704     8208     6852 
    5730     5719     6918     8568     9489     9439     9130     8800 
    8039     6697     5011     3492     2947     3747     5394     7013 
    7912     8014     7608     6751     5691     5143     5395     5848 
    6231     7177     8631     9680    10000     9651     8667     7534 
    6948     7095     7512     7858     8182     8004     6513     4068 
    2292     2606     4984     7965     9980    10436     9791     8905 
