Origin Time       2026/01/15 07:13:00
Lat.              42.7
Long.             145.4
Depth. (km)       30
Mag.              5.7
Station Code      HKD073
Station Lat.      43.3327
Station Long.     145.6003
Station Height(m) 36
Record Time       2026/01/15 07:13:30
Sampling Freq(Hz) 100Hz
Duration Time(s)  84
Dir.              U-D
Scale Factor      7845(gal)/8223790
Max. Acc. (gal)   10.056
Last Correction   2026/01/15 07:13:30
Memo.             
[...]
  -12976   -12976   -12973   -12972   -12976   -12980   -12974   -12972 
  -12973   -12976   -12976   -12973   -12973   -12974   -12973   -12972 
  -12977   -12978   -12972   -12969   -12976   -12980   -12976   -12970 
  -12970   -12973   -12977   -12977   -12973   -12972   -12974   -12976 
  -12974   -12972   -12970   -12973   -12973   -12973   -12978   -12977 
  -12972   -12973   -12976   -12973   -12972   -12976   -12977   -12974 
  -12973   -12974   -12976   -12974   -12970   -12969   -12973   -12977 
  -12976   -12974   -12973   -12974   -12976   -12973   -12970   -12976 
  -12977   -12973   -12974   -12976   -12969   -12969   -12977   -12977 
  -12972   -12969   -12973   -12980   -12976   -12969   -12973   -12977 
  -12973   -12970   -12973   -12977   -12976   -12973   -12977   -12977 
  -12973   -12972   -12974   -12977   -12977   -12973   -12973   -12976 
  -12976   -12973   -12973   -12976   -12976   -12976   -12976   -12977 
  -12977   -12974   -12972   -12973   -12977   -12976   -12972   -12974 
  -12977   -12978   -12976   -12974   -12976   -12976   -12972   -12973 
  -12978   -12976   -12974   -12977   -12976   -12973   -12973   -12974 
  -12978   -12974   -12970   -12973   -12978   -12980   -12972   -12968 
  -12973   -12977   -12974   -12973   -12978   -12977   -12970   -12973 
  -12978   -12974   -12972   -12972   -12973   -12976   -12974   -12973 
  -12973   -12972   -12969   -12970   -12974   -12976   -12974   -12973 
  -12972   -12976   -12974   -12970   -12973   -12978   -12977   -12974 
  -12973   -12972   -12973   -12977   -12977   -12976   -12974   -12972 
  -12974   -12981   -12978   -12970   -12970   -12976   -12977   -12973 
  -12973   -12974   -12973   -12974   -12978   -12977   -12973   -12972 
  -12977   -12981   -12978   -12970   -12970   -12972   -12974   -12976 
  -12976   -12977   -12977   -12974   -12973   -12974   -12976   -12970 
  -12969   -12976   -12980   -12974   -12972   -12974   -12977   -12976 
  -12972   -12972   -12976   -12974   -12972   -12973   -12974   -12976 
  -12977   -12978   -12977   -12974   -12973   -12973   -12974   -12974 
  -12974   -12977   -12974   -12970   -12973   -12974   -12973   -12974 
  -12974   -12976   -12976   -12976   -12976   -12973   -12974   -12977 
  -12976   -12972   -12973   -12980   -12978   -12969   -12969   -12978 
  -12980   -12972   -12972   -12978   -12972   -12966   -12974   -12980 
  -12976   -12973   -12974   -12976   -12977   -12974   -12972   -12978 
  -12982   -12973   -12970   -12976   -12978   -12977   -12973   -12972 
  -12974   -12974   -12972   -12973   -12976   -12977   -12976   -12972 
  -12973   -12976   -12976   -12977   -12977   -12974   -12973   -12977 
  -12977   -12973   -12973   -12973   -12974   -12977   -12976   -12970 
  -12973   -12978   -12977   -12976   -12976   -12974   -12974   -12976 
  -12976   -12974   -12974   -12974   -12976   -12978   -12976   -12974 
  -12978   -12977   -12973   -12976   -12976   -12976   -12978   -12976 
  -12972   -12977   -12978   -12974   -12974   -12976   -12976   -12973 
  -12973   -12977   -12978   -12974   -12972   -12977   -12976   -12974 
  -12980   -12978   -12970   -12970   -12974   -12974   -12973   -12974 
  -12976   -12976   -12976   -12973   -12970   -12974   -12977   -12976 
  -12974   -12973   -12974   -12973   -12970   -12972   -12977   -12978 
  -12976   -12976   -12977   -12976   -12970   -12968   -12970   -12980 
  -12982   -12974   -12968   -12970   -12974   -12976   -12978   -12977 
  -12973   -12968   -12972   -12977   -12976   -12976   -12973   -12969 
  -12972   -12974   -12974   -12977   -12976   -12972   -12973   -12974 
  -12972   -12973   -12977   -12976   -12972   -12973   -12973   -12976 
  -12980   -12974   -12969   -12977   -12978   -12972   -12970   -12973 
  -12970   -12973   -12977   -12976   -12973   -12970   -12968   -12973 
  -12981   -12977   -12970   -12977   -12984   -12974   -12965   -12972 
  -12980   -12976   -12969   -12972   -12977   -12974   -12974   -12981 
  -12978   -12970   -12970   -12977   -12980   -12977   -12977   -12981 
  -12984   -12985   -12984   -12982   -12984   -12978   -12966   -12968 
  -12982   -12987   -12984   -12992   -13008   -13024   -13031   -13023 
  -12992   -12955   -12951   -13001   -13066   -13100   -13104   -13093 
  -13055   -12995   -12943   -12923   -12939   -12999   -13080   -13135 
  -13171   -13205   -13165   -13004   -12838   -12756   -12695   -12672 
  -12860   -13221   -13421   -13282   -12981   -12777   -12826   -13096 
  -13378   -13437   -13200   -12862   -12695   -12730   -12839   -12934 
  -12935   -12764   -12588   -12861   -13582   -13999   -13587   -12733 
  -12100   -11890   -11886   -11907   -12040   -12505   -13311   -14015 
  -14072   -13572   -13105   -12896   -12715   -12353   -11921   -11854 
  -12291   -12785   -13088   -13420   -13674   -13454   -12889   -12474 
  -12344   -12440   -12783   -13248   -13563   -13578   -13396   -13354 
  -13564   -13676   -13477   -13076   -12560   -12097   -11928   -12167 
  -12915   -14045   -14894   -14793   -13919   -12930   -12013   -11284 
  -11310   -12166   -13130   -13741   -13991   -13880   -13527   -13149 
  -12742   -12206   -11800   -12128   -13281   -14278   -14150   -13234 
  -12614   -12690   -12838   -12437   -11782   -11480   -11624   -12179 
  -13176   -14253   -14920   -15078   -14717   -13701   -12233   -11176 
  -11304   -12290   -13036   -13043   -12941   -13419   -13961   -13707 
  -13161   -13143   -13142   -12576   -12032   -12137   -12671   -13127 
  -13169   -12856   -12815   -13335   -13736   -13467   -12872   -12469 
  -12410   -12783   -13436   -13656   -13116   -12472   -12309   -12563 
  -12974   -13327   -13555   -13701   -13471   -12654   -12025   -12380 
  -13120   -13416   -13317   -12900   -12415   -12631   -13404   -13610 
  -13061   -12698   -12846   -12965   -12972   -13135   -13204   -12923 
  -12467   -12155   -12397   -13100   -13420   -13109   -12899   -13076 
  -13234   -13231   -13269   -13486   -13894   -14131   -13609   -12511 
  -11769   -11654   -11711   -11871   -12333   -13028   -13778   -14214 
  -14004   -13435   -13041   -12939   -12872   -12668   -12577   -12866 
  -13181   -12923   -12302   -12152   -12687   -13456   -14087   -14197 
  -13570   -12793   -12667   -13014   -13053   -12768   -12749   -12910 
  -12703   -12309   -12355   -12883   -13516   -13914   -13655   -12627 
  -11591   -11448   -12128   -13030   -14022   -14945   -15084   -14058 
  -12424   -11145   -10881   -11627   -12681   -13331   -13780   -14559 
  -15099   -14391   -12746   -11480   -11302   -11921   -12787   -13460 
  -13529   -12900   -12037   -11680   -12255   -13196   -13514   -13278 
  -13211   -13447   -13855   -14148   -13684   -12621   -12181   -12862 
  -13802   -14220   -13910   -12699   -11067   -10440   -11618   -13652 
  -14844   -14605   -13826   -13258   -12727   -12210   -12118   -12456 
  -12792   -12995   -13370   -13834   -13651   -12611   -11538   -11240 
  -11847   -13247   -14913   -15441   -14176   -12336   -11074   -10721 
  -11669   -13406   -14339   -13821   -12665   -11967   -12263   -13108 
  -13653   -13664   -13572   -13849   -14265   -13967   -12901   -12166 
  -12297   -12390   -11751   -11138   -11191   -11784   -13124   -14754 
  -15184   -14229   -13041   -12036   -11222   -11314   -12583   -13922 
  -14347   -14077   -13720   -13589   -13832   -14193   -13995   -13158 
  -12429   -12224   -12525   -13177   -13535   -13360   -13170   -12734 
  -11828   -11638   -12619   -13446   -13169   -12212   -11620   -11855 
  -12432   -13111   -14034   -14739   -14654   -13977   -12982   -11603 
  -10554   -10885   -12202   -13475   -14553   -15350   -15404   -14551 
  -12869   -10947    -9944   -10172   -11213   -12976   -14912   -15913 
  -15516   -13890   -11713   -10355   -10802   -12626   -14620   -15772 
  -15377   -13485   -11612   -11381   -12501   -13549   -13829   -13378 
  -12600   -12306   -12838   -13467   -13363   -12675   -12322   -12729 
  -13332   -13612   -13543   -13084   -12303   -11749   -11863   -12344 
  -12744   -13120   -13554   -13797   -13636   -13059   -12202   -11427 
  -11299   -12071   -13360   -14432   -14458   -13070   -11280   -10794 
  -12048   -13969   -15273   -15222   -14094   -13135   -13074   -13308 
  -13074   -12415   -11853   -11911   -12745   -13833   -14351   -13998 
  -13038   -11943   -11508   -12262   -13525   -14141   -13779   -13018 
  -12370   -12008   -12359   -13450   -14291   -14274   -13829   -13313 
  -12773   -12251   -11638   -11030   -11026   -12077   -13724   -14921 
  -15075   -14183   -12640   -11460   -11473   -12052   -11956   -11411 
  -11842   -13398   -14563   -14435   -13440   -12287   -11946   -12982 
  -14106   -13956   -13367   -13329   -13292   -12903   -12789   -13200 
  -13528   -13297   -12638   -11902   -11597   -12047   -12873   -13419 
  -13414   -13138   -13180   -13713   -14107   -13655   -12599   -11962 
  -12231   -12769   -12885   -12804   -12972   -13239   -13396   -13414 
  -13130   -12636   -12325   -12280   -12472   -13122   -14110   -14662 
  -14283   -13443   -12906   -12737   -12393   -11819   -11874   -13143 
  -14881   -15651   -14723   -12614   -10763   -10442   -11398   -12457 
  -13103   -13252   -13022   -13031   -13475   -13805   -13794   -13629 
  -13212   -12568   -12382   -12985   -13521   -13074   -12131   -11857 
  -12382   -13015   -13444   -13698   -13755   -13548   -13019   -12289 
  -11817   -12077   -12937   -13697   -14083   -14582   -15003   -14079 
  -11862   -10295   -10392   -11381   -12409   -13093   -13374   -13560 
  -13662   -13343   -12981   -13209   -13639   -13549   -13088   -12996 
  -13718   -14551   -14212   -12741   -11481   -11140   -11269   -11691 
  -12893   -14531   -15221   -14324   -12690   -11526   -11178   -11358 
  -11996   -13035   -14013   -14350   -13699   -12360   -11357   -11427 
  -12244   -13143   -14003   -14825   -15147   -14659   -13693   -12645 
  -11832   -11711   -12359   -13288   -13998   -14026   -12995   -11271 
   -9975   -10023   -11421   -13454   -15276   -16254   -16009   -14457 
  -12081    -9921    -8984    -9875   -12353   -14995   -16322   -16031 
  -14636   -12802   -11275   -10702   -11288   -12746   -14338   -15167 
  -14885   -13834   -12568   -11673   -11520   -12112   -13506   -15207 
  -15772   -14548   -12353   -10500   -10308   -11813   -13331   -13818 
  -13875   -13948   -13566   -12606   -11808   -11842   -12695   -13691 
  -13934   -13333   -12741   -12614   -12691   -12791   -12810   -12777 
  -13147   -13927   -14191   -13293   -11800   -10855   -11141   -12370 
  -13602   -14365   -14837   -14843   -13987   -12648   -11780   -11750 
  -12091   -12333   -12383   -12486   -12982   -13454   -13301   -13051 
  -13316   -13651   -13593   -13381   -13136   -12401   -11167   -10353 
  -10635   -12098   -14546   -16684   -16510   -13815   -10832    -9688 
  -10423   -11905   -13393   -14553   -15037   -14805   -14237   -13447 
  -12426   -11805   -12198   -13224   -14148   -14661   -14431   -13228 
  -11808   -11210   -11520   -12442   -13671   -14216   -13450   -12447 
  -12440   -13113   -13575   -13625   -13432   -13198   -13234   -13436 
  -13293   -12766   -12275   -12073   -12218   -12637   -13085   -13296 
  -13104   -12617   -12291   -12452   -12798   -12907   -12788   -12573 
  -12484   -12845   -13304   -13134   -12644   -12672   -13063   -13362 
  -13770   -14138   -13801   -13051   -12924   -13346   -13369   -12885 
  -12478   -12403   -12590   -12912   -13320   -13493   -12996   -12425 
  -12692   -13277   -13281   -13014   -13047   -13184   -13138   -13103 
  -13189   -13193   -13043   -12773   -12490   -12515   -12910   -13323 
  -13498   -13312   -12877   -12714   -13190   -13968   -14239   -13579 
  -12546   -12010   -12015   -12013   -11986   -12301   -12757   -12991 
  -13208   -13473   -13297   -12623   -12083   -12177   -12811   -13471 
  -13819   -13945   -13849   -13464   -12992   -12679   -12552   -12433 
  -12125   -11647   -11438   -11998   -13204   -14466   -15219   -14963 
  -13813   -12599   -11628   -10682   -10424   -11651   -13597   -14850 
  -14967   -14292   -13360   -12668   -12432   -12521   -12726   -13016 
  -13284   -13162   -12609   -12248   -12480   -12806   -12843   -12915 
  -13105   -13142   -13146   -13297   -13192   -12557   -12044   -12175 
  -12482   -12708   -13188   -13616   -13319   -12559   -12275   -12715 
  -13124   -12838   -12064   -11468   -11557   -12399   -13444   -14158 
  -14635   -14875   -14397   -13142   -11973   -11882   -12792   -13779 
  -14412   -14879   -15078   -14713   -13983   -13335   -13022   -13144 
  -13582   -14099   -14472   -14200   -13053   -11790   -11414   -12112 
  -12999   -12904   -11870   -10910   -10428   -10172   -10300   -11298 
  -12699   -13205   -12417   -11287   -10897   -11506   -12937   -14962 
  -16866   -18068   -18666   -18480   -16993   -14548   -12486   -11826 
  -12175   -12667   -13516   -15061   -16202   -15781   -13950   -11246 
   -8398    -6539    -6320    -7264    -8279    -9101   -10471   -12773 
  -15573   -17915   -18785   -17982   -16313   -14816   -14002   -13414 
  -12202   -10770   -10593   -11866   -13038   -12989   -12282   -11839 
  -11720   -11920   -12592   -13107   -13126   -13263   -13036   -11367 
   -9180    -8318    -9647   -12991   -16621   -18389   -18276   -17479 
  -16033   -13640   -11321   -10372   -10717   -11176   -10596    -9468 
  -10049   -12606   -14831   -16324   -18195   -19741   -19911   -18760 
  -16085   -11549    -6108    -2432    -3231    -8176   -14304   -18758 
  -19611   -16729   -12002    -7708    -5347    -5439    -7522   -10420 
  -12829   -13792   -13813   -14357   -15318   -15269   -13683   -11241 
   -8703    -7072    -7801   -11022   -15361   -19191   -20725   -19329 
  -16634   -14685   -14030   -13944   -13945   -14435   -15491   -16345 
  -16283   -15138   -13408   -11653   -10095    -9389    -9903   -10847 
  -11835   -13242   -14949   -16117   -15511   -13180   -11047   -10338 
  -10756   -11755   -12895   -14346   -16476   -18045   -17051   -13760 
  -10600    -9328    -9733   -10689   -11641   -12357   -12519   -12468 
  -12580   -12926   -13452   -13247   -12002   -11001   -11145   -12307 
  -13652   -14168   -13884   -13525   -13404   -13211   -12463   -11511 
  -11365   -12024   -12825   -13940   -15369   -15938   -14698   -12476 
  -11412   -12276   -13674   -14467   -14526   -13954   -12999   -11601 
   -9725    -8405    -9040   -11340   -13348   -14064   -14270   -14571 
  -14528   -13905   -13289   -13223   -13389   -12756   -11136   -10096 
  -10960   -13138   -15407   -17097   -17617   -16490   -14115   -11412 
   -9151    -8444    -9902   -12241   -14094   -15273   -15491   -14548 
  -13174   -12189   -11502   -10690   -10299   -11265   -13386   -15388 
  -15994   -14901   -13089   -11834   -11669   -12478   -13672   -14204 
  -13755   -13177   -12788   -12359   -12586   -13857   -15007   -14821 
  -13483   -12141   -11418   -11099   -10975   -11117   -12062   -14164 
  -16324   -17091   -16248   -14251   -11938   -10592   -10864   -12283 
  -13900   -15061   -15523   -14836   -12976   -11287   -11265   -12934 
  -14724   -15059   -13857   -11704    -9481    -8625    -9292   -10408 
  -11766   -13242   -13999   -13397   -11502    -9701    -9807   -11842 
  -14389   -16117   -16120   -14488   -12637   -12047   -12726   -13401 
  -13586   -14202   -15279   -15469   -14314   -12833   -12156   -12075 
  -11569   -11002   -11893   -14449   -16814   -16926   -14593   -11628 
  -10737   -13267   -16915   -17955   -15610   -11997    -9011    -7358 
   -7565    -9499   -11805   -13289   -13907   -14056   -13130   -10420 
   -7870    -8364   -11411   -14284   -15928   -16638   -16160   -14369 
  -12213   -11071   -11720   -13861   -16303   -17323   -15745   -12617 
  -10552   -10773   -12237   -13531   -14284   -14878   -15257   -14551 
  -12351    -9667    -8318    -9351   -11754   -13475   -13826   -13713 
  -13738   -13640   -13366   -13321   -13489   -13228   -12287   -11599 
  -12005   -12568   -12043   -11329   -12422   -15338   -17626   -17582 
  -16379   -15502   -14419   -12517   -10774   -10242   -10611   -11353 
  -12842   -14985   -16509   -16501   -15034   -12930   -11373   -10546 
  -10172   -11195   -13772   -15576   -14500   -11534    -9784   -10565 
  -12185   -13169   -13860   -14419   -13895   -11975   -10162    -9913 
  -10751   -11619   -12376   -13288   -14308   -14852   -14527   -13977 
  -13801   -13722   -13776   -14210   -14285   -13397   -12135   -10987 
  -10034   -10061   -11977   -14972   -16645   -15468   -12729   -11007 
  -11041   -11805   -12673   -13644   -14285   -13817   -12355   -11118 
  -11221   -12788   -14678   -15168   -13871   -12124   -11028   -10832 
  -11794   -13610   -14982   -15086   -14412   -13784   -13413   -12945 
  -12225   -11458   -10758   -10393   -10716   -11884   -13836   -15491 
  -15385   -13622   -11749   -11261   -12056   -12413   -11708   -11315 
  -12167   -13672   -14944   -15782   -16374   -16452   -15400   -13554 
  -12285   -12258   -13009   -14050   -14774   -14509   -13493   -12696 
  -12695   -13103   -13204   -12787   -12150   -11645   -11331   -11264 
  -11838   -13196   -14704   -15421   -15115   -14469   -13841   -13015 
  -12152   -11533   -11429   -12282   -13579   -14237   -14291   -14241 
  -13917   -12980   -11529   -10224   -10007   -11126   -12563   -13220 
  -13352   -13616   -13679   -13239   -12937   -13144   -13459   -13635 
  -13590   -12954   -11780   -10854   -10747   -11406   -12534   -13821 
  -14878   -15148   -14226   -12565   -11205   -10632   -10712   -11398 
  -12618   -13868   -14446   -14141   -13625   -13482   -13300   -12642 
  -11938   -11592   -11507   -11874   -12698   -13092   -12807   -12773 
  -13482   -14291   -14372   -13666   -12594   -11761   -11947   -13034 
  -13842   -13698   -13086   -12748   -12744   -12754   -12808   -13207 
  -14141   -15268   -15572   -14381   -12533   -11642   -12202   -13161 
  -13379   -12953   -12653   -12440   -12010   -12075   -13213   -14682 
  -15354   -14814   -13424   -11861   -10824   -10914   -12185   -13788 
  -14648   -14447   -13470   -12096   -10960   -10720   -11394   -12415 
  -13138   -13279   -12966   -12583   -12654   -13274   -13976   -14307 
  -14037   -13517   -13474   -13896   -14125   -13879   -13304   -12675 
  -12452   -12885   -13437   -13178   -12118   -11457   -11831   -12441 
  -12557   -12599   -13069   -13563   -13323   -12186   -11013   -10983 
  -12036   -12901   -12834   -12245   -11881   -12066   -12486   -12710 
  -12960   -13794   -14997   -15601   -15115   -13956   -12838   -12082 
  -11599   -11561   -12326   -13555   -14384   -14620   -14783   -15105 
  -15259   -14770   -13570   -12320   -11766   -12091   -13009   -13795 
  -13670   -12815   -12233   -12532   -13315   -13699   -13514   -13390 
  -13416   -13053   -12255   -11518   -11226   -11302   -11431   -11754 
  -12733   -14018   -14443   -13918   -13541   -13398   -12696   -11736 
  -11574   -12055   -12181   -12069   -12313   -12684   -13019   -13659 
  -14459   -14594   -13585   -12141   -11495   -11970   -12887   -13632 
  -13998   -13884   -13420   -12926   -12564   -12326   -12213   -12330 
  -12506   -12218   -11634   -11607   -12384   -13440   -14157   -14227 
  -13857   -13401   -12834   -12302   -12492   -13275   -13467   -12892 
