Origin Time       2026/01/15 07:13:00
Lat.              42.7
Long.             145.4
Depth. (km)       30
Mag.              5.7
Station Code      HKD072
Station Lat.      43.1948
Station Long.     145.5209
Station Height(m) 46
Record Time       2026/01/15 07:13:29
Sampling Freq(Hz) 100Hz
Duration Time(s)  107
Dir.              U-D
Scale Factor      7845(gal)/8223790
Max. Acc. (gal)   6.695
Last Correction   2026/01/15 07:13:29
Memo.             
[...]
   25652    25655    25655    25655    25654    25651    25652    25655 
   25654    25654    25655    25655    25654    25654    25654    25654 
   25652    25651    25655    25654    25651    25652    25652    25651 
   25655    25656    25651    25651    25655    25655    25652    25652 
   25654    25654    25652    25651    25652    25652    25654    25654 
   25652    25652    25655    25654    25652    25652    25652    25652 
   25654    25654    25652    25652    25655    25655    25651    25650 
   25652    25652    25652    25654    25654    25652    25651    25651 
   25652    25655    25655    25652    25654    25655    25654    25652 
   25652    25652    25654    25652    25651    25655    25656    25654 
   25650    25650    25652    25652    25654    25658    25656    25652 
   25652    25651    25650    25652    25651    25651    25654    25654 
   25654    25652    25651    25652    25652    25651    25652    25652 
   25652    25652    25654    25655    25655    25655    25654    25652 
   25651    25651    25652    25654    25654    25652    25652    25655 
   25655    25651    25651    25652    25654    25656    25656    25654 
   25651    25654    25652    25651    25654    25658    25654    25651 
   25652    25652    25651    25654    25655    25652    25654    25652 
   25652    25655    25654    25651    25652    25655    25656    25654 
   25652    25651    25651    25651    25652    25656    25658    25656 
   25652    25650    25652    25655    25654    25654    25655    25654 
   25651    25654    25655    25655    25658    25655    25651    25654 
   25656    25655    25655    25655    25654    25652    25652    25656 
   25656    25652    25652    25652    25654    25654    25654    25655 
   25655    25654    25654    25654    25654    25654    25654    25655 
   25654    25654    25655    25655    25655    25654    25652    25655 
   25655    25654    25656    25656    25654    25652    25652    25654 
   25652    25652    25654    25654    25654    25654    25650    25651 
   25656    25659    25656    25652    25654    25656    25654    25650 
   25652    25656    25655    25654    25654    25655    25655    25652 
   25651    25656    25658    25652    25651    25654    25654    25652 
   25654    25654    25654    25655    25654    25654    25652    25652 
   25654    25655    25654    25654    25652    25651    25650    25651 
   25655    25656    25654    25655    25658    25655    25654    25654 
   25652    25652    25654    25652    25651    25652    25652    25651 
   25650    25651    25652    25651    25652    25652    25651    25650 
   25652    25654    25654    25655    25655    25652    25651    25654 
   25656    25654    25650    25651    25652    25652    25652    25654 
   25655    25654    25652    25651    25652    25654    25655    25654 
   25655    25654    25651    25650    25652    25651    25652    25655 
   25654    25652    25652    25652    25655    25655    25652    25654 
   25655    25650    25651    25655    25655    25652    25652    25654 
   25654    25652    25652    25652    25652    25652    25652    25650 
   25652    25656    25654    25650    25650    25652    25656    25656 
   25651    25652    25651    25648    25651    25652    25651    25651 
   25652    25652    25654    25655    25654    25650    25651    25652 
   25650    25651    25654    25654    25651    25651    25652    25652 
   25652    25652    25652    25652    25652    25654    25655    25655 
   25652    25651    25652    25654    25652    25652    25652    25652 
   25655    25655    25652    25652    25654    25652    25652    25652 
   25651    25654    25654    25651    25652    25654    25652    25654 
   25655    25655    25652    25654    25656    25655    25654    25654 
   25654    25655    25654    25650    25651    25652    25651    25651 
   25651    25650    25651    25654    25652    25652    25654    25656 
   25655    25654    25654    25652    25651    25652    25654    25651 
   25652    25656    25654    25648    25650    25652    25654    25655 
   25651    25651    25655    25655    25654    25652    25651    25652 
   25654    25652    25652    25651    25651    25651    25651    25652 
   25654    25654    25651    25651    25655    25654    25651    25652 
   25652    25654    25655    25651    25651    25652    25652    25652 
   25651    25650    25652    25652    25652    25652    25652    25654 
   25656    25655    25652    25654    25654    25655    25656    25651 
   25651    25655    25654    25651    25651    25654    25655    25654 
   25652    25652    25655    25655    25652    25651    25652    25654 
   25654    25651    25654    25655    25655    25654    25654    25654 
   25654    25655    25654    25651    25652    25654    25652    25652 
   25655    25655    25652    25651    25651    25651    25654    25654 
   25652    25651    25652    25652    25654    25656    25655    25650 
   25647    25650    25651    25651    25652    25652    25648    25640 
   25633    25631    25629    25628    25624    25627    25631    25627 
   25612    25582    25547    25531    25540    25574    25629    25675 
   25686    25678    25674    25663    25621    25560    25540    25594 
   25670    25702    25699    25682    25650    25577    25454    25323 
   25263    25330    25502    25666    25704    25628    25537    25497 
   25490    25482    25466    25436    25424    25529    25759    25920 
   25839    25608    25493    25593    25755    25840    25866    25878 
   25882    25891    25894    25806    25610    25474    25567    25868 
   26210    26423    26449    26339    26114    25782    25488    25409 
   25524    25683    25847    26037    26181    26157    25932    25579 
   25263    25170    25358    25671    25860    25747    25413    25165 
   25145    25204    25227    25365    25775    26307    26622    26561 
   26204    25722    25358    25292    25442    25567    25608    25667 
   25735    25686    25508    25309    25192    25208    25308    25319 
   25172    25062    25176    25401    25524    25501    25424    25452 
   25726    26148    26376    26254    26026    26021    26230    26354 
   26203    25920    25758    25764    25836    25926    26046    26152 
   26119    25847    25390    24952    24680    24678    25042    25608 
   25886    25636    25213    25035    25132    25321    25446    25469 
   25473    25529    25558    25421    25197    25159    25424    25783 
   26025    26223    26473    26620    26476    26087    25675    25419 
   25358    25458    25639    25744    25671    25581    25712    25971 
   26010    25729    25419    25320    25342    25278    25114    25101 
   25540    26279    26612    26158    25435    25149    25362    25689 
   25878    25905    25803    25725    25836    25996    25899    25629 
   25675    26172    26542    26279    25640    25191    25080    25108 
   25105    25057    25130    25547    26154    26353    25848    25192 
   25041    25290    25459    25424    25388    25527    25828    26048 
   25914    25509    25219    25277    25608    25968    26133    26110 
   26142    26260    26073    25411    24854    25097    25907    26418 
   26262    25786    25401    25286    25397    25465    25293    25127 
   25315    25780    26161    26195    25893    25578    25543    25547 
   25173    24671    24734    25469    26250    26573    26481    26215 
   25952    25795    25695    25488    25232    25211    25529    25911 
   26028    25845    25554    25358    25428    25682    25776    25591 
   25401    25413    25525    25594    25639    25679    25633    25520 
   25498    25510    25288    24854    24657    25007    25627    25987 
   25902    25570    25343    25513    25945    26153    26001    25907 
   26123    26310    26092    25621    25324    25389    25721    26104 
   26233    25941    25587    25709    26177    26265    25687    25030 
   24937    25331    25701    25816    25818    25878    26040    26168 
   25903    25185    24652    24914    25697    26319    26582    26573 
   26215    25621    25186    25024    24954    25062    25573    26258 
   26635    26528    26111    25623    25188    24858    24690    24709 
   24948    25455    26063    26337    26022    25402    24988    25049 
   25509    26079    26420    26416    26229    25969    25544    24989 
   24663    24873    25493    26152    26577    26623    26279    25693 
   25112    24814    24983    25517    25982    26006    25785    25733 
   25698    25199    24491    24402    25066    25799    26041    25836 
   25668    25909    26256    26042    25205    24521    24661    25436 
   26153    26441    26442    26433    26434    26199    25627    25030 
   24840    25186    25794    26181    26098    25790    25641    25731 
   25861    25830    25585    25307    25330    25685    25872    25482 
   24860    24744    25296    25897    26028    25820    25616    25664 
   26060    26384    26086    25451    25304    25759    26157    26113 
   25849    25718    25864    26161    26254    25925    25448    25340 
   25732    26126    25938    25254    24819    25135    25851    26265 
   26150    25868    25822    25926    25666    24914    24390    24781 
   25747    26357    26295    26018    25845    25577    25101    24729 
   24668    24854    25284    25824    26040    25697    25137    24904 
   25192    25741    26141    26150    25918    25828    26037    26214 
   25878    25170    24896    25408    26038    26069    25686    25509 
   25747    26103    26150    25789    25351    25228    25471    25832 
   26122    26307    26260    25852    25308    25033    25091    25177 
   25186    25381    25820    26113    25930    25479    25290    25613 
   26153    26461    26416    26200    25974    25740    25474    25201 
   24889    24574    24628    25367    26358    26705    26115    25261 
   24908    25010    25051    25037    25366    25957    26246    25980 
   25446    25024    24861    24896    25115    25585    26191    26628 
   26650    26276    25793    25493    25394    25344    25416    25872 
   26576    26879    26399    25627    25332    25481    25446    25169 
   25213    25794    26554    27040    26920    26163    25253    24795 
   24876    25170    25523    26019    26532    26688    26338    25782 
   25346    25066    24883    24862    25132    25739    26496    26977 
   26804    26014    25103    24645    24835    25384    25847    26040 
   26087    26190    26329    26171    25500    24695    24480    25100 
   25965    26266    25872    25353    25146    25107    24934    24678 
   24671    25145    25884    26295    26042    25533    25353    25420 
   25247    24867    24877    25594    26582    27132    26928    26208 
   25409    24860    24706    24904    25308    25772    26171    26422 
   26451    26140    25521    24930    24684    24776    25018    25289 
   25582    25894    26113    26033    25654    25366    25554    26061 
   26400    26403    26341    26439    26477    26090    25340    24746 
   24783    25429    26137    26291    25778    25095    24840    25101 
   25502    25713    25701    25658    25771    25952    25836    25228 
   24474    24247    24902    25990    26643    26531    26055    25633 
   25304    25046    25018    25353    26036    26851    27314    27095 
   26515    26145    26076    25934    25532    25153    25138    25490 
   25906    26014    25682    25209    25064    25261    25388    25273 
   25209    25463    25870    26071    25986    25722    25328    24977 
   24930    25212    25623    26007    26329    26534    26501    26233 
   25998    26077    26347    26427    26245    26141    26335    26615 
   26604    26131    25351    24752    24813    25467    26199    26653 
   26809    26667    26179    25473    24795    24304    24133    24341 
   24702    24873    24825    24786    24790    24649    24362    24109 
   23980    23981    24144    24422    24655    24759    24776    24780 
   24902    25223    25550    25498    24933    24254    24079    24557 
   25149    25258    24981    24935    25446    26176    26493    26129 
   25548    25631    26663    27824    28197    27907    27641    27579 
   27272    26515    25988    26505    27903    29118    29239    28331 
   27209    26607    26678    27116    27537    27727    27734    27703 
   27530    27027    26299    25639    25301    25461    26046    26608 
   26615    25945    24911    23889    23102    22782    23172    24155 
   25176    25620    25245    24225    22851    21409    20313    20117 
   21114    22877    24555    25679    26331    26635    26559    26221 
   25969    26064    26470    26939    27147    26742    25552    23969 
   22758    22489    23252    24695    26296    27422    27438    26420 
   25286    24826    25091    25672    26156    26312    26040    25416 
   24646    23996    23903    24684    25968    26821    26609    25578 
   24503    24051    24632    26306    28497    30200    30703    29979 
   28479    26848    25829    25863    26631    27278    27099    26138 
   25166    24779    24889    25285    25770    26029    26125    26376 
   26685    26642    26088    25274    24455    23714    23261    23445 
   24445    25971    27216    27360    26229    24486    22958    21986 
   21581    21695    22365    23649    25243    26511    27041    26970 
   26539    25687    24545    23770    23920    24892    26171    27294 
   27865    27456    25949    23834    21957    21226    22343    25137 
   28494    31272    32671    32146    29849    26844    24430    23387 
   23787    25208    26920    28105    28158    26893    24707    22542 
   21421    21853    23558    25706    27367    27935    27359    26134 
   25200    25297    26077    26519    26223    25578    25023    24761 
   25019    26037    27588    28968    29606    29299    28224    27089 
   26754    27286    27916    28260    28669    29120    28809    27139 
   24641    22573    21730    22033    22879    23558    23847    24194 
   24898    25458    25288    24738    24634    25053    25319    25035 
   24638    24742    25313    25782    25695    25088    24494    24547 
   25278    26136    26825    27592    28437    28794    28285    27205 
   26117    25416    25281    25664    26217    26516    26526    26470 
   26334    25926    25308    24748    24367    24081    23872    23877 
   24148    24505    24787    25022    25189    25107    24617    23707 
   22611    21932    22320    23645    24835    25097    24742    24513 
   24607    24753    24885    25240    25867    26597    27252    27673 
   27841    27853    27722    27319    26573    25751    25363    25586 
   26037    26188    25956    25793    26123    26873    27511    27519 
   26808    25745    24835    24278    23799    23140    22700    23225 
   24705    26049    26345    25886    25488    25401    25328    25024 
   24679    24730    25228    25612    25446    24991    24838    25261 
   25902    26146    25861    25450    25435    26087    27020    27479 
   27252    26765    26480    26576    26977    27429    27598    27265 
   26572    25937    25625    25524    25465    25402    25373    25585 
   26275    27276    27992    27881    26970    25794    24880    24502 
   24819    25807    26935    27400    26912    25836    24690    23924 
   23858    24317    24698    24777    24980    25689    26697    27433 
   27534    27076    26292    25492    25043    25003    25099    25230 
   25610    26154    26268    25621    24617    23947    24044    24771 
   25450    25463    24935    24540    24597    24667    24248    23560 
   23301    23774    24683    25559    26045    26056    25782    25284 
   24521    23911    24204    25598    27288    28088    27487    25938 
   24239    22924    22239    22353    23287    24833    26604    28109 
   28885    28671    27510    25902    24738    24649    25424    26420 
   27317    28123    28672    28529    27426    25722    24439    24536 
   25937    27530    28293    28129    27580    27125    26746    25995 
   24733    23562    23139    23410    23839    24111    24430    25045 
   25767    26181    26148    25944    25925    26090    26111    25814 
   25566    25812    26254    26125    25239    24173    23430    23060 
   22983    23148    23510    24086    24856    25623    26176    26542 
   26893    27156    27047    26607    26298    26408    26681    26682 
   26279    25755    25598    26083    26936    27507    27400    26856 
   26447    26418    26445    26176    25663    25119    24652    24236 
   23839    23612    23735    24144    24607    24960    25235    25617 
   26084    26271    25963    25447    25211    25474    25987    26242 
   26048    25822    26102    26789    27221    26948    26176    25451 
   25054    24772    24457    24536    25444    26816    27696    27502 
   26478    25334    24632    24432    24455    24692    25448    26615 
   27417    27180    25998    24549    23599    23583    24382    25432 
   26192    26658    27174    27589    27195    25887    24715    24722 
   25747    26769    27037    26568    25817    25132    24628    24383 
   24536    25092    25795    26268    26261    25859    25412    25184 
   25186    25370    25743    26231    26507    26163    25212    24290 
   24040    24490    25182    25704    25852    25625    25327    25343 
   25617    25737    25608    25609    25956    26246    25995    25377 
   24984    25056    25366    25644    25771    25724    25593    25462 
   25262    24904    24560    24563    24953    25431    25771    25957 
   25980    25841    25785    26065    26507    26715    26644    26589 
   26617    26420    25863    25265    25043    25350    25959    26450 
   26570    26400    26118    25713    25150    24636    24489    24868 
   25701    26667    27288    27191    26384    25290    24474    24209 
   24308    24403    24436    24773    25667    26697    27144    26821 
   26287    26046    25972    25725    25278    24996    25282    26076 
   26806    26928    26582    26377    26442    26310    25702    24984 
   24849    25672    27070    27972    27514    26115    25030    24773 
   24791    24559    24325    24582    25331    26037    26064    25270 
   24246    23737    23916    24371    24628    24653    24825    25440 
   26269    26717    26466    25785    25155    24775    24507    24271 
   24281    24881    26064    27255    27901    27935    27519    26867 
   26246    25829    25623    25577    25677    25793    25655    25218 
   24840    24857    25212    25637    25875    25805    25570    25411 
   25285    24933    24387    24106    24486    25357    26171    26601 
   26731    26717    26561    26227    25772    25313    25016    25045 
   25365    25708    25867    25890    25893    25832    25591    25184 
   24864    24983    25713    26933    28200    28840    28402    27113 
   25667    24559    23882    23722    24267    25450    26709    27359 
   27133    26254    25115    24131    23708    24057    25019    26211 
   27243    27796    27685    26870    25471    23967    23117    23349 
   24356    25398    25951    25956    25624    25203    24852    24607 
   24522    24700    25120    25627    26037    26144    25830    25293 
   24902    24761    24710    24702    24867    25196    25469    25488 
   25309    25213    25477    26075    26553    26450    25894    25473 
