Origin Time       2026/01/15 07:13:00
Lat.              42.7
Long.             145.4
Depth. (km)       30
Mag.              5.7
Station Code      HKD092
Station Lat.      42.9283
Station Long.     143.4485
Station Height(m) 17
Record Time       2026/01/15 07:14:02
Sampling Freq(Hz) 100Hz
Duration Time(s)  62
Dir.              U-D
Scale Factor      7845(gal)/8223790
Max. Acc. (gal)   1.511
Last Correction   2026/01/15 07:14:02
Memo.             
[...]
   -9477    -9332    -9239    -9197    -9115    -9074    -9229    -9379 
   -9200    -8919    -8964    -9188    -9252    -9228    -9261    -9261 
   -9208    -9224    -9286    -9329    -9439    -9579    -9516    -9248 
   -9069    -9081    -9078    -9011    -9040    -9104    -9080    -9140 
   -9356    -9429    -9267    -9171    -9289    -9441    -9486    -9478 
   -9495    -9478    -9362    -9236    -9185    -9171    -9234    -9437 
   -9659    -9667    -9385    -9036    -8972    -9221    -9417    -9346 
   -9220    -9282    -9441    -9410    -9148    -8973    -9039    -9132 
   -9144    -9198    -9263    -9265    -9329    -9455    -9427    -9273 
   -9251    -9420    -9541    -9405    -9126    -8986    -9035    -9088 
   -9065    -9054    -9136    -9286    -9367    -9278    -9124    -9088 
   -9148    -9180    -9181    -9202    -9219    -9202    -9182    -9153 
   -9100    -9081    -9161    -9340    -9536    -9566    -9421    -9371 
   -9514    -9628    -9575    -9456    -9398    -9412    -9377    -9213 
   -9053    -9040    -9130    -9224    -9273    -9211    -9104    -9161 
   -9348    -9440    -9420    -9364    -9231    -9107    -9150    -9236 
   -9194    -9078    -8976    -8912    -8953    -9094    -9204    -9194 
   -9103    -9011    -8984    -9053    -9221    -9478    -9714    -9674 
   -9271    -8895    -8927    -9173    -9302    -9413    -9630    -9755 
   -9598    -9292    -9151    -9266    -9377    -9351    -9383    -9520 
   -9529    -9323    -9100    -9046    -9135    -9235    -9256    -9228 
   -9270    -9421    -9510    -9396    -9224    -9204    -9343    -9513 
   -9522    -9238    -8845    -8692    -8799    -8912    -8939    -8989 
   -9081    -9100    -9008    -8961    -9039    -9093    -9061    -9093 
   -9223    -9325    -9350    -9356    -9472    -9761    -9991    -9832 
   -9409    -9194    -9235    -9188    -9067    -9181    -9450    -9597 
   -9657    -9721    -9640    -9409    -9271    -9262    -9223    -9180 
   -9223    -9254    -9170    -9039    -8973    -9003    -9034    -8955 
   -8814    -8754    -8819    -8910    -8981    -9134    -9413    -9634 
   -9628    -9489    -9364    -9269    -9211    -9216    -9231    -9211 
   -9175    -9175    -9282    -9494    -9659    -9655    -9508    -9292 
   -9115    -9109    -9216    -9262    -9263    -9273    -9269    -9327 
   -9432    -9359    -9104    -8888    -8785    -8757    -8776    -8826 
   -8926    -9086    -9281    -9487    -9675    -9711    -9502    -9234 
   -9173    -9298    -9386    -9356    -9369    -9558    -9768    -9749 
   -9537    -9355    -9300    -9360    -9470    -9460    -9255    -9024 
   -8999    -9136    -9207    -9211    -9325    -9459    -9393    -9201 
   -9031    -8846    -8723    -8826    -9062    -9261    -9417    -9517 
   -9460    -9271    -9113    -9069    -9092    -9155    -9228    -9221 
   -9135    -9101    -9138    -9155    -9146    -9140    -9188    -9371 
   -9591    -9583    -9425    -9451    -9606    -9622    -9570    -9618 
   -9637    -9454    -9190    -9046    -9028    -9109    -9285    -9410 
   -9363    -9243    -9190    -9200    -9220    -9217    -9147    -9024 
   -8978    -9031    -9063    -9066    -9084    -9101    -9185    -9369 
   -9489    -9447    -9297    -9101    -8999    -9094    -9243    -9310 
   -9362    -9359    -9213    -9085    -9167    -9352    -9454    -9458 
   -9354    -9104    -8873    -8876    -9032    -9099    -9069    -9132 
   -9277    -9261    -9057    -8946    -9040    -9189    -9306    -9383 
   -9387    -9367    -9387    -9393    -9369    -9383    -9414    -9356 
   -9247    -9266    -9464    -9649    -9660    -9549    -9425    -9359 
   -9350    -9252    -8982    -8737    -8704    -8802    -8897    -9009 
   -9186    -9366    -9445    -9443    -9414    -9366    -9371    -9498 
   -9616    -9602    -9478    -9317    -9239    -9277    -9278    -9185 
   -9157    -9286    -9452    -9512    -9447    -9312    -9208    -9243 
   -9320    -9250    -9150    -9193    -9224    -9153    -9142    -9194 
   -9200    -9229    -9312    -9327    -9279    -9269    -9289    -9252 
   -9148    -9085    -9170    -9352    -9487    -9533    -9508    -9390 
   -9256    -9255    -9327    -9329    -9312    -9296    -9138    -8887 
   -8822    -9007    -9184    -9161    -9042    -9031    -9142    -9223 
   -9246    -9301    -9389    -9414    -9364    -9277    -9104    -8897 
   -8884    -9076    -9239    -9274    -9252    -9231    -9211    -9158 
   -9111    -9204    -9445    -9625    -9610    -9504    -9398    -9296 
   -9252    -9323    -9437    -9494    -9481    -9455    -9477    -9520 
   -9485    -9382    -9386    -9574    -9732    -9612    -9297    -9108 
   -9128    -9188    -9254    -9331    -9286    -9154    -9147    -9266 
   -9348    -9362    -9356    -9336    -9263    -9144    -9038    -9003 
   -9046    -9112    -9113    -9042    -8985    -8986    -8988    -8938 
   -8905    -8950    -9013    -9072    -9139    -9173    -9100    -8907 
   -8766    -8892    -9169    -9333    -9462    -9714    -9860    -9679 
   -9451    -9451    -9486    -9354    -9178    -9130    -9186    -9256 
   -9355    -9517    -9599    -9475    -9331    -9404    -9533    -9439 
   -9236    -9234    -9427    -9529    -9402    -9225    -9216    -9371 
   -9505    -9444    -9235    -9080    -9057    -9109    -9281    -9541 
   -9603    -9405    -9258    -9261    -9224    -9113    -9036    -8976 
   -8870    -8850    -9026    -9144    -8978    -8787    -8822    -8942 
   -9035    -9161    -9277    -9342    -9406    -9444    -9412    -9359 
   -9305    -9239    -9207    -9207    -9182    -9086    -8919    -8869 
   -9117    -9431    -9498    -9421    -9347    -9258    -9228    -9273 
   -9279    -9377    -9670    -9825    -9690    -9610    -9661    -9567 
   -9408    -9420    -9478    -9410    -9302    -9278    -9329    -9337 
   -9243    -9154    -9169    -9266    -9390    -9432    -9324    -9216 
   -9235    -9212    -9031    -8961    -9154    -9286    -9148    -9015 
   -8999    -8878    -8739    -8849    -9096    -9243    -9290    -9238 
   -9082    -8985    -9018    -9088    -9184    -9282    -9244    -9101 
   -9015    -9024    -9132    -9301    -9346    -9242    -9223    -9347 
   -9458    -9559    -9695    -9738    -9649    -9563    -9525    -9423 
   -9209    -9022    -8995    -9085    -9151    -9121    -9112    -9292 
   -9583    -9667    -9377    -8973    -8896    -9213    -9543    -9591 
   -9470    -9366    -9273    -9207    -9306    -9529    -9690    -9784 
   -9840    -9710    -9381    -9059    -8928    -9036    -9254    -9344 
   -9256    -9123    -9024    -8986    -9016    -9036    -9015    -9040 
   -9088    -8959    -8650    -8463    -8553    -8784    -8993    -9131 
   -9223    -9327    -9467    -9558    -9479    -9337    -9400    -9587 
   -9555    -9354    -9289    -9351    -9383    -9382    -9298    -9063 
   -8874    -9027    -9420    -9626    -9497    -9296    -9270    -9418 
   -9582    -9612    -9452    -9232    -9227    -9485    -9670    -9629 
   -9564    -9532    -9477    -9474    -9460    -9327    -9273    -9435 
   -9559    -9429    -9194    -9019    -8885    -8811    -8862    -9009 
   -9174    -9293    -9331    -9336    -9348    -9343    -9325    -9335 
   -9387    -9464    -9456    -9259    -9028    -8965    -9003    -9045 
   -9166    -9309    -9269    -9109    -9042    -9018    -8945    -8964 
   -9111    -9208    -9197    -9171    -9134    -9036    -8964    -9030 
   -9216    -9428    -9572    -9576    -9491    -9402    -9320    -9273 
   -9275    -9274    -9327    -9499    -9686    -9821    -9907    -9780 
   -9383    -9032    -8931    -8853    -8661    -8607    -8830    -9105 
   -9270    -9377    -9412    -9324    -9239    -9225    -9207    -9239 
   -9390    -9486    -9433    -9324    -9181    -9046    -9027    -9046 
   -8965    -8853    -8910    -9163    -9362    -9354    -9354    -9539 
   -9759    -9857    -9895    -9892    -9682    -9294    -9032    -8989 
   -8951    -8758    -8532    -8548    -8824    -9073    -9193    -9271 
   -9215    -8972    -8796    -8874    -9089    -9310    -9522    -9675 
   -9718    -9676    -9576    -9428    -9292    -9232    -9231    -9254 
   -9302    -9292    -9123    -8959    -9070    -9327    -9369    -9196 
   -9115    -9167    -9165    -9126    -9182    -9256    -9224    -9186 
   -9275    -9396    -9348    -9144    -8999    -9008    -9088    -9180 
   -9258    -9283    -9281    -9258    -9188    -9173    -9359    -9691 
   -9930    -9833    -9417    -8992    -8831    -8937    -9126    -9225 
   -9217    -9227    -9288    -9207    -8939    -8815    -8996    -9184 
   -9128    -8995    -8981    -9090    -9320    -9548    -9545    -9378 
   -9297    -9294    -9232    -9092    -8991    -9119    -9435    -9571 
   -9485    -9572    -9867    -9984    -9895    -9844    -9780    -9587 
   -9409    -9409    -9544    -9629    -9553    -9387    -9266    -9262 
   -9366    -9481    -9472    -9348    -9285    -9305    -9225    -9034 
   -8918    -8995    -9198    -9269    -9028    -8754    -8766    -8945 
   -9130    -9354    -9524    -9559    -9568    -9531    -9371    -9188 
   -9004    -8726    -8499    -8604    -8922    -9040    -8949    -8993 
   -9184    -9247    -9236    -9393    -9575    -9472    -9158    -8893 
   -8785    -8889    -9088    -9059    -8784    -8606    -8648    -8718 
   -8766    -8893    -9053    -9171    -9352    -9603    -9706    -9618 
   -9594    -9676    -9621    -9455    -9439    -9528    -9459    -9186 
   -8870    -8671    -8676    -8830    -8985    -9158    -9456    -9729 
   -9772    -9745    -9861    -9995    -9933    -9713    -9572    -9578 
   -9597    -9582    -9526    -9366    -9157    -9072    -9139    -9213 
   -9227    -9267    -9369    -9427    -9310    -9005    -8738    -8745 
   -8911    -9030    -9140    -9321    -9498    -9609    -9639    -9585 
   -9512    -9477    -9429    -9324    -9227    -9186    -9163    -9097 
   -8988    -8915    -8949    -9115    -9406    -9672    -9691    -9520 
   -9393    -9270    -8953    -8642    -8688    -8918    -8889    -8581 
   -8329    -8382    -8679    -8878    -8800    -8725    -8950    -9363 
   -9751   -10093   -10276   -10106    -9764    -9644    -9829   -10011 
   -9938    -9745    -9607    -9439    -9252    -9200    -9194    -9039 
   -8865    -9003    -9409    -9718    -9805    -9779    -9612    -9248 
   -8889    -8753    -8698    -8467    -8212    -8220    -8419    -8640 
   -8907    -9209    -9378    -9413    -9482    -9521    -9296    -8870 
   -8672    -8989    -9521    -9749    -9651    -9571    -9574    -9405 
   -9024    -8756    -8865    -9254    -9663   -10065   -10469   -10505 
   -9930    -9138    -8577    -8286    -8176    -8244    -8514    -8885 
   -9108    -9126    -9144    -9200    -9161    -9132    -9302    -9572 
   -9710    -9668    -9618    -9714    -9803    -9649    -9410    -9404 
   -9582    -9686    -9620    -9487    -9393    -9390    -9504    -9616 
   -9475    -9034    -8633    -8526    -8459    -8349    -8495    -8718 
   -8858    -9178    -9440    -9352    -9202    -9178    -9147    -8951 
   -8775    -8900    -9200    -9354    -9321    -9375    -9533    -9559 
   -9593    -9752    -9761    -9578    -9456    -9463    -9525    -9624 
   -9759    -9930   -10007    -9853    -9564    -9212    -8814    -8475 
   -8249    -8129    -8118    -8256    -8552    -8888    -9062    -8970 
   -8758    -8677    -8847    -9305    -9919   -10378   -10612   -10752 
  -10712   -10359    -9882    -9567    -9460    -9491    -9648    -9863 
  -10035   -10052    -9788    -9481    -9447    -9437    -9147    -8829 
   -8745    -8780    -8765    -8694    -8618    -8514    -8353    -8267 
   -8382    -8600    -8781    -8891    -8947    -8986    -9019    -9030 
   -9057    -9166    -9271    -9227    -9134    -9189    -9324    -9363 
   -9327    -9335    -9390    -9413    -9402    -9436    -9555    -9710 
   -9807    -9768    -9591    -9398    -9333    -9402    -9506    -9505 
   -9244    -8885    -8860    -9174    -9379    -9316    -9224    -9283 
   -9439    -9528    -9485    -9425    -9371    -9169    -8910    -8860 
   -8897    -8773    -8737    -9076    -9487    -9595    -9485    -9386 
   -9329    -9246    -9120    -9119    -9418    -9772    -9791    -9686 
   -9855   -10107   -10224   -10345   -10249    -9703    -9302    -9547 
   -9796    -9373    -8818    -8922    -9362    -9255    -8500    -7935 
   -8163    -8792    -9103    -8950    -8904    -9229    -9324    -9015 
   -8838    -8951    -9209    -9435    -9475    -9337    -8977    -8603 
   -8769    -9425    -9898    -9913    -9779    -9725    -9683    -9562 
   -9346    -9201    -9363    -9713    -9918    -9891    -9714    -9520 
   -9477    -9491    -9274    -8893    -8711    -8837    -9090    -9259 
   -9171    -8830    -8519    -8464    -8522    -8546    -8627    -8853 
   -9192    -9505    -9560    -9319    -8996    -8777    -8750    -8912 
   -9148    -9366    -9610    -9895   -10076   -10039    -9933    -9922 
   -9972   -10039   -10127   -10135    -9977    -9701    -9340    -8946 
   -8691    -8692    -8873    -9080    -9197    -9213    -9157    -9003 
   -8822    -8730    -8623    -8434    -8436    -8766    -9103    -9234 
   -9362    -9548    -9540    -9320    -9155    -9192    -9413    -9787 
  -10189   -10357   -10166    -9882    -9768    -9753    -9745    -9822 
   -9938    -9909    -9733    -9548    -9382    -9207    -8988    -8633 
   -8235    -8124    -8320    -8388    -8148    -7952    -8081    -8340 
   -8419    -8324    -8302    -8414    -8484    -8550    -8912    -9616 
  -10326   -10750   -10841   -10694   -10458   -10238   -10037    -9873 
   -9771    -9641    -9447    -9302    -9227    -9086    -8816    -8560 
   -8526    -8649    -8691    -8749    -9073    -9491    -9616    -9416 
   -9173    -9090    -9154    -9238    -9244    -9150    -8999    -8864 
   -8811    -8870    -9026    -9229    -9454    -9647    -9668    -9553 
   -9585    -9823   -10015   -10006    -9826    -9659    -9751    -9975 
   -9880    -9416    -8999    -8881    -8966    -9027    -8896    -8685 
   -8586    -8549    -8581    -8699    -8649    -8432    -8343    -8317 
   -8274    -8530    -9030    -9323    -9427    -9593    -9690    -9512 
   -9170    -8880    -8718    -8784    -9127    -9481    -9671    -9855 
   -9998    -9852    -9490    -9263    -9246    -9235    -9259    -9373 
   -9354    -9231    -9161    -8965    -8602    -8289    -8027    -7827 
   -7863    -8098    -8392    -8764    -9201    -9589    -9871    -9983 
   -9856    -9579    -9340    -9277    -9445    -9713    -9875    -9922 
   -9900    -9774    -9585    -9397    -9254    -9333    -9683    -9971 
   -9981    -9825    -9537    -9182    -9034    -9154    -9344    -9506 
   -9524    -9282    -8951    -8775    -8785    -8888    -8935    -8905 
   -9013    -9374    -9744    -9861    -9721    -9436    -9143    -8931 
   -8735    -8530    -8486    -8650    -8818    -8887    -8923    -8941 
   -8949    -9040    -9263    -9543    -9711    -9659    -9559    -9656 
   -9806    -9764    -9614    -9494    -9410    -9478    -9814   -10172 
  -10185    -9879    -9571    -9431    -9432    -9494    -9487    -9304 
   -8947    -8540    -8218    -8068    -8124    -8280    -8390    -8505 
   -8738    -9072    -9410    -9693    -9887    -9960    -9849    -9585 
   -9278    -8961    -8657    -8527    -8611    -8758    -8915    -9058 
   -9085    -8934    -8645    -8394    -8391    -8703    -9313   -10049 
  -10551   -10729   -10802   -10801   -10586   -10204    -9857    -9661 
   -9555    -9470    -9454    -9490    -9483    -9499    -9598    -9599 
   -9413    -9198    -9034    -8915    -8965    -9181    -9371    -9498 
   -9655    -9730    -9567    -9339    -9247    -9072    -8631    -8245 
   -8216    -8430    -8635    -8711    -8730    -8888    -9212    -9470 
   -9464    -9261    -9100    -9185    -9510    -9836    -9975    -9941 
   -9810    -9675    -9585    -9478    -9346    -9279    -9202    -9007 
   -8877    -8966    -9123    -9197    -9140    -8935    -8710    -8634 
   -8710    -8829    -8889    -8868    -8818    -8823    -8896    -8951 
   -8889    -8692    -8496    -8515    -8760    -9036    -9305    -9651 
   -9958   -10068   -10093   -10188   -10255   -10220   -10211   -10301 
  -10357   -10258   -10073    -9828    -9424    -9024    -8938    -9023 
   -9000    -8997    -9150    -9301    -9339    -9335    -9336    -9248 
   -8992    -8660    -8424    -8363    -8544    -8915    -9175    -9251 
   -9452    -9798    -9996   -10069   -10179   -10241   -10131    -9868 
   -9504    -9135    -8857    -8696    -8716    -8900    -9011    -8958 
   -8930    -8953    -8831    -8576    -8448    -8596    -8897    -9119 
   -9224    -9312    -9320    -9126    -8849    -8672    -8645    -8764 
   -8943    -9062    -9109    -9123    -9131    -9219    -9424    -9678 
   -9887    -9954    -9787    -9471    -9242    -9180    -9208    -9309 
   -9509    -9752    -9937    -9977    -9898    -9865    -9915    -9873 
   -9715    -9655    -9751    -9755    -9421    -8931    -8738    -8860 
   -8973    -9074    -9244    -9273    -9109    -8968    -8895    -8842 
   -8826    -8793    -8672    -8492    -8328    -8284    -8436    -8702 
   -8964    -9184    -9292    -9235    -9190    -9296    -9359    -9263 
   -9262    -9512    -9776    -9869    -9915   -10014   -10038    -9852 
   -9482    -9093    -8885    -8937    -9131    -9290    -9340    -9315 
   -9242    -9094    -8892    -8752    -8707    -8681    -8684    -8741 
   -8781    -8873    -9159    -9514    -9699    -9734    -9736    -9710 
   -9647    -9547    -9375    -9184    -9154    -9354    -9633    -9819 
   -9829    -9632    -9336    -9194    -9390    -9780   -10021    -9957 
   -9761    -9576    -9356    -9150    -9082    -9065    -9020    -9093 
   -9297    -9385    -9243    -9008    -8789    -8606    -8522    -8553 
   -8594    -8675    -8893    -9143    -9258    -9194    -9001    -8881 
   -8981    -9150    -9193    -9154    -9144    -9193    -9251    -9197 
   -9070    -9113    -9332    -9479    -9518    -9576    -9598    -9443 
   -9188    -9093    -9212    -9289    -9209    -9127    -9169    -9387 
   -9755   -10035   -10007    -9751    -9522    -9494    -9625    -9726 
   -9736    -9767    -9822    -9792    -9730    -9733    -9738    -9649 
   -9414    -9055    -8766    -8710    -8758    -8784    -8872    -9015 
   -9031    -8911    -8811    -8792    -8822    -8845    -8797    -8716 
   -8764    -8973    -9142    -9180    -9250    -9436    -9620    -9702 
   -9582    -9238    -8896    -8721    -8598    -8586    -8835    -9057 
   -8977    -8866    -8899    -8883    -8806    -8781    -8829    -8977 
   -9153    -9277    -9468    -9729    -9853    -9852    -9952   -10161 
  -10264   -10162    -9911    -9629    -9482    -9472    -9406    -9243 
   -9167    -9232    -9267    -9198    -9100    -9018    -9055    -9285 
   -9467    -9406    -9302    -9336    -9362    -9211    -9011    -9012 
   -9204    -9379    -9409    -9298    -9185    -9240    -9420    -9514 
   -9431    -9274    -9136    -8973    -8756    -8565    -8455    -8437 
   -8571    -8881    -9286    -9637    -9774    -9632    -9375    -9227 
   -9202    -9236    -9352    -9563    -9768    -9828    -9713    -9518 
   -9337    -9223    -9238    -9360    -9462    -9456    -9381    -9319 
   -9290    -9186    -8915    -8590    -8401    -8418    -8591    -8830 
   -9076    -9297    -9481    -9645    -9796    -9855    -9806    -9744 
