Origin Time       2026/01/15 07:13:00
Lat.              42.7
Long.             145.4
Depth. (km)       30
Mag.              5.7
Station Code      HKD060
Station Lat.      43.9136
Station Long.     144.6657
Station Height(m) 6
Record Time       2026/01/15 07:13:57
Sampling Freq(Hz) 100Hz
Duration Time(s)  63
Dir.              N-S
Scale Factor      7845(gal)/8223790
Max. Acc. (gal)   2.236
Last Correction   2026/01/15 07:13:57
Memo.             
[...]
   -8498    -8649    -8760    -8820    -8761    -8581    -8418    -8390 
   -8492    -8671    -8846    -8946    -8939    -8838    -8669    -8510 
   -8465    -8553    -8673    -8739    -8750    -8734    -8692    -8594 
   -8445    -8317    -8252    -8233    -8280    -8419    -8576    -8669 
   -8726    -8762    -8723    -8610    -8537    -8579    -8669    -8766 
   -8872    -8922    -8850    -8711    -8613    -8573    -8533    -8495 
   -8529    -8617    -8681    -8695    -8652    -8561    -8465    -8398 
   -8355    -8351    -8415    -8496    -8513    -8500    -8538    -8657 
   -8838    -8977    -8962    -8819    -8668    -8586    -8560    -8586 
   -8685    -8800    -8823    -8731    -8584    -8472    -8464    -8540 
   -8649    -8726    -8704    -8633    -8630    -8654    -8572    -8409 
   -8330    -8390    -8461    -8472    -8482    -8510    -8565    -8695 
   -8824    -8842    -8796    -8746    -8657    -8537    -8473    -8475 
   -8471    -8467    -8491    -8505    -8484    -8415    -8276    -8105 
   -8029    -8163    -8434    -8650    -8708    -8657    -8591    -8560 
   -8577    -8617    -8622    -8587    -8567    -8583    -8607    -8613 
   -8577    -8514    -8471    -8476    -8511    -8549    -8564    -8548 
   -8511    -8484    -8496    -8553    -8653    -8749    -8762    -8696 
   -8622    -8577    -8563    -8603    -8726    -8874    -8950    -8938 
   -8912    -8914    -8903    -8838    -8715    -8587    -8523    -8529 
   -8579    -8673    -8758    -8743    -8626    -8495    -8440    -8491 
   -8629    -8785    -8854    -8792    -8650    -8525    -8506    -8600 
   -8711    -8737    -8664    -8560    -8471    -8395    -8361    -8429 
   -8594    -8738    -8752    -8671    -8595    -8565    -8580    -8633 
   -8700    -8733    -8710    -8704    -8743    -8735    -8641    -8561 
   -8571    -8653    -8777    -8881    -8869    -8738    -8598    -8525 
   -8514    -8572    -8714    -8858    -8868    -8719    -8538    -8433 
   -8395    -8397    -8442    -8500    -8505    -8438    -8365    -8357 
   -8382    -8375    -8395    -8487    -8606    -8698    -8726    -8683 
   -8608    -8532    -8424    -8318    -8328    -8457    -8598    -8688 
   -8742    -8729    -8608    -8460    -8397    -8444    -8527    -8579 
   -8608    -8629    -8591    -8519    -8507    -8565    -8627    -8671 
   -8715    -8750    -8772    -8814    -8811    -8702    -8571    -8509 
   -8505    -8519    -8565    -8642    -8696    -8676    -8596    -8505 
   -8457    -8499    -8599    -8683    -8710    -8689    -8614    -8473 
   -8360    -8351    -8399    -8452    -8542    -8692    -8831    -8883 
   -8843    -8722    -8526    -8380    -8391    -8491    -8556    -8576 
   -8600    -8629    -8604    -8521    -8452    -8428    -8437    -8488 
   -8586    -8691    -8750    -8748    -8711    -8675    -8637    -8568 
   -8491    -8480    -8568    -8700    -8789    -8816    -8822    -8788 
   -8668    -8546    -8530    -8565    -8556    -8559    -8641    -8691 
   -8618    -8530    -8527    -8581    -8641    -8676    -8679    -8658 
   -8637    -8642    -8672    -8704    -8725    -8729    -8731    -8738 
   -8711    -8640    -8572    -8575    -8637    -8662    -8623    -8583 
   -8573    -8568    -8565    -8625    -8754    -8839    -8776    -8622 
   -8473    -8340    -8230    -8225    -8368    -8600    -8788    -8810 
   -8691    -8556    -8476    -8472    -8544    -8660    -8753    -8770 
   -8703    -8577    -8442    -8347    -8347    -8478    -8661    -8768 
   -8745    -8633    -8529    -8503    -8546    -8635    -8765    -8876 
   -8905    -8847    -8752    -8684    -8654    -8622    -8575    -8532 
   -8479    -8406    -8365    -8441    -8630    -8793    -8789    -8661 
   -8560    -8519    -8480    -8457    -8522    -8673    -8816    -8893 
   -8896    -8823    -8698    -8595    -8596    -8700    -8803    -8814 
   -8762    -8741    -8770    -8792    -8746    -8634    -8500    -8391 
   -8326    -8328    -8391    -8460    -8533    -8635    -8707    -8662 
   -8530    -8407    -8368    -8440    -8602    -8758    -8808    -8754 
   -8656    -8529    -8380    -8262    -8228    -8302    -8434    -8561 
   -8654    -8677    -8611    -8541    -8536    -8563    -8560    -8521 
   -8476    -8455    -8429    -8384    -8384    -8479    -8626    -8762 
   -8865    -8914    -8899    -8850    -8819    -8818    -8785    -8698 
   -8604    -8526    -8456    -8434    -8488    -8532    -8487    -8398 
   -8355    -8405    -8522    -8626    -8650    -8631    -8650    -8649 
   -8540    -8383    -8286    -8295    -8417    -8617    -8830    -8974 
   -8997    -8910    -8777    -8680    -8642    -8641    -8668    -8700 
   -8691    -8615    -8500    -8417    -8399    -8421    -8463    -8527 
   -8618    -8714    -8784    -8824    -8845    -8831    -8775    -8710 
   -8691    -8704    -8710    -8708    -8703    -8684    -8671    -8695 
   -8707    -8637    -8522    -8434    -8386    -8363    -8351    -8337 
   -8328    -8349    -8403    -8455    -8494    -8552    -8623    -8676 
   -8685    -8642    -8580    -8527    -8494    -8505    -8567    -8664 
   -8757    -8780    -8727    -8637    -8513    -8384    -8347    -8429 
   -8557    -8652    -8665    -8614    -8557    -8537    -8568    -8667 
   -8814    -8932    -8964    -8926    -8866    -8793    -8694    -8587 
   -8556    -8622    -8696    -8729    -8749    -8726    -8623    -8533 
   -8532    -8556    -8510    -8403    -8326    -8322    -8360    -8409 
   -8476    -8567    -8599    -8518    -8403    -8384    -8488    -8617 
   -8673    -8658    -8575    -8433    -8340    -8375    -8487    -8602 
   -8695    -8737    -8695    -8592    -8510    -8529    -8648    -8760 
   -8772    -8662    -8471    -8310    -8282    -8379    -8499    -8583 
   -8668    -8781    -8874    -8892    -8816    -8694    -8592    -8529 
   -8484    -8465    -8476    -8471    -8413    -8370    -8413    -8453 
   -8417    -8379    -8392    -8444    -8529    -8635    -8756    -8846 
   -8810    -8621    -8352    -8113    -8016    -8109    -8326    -8561 
   -8741    -8841    -8847    -8791    -8737    -8731    -8765    -8799 
   -8812    -8814    -8765    -8654    -8532    -8440    -8422    -8534 
   -8749    -8958    -9076    -9085    -9038    -9003    -8984    -8912 
   -8772    -8658    -8668    -8769    -8839    -8804    -8691    -8559 
   -8460    -8414    -8414    -8455    -8534    -8635    -8729    -8764 
   -8699    -8564    -8446    -8410    -8429    -8453    -8475    -8502 
   -8503    -8453    -8390    -8374    -8429    -8532    -8626    -8661 
   -8613    -8515    -8419    -8370    -8430    -8604    -8776    -8854 
   -8849    -8799    -8719    -8645    -8621    -8637    -8638    -8618 
   -8603    -8587    -8538    -8469    -8411    -8378    -8370    -8392 
   -8453    -8522    -8579    -8622    -8619    -8583    -8604    -8687 
   -8743    -8743    -8687    -8580    -8460    -8376    -8367    -8430 
   -8522    -8595    -8631    -8662    -8689    -8661    -8571    -8465 
   -8392    -8409    -8517    -8680    -8857    -8972    -9005    -9003 
   -8991    -8957    -8896    -8835    -8784    -8696    -8557    -8422 
   -8364    -8367    -8359    -8344    -8376    -8419    -8456    -8542 
   -8646    -8650    -8545    -8434    -8340    -8201    -8067    -8047 
   -8139    -8280    -8441    -8617    -8749    -8785    -8749    -8700 
   -8672    -8675    -8685    -8695    -8721    -8746    -8746    -8727 
   -8727    -8757    -8788    -8812    -8864    -8907    -8853    -8726 
   -8684    -8791    -8930    -8995    -8989    -8946    -8897    -8858 
   -8814    -8780    -8772    -8729    -8592    -8394    -8236    -8190 
   -8236    -8297    -8334    -8364    -8388    -8367    -8291    -8240 
   -8251    -8260    -8266    -8363    -8554    -8703    -8723    -8689 
   -8692    -8683    -8622    -8602    -8703    -8854    -8930    -8903 
   -8820    -8710    -8604    -8553    -8545    -8560    -8618    -8730 
   -8837    -8888    -8895    -8884    -8873    -8861    -8866    -8903 
   -8912    -8858    -8806    -8800    -8822    -8826    -8807    -8766 
   -8708    -8646    -8596    -8553    -8503    -8432    -8349    -8275 
   -8216    -8183    -8194    -8245    -8320    -8383    -8422    -8457 
   -8491    -8499    -8480    -8465    -8496    -8569    -8661    -8770 
   -8876    -8916    -8833    -8648    -8449    -8298    -8244    -8328 
   -8472    -8549    -8527    -8476    -8445    -8425    -8405    -8403 
   -8440    -8495    -8523    -8534    -8580    -8646    -8656    -8594 
   -8521    -8502    -8537    -8590    -8656    -8749    -8847    -8892 
   -8853    -8765    -8623    -8410    -8216    -8154    -8217    -8333 
   -8478    -8638    -8722    -8662    -8549    -8473    -8437    -8473 
   -8645    -8889    -9034    -9013    -8937    -8868    -8792    -8700 
   -8579    -8468    -8457    -8548    -8640    -8668    -8662    -8685 
   -8738    -8787    -8826    -8849    -8826    -8729    -8583    -8478 
   -8478    -8565    -8675    -8777    -8820    -8708    -8479    -8316 
   -8314    -8405    -8511    -8661    -8843    -8931    -8845    -8679 
   -8563    -8513    -8468    -8419    -8410    -8438    -8461    -8488 
   -8537    -8569    -8577    -8619    -8718    -8822    -8883    -8916 
   -8957    -8984    -8973    -8945    -8915    -8885    -8856    -8806 
   -8714    -8630    -8649    -8777    -8905    -8920    -8807    -8623 
   -8399    -8176    -8083    -8191    -8410    -8603    -8719    -8768 
   -8769    -8768    -8803    -8842    -8806    -8677    -8495    -8276 
   -8077    -7970    -7973    -8077    -8266    -8437    -8475    -8375 
   -8230    -8143    -8137    -8237    -8490    -8787    -8920    -8873 
   -8770    -8644    -8490    -8391    -8444    -8591    -8662    -8592 
   -8483    -8406    -8322    -8233    -8228    -8324    -8453    -8569 
   -8661    -8723    -8730    -8685    -8626    -8559    -8506    -8530 
   -8596    -8637    -8652    -8625    -8541    -8463    -8456    -8533 
   -8645    -8721    -8723    -8664    -8592    -8559    -8565    -8588 
   -8611    -8615    -8584    -8525    -8453    -8398    -8409    -8479 
   -8546    -8615    -8706    -8772    -8779    -8758    -8765    -8806 
   -8830    -8835    -8845    -8802    -8661    -8502    -8411    -8376 
   -8333    -8274    -8249    -8306    -8421    -8544    -8645    -8703 
   -8675    -8561    -8461    -8494    -8657    -8861    -9005    -9028 
   -8942    -8811    -8668    -8541    -8498    -8564    -8661    -8719 
   -8756    -8793    -8806    -8783    -8770    -8803    -8835    -8806 
   -8741    -8695    -8662    -8622    -8575    -8549    -8567    -8606 
   -8656    -8741    -8833    -8856    -8793    -8665    -8532    -8469 
   -8500    -8580    -8662    -8727    -8749    -8700    -8595    -8464 
   -8338    -8293    -8353    -8455    -8526    -8552    -8545    -8517 
   -8491    -8527    -8611    -8680    -8741    -8799    -8808    -8753 
   -8695    -8694    -8727    -8733    -8692    -8630    -8556    -8484 
   -8464    -8517    -8575    -8573    -8554    -8557    -8556    -8554 
   -8607    -8715    -8822    -8872    -8872    -8862    -8838    -8793 
   -8781    -8812    -8823    -8795    -8789    -8843    -8938    -9022 
   -9047    -8991    -8897    -8853    -8883    -8938    -8974    -8973 
   -8915    -8793    -8626    -8456    -8316    -8203    -8124    -8079 
   -8064    -8091    -8167    -8276    -8397    -8505    -8553    -8517 
   -8406    -8266    -8191    -8243    -8344    -8382    -8376    -8413 
   -8455    -8424    -8351    -8328    -8391    -8491    -8565    -8602 
   -8610    -8553    -8422    -8329    -8375    -8468    -8503    -8500 
   -8488    -8460    -8418    -8397    -8459    -8598    -8735    -8839 
   -8854    -8752    -8599    -8464    -8398    -8429    -8505    -8546 
   -8548    -8537    -8518    -8526    -8607    -8712    -8734    -8654 
   -8544    -8459    -8402    -8388    -8446    -8567    -8700    -8765 
   -8722    -8631    -8579    -8625    -8753    -8880    -8946    -8941 
   -8896    -8868    -8878    -8897    -8889    -8862    -8860    -8910 
   -9004    -9090    -9112    -9072    -8991    -8861    -8707    -8583 
   -8515    -8521    -8599    -8706    -8811    -8932    -9080    -9212 
   -9283    -9298    -9265    -9159    -8992    -8814    -8667    -8561 
   -8476    -8434    -8473    -8549    -8590    -8590    -8572    -8521 
   -8419    -8324    -8262    -8201    -8128    -8058    -7993    -7924 
   -7866    -7816    -7759    -7742    -7844    -8050    -8289    -8519 
   -8710    -8789    -8734    -8623    -8554    -8534    -8514    -8490 
   -8495    -8522    -8560    -8649    -8783    -8901    -9001    -9103 
   -9151    -9094    -8959    -8829    -8761    -8729    -8685    -8642 
   -8614    -8594    -8575    -8565    -8596    -8654    -8692    -8680 
   -8615    -8517    -8434    -8428    -8517    -8627    -8660    -8610 
   -8514    -8386    -8233    -8089    -8040    -8151    -8334    -8444 
   -8426    -8293    -8064    -7816    -7662    -7657    -7734    -7798 
   -7855    -7940    -7996    -8010    -8063    -8136    -8129    -8050 
   -7967    -7886    -7763    -7628    -7568    -7609    -7672    -7692 
   -7720    -7832    -8016    -8203    -8372    -8540    -8675    -8739 
   -8745    -8719    -8653    -8525    -8375    -8274    -8213    -8139 
   -8039    -7966    -7987    -8090    -8229    -8430    -8689    -8887 
   -8951    -8928    -8881    -8842    -8843    -8900    -8946    -8918 
   -8918    -9092    -9401    -9718   -10025   -10359   -10687   -10909 
  -10945   -10849   -10717   -10571   -10454   -10430   -10486   -10558 
  -10567   -10488   -10343   -10169   -10004    -9887    -9822    -9782 
   -9721    -9621    -9495    -9370    -9243    -9107    -8966    -8835 
   -8706    -8602    -8568    -8604    -8665    -8723    -8753    -8687 
   -8480    -8152    -7778    -7430    -7149    -6986    -7020    -7253 
   -7570    -7858    -8086    -8251    -8311    -8225    -8010    -7754 
   -7528    -7379    -7341    -7416    -7553    -7672    -7766    -7884 
   -8025    -8162    -8291    -8411    -8509    -8580    -8649    -8704 
   -8687    -8571    -8387    -8198    -8079    -8095    -8244    -8460 
   -8658    -8783    -8830    -8833    -8820    -8787    -8726    -8677 
   -8687    -8722    -8677    -8505    -8278    -8102    -8025    -8081 
   -8283    -8549    -8780    -8942    -8981    -8843    -8550    -8213 
   -7929    -7703    -7533    -7464    -7477    -7508    -7566    -7711 
   -7932    -8156    -8352    -8549    -8727    -8816    -8847    -8897 
   -8905    -8785    -8571    -8359    -8278    -8401    -8676    -9036 
   -9464    -9914   -10281   -10455   -10392   -10139    -9780    -9400 
   -9046    -8749    -8553    -8490    -8526    -8618    -8745    -8878 
   -8969    -8988    -8964    -8945    -8966    -9046    -9161    -9262 
   -9269    -9093    -8745    -8341    -7975    -7693    -7553    -7624 
   -7892    -8205    -8410    -8496    -8559    -8626    -8662    -8707 
   -8835    -9013    -9116    -9076    -8901    -8641    -8382    -8232 
   -8226    -8297    -8370    -8402    -8353    -8168    -7831    -7411 
   -7086    -6993    -7130    -7415    -7767    -8101    -8338    -8473 
   -8564    -8654    -8753    -8837    -8897    -8941    -8978    -9013 
   -9061    -9147    -9194    -9073    -8776    -8468    -8333    -8405 
   -8592    -8815    -9023    -9143    -9130    -9022    -8899    -8810 
   -8742    -8650    -8482    -8183    -7807    -7549    -7547    -7765 
   -8090    -8421    -8665    -8784    -8816    -8785    -8692    -8613 
   -8606    -8629    -8633    -8619    -8603    -8581    -8548    -8491 
   -8398    -8257    -8062    -7890    -7882    -8081    -8461    -8957 
   -9397    -9567    -9397    -9034    -8706    -8573    -8677    -8943 
   -9240    -9483    -9598    -9481    -9153    -8839    -8710    -8730 
   -8789    -8831    -8824    -8725    -8536    -8314    -8141    -8090 
   -8136    -8197    -8244    -8334    -8552    -8878    -9197    -9444 
   -9583    -9570    -9462    -9360    -9286    -9223    -9184    -9184 
   -9184    -9131    -9011    -8858    -8710    -8567    -8444    -8384 
   -8395    -8421    -8432    -8446    -8478    -8502    -8482    -8409 
   -8313    -8198    -8075    -8004    -7981    -7975    -8019    -8137 
   -8328    -8567    -8785    -8912    -8907    -8749    -8505    -8329 
   -8318    -8457    -8689    -8949    -9138    -9165    -9000    -8711 
   -8374    -8032    -7773    -7672    -7712    -7840    -8017    -8213 
   -8387    -8532    -8681    -8839    -8931    -8895    -8711    -8480 
   -8391    -8517    -8733    -8920    -9054    -9086    -8974    -8783 
   -8623    -8549    -8563    -8653    -8789    -8908    -8934    -8847 
   -8735    -8695    -8741    -8842    -9000    -9192    -9282    -9148 
   -8866    -8631    -8563    -8652    -8823    -9009    -9170    -9238 
   -9184    -9049    -8869    -8626    -8325    -8020    -7808    -7788 
   -7983    -8333    -8754    -9103    -9190    -8985    -8675    -8464 
   -8428    -8542    -8748    -8959    -9090    -9120    -9089    -9051 
   -8986    -8826    -8560    -8270    -8063    -8016    -8093    -8181 
   -8243    -8290    -8235    -8009    -7739    -7566    -7514    -7572 
   -7735    -7966    -8172    -8275    -8290    -8283    -8295    -8329 
   -8338    -8256    -8086    -7912    -7816    -7825    -7900    -7981 
   -8025    -8005    -7923    -7809    -7730    -7747    -7836    -7950 
   -8079    -8216    -8359    -8490    -8577    -8664    -8779    -8881 
   -8962    -9020    -9058    -9111    -9196    -9308    -9481    -9695 
   -9841    -9823    -9659    -9454    -9283    -9161    -9108    -9170 
   -9329    -9506    -9657    -9790    -9907    -9983   -10015   -10000 
   -9903    -9741    -9634    -9675    -9822    -9985   -10069    -9952 
   -9574    -9031    -8505    -8109    -7840    -7690    -7703    -7869 
   -8110    -8345    -8491    -8518    -8498    -8511    -8577    -8619 
   -8507    -8186    -7739    -7333    -7129    -7207    -7508    -7904 
   -8291    -8567    -8637    -8503    -8275    -8083    -8005    -8058 
   -8191    -8307    -8303    -8178    -8033    -7904    -7740    -7558 
   -7445    -7447    -7553    -7735    -7986    -8284    -8579    -8831 
   -9049    -9216    -9269    -9175    -8980    -8752    -8557    -8463 
   -8476    -8540    -8591    -8571    -8480    -8418    -8449    -8579 
   -8780    -8964    -9019    -8883    -8603    -8344    -8224    -8235 
   -8326    -8426    -8437    -8313    -8120    -7992    -8035    -8252 
   -8530    -8727    -8769    -8667    -8498    -8348    -8256    -8248 
   -8317    -8417    -8522    -8602    -8619    -8615    -8673    -8802 
   -8924    -8947    -8820    -8573    -8287    -8078    -8056    -8259 
   -8584    -8864    -9001    -9032    -9027    -9047    -9117    -9197 
   -9243    -9250    -9219    -9161    -9119    -9140    -9228    -9327 
   -9370    -9340    -9267    -9174    -9072    -9008    -9047    -9173 
   -9300    -9360    -9381    -9400    -9371    -9251    -9063    -8833 
   -8583    -8374    -8270    -8298    -8422    -8583    -8746    -8865 
   -8880    -8765    -8540    -8276    -8101    -8113    -8283    -8507 
   -8675    -8718    -8613    -8403    -8205    -8114    -8137    -8214 
   -8280    -8283    -8244    -8218    -8186    -8136    -8118    -8164 
   -8266    -8413    -8611    -8818    -8953    -8992    -8972    -8924 
