Origin Time       2026/01/15 07:13:00
Lat.              42.7
Long.             145.4
Depth. (km)       30
Mag.              5.7
Station Code      HKD075
Station Lat.      43.1309
Station Long.     145.0288
Station Height(m) 43
Record Time       2026/01/15 07:13:28
Sampling Freq(Hz) 100Hz
Duration Time(s)  67
Dir.              U-D
Scale Factor      7845(gal)/8223790
Max. Acc. (gal)   6.440
Last Correction   2026/01/15 07:13:28
Memo.             
[...]
  -10224   -10230   -10228   -10216   -10215   -10223   -10226   -10226 
  -10230   -10226   -10223   -10226   -10223   -10222   -10226   -10224 
  -10220   -10226   -10233   -10228   -10218   -10216   -10222   -10227 
  -10231   -10231   -10227   -10220   -10214   -10218   -10230   -10234 
  -10222   -10216   -10226   -10227   -10219   -10219   -10223   -10224 
  -10226   -10230   -10224   -10219   -10223   -10227   -10226   -10223 
  -10220   -10224   -10233   -10230   -10216   -10214   -10223   -10224 
  -10223   -10226   -10226   -10222   -10222   -10222   -10220   -10220 
  -10223   -10226   -10224   -10227   -10226   -10219   -10219   -10219 
  -10218   -10227   -10238   -10228   -10216   -10216   -10219   -10218 
  -10224   -10234   -10231   -10222   -10219   -10220   -10222   -10222 
  -10223   -10228   -10234   -10230   -10214   -10212   -10224   -10230 
  -10227   -10226   -10226   -10223   -10220   -10222   -10222   -10222 
  -10224   -10227   -10228   -10227   -10216   -10212   -10224   -10230 
  -10224   -10226   -10230   -10220   -10211   -10219   -10228   -10227 
  -10226   -10224   -10223   -10224   -10220   -10215   -10223   -10234 
  -10230   -10220   -10222   -10224   -10220   -10220   -10224   -10223 
  -10227   -10228   -10223   -10220   -10218   -10215   -10226   -10233 
  -10226   -10219   -10222   -10227   -10224   -10220   -10224   -10228 
  -10223   -10223   -10224   -10222   -10222   -10219   -10219   -10227 
  -10230   -10226   -10226   -10227   -10218   -10212   -10223   -10234 
  -10231   -10228   -10227   -10219   -10212   -10219   -10226   -10230 
  -10235   -10228   -10212   -10214   -10227   -10228   -10223   -10227 
  -10226   -10222   -10224   -10224   -10220   -10224   -10227   -10222 
  -10222   -10226   -10223   -10224   -10228   -10223   -10218   -10220 
  -10224   -10223   -10224   -10230   -10226   -10214   -10211   -10222 
  -10233   -10233   -10226   -10218   -10215   -10219   -10220   -10224 
  -10230   -10224   -10220   -10223   -10223   -10219   -10222   -10228 
  -10231   -10226   -10222   -10222   -10222   -10223   -10223   -10223 
  -10227   -10231   -10223   -10216   -10220   -10223   -10223   -10227 
  -10231   -10223   -10219   -10223   -10222   -10222   -10226   -10222 
  -10220   -10228   -10230   -10222   -10222   -10219   -10211   -10219 
  -10238   -10235   -10222   -10220   -10223   -10220   -10220   -10224 
  -10227   -10228   -10223   -10218   -10222   -10228   -10224   -10214 
  -10220   -10233   -10228   -10222   -10220   -10220   -10223   -10223 
  -10222   -10224   -10227   -10226   -10222   -10222   -10224   -10222 
  -10222   -10228   -10226   -10220   -10227   -10230   -10220   -10214 
  -10223   -10233   -10230   -10223   -10222   -10222   -10222   -10219 
  -10220   -10228   -10231   -10223   -10220   -10223   -10224   -10227 
  -10228   -10223   -10218   -10223   -10230   -10224   -10219   -10222 
  -10224   -10228   -10231   -10223   -10218   -10226   -10227   -10218 
  -10220   -10230   -10228   -10220   -10219   -10223   -10224   -10226 
  -10224   -10224   -10227   -10223   -10223   -10230   -10224   -10212 
  -10218   -10233   -10231   -10220   -10222   -10227   -10222   -10215 
  -10223   -10234   -10235   -10228   -10218   -10214   -10220   -10228 
  -10228   -10228   -10227   -10219   -10218   -10228   -10228   -10216 
  -10219   -10227   -10227   -10224   -10224   -10224   -10224   -10223 
  -10219   -10223   -10233   -10230   -10220   -10224   -10227   -10220 
  -10216   -10223   -10227   -10226   -10226   -10227   -10224   -10218 
  -10218   -10224   -10228   -10222   -10219   -10228   -10234   -10218 
  -10211   -10223   -10233   -10228   -10224   -10226   -10224   -10218 
  -10219   -10230   -10230   -10222   -10222   -10226   -10228   -10223 
  -10216   -10224   -10237   -10228   -10215   -10219   -10226   -10222 
  -10222   -10228   -10231   -10226   -10216   -10216   -10223   -10227 
  -10228   -10228   -10226   -10218   -10212   -10224   -10238   -10228 
  -10216   -10222   -10233   -10228   -10218   -10218   -10226   -10226 
  -10220   -10222   -10228   -10231   -10222   -10215   -10223   -10230 
  -10224   -10228   -10233   -10222   -10214   -10224   -10228   -10219 
  -10219   -10227   -10228   -10227   -10222   -10216   -10222   -10230 
  -10222   -10219   -10230   -10233   -10222   -10220   -10222   -10215 
  -10216   -10231   -10238   -10226   -10214   -10215   -10223   -10224 
  -10220   -10224   -10234   -10228   -10216   -10216   -10227   -10228 
  -10219   -10220   -10230   -10231   -10227   -10224   -10218   -10215 
  -10222   -10230   -10235   -10233   -10218   -10211   -10223   -10231 
  -10224   -10223   -10231   -10230   -10220   -10218   -10223   -10223 
  -10222   -10228   -10231   -10227   -10223   -10222   -10222   -10219 
  -10220   -10228   -10235   -10234   -10223   -10212   -10216   -10227 
  -10230   -10230   -10230   -10226   -10219   -10216   -10220   -10227 
  -10227   -10223   -10224   -10228   -10223   -10218   -10222   -10226 
  -10224   -10226   -10233   -10235   -10249   -10301   -10385   -10440 
  -10413   -10342   -10345   -10504   -10794   -11145   -11385   -11132 
  -10268    -9491    -9651   -10656   -11649   -11826   -10957    -9747 
   -9382   -10157   -11134   -11287   -10462    -9423    -9004    -9216 
   -9516    -9643    -9841   -10561   -11678   -12109   -11003    -9076 
   -7897    -8158    -9358   -10773   -11757   -11674   -10656    -9679 
   -9390   -10023   -11492   -12667   -12523   -11534   -10326    -9196 
   -9066   -10130   -11190   -11489   -10770    -9302    -8876   -10272 
  -11705   -12098   -11888   -11048    -9729    -8804    -8452    -8044 
   -7470    -7577    -8895   -10335   -10439    -9409    -8353    -7838 
   -8046    -8814    -9605    -9784    -9121    -8634    -9128    -9607 
   -9579    -9845   -10177    -9917    -9671    -9949   -10185   -10133 
  -10285   -10916   -11880   -12532   -12002   -10523    -9485   -10072 
  -12120   -14045   -14310   -12480    -9387    -7187    -7402    -9166 
  -10956   -12321   -13509   -14391   -13668   -10303    -6066    -4324 
   -6407   -10759   -14224   -13810    -9603    -5251    -4050    -6385 
  -10516   -13722   -14235   -12857   -10970    -8417    -5517    -4557 
   -6941   -11094   -14238   -14308   -11245    -7585    -6288    -8309 
  -12000   -14485   -15087   -15165   -14257   -11229    -8031    -7129 
   -8078   -10107   -13061   -14740   -12933    -9212    -7161    -8365 
  -11053   -12143   -10871    -9274    -9188   -10646   -12019   -11110 
   -8299    -6804    -7938    -9462    -9495    -8789    -8687    -9402 
  -10667   -11969   -12172   -10894    -9178    -7624    -6502    -6940 
   -8703    -9927   -10245   -10265    -9996    -9784    -9995   -10867 
  -12537   -13162   -10949    -8259    -8685   -12209   -15692   -15503 
  -11006    -6308    -5337    -7480   -10278   -12398   -13375   -13032 
  -11591   -10208    -9918    -9995    -9609    -9535   -10300   -11169 
  -11033    -8918    -5768    -4615    -6420    -9391   -12447   -14759 
  -14735   -12356    -9107    -6512    -6556    -9602   -12619   -13004 
  -11161    -8606    -7342    -9256   -13003   -14866   -13981   -12330 
  -10922   -10000    -9960   -10119    -9786    -9873   -10968   -11950 
  -11720   -10304    -8760    -8579    -9907   -11353   -12032   -11866 
  -10681    -8710    -6921    -6453    -7840   -10062   -11191   -10620 
   -9536    -9043    -9188    -9949   -11333   -12353   -12069   -11122 
  -10250    -8989    -7518    -7105    -8094   -10003   -12420   -14196 
  -14057   -12170    -9616    -7574    -7132    -8615   -11153   -12834 
  -12116    -9778    -8328    -9414   -12398   -14886   -14764   -12040 
   -8610    -6598    -7002    -9193   -11261   -11684   -10636    -9072 
   -7812    -7550    -8224    -9290   -10552   -11692   -12286   -12194 
  -11084    -9138    -7790    -7892    -8854   -10064   -10843   -10642 
  -10189   -10201   -10578   -11431   -12235   -11723   -10052    -8634 
   -8363    -9300   -10702   -11469   -11376   -11022   -10886   -10882 
  -10482    -9439    -8432    -8510    -9832   -11512   -12726   -12962 
  -11670    -9360    -7981    -8505    -9836   -10633   -10370    -9356 
   -8726    -9138    -9923   -10335   -10382   -10346   -10347   -10162 
   -9543    -8672    -8016    -8264    -9990   -12361   -13474   -12800 
  -11391    -9919    -8766    -8673    -9632   -10785   -11465   -11371 
  -10693   -10031    -9768   -10079   -10781   -11068   -10601    -9992 
   -9683    -9629    -9709    -9607    -9290    -9416   -10338   -11437 
  -11877   -11454   -10584    -9628    -8830    -8833   -10119   -12037 
  -13200   -12673   -10532    -7846    -6403    -7296    -9801   -12411 
  -13864   -13167   -10511    -7672    -6459    -7445   -10071   -12829 
  -13776   -12175    -9273    -6960    -6547    -8375   -11421   -13751 
  -13852   -11491    -8186    -6636    -7985   -10399   -12046   -12922 
  -12510   -10214    -8056    -8127    -9478   -10767   -11954   -12303 
  -11152    -9586    -8702    -8568    -9182   -10308   -11287   -11611 
  -10939    -9468    -8521    -9162   -10716   -11978   -12226   -11053 
   -9435    -9077    -9674    -9849    -9759   -10002   -10122   -10071 
  -10659   -11516   -11219    -9759    -8580    -8672    -9786   -11028 
  -11753   -11712   -10851    -9599    -8847    -8949    -9385    -9895 
  -10611   -11136   -11109   -10694   -10057    -9502    -9560   -10169 
  -10493   -10172    -9900   -10089   -10277   -10312   -10615   -11138 
  -11273   -10781    -9965    -9146    -8758    -9524   -11415   -12981 
  -12769   -10945    -9054    -8568    -9686   -11256   -11959   -11325 
   -9879    -8791    -8672    -9090    -9845   -10793   -11156   -10832 
  -10408    -9828    -9128    -9058    -9634   -10045   -10135   -10185 
  -10081    -9838    -9664    -9699   -10224   -11022   -11110   -10357 
   -9946   -10277   -10477   -10318   -10270   -10423   -10851   -11388 
  -11094    -9819    -8833    -8772    -9081    -9452    -9937   -10354 
  -10608   -10740   -10666   -10521   -10735   -11191   -11244   -10705 
   -9879    -9302    -9463    -9933   -10025    -9876    -9711    -9517 
   -9471    -9707   -10241   -10928   -11407   -11461   -11072   -10342 
   -9709    -9653   -10098   -10609   -10883   -10802   -10527   -10196 
   -9676    -9304    -9765   -10658   -10844   -10123    -9290    -9126 
   -9570    -9779    -9567    -9684   -10195   -10458   -10373   -10142 
   -9888   -10107   -11016   -11627   -11078   -10076    -9501    -9305 
   -9699   -11010   -12258   -12168   -11086   -10041    -9289    -8974 
   -9374   -10057   -10447   -10521   -10462   -10663   -11145   -10836 
   -9464    -8598    -8993    -9794   -10516   -10917   -10484    -9626 
   -9308    -9458    -9526    -9738   -10350   -10947   -11327   -11493 
  -10966    -9763    -8826    -8642    -9166   -10451   -11915   -12418 
  -11588   -10187    -9301    -9498   -10656   -11940   -12171   -11010 
   -9316    -8337    -8703    -9742   -10318   -10419   -10805   -11168 
  -10561    -9402    -8820    -9093    -9864   -10415   -10481   -10751 
  -11267   -11419   -11504   -11637   -11225   -10824   -10991   -10600 
   -9127    -7722    -7379    -8394   -10311   -11917   -12648   -12690 
  -11801   -10288    -9165    -8444    -8117    -9001   -10889   -12433 
  -12442   -10570    -8122    -7462    -9440   -12337   -13910   -13279 
  -10940    -8363    -7095    -7516    -8900   -10326   -11213   -11241 
  -10442    -9548    -9267    -9587   -10246   -10852   -10952   -10689 
  -10482   -10237    -9694    -8999    -8617    -9262   -11074   -12560 
  -12125   -10358    -9003    -8864    -9960   -11851   -13296   -13266 
  -11938   -10131    -8652    -7987    -8195    -9278   -11009   -12148 
  -11434    -9468    -8039    -8155    -9494   -10917   -11497   -11160 
  -10417    -9822    -9512    -9458    -9823   -10562   -11178   -11199 
  -10659   -10069    -9887    -9949    -9742    -9166    -8654    -8947 
  -10569   -12872   -14083   -12846    -9625    -6597    -5854    -7651 
  -10608   -13078   -14041   -13225   -10999    -8301    -6524    -6933 
   -9460   -12236   -13146   -11797    -9502    -8139    -8814   -10681 
  -11965   -11836   -10347    -8253    -7258    -8430   -10652   -12062 
  -12047   -11059    -9911    -9200    -8811    -8667    -8837    -8795 
   -8492    -8965   -10420   -11681   -11894   -11037    -9541    -8442 
   -8518    -9130    -9578   -10384   -11638   -12403   -12159   -10883 
   -9080    -8151    -8820   -10343   -11946   -12958   -12523   -10964 
   -9593    -8973    -9047    -9846   -11011   -11543   -10484    -7986 
   -5906    -6420    -9397   -12344   -13159   -11762    -9715    -9024 
  -10489   -12769   -13470   -11595    -8689    -7298    -8198    -9741 
  -10342   -10223   -10191   -10434   -10828   -11319   -11712   -11346 
  -10046    -9093    -9431   -10264   -10886   -11556   -12432   -13401 
  -13848   -12907   -11097    -9849    -9466    -9254    -8583    -7445 
   -6775    -7551    -9417   -10662   -10399   -10095   -10905   -11759 
  -11797   -11263   -10264    -9539   -10282   -11665   -11696   -10291 
   -8698    -7766    -7936    -8915    -9865   -10789   -12247   -13691 
  -13855   -12606   -10940    -9590    -8853    -9061    -9906   -10027 
   -8657    -6964    -6640    -8166   -10660   -12561   -12919   -11925 
  -10419    -9472    -9371    -9562   -10135   -11149   -11070    -8920 
   -6640    -6570    -8854   -12557   -16012   -16920   -14504    -9911 
   -5323    -3473    -5308    -8923   -12145   -13710   -13085   -11275 
   -9471    -7631    -6536    -7843   -11110   -14060   -15385   -15147 
  -13575   -11064    -8521    -7145    -7534    -8874    -9895   -10081 
   -9531    -8653    -8109    -8463    -9644   -11253   -12939   -13724 
  -12830   -11429   -10736    -9621    -7335    -6154    -8021   -11206 
  -12812   -11986    -9670    -7589    -7538   -10239   -14162   -15893 
  -13626    -9556    -6974    -6797    -8081    -9903   -11345   -11121 
   -9163    -7396    -7412    -8527    -9398   -10413   -12474   -14235 
  -13242    -9863    -7263    -7165    -8525   -10048   -11338   -12117 
  -11809   -10273    -8733    -8726   -10349   -12276   -12838   -11639 
  -10150    -9265    -7983    -6303    -6189    -8152   -10498   -11935 
  -12067   -11020    -9637    -8892    -9362   -10453   -10288    -8436 
   -7084    -7808   -10104   -12924   -14674   -13765   -11159    -9876 
  -11072   -12680   -12649   -11367   -10201    -9945   -10710   -11376 
  -10358    -8264    -7411    -8383    -9629   -10177   -10578   -11087 
  -10778    -9452    -8600    -9275   -10527   -10752    -9772    -8839 
   -8839    -9499   -10219   -10650   -10805   -10736   -10170    -9409 
   -9408    -9933    -9786    -9239    -9730   -11380   -12669   -12475 
  -11434   -10964   -11439   -11870   -11457   -10837   -10947   -11673 
  -12287   -12160   -11234   -10212    -9371    -8067    -6652    -6781 
   -8444    -9667    -9653    -9116    -8656    -8613    -8961    -9448 
  -10106   -10615   -10165    -9007    -8529    -9085    -9887   -10762 
  -11974   -13255   -13824   -12808   -10378    -8468    -8950   -11284 
  -13205   -13319   -11967   -10042    -8347    -7808    -8704   -10143 
  -11302   -11967   -11638    -9849    -7562    -6759    -8340   -11287 
  -13672   -13888   -11884    -9551    -8938   -10188   -11765   -12266 
  -11502   -10147    -8985    -8525    -8953   -10025   -11071   -11516 
  -11349   -10783    -9868    -8889    -8506    -8937    -9833   -10822 
  -11574   -11657   -10697    -9175    -8402    -8850    -9786   -10731 
  -11616   -11805   -10837    -9553    -8974    -9205    -9988   -10876 
  -11373   -11356   -10570    -9270    -9115   -10802   -12483   -12495 
  -11245    -9764    -8839    -9123   -10235   -10852   -10409    -9570 
   -9142    -9246    -9401    -9328    -9278    -9420    -9489    -9111 
   -8313    -7717    -7919    -9103   -11160   -13012   -13047   -11184 
   -8938    -7631    -7820    -9551   -11928   -13097   -11954    -9545 
   -7874    -8050    -9868   -11929   -12451   -11132    -9359    -8206 
   -7858    -8584   -10153   -11173   -10894   -10404   -10701   -11059 
  -10439    -9228    -8808    -9841   -11277   -11600   -10831   -10142 
  -10049   -10365   -10914   -11215   -10878   -10524   -10797   -11173 
  -10974   -10608   -10982   -12112   -12760   -11902   -10377    -9764 
  -10114   -10480   -10628   -10619   -10276    -9957   -10231   -10756 
  -10762   -10390   -10505   -11168   -11599   -11314   -10254    -8827 
   -8193    -9219   -11126   -12075   -11202    -9625    -8877    -8950 
   -9143    -9747   -10926   -11587   -11033    -9699    -8156    -7364 
   -8257   -10260   -11844   -12060   -10909    -9066    -7672    -7917 
   -9836   -11784   -12171   -11199   -10027    -9084    -8449    -8723 
   -9864   -10635   -10565   -10389   -10315   -10149    -9910    -9355 
   -8756    -9140   -10459   -11385   -11178   -10300    -9736   -10049 
  -10766   -10982   -10458    -9741    -9498    -9969   -10766   -11333 
  -11487   -11202   -10405    -9302    -8538    -8833   -10442   -12873 
  -14629   -14044   -11326    -8492    -7338    -8469   -10917   -12364 
  -11296    -8611    -6528    -6608    -8613   -10945   -12276   -12069 
  -10327    -8162    -7304    -8140    -9495   -10584   -11499   -11848 
  -10994    -9624    -9103    -9567   -10269   -10758   -10767   -10254 
   -9655    -9331    -9481   -10488   -12209   -13344   -12663   -10524 
   -8631    -8575   -10338   -12282   -13001   -12413   -11110    -9849 
   -9259    -9593   -10791   -12298   -12866   -11373    -8440    -6520 
   -7234    -9653   -11996   -13103   -12361   -10238    -8048    -6741 
   -6995    -8788   -10731   -11772   -11767   -10374    -8163    -7072 
   -7888    -9454   -10675   -11187   -10654    -9255    -8046    -8110 
   -9629   -11610   -12864   -13182   -12661   -11241    -9877    -9855 
  -10719   -11290   -11403   -10978    -9867    -8953    -9166   -10173 
  -11033   -11327   -11380   -11356   -10633    -8982    -7523    -7431 
   -8770   -10913   -12630   -12557   -10966    -9517    -8945    -8777 
   -8922    -9624   -10400   -10681   -10670   -10590   -10399   -10246 
  -10247   -10189    -9975    -9848    -9868    -9844    -9929   -10403 
  -10994   -11159   -10725   -10064    -9764   -10056   -10579   -10909 
  -10916   -10489    -9807    -9724   -10690   -11853   -12209   -11731 
  -10906   -10161    -9817   -10111   -10974   -11778   -11892   -11163 
   -9711    -8210    -7713    -8403    -9667   -11061   -11946   -11464 
   -9768    -8143    -7695    -8590   -10157   -11381   -11854   -11992 
  -11835   -10777    -8999    -7830    -8252    -9936   -11701   -12240 
  -10914    -8615    -7187    -7677    -9528   -11331   -12008   -11325 
   -9840    -8513    -7982    -8282    -9194   -10270   -11036   -11479 
  -11592   -11164   -10503   -10162   -10100   -10023    -9995   -10192 
  -10573   -10925   -11114   -11211   -11097   -10442    -9481    -8996 
   -9339   -10080   -10638   -10822   -10712   -10592   -10778   -11092 
  -11153   -10912   -10497   -10102    -9823    -9508    -9184    -9135 
   -9428    -9967   -10520   -10488    -9736    -9248    -9657   -10270 
  -10528   -10705   -10559    -9660    -8795    -8834    -9467   -10197 
  -10860   -11186   -11051   -10748   -10606   -10736   -10854   -10322 
