Origin Time       2026/01/15 07:13:00
Lat.              42.7
Long.             145.4
Depth. (km)       30
Mag.              5.7
Station Code      HKD068
Station Lat.      43.4108
Station Long.     144.7704
Station Height(m) 105
Record Time       2026/01/15 07:13:42
Sampling Freq(Hz) 100Hz
Duration Time(s)  79
Dir.              N-S
Scale Factor      7845(gal)/8223790
Max. Acc. (gal)   8.129
Last Correction   2026/01/15 07:13:42
Memo.             
[...]
   12710    12711    12714    12715    12712    12707    12707    12711 
   12712    12715    12717    12715    12712    12710    12707    12707 
   12711    12714    12715    12712    12708    12708    12707    12706 
   12710    12711    12710    12711    12712    12711    12711    12712 
   12711    12710    12712    12714    12711    12711    12712    12712 
   12711    12710    12712    12714    12714    12711    12707    12707 
   12710    12711    12710    12711    12712    12715    12715    12710 
   12707    12710    12710    12708    12711    12708    12702    12699 
   12700    12699    12699    12698    12698    12695    12692    12694 
   12696    12692    12692    12696    12695    12694    12696    12696 
   12696    12699    12700    12700    12702    12703    12706    12708 
   12706    12700    12700    12699    12696    12698    12699    12704 
   12714    12717    12714    12714    12707    12700    12696    12694 
   12694    12698    12706    12712    12715    12712    12702    12688 
   12680    12680    12680    12680    12684    12685    12685    12694 
   12700    12704    12704    12692    12676    12680    12707    12739 
   12757    12745    12718    12706    12719    12748    12768    12761 
   12741    12738    12758    12787    12807    12791    12742    12721 
   12739    12760    12757    12734    12719    12717    12712    12735 
   12784    12800    12761    12696    12637    12619    12648    12668 
   12638    12600    12622    12677    12708    12731    12739    12677 
   12588    12556    12584    12625    12630    12621    12653    12714 
   12750    12779    12804    12785    12695    12619    12656    12731 
   12758    12771    12756    12692    12691    12798    12885    12847 
   12717    12638    12715    12823    12792    12656    12555    12567 
   12630    12692    12775    12835    12838    12787    12626    12428 
   12417    12588    12712    12741    12722    12622    12536    12595 
   12699    12685    12595    12559    12631    12750    12785    12696 
   12584    12546    12555    12614    12789    12914    12816    12708 
   12721    12691    12627    12695    12856    12915    12842    12769 
   12707    12617    12587    12680    12789    12825    12866    12949 
   12953    12816    12630    12518    12501    12550    12704    12896 
   12949    12845    12694    12561    12563    12735    12876    12820 
   12681    12619    12619    12604    12579    12580    12629    12721 
   12849    12938    12908    12792    12640    12509    12510    12665 
   12837    12872    12761    12603    12471    12440    12584    12899 
   13216    13196    12746    12353    12415    12688    12807    12727 
   12622    12726    13012    13163    13058    12820    12542    12360 
   12491    12884    13086    12820    12395    12210    12262    12453 
   12789    13072    13042    12820    12650    12475    12283    12237 
   12305    12417    12626    12841    12934    12893    12744    12596 
   12611    12746    12870    12973    12938    12623    12334    12417 
   12646    12807    13074    13346    13309    13073    12887    12772 
   12729    12729    12627    12464    12523    12784    12942    12981 
   13011    12988    12955    12958    12880    12699    12515    12298 
   12043    12024    12359    12695    12833    12903    12904    12754 
   12553    12411    12348    12371    12540    12854    13097    13055 
   12772    12401    12202    12397    12835    13247    13479    13486 
   13339    13027    12590    12345    12469    12756    13018    13244 
   13410    13383    13069    12638    12399    12426    12546    12644 
   12725    12843    13055    13311    13409    13200    12771    12387 
   12179    12055    12020    12148    12366    12532    12640    12757 
   12776    12564    12344    12364    12447    12394    12375    12533 
   12775    12981    13014    12806    12541    12437    12596    13014 
   13417    13502    13271    12980    12798    12623    12370    12150 
   12106    12379    12912    13306    13308    13142    13018    12808 
   12494    12328    12391    12564    12703    12668    12533    12465 
   12421    12442    12741    13201    13362    13117    12916    12884 
   12648    12283    12168    12247    12287    12344    12534    12707 
   12760    12873    13092    13178    13053    12912    12834    12661 
   12424    12371    12506    12650    12891    13306    13513    13198 
   12721    12490    12405    12398    12542    12645    12702    12938 
   13111    12977    12872    12870    12661    12361    12239    12260 
   12422    12663    12754    12683    12677    12864    13073    13066 
   12814    12411    12090    12172    12633    13058    13189    13089 
   12866    12606    12492    12726    13155    13273    12942    12559 
   12348    12290    12413    12523    12418    12384    12671    13063 
   13281    13221    13032    12946    12904    12699    12347    12066 
   12097    12444    12745    12714    12587    12726    12996    13051 
   12934    12852    12687    12307    12000    11986    12162    12459 
   12800    12982    13008    12972    12719    12321    12205    12340 
   12422    12615    13093    13541    13533    13009    12322    11967 
   12164    12586    12896    13193    13377    13063    12383    11919 
   11981    12320    12538    12669    12918    13150    13184    13073 
   12860    12544    12285    12228    12330    12491    12671    12850 
   12953    12960    13108    13470    13609    13340    12991    12629 
   12177    11904    11973    12201    12486    12818    13113    13274 
   13217    12991    12785    12734    12777    12780    12676    12549 
   12471    12375    12351    12599    12923    12926    12727    12762 
   12918    12792    12561    12523    12552    12564    12671    12800 
   12741    12461    12226    12351    12777    13089    13059    12861 
   12753    12796    12935    13055    12992    12796    12730    12876 
   13031    13011    12822    12491    12135    11907    11865    12151 
   12756    13273    13440    13414    13281    12960    12603    12483 
   12537    12533    12457    12434    12476    12496    12422    12301 
   12287    12521    13001    13439    13559    13466    13267    12826 
   12252    12004    12113    12056    11769    11765    12217    12857 
   13466    13884    13965    13774    13471    13055    12564    12252 
   12163    12054    11985    12229    12676    13051    13290    13360 
   13181    12765    12330    12145    12214    12317    12313    12233 
   12179    12247    12506    12953    13394    13502    13153    12644 
   12353    12334    12501    12846    13246    13478    13439    13205 
   12981    12870    12791    12680    12564    12568    12753    12879 
   12765    12625    12664    12744    12781    12996    13352    13414 
   13088    12722    12438    12160    12029    12172    12471    12748 
   12811    12592    12345    12276    12298    12347    12474    12555 
   12494    12498    12626    12644    12573    12583    12671    12835 
   12978    12910    12692    12599    12779    13069    13139    12939 
   12765    12860    13116    13300    13351    13230    12961    12896 
   13120    13139    12758    12407    12348    12325    12244    12402 
   12803    13080    13046    12839    12691    12663    12603    12438 
   12316    12417    12636    12637    12360    12171    12390    12819 
   12896    12469    12020    11967    12312    12839    13225    13204 
   12860    12518    12384    12370    12339    12430    12802    13261 
   13444    13203    12734    12355    12199    12287    12588    12955 
   13228    13386    13482    13466    13227    12843    12563    12561 
   12725    12711    12424    12198    12310    12611    12761    12653 
   12461    12333    12313    12432    12590    12582    12379    12220 
   12359    12696    12876    12802    12739    12888    13153    13313 
   13242    12992    12696    12428    12225    12155    12189    12222 
   12348    12691    13055    13139    12945    12745    12623    12422 
   12271    12514    13136    13729    13956    13825    13516    13092 
   12510    11917    11672    11840    12067    12159    12310    12626 
   12970    13319    13707    13927    13695    13042    12341    11946 
   11970    12282    12507    12502    12615    12947    13177    13219 
   13149    12934    12630    12393    12286    12279    12329    12374 
   12297    12110    12077    12307    12538    12642    12815    13086 
   13296    13362    13192    12837    12699    12989    13333    13382 
   13209    12954    12676    12464    12325    12181    11975    11800 
   11785    11875    12054    12413    12847    13194    13419    13432 
   13230    13012    12826    12580    12388    12402    12621    12995 
   13352    13454    13201    12781    12565    12688    12895    12924 
   12719    12402    12220    12202    12150    12100    12139    12166 
   12258    12583    12972    13117    12997    12814    12702    12708 
   12837    12893    12718    12452    12322    12379    12573    12837 
   12995    12946    12815    12741    12781    12928    13100    13275 
   13500    13745    13936    13980    13702    13028    12237    11731 
   11635    11765    11921    12042    12172    12415    12741    13020 
   13163    13093    12839    12648    12637    12523    12166    11952 
   12062    12067    11855    11890    12324    12896    13459    13842 
   13783    13346    12858    12498    12368    12587    12976    13232 
   13347    13417    13369    13147    12946    12872    12726    12420 
   12158    12198    12573    13080    13471    13559    13296    12949 
   12800    12723    12528    12363    12298    12171    11979    11905 
   11959    12035    12178    12452    12737    12860    12758    12571 
   12464    12340    12069    11866    12013    12421    12892    13386 
   13761    13859    13765    13552    13165    12804    12753    12951 
   13136    13192    13101    12833    12449    12125    11936    11869 
   11966    12275    12715    13007    12922    12621    12474    12607 
   12787    12823    12845    12888    12730    12299    11815    11553 
   11635    12063    12730    13344    13676    13798    13873    13872 
   13659    13200    12618    12197    12062    11913    11537    11238 
   11403    11912    12360    12700    13073    13338    13429    13564 
   13679    13405    12671    11846    11352    11311    11541    11754 
   11882    12168    12703    13220    13581    13886    14083    14014 
   13743    13308    12631    11917    11435    11169    11140    11442 
   11948    12444    12847    13097    13049    12730    12499    12592 
   12777    12810    12776    12742    12644    12602    12664    12522 
   12102    11830    12086    12843    13706    14251    14253    13667 
   12839    12295    12167    12329    12587    12675    12555    12456 
   12501    12630    12765    12870    12957    13050    13232    13598 
   13930    13836    13379    12908    12455    12104    12224    12723 
   13069    13252    13624    13968    13832    13439    13365    13678 
   14014    14260    14515    14567    14254    13857    13576    13390 
   13304    13093    12503    11871    11782    12155    12449    12587 
   12772    12877    12802    12710    12588    12217    11632    11188 
   11180    11627    12287    12679    12483    11990    11627    11338 
   11151    11468    12195    12764    12937    12895    12881    12969 
   13150    13315    13311    13355    13706    14053    14106    14027 
   14030    14177    14339    14359    14365    14370    14168    13865 
   13760    13825    13865    13876    13887    13821    13694    13532 
   13212    12625    11865    11242    11101    11661    12785    13973 
   14868    15426    15589    15337    14937    14586    14089    13404 
   12893    12715    12582    12344    12260    12511    12881    13097 
   13174    13257    13331    13302    13082    12513    11703    11160 
   11059    11018    10771    10542    10631    10952    11248    11484 
   11736    11902    11674    10867     9791     8924     8375     8102 
    8321     9040     9733    10166    10674    11322    11803    11998 
   12052    12035    11751    11057    10146     9197     8263     7580 
    7443     7923     8966    10605    12916    15646    18103    19799 
   20785    21189    20858    19593    17500    15121    13039    11310 
    9933     9319     9597    10476    11662    12665    13031    12868 
   12676    13089    14505    16623    18631    19723    19399    17664 
   14936    11627     8343     6151     5741     7061     9756    12968 
   15651    17235    17589    17140    16402    15145    13128    10692 
    8190     6053     5005     5613     7817    10787    13327    14677 
   14886    14565    14370    14582    15087    15426    15059    13927 
   12336    10589     9004     7614     6305     5528     5923     7626 
   10260    13023    15257    16742    17288    17250    17402    17739 
   17824    17567    17047    16263    15098    13494    11619     9771 
    8222     7173     6953     7933    10087    12973    16096    18748 
   19857    18848    16289    13140    10087     7738     6678     6988 
    8280    10169    12064    13211    13373    12870    12170    11851 
   12417    13660    14634    14770    14418    13926    13333    12560 
   11435    10265     9666     9828    10777    12452    14395    16050 
   17204    17913    18231    18252    17875    16611    14393    11731 
    9013     6597     4878     4190     4772     6421     8896    12208 
   15809    18652    20152    20358    19745    18623    16672    13927 
   11246     9293     8220     7931     8340     9548    11434    13474 
   15028    15498    14577    12609    10660     9684     9441     9131 
    8699     8615     9043     9774    10589    11196    11217    10747 
   10361    10656    11992    14046    16025    17563    18669    19197 
   18971    18063    16707    15094    13355    11788    10990    11375 
   12704    14351    15766    16536    16402    15476    14187    12889 
   11790    11082    10794    10840    11341    12382    13517    14081 
   13867    13009    11526     9614     8024     7411     7717     8623 
   10139    12271    14369    15603    15861    15371    14373    13481 
   12996    12606    12166    11549    10463     9189     8599     9319 
   11102    13116    14752    15878    16659    17216    17454    17223 
   16097    13626    10311     7353     5761     6039     8020    10890 
   13824    16468    18567    19665    19554    18638    17485    16129 
   14553    13377    13019    13059    12811    11989    11018    10354 
    9907     9595     9479     9510     9732    10319    11318    12430 
   13360    14068    14273    13504    11697     9510     8159     8542 
   10528    13228    15639    16969    16891    15901    14928    14299 
   13644    12680    11630    10875    10642    11029    11645    11870 
   11877    12100    12479    13112    14166    15259    15894    16020 
   15954    15901    15588    14597    12775    10417     8280     7024 
    6727     7285     8846    11276    13597    14775    14737    14041 
   13197    12372    11624    11381    12012    13142    14115    14775 
   15330    15777    15936    15711    15117    14439    14058    14058 
   14339    14693    14709    14127    13085    11866    10689     9670 
    9093     9416    10750    12829    15137    16837    17146    16048 
   14357    12712    11075     9377     7902     7033     6972     7751 
    9351    11628    14049    15898    17001    17795    18485    18686 
   18036    16640    14862    13200    12077    11460    11083    10724 
   10195     9682     9714    10422    11308    11751    11642    11357 
   11063    10667    10422    10633    10984    11236    11862    12938 
   13676    13386    12112    10731    10463    11884    14316    16305 
   16846    16009    14449    12907    11969    11858    12291    12695 
   12849    13003    13468    14138    14455    14349    14256    14234 
   14185    13994    13311    12159    11001    10039     9169     8422 
    7942     7666     7507     7732     8661    10289    12517    15113 
   17455    19022    19988    20576    20406    19296    17838    16695 
   16017    15344    13987    11834     9486     7777     7268     7807 
    8819     9903    10679    10669    10076     9725     9728     9540 
    9107     8781     8839     9512    10859    12657    14484    15831 
   16429    16519    16436    16050    15091    13749    12576    11925 
   11596    11097    10129     8839     7906     8058     9472    11990 
   15214    18180    19832    19916    18939    17226    14831    12383 
   10669     9626     8893     8634     9270    10790    12600    13940 
   14347    13752    12364    10867    10287    11024    12478    13799 
   14477    14283    13398    12519    12170    12310    12918    14053 
   15576    17228    18636    19194    18247    15808    12935    10793 
    9599     8999     8845     9144     9899    11074    12464    13894 
   15093    15638    15631    15407    14813    13817    12899    12312 
   11823    11249    10557     9578     8402     7570     7304     7437 
    8109     9448    11017    12320    13238    13832    14322    15034 
   16020    16950    17529    17741    17392    15931    13502    11152 
    9394     8004     7079     6862     7079     7416     8039     8964 
    9836    10758    12117    13670    14804    15303    15276    15003 
   15021    15618    16274    16081    14764    13073    11867    11411 
   11638    12256    12879    13340    13450    12926    11875    10863 
   10345    10282    10504    11018    11811    12715    13451    13747 
   13440    12583    11642    11241    11497    12100    12980    14254 
   15661    16811    17645    18215    18446    18212    17509    16649 
   16031    15595    14870    13643    12051    10223     8451     7215 
    6732     6995     7850     8837     9544     9992    10280    10331 
   10314    10557    11076    11670    12208    12710    13293    14115 
   15190    16136    16591    16563    16132    15452    14758    14010 
   13042    11927    11009    10693    11079    11975    13248    14739 
   16174    17270    17560    16696    14958    12985    11503    11102 
   11653    12447    13135    13795    14251    14266    13856    13043 
   11925    10598     9252     8333     7952     8046     8699     9729 
   10885    11978    12645    12781    12710    12807    13402    14605 
   16167    17652    18524    18249    16625    14061    11468     9499 
    8031     6837     6300     6824     8318    10535    12888    14517 
   15045    14619    13482    11851    10207     9371     9663    10628 
   11977    13666    15255    16395    17073    17139    16614    15538 
   13860    12114    10979    10574    10613    10794    11151    11831 
   12806    13859    14673    15160    15419    15596    15826    16090 
   16174    15908    15583    15610    15769    15491    14507    12950 
   11249    10072     9788     9992    10170    10273    10250    10065 
   10073    10427    10793    10982    10989    10953    11344    12415 
   13830    14894    15353    15668    15862    15260    13779    12128 
   10887    10328    10709    11932    13394    14638    15561    16062 
   16056    15672    15020    14130    13142    12070    10794     9475 
