Origin Time       2026/01/15 07:13:00
Lat.              42.7
Long.             145.4
Depth. (km)       30
Mag.              5.7
Station Code      HKD064
Station Lat.      44.0202
Station Long.     145.1886
Station Height(m) 17
Record Time       2026/01/15 07:13:56
Sampling Freq(Hz) 100Hz
Duration Time(s)  71
Dir.              N-S
Scale Factor      7845(gal)/8223790
Max. Acc. (gal)   4.415
Last Correction   2026/01/15 07:13:56
Memo.             
[...]
  -12279   -12114   -11932   -11799   -11712   -11664   -11709   -11896 
  -12090   -12168   -12156   -12064   -11925   -11863   -11939   -12124 
  -12370   -12610   -12734   -12667   -12514   -12430   -12432   -12483 
  -12532   -12526   -12498   -12465   -12426   -12395   -12390   -12457 
  -12537   -12501   -12384   -12258   -12129   -12021   -11928   -11894 
  -11909   -11875   -11855   -11929   -12033   -12081   -12010   -11889 
  -11839   -11809   -11793   -11865   -11942   -12008   -12108   -12154 
  -12129   -12083   -12024   -12004   -12064   -12189   -12340   -12536 
  -12760   -12888   -12904   -12873   -12734   -12518   -12357   -12220 
  -12145   -12202   -12232   -12214   -12247   -12255   -12267   -12329 
  -12340   -12297   -12224   -12123   -12056   -12010   -11998   -12096 
  -12221   -12306   -12411   -12494   -12486   -12420   -12337   -12243 
  -12145   -12090   -12091   -12116   -12170   -12268   -12413   -12522 
  -12455   -12278   -12140   -12020   -11946   -11947   -11961   -12016 
  -12116   -12186   -12249   -12267   -12170   -12025   -11874   -11777 
  -11816   -11905   -11990   -12082   -12143   -12174   -12110   -11951 
  -11880   -11915   -12021   -12259   -12502   -12648   -12749   -12738 
  -12591   -12453   -12420   -12471   -12502   -12452   -12361   -12258 
  -12222   -12305   -12375   -12352   -12263   -12132   -11992   -11844 
  -11715   -11639   -11631   -11773   -12069   -12332   -12440   -12370 
  -12175   -11993   -11857   -11726   -11618   -11572   -11626   -11781 
  -11994   -12199   -12347   -12490   -12599   -12568   -12506   -12474 
  -12417   -12469   -12604   -12606   -12523   -12438   -12368   -12382 
  -12390   -12344   -12333   -12299   -12237   -12225   -12239   -12293 
  -12384   -12438   -12469   -12449   -12348   -12221   -12090   -12009 
  -12040   -12117   -12208   -12306   -12343   -12297   -12236   -12266 
  -12316   -12226   -12086   -11985   -11865   -11793   -11786   -11816 
  -11981   -12205   -12337   -12429   -12461   -12326   -12081   -11867 
  -11778   -11813   -11935   -12102   -12240   -12349   -12448   -12476 
  -12441   -12413   -12418   -12480   -12528   -12476   -12376   -12297 
  -12295   -12333   -12314   -12314   -12325   -12252   -12229   -12255 
  -12175   -12087   -12046   -12042   -12154   -12270   -12248   -12124 
  -11928   -11770   -11770   -11886   -12043   -12152   -12144   -12074 
  -12002   -11938   -11870   -11804   -11815   -11905   -11954   -11923 
  -11886   -11925   -12023   -12086   -12096   -12033   -11844   -11616 
  -11519   -11661   -12070   -12575   -12974   -13236   -13346   -13255 
  -13004   -12764   -12671   -12652   -12618   -12569   -12488   -12457 
  -12545   -12633   -12671   -12640   -12448   -12213   -12098   -12017 
  -11923   -11873   -11892   -11969   -12058   -12110   -12100   -12028 
  -11969   -11938   -11880   -11804   -11732   -11732   -11880   -12104 
  -12295   -12390   -12378   -12345   -12320   -12326   -12428   -12479 
  -12383   -12295   -12293   -12343   -12409   -12455   -12507   -12505 
  -12372   -12244   -12185   -12100   -12023   -12020   -12067   -12105 
  -12097   -12090   -12098   -12081   -12042   -11988   -11927   -11890 
  -11877   -11928   -12027   -12035   -11959   -11870   -11749   -11695 
  -11835   -12091   -12317   -12417   -12430   -12464   -12515   -12579 
  -12700   -12829   -12877   -12814   -12702   -12638   -12579   -12472 
  -12384   -12302   -12191   -12112   -12069   -12019   -11961   -11924 
  -11927   -11971   -12019   -11954   -11751   -11573   -11558   -11703 
  -11943   -12182   -12348   -12426   -12409   -12355   -12334   -12293 
  -12241   -12251   -12278   -12314   -12386   -12484   -12646   -12798 
  -12818   -12711   -12530   -12349   -12233   -12235   -12384   -12556 
  -12615   -12550   -12374   -12204   -12091   -11908   -11754   -11781 
  -11832   -11862   -11940   -12029   -12116   -12123   -11982   -11838 
  -11790   -11831   -11932   -12047   -12201   -12387   -12479   -12476 
  -12455   -12445   -12452   -12366   -12144   -11951   -11844   -11812 
  -11947   -12204   -12370   -12356   -12287   -12264   -12235   -12187 
  -12195   -12295   -12437   -12519   -12532   -12540   -12518   -12411 
  -12214   -11981   -11848   -11793   -11709   -11736   -11925   -12096 
  -12154   -12067   -11858   -11627   -11441   -11399   -11526   -11711 
  -11877   -11955   -11965   -12008   -12028   -12023   -12145   -12345 
  -12548   -12760   -12833   -12750   -12658   -12525   -12305   -12091 
  -11989   -12071   -12271   -12422   -12471   -12478   -12490   -12533 
  -12658   -12887   -13112   -13255   -13327   -13285   -13095   -12820 
  -12557   -12393   -12329   -12291   -12271   -12276   -12264   -12150 
  -11869   -11491   -11097   -10685   -10384   -10314   -10426   -10675 
  -10979   -11219   -11425   -11618   -11789   -11977   -12155   -12313 
  -12509   -12729   -12895   -12966   -12991   -13018   -13024   -12993 
  -12961   -12954   -12930   -12804   -12622   -12528   -12521   -12592 
  -12760   -12908   -12973   -12933   -12723   -12515   -12449   -12432 
  -12457   -12505   -12459   -12337   -12129   -11851   -11691   -11658 
  -11597   -11534   -11549   -11600   -11601   -11543   -11491   -11454 
  -11487   -11668   -11931   -12175   -12286   -12164   -11969   -11888 
  -11905   -11970   -12028   -12071   -12210   -12496   -12862   -13212 
  -13432   -13382   -13049   -12610   -12240   -12044   -12112   -12340 
  -12509   -12592   -12636   -12630   -12594   -12465   -12243   -12083 
  -12031   -12033   -12037   -11971   -11880   -11836   -11858   -11950 
  -12002   -11936   -11839   -11820   -12001   -12345   -12559   -12532 
  -12425   -12352   -12317   -12271   -12152   -11993   -11897   -11900 
  -11939   -11977   -12020   -12023   -12001   -12019   -11996   -11894 
  -11819   -11776   -11811   -11994   -12191   -12312   -12382   -12332 
  -12164   -12054   -12114   -12289   -12422   -12433   -12368   -12309 
  -12326   -12390   -12415   -12403   -12341   -12278   -12303   -12303 
  -12240   -12276   -12402   -12561   -12795   -13042   -13242   -13313 
  -13176   -12935   -12691   -12436   -12209   -12013   -11884   -11911 
  -12050   -12151   -12100   -11916   -11763   -11723   -11755   -11812 
  -11807   -11750   -11742   -11770   -11800   -11836   -11867   -11911 
  -11942   -11927   -11908   -11892   -11865   -11843   -11851   -11871 
  -11853   -11859   -11971   -12082   -12177   -12332   -12445   -12479 
  -12502   -12542   -12680   -12852   -12946   -13035   -13081   -13046 
  -13020   -12933   -12715   -12478   -12343   -12405   -12583   -12672 
  -12633   -12492   -12280   -12087   -11939   -11847   -11827   -11835 
  -11915   -12036   -12032   -11931   -11817   -11665   -11564   -11568 
  -11599   -11630   -11628   -11581   -11576   -11655   -11766   -11826 
  -11790   -11692   -11614   -11678   -11846   -11934   -11904   -11842 
  -11855   -12028   -12303   -12622   -12943   -13165   -13267   -13285 
  -13230   -13182   -13167   -13130   -13093   -13072   -13041   -13016 
  -12949   -12798   -12590   -12349   -12156   -12051   -11971   -11870 
  -11704   -11472   -11294   -11260   -11389   -11626   -11840   -11982 
  -12054   -12058   -12039   -11986   -11870   -11715   -11547   -11412 
  -11329   -11296   -11350   -11442   -11527   -11647   -11774   -11900 
  -12075   -12220   -12328   -12469   -12595   -12671   -12683   -12617 
  -12582   -12627   -12706   -12815   -12876   -12864   -12884   -12914 
  -12895   -12858   -12768   -12615   -12451   -12287   -12147   -12046 
  -12009   -12067   -12154   -12213   -12253   -12279   -12313   -12375 
  -12417   -12364   -12217   -12079   -12008   -11958   -11938   -11952 
  -11969   -11989   -11973   -11917   -11917   -11950   -11975   -12050 
  -12108   -12112   -12172   -12280   -12370   -12409   -12351   -12241 
  -12150   -12098   -12116   -12129   -12096   -12112   -12181   -12245 
  -12298   -12271   -12158   -12086   -12104   -12159   -12217   -12280 
  -12344   -12380   -12411   -12526   -12760   -13023   -13230   -13332 
  -13225   -12864   -12387   -11992   -11812   -11881   -12066   -12241 
  -12361   -12370   -12260   -12081   -11844   -11619   -11477   -11439 
  -11516   -11662   -11790   -11870   -11925   -11978   -11938   -11722 
  -11438   -11229   -11118   -11107   -11171   -11288   -11423   -11466 
  -11430   -11400   -11387   -11439   -11557   -11653   -11738   -11769 
  -11713   -11715   -11794   -11855   -11946   -12102   -12295   -12478 
  -12587   -12658   -12727   -12765   -12798   -12838   -12946   -13251 
  -13718   -14218   -14647   -14912   -15039   -15117   -15179   -15198 
  -15071   -14769   -14370   -13891   -13338   -12772   -12266   -11942 
  -11826   -11816   -11871   -11919   -11892   -11821   -11639   -11271 
  -10827   -10390   -10022    -9796    -9768   -10007   -10536   -11229 
  -11853   -12225   -12352   -12287   -12078   -11859   -11730   -11655 
  -11562   -11402   -11277   -11300   -11406   -11601   -11967   -12415 
  -12841   -13124   -13136   -12960   -12675   -12286   -11971   -11893 
  -12005   -12229   -12457   -12590   -12617   -12602   -12645   -12723 
  -12735   -12621   -12352   -12048   -11863   -11808   -11882   -12039 
  -12212   -12426   -12553   -12434   -12210   -12052   -12035   -12241 
  -12582   -12868   -13007   -12977   -12877   -12791   -12676   -12536 
  -12403   -12244   -11989   -11573   -11065   -10642   -10470   -10606 
  -10886   -11101   -11241   -11367   -11476   -11488   -11338   -11098 
  -10854   -10698   -10774   -11055   -11388   -11728   -11990   -12089 
  -12096   -12127   -12255   -12507   -12888   -13383   -13915   -14472 
  -15018   -15315   -15261   -14953   -14420   -13815   -13344   -13072 
  -13095   -13327   -13464   -13396   -13100   -12546   -11916   -11448 
  -11259   -11354   -11522   -11596   -11699   -11882   -11978   -11985 
  -12064   -12271   -12611   -13036   -13374   -13559   -13626   -13552 
  -13425   -13385   -13319   -13068   -12572   -11785   -10864   -10114 
   -9745    -9913   -10511   -11155   -11588   -11693   -11419   -10905 
  -10372   -10049   -10093   -10351   -10505   -10442   -10223   -10026 
  -10116   -10574   -11218   -11824   -12210   -12286   -12252   -12410 
  -12784   -13297   -13882   -14249   -14241   -14062   -13737   -13203 
  -12614   -12064   -11619   -11327   -11207   -11373   -11867   -12626 
  -13539   -14308   -14661   -14593   -14276   -13903   -13657   -13678 
  -13906   -14050   -13929   -13622   -13240   -12892   -12660   -12401 
  -11943   -11321   -10660   -10200   -10162   -10481   -11001   -11676 
  -12326   -12610   -12414   -11908   -11232   -10478    -9810    -9315 
   -9034    -9063    -9348    -9728   -10120   -10390   -10488   -10619 
  -10906   -11219   -11421   -11489   -11518   -11682   -12083   -12627 
  -13185   -13678   -14014   -14176   -14281   -14413   -14553   -14631 
  -14581   -14439   -14312   -14245   -14168   -13940   -13500   -12945 
  -12344   -11767   -11380   -11244   -11321   -11527   -11626   -11426 
  -11064   -10835   -10862   -11007   -11169   -11426   -11863   -12491 
  -13219   -13887   -14411   -14694   -14686   -14563   -14465   -14369 
  -14318   -14331   -14346   -14246   -13853   -13204   -12564   -12124 
  -12006   -12131   -12220   -12197   -12060   -11703   -11090   -10228 
   -9243    -8424    -7944    -7847    -8143    -8707    -9293    -9707 
   -9999   -10343   -10852   -11510   -12137   -12602   -12995   -13319 
  -13371   -13107   -12699   -12320   -12070   -11881   -11562   -11102 
  -10704   -10624   -11040   -11916   -12949   -13714   -14045   -14168 
  -14335   -14585   -14881   -15111   -15152   -15056   -14951   -14824 
  -14608   -14280   -13811   -13247   -12742   -12348   -12002   -11661 
  -11287   -10920   -10669   -10543   -10531   -10678   -10975   -11406 
  -11956   -12507   -12914   -13078   -12962   -12754   -12696   -12764 
  -12757   -12518   -12071   -11670   -11520   -11526   -11480   -11389 
  -11299   -11084   -10756   -10459   -10166    -9894    -9841   -10125 
  -10656   -11273   -11884   -12394   -12690   -12780   -12687   -12418 
  -12127   -12015   -12182   -12591   -13072   -13452   -13605   -13486 
  -13242   -13014   -12819   -12773   -12951   -13203   -13365   -13311 
  -12958   -12410   -11882   -11611   -11705   -11932   -12055   -12133 
  -12247   -12398   -12546   -12577   -12505   -12434   -12326   -12124 
  -11859   -11618   -11523   -11595   -11722   -11815   -11850   -11880 
  -11977   -12074   -12071   -11970   -11840   -11781   -11870   -12148 
  -12596   -13122   -13622   -14017   -14234   -14216   -13953   -13532 
  -13050   -12548   -12058   -11631   -11372   -11325   -11318   -11213 
  -11111   -11124   -11261   -11435   -11492   -11434   -11342   -11261 
  -11246   -11184   -10899   -10524   -10324   -10504   -11110   -11892 
  -12565   -13101   -13493   -13664   -13645   -13579   -13582   -13612 
  -13543   -13358   -13171   -13113   -13171   -13250   -13332   -13400 
  -13324   -12980   -12355   -11620   -11038   -10763   -10875   -11314 
  -11844   -12289   -12582   -12707   -12739   -12771   -12880   -13163 
  -13618   -14073   -14202   -13830   -13176   -12514   -11950   -11537 
  -11218   -10879   -10490   -10012    -9467    -9054    -8927    -8993 
   -9101    -9252    -9435    -9540    -9543    -9525    -9628    -9994 
  -10548   -11078   -11542   -11925   -12124   -12110   -11952   -11809 
  -11900   -12272   -12870   -13616   -14293   -14737   -15012   -15230 
  -15394   -15469   -15560   -15850   -16298   -16679   -16833   -16714 
  -16371   -15823   -15030   -14126   -13331   -12735   -12322   -11931 
  -11329   -10497    -9630    -8918    -8553    -8611    -8891    -9173 
   -9439    -9644    -9729    -9830   -10087   -10498   -11092   -11804 
  -12406   -12792   -13027   -13143   -13109   -12873   -12469   -12154 
  -12132   -12339   -12656   -13007   -13284   -13452   -13566   -13558 
  -13255   -12746   -12320   -12028   -11740   -11441   -11188   -10993 
  -10839   -10764   -10752   -10845   -11211   -11835   -12522   -13185 
  -13716   -13983   -14034   -13934   -13699   -13487   -13455   -13579 
  -13729   -13797   -13794   -13751   -13657   -13559   -13504   -13481 
  -13450   -13306   -13039   -12756   -12490   -12229   -11958   -11589 
  -11111   -10642   -10260    -9979    -9829    -9810    -9814    -9715 
   -9525    -9355    -9337    -9574   -10017   -10531   -11028   -11480 
  -11896   -12231   -12390   -12360   -12202   -12008   -11932   -12039 
  -12248   -12447   -12532   -12451   -12279   -12141   -12090   -12094 
  -12105   -12090   -12021   -11908   -11830   -11830   -11858   -11855 
  -11821   -11853   -12056   -12387   -12717   -12965   -13090   -13055 
  -12935   -12962   -13265   -13772   -14376   -14858   -15055   -15102 
  -15101   -15022   -14855   -14462   -13776   -12980   -12221   -11610 
  -11287   -11182   -11128   -11114   -11184   -11329   -11475   -11568 
  -11650   -11722   -11724   -11657   -11560   -11475   -11458   -11564 
  -11777   -12013   -12241   -12506   -12838   -13163   -13343   -13336 
  -13217   -13041   -12892   -12825   -12742   -12599   -12461   -12312 
  -12112   -11846   -11522   -11275   -11140   -11009   -10906   -10872 
  -10875   -10943   -11057   -11188   -11398   -11653   -11869   -12075 
  -12325   -12546   -12658   -12631   -12407   -11975   -11577   -11500 
  -11767   -12210   -12671   -13045   -13285   -13436   -13605   -13765 
  -13783   -13653   -13429   -13095   -12690   -12301   -11961   -11674 
  -11454   -11342   -11329   -11314   -11291   -11296   -11288   -11259 
  -11250   -11311   -11450   -11574   -11643   -11716   -11792   -11850 
  -11850   -11700   -11426   -11153   -10966   -10929   -11053   -11272 
  -11475   -11639   -11871   -12177   -12406   -12521   -12556   -12550 
  -12625   -12825   -13051   -13246   -13397   -13524   -13632   -13722 
  -13859   -14048   -14211   -14295   -14249   -14107   -13971   -13826 
  -13603   -13269   -12807   -12279   -11819   -11488   -11272   -11152 
  -11075   -11013   -10997   -11053   -11176   -11376   -11681   -12029 
  -12264   -12259   -12027   -11700   -11414   -11272   -11350   -11601 
  -11896   -12102   -12081   -11851   -11585   -11395   -11368   -11529 
  -11766   -12047   -12399   -12742   -12938   -12884   -12609   -12291 
  -12032   -11848   -11808   -11865   -11894   -11878   -11848   -11889 
  -12082   -12397   -12735   -13008   -13208   -13344   -13332   -13099 
  -12671   -12141   -11718   -11535   -11543   -11677   -11907   -12120 
  -12204   -12167   -12133   -12209   -12368   -12537   -12672   -12784 
  -12920   -13073   -13221   -13451   -13799   -14157   -14442   -14620 
  -14585   -14227   -13581   -12798   -12052   -11435   -10887   -10357 
   -9906    -9585    -9378    -9256    -9170    -9077    -8995    -8934 
   -8927    -9050    -9308    -9691   -10239   -10926   -11658   -12336 
  -12906   -13390   -13813   -14192   -14548   -14840   -15033   -15147 
  -15174   -15121   -14967   -14682   -14332   -13965   -13585   -13258 
  -12993   -12687   -12317   -11986   -11805   -11800   -11946   -12162 
  -12264   -12150   -11916   -11680   -11441   -11190   -10944   -10775 
  -10767   -10912   -11138   -11361   -11497   -11557   -11576   -11600 
  -11693   -11826   -11942   -12064   -12210   -12324   -12401   -12498 
  -12602   -12706   -12877   -13084   -13212   -13284   -13331   -13298 
  -13223   -13099   -12825   -12438   -12059   -11767   -11612   -11546 
  -11489   -11407   -11317   -11283   -11322   -11419   -11572   -11734 
  -11897   -12093   -12295   -12494   -12687   -12860   -12970   -12916 
  -12702   -12459   -12194   -11900   -11657   -11493   -11442   -11550 
  -11753   -11955   -12116   -12233   -12336   -12459   -12661   -12911 
  -13080   -13138   -13139   -13103   -13103   -13170   -13224   -13186 
  -13039   -12845   -12684   -12563   -12449   -12316   -12148   -11952 
  -11691   -11361   -11029   -10741   -10604   -10700   -10922   -11133 
  -11279   -11346   -11394   -11462   -11592   -11830   -12160   -12568 
  -13003   -13333   -13543   -13648   -13593   -13423   -13207   -12968 
  -12750   -12505   -12221   -12015   -11863   -11734   -11708   -11796 
  -11921   -11994   -11889   -11607   -11277   -10991   -10810   -10786 
  -10916   -11151   -11435   -11693   -11836   -11881   -11928   -11996 
  -12078   -12202   -12355   -12506   -12633   -12695   -12688   -12576 
  -12328   -12024   -11755   -11573   -11516   -11551   -11645   -11785 
  -11913   -12055   -12241   -12421   -12615   -12862   -13117   -13329 
  -13455   -13468   -13355   -13105   -12789   -12460   -12131   -11821 
  -11516   -11246   -11099   -11110   -11272   -11527   -11763   -12008 
  -12353   -12784   -13235   -13655   -14029   -14370   -14621   -14746 
  -14777   -14704   -14546   -14345   -14052   -13649   -13186   -12710 
  -12316   -12067   -11919   -11831   -11821   -11813   -11674   -11426 
  -11167   -10959   -10859   -10848   -10891   -11033   -11241   -11430 
  -11638   -11873   -12062   -12233   -12437   -12663   -12841   -12883 
  -12837   -12750   -12587   -12414   -12255   -12066   -11925   -11821 
  -11711   -11669   -11709   -11831   -12056   -12313   -12514   -12600 
  -12569   -12525   -12507   -12464   -12428   -12411   -12363   -12268 
  -12112   -11873   -11576   -11250   -10909   -10540   -10210   -10038 
