Origin Time       2026/01/15 07:13:00
Lat.              42.7
Long.             145.4
Depth. (km)       30
Mag.              5.7
Station Code      HKD080
Station Lat.      43.5077
Station Long.     144.4485
Station Height(m) 140
Record Time       2026/01/15 07:13:36
Sampling Freq(Hz) 100Hz
Duration Time(s)  101
Dir.              N-S
Scale Factor      7845(gal)/8223790
Max. Acc. (gal)   7.974
Last Correction   2026/01/15 07:13:36
Memo.             
[...]
    3057     3161     3596     4233     4909     5109     4504     3858 
    3967     4266     4302     4468     4633     4766     5427     6223 
    6137     5206     4411     4483     5205     5749     5756     5286 
    4306     3457     3661     4523     5039     4993     4571     3967 
    3713     4394     5497     5711     5053     4379     3692     3240 
    3429     3582     3360     3392     3856     4212     4113     3847 
    3951     4703     5648     5796     5013     4267     4145     4638 
    5514     5948     5319     4248     3597     3542     3998     4587 
    4776     4872     5278     5356     4895     4711     4936     5125 
    5547     6126     5622     3817     2493     2776     3684     3948 
    3404     2533     2088     2717     4124     5360     5962     5800 
    4887     3848     3427     3804     4483     4742     4710     4945 
    5217     5263     5448     5711     5529     5015     4598     4264 
    4236     4978     5950     5979     4774     3177     2327     2548 
    3142     3570     3819     3944     4236     4708     4812     4541 
    4359     4267     4194     4210     4035     3640     3751     4639 
    5462     5648     5591     5362     4638     4024     4293     4977 
    5158     4770     4386     4124     3719     3443     3765     4644 
    5672     6269     6156     5638     4884     3977     3584     4032 
    4565     4455     3751     2994     2613     2673     3208     4108 
    4822     5132     5304     5205     4585     3804     3252     2970 
    3078     3724     4661     5375     5472     4985     4618     4908 
    5238     5022     4649     4272     3847     4041     4969     5387 
    4834     4498     5005     5551     5409     4764     4329     4459 
    4720     4804     4927     4909     4446     4229     4766     4992 
    3998     2671     2278     2901     3932     4893     5304     4924 
    4380     4425     5119     5934     5929     4869     3960     4218 
    5136     5624     5414     4874     4125     3323     3034     3632 
    4727     5331     5088     4773     4878     5031     4860     4406 
    3954     3892     4303     4634     4429     3969     3666     3763 
    4353     4939     4816     4364     4541     4909     4492     3896 
    3920     4050     4017     4318     4773     4831     4723     4761 
    4725     4599     4490     4271     3964     3689     3555     3713 
    4105     4519     4770     4847     4811     4668     4725     5076 
    5076     4376     3415     2809     2813     3186     3736     4260 
    4401     4459     4842     5185     5233     5077     4801     4770 
    5212     5688     5483     4473     3460     3165     3572     4492 
    5435     5474     4581     3950     4176     4622     4891     5049 
    4823     4218     3693     3495     3767     4406     4773     4488 
    3986     4002     4685     5327     5294     4630     3819     3609 
    4207     4754     4662     4402     4442     4646     4687     4498 
    4221     3836     3518     3761     4320     4345     3873     3761 
    4347     4959     4989     4904     5193     5490     5718     6058 
    5988     5197     4314     3986     4159     4332     4261     4225 
    4487     4681     4253     3547     3322     3649     4340     5092 
    5196     4602     4163     4314     4814     5277     5263     4648 
    3839     3422     3793     4553     4700     4218     4016     4337 
    4804     4942     4380     3623     3616     4440     5440     6052 
    6041     5382     4405     3874     4048     4294     4283     4310 
    4445     4491     4347     4156     4237     4689     5216     5401 
    4989     4210     3720     3770     3902     3909     4168     4656 
    4977     5147     5131     4689     4198     4234     4660     5057 
    5243     5058     4592     4324     4293     3998     3520     3427 
    3723     4086     4473     4889     5115     4941     4723     5082 
    5579     5228     4461     4471     5078     5277     4942     4459 
    3877     3431     3348     3175     2766     2767     3485     4523 
    5341     5549     5157     4567     4275     4627     5333     5655 
    5362     4734     4004     3400     3315     3912     4477     4244 
    3792     4016     4666     4966     4477     3574     3086     3188 
    3743     4685     5304     5098     4779     4997     5547     5983 
    5807     4877     3981     3813     4085     4417     4738     4774 
    4452     4295     4575     4916     5032     4808     4183     3690 
    3755     3852     3551     3241     3408     4131     4843     4866 
    4623     4712     4617     4349     4683     4985     4432     3935 
    4109     4359     4602     4916     4930     4936     5351     5765 
    5915     5737     4961     4174     4195     4321     3808     3349 
    3289     3217     3396     4064     4552     4558     4542     4550 
    4388     4572     5449     6181     5881     4776     3801     3591 
    3940     4465     5032     5171     4510     3639     3438     3950 
    4475     4531     4168     3588     3426     4434     5892     6258 
    5400     4305     3777     3909     4001     3634     3281     3327 
    3694     4162     4526     4811     4889     4413     3769     3731 
    4110     4476     4870     4866     4131     3327     3191     3848 
    4676     4838     4544     4486     4623     4792     5198     5665 
    5603     5111     4895     4990     4827     4280     3821     3789 
    3928     3962     4129     4441     4519     4480     4513     4328 
    3905     3613     3632     4033     4833     5548     5530     4981 
    4641     4677     4750     4646     4472     4293     4013     3856 
    4147     4708     5001     4675     4016     3670     3915     4480 
    4770     4463     3960     3865     4380     5070     5062     4249 
    3751     4253     5092     5726     6254     6305     5710     5386 
    5674     5806     5584     5186     4473     3842     3761     3924 
    3996     3871     3580     3433     3604     3821     3735     3499 
    3654     4330     5026     5020     4236     3447     3250     3808 
    5049     6037     5626     4221     3381     3570     3924     4236 
    4928     5420     4934     4035     3744     4282     5080     5486 
    5495     5215     4402     3522     3609     4673     5611     5503 
    4440     3308     2980     3619     4726     5653     5690     4711 
    3878     4072     4676     5004     5066     4719     4058     3910 
    4390     4607     4405     4267     4166     4087     4315     4442 
    3909     3357     3603     4282     4877     5393     5718     5707 
    5432     5152     5223     5521     5528     5217     5026     5101 
    5119     4793     4433     4274     3774     2863     2367     2455 
    2774     3377     4013     4117     3684     3061     2986     4152 
    5818     7030     7977     8233     7007     5417     5073     5324 
    4648     3497     2999     2721     2204     1908     1965     2292 
    2910     3608     4185     4374     4194     4619     6193     7765 
    8035     6988     5489     4429     3998     3923     4075     4031 
    3383     2951     3865     5757     7276     7551     6424     4472 
    3134     3342     4310     4792     4268     2828     1665     2231 
    3950     5162     5385     4949     4214     3703     3765     4226 
    4965     6043     7013     7342     7119     6608     6242     6520 
    6799     5819     3986     2972     3141     3596     3894     4029 
    4055     4556     5890     7168     7379     6635     5367     3705 
    2403     2474     3650     4760     5178     5255     5653     6085 
    5622     4556     3635     2563     1702     2174     3420     4153 
    4153     3387     1966      889     1093     2204     2878     2528 
    2099     2795     4988     7894     9913     9918     8047     5526 
    4005     4183     5219     5548     4175     1593     -565     -963 
     210     1534     2269     2897     3391     3161     2610     2667 
    3532     4963     6566     7326     6330     4401     3654     4923 
    6817     7587     6843     5262     3794     3302     3720     4000 
    3496     2666     2594     3753     5416     7082     8618     9270 
    8694     7279     5096     2412      145     -789       71     1941 
    2825     1615     -635    -1826     -506     3082     6515     6901 
    4615     3287     5244     9213    12378    12791    10200     6534 
    4699     5217     6069     5942     4815     2934     1278     1067 
    2065     3028     3624     3952     3188     1161     -831    -1830 
   -1282     1161     4272     6426     7776     9063    10274    11146 
   10725     8109     4864     3240     3040     3176     3348     2948 
    1664      984     2506     5563     7992     8469     7720     7339 
    7636     7798     7429     6732     6118     5641     4621     2759 
     824     -426     -824     -310      961     2315     3483     4966 
    6393     6593     5991     5937     6412     6921     7398     7153 
    5516     3515     2848     3549     4245     4243     3871     3462 
    3350     3970     4989     5155     3636     1356      494     2150 
    5124     7646     8932     8429     6003     3177     1344     -103 
   -1530    -1717     -129     2563     5926     8977     9904     8671 
    7400     7238     7473     7371     6563     4689     2346     1003 
     878     1080     1587     2739     4089     4996     5329     5206 
    4428     3345     3321     4716     5996     6093     5944     6289 
    6207     5192     4256     4093     4234     4700     6139     7808 
    8189     7381     6663     5884     3489      -56    -2189    -1911 
      45     2994     5340     5108     3105     2371     4363     7819 
   10581    11240     9757     7538     6544     7434     8757     8495 
    6423     4260     3233     3153     3757     4307     3499     2073 
    1740     1626      796     1050     3337     5513     5416     3349 
    1453     1748     4040     6035     6230     5143     3973     3877 
    5313     6891     6517     4286     2610     2982     4553     5822 
    5560     3403     1247     1881     5348     8594     8931     6779 
    4514     3434     3449     4263     4719     3406      630    -2195 
   -3578    -2195     1540     5381     7668     8455     8596     8748 
    9092     9378     9051     8005     6968     6316     5530     4514 
    3967     3821     2916     1293      684     1584     2579     2593 
    1914     1818     3138     5131     6392     6106     4804     4405 
    6010     8178     8788     7345     4880     3150     3265     4390 
    4909     3828     1113    -1278     -565     3312     7314     8827 
    7963     5513     2020     -232      557     2704     3998     4606 
    5485     6488     7156     7565     7622     7192     6249     4491 
    2146      464      484     1520     2043     1872     1651     1301 
     978     1892     4332     6386     6309     4673     2893     1547 
    1584     4083     7834    10327    10210     7680     4876     4387 
    5977     7427     7396     5204     1323    -1337     -621     2045 
    4302     5429     5329     3709     1578     1244     3283     5524 
    6127     5927     6691     8290     8887     7441     4623     1804 
     569     1868     4479     5790     4756     2986     2574     3703 
    4634     4033     2567     1537     1607     2563     3454     4149 
    5508     7619     9393     9093     5725     1263     -508     1517 
    5227     8592    10592    10563     8792     6843     6043     5914 
    5165     3388     1506     1223     2732     4095     3943     2555 
     969      618     2571     6339     9833    10774     8606     5185 
    3114     3369     5108     6951     7742     7115     5503     3904 
    3572     4229     4027     2408      521     -696     -880       40 
    1584     2980     3680     3427     2501     1985     3046     5622 
    8275     9263     7781     5040     3346     3694     5327     6806 
    7040     6079     4982     4797     5975     8144     9321     7244 
    2879     -558    -1948    -2116    -1071     1533     4553     6285 
    6574     6369     6192     5873     4715     2521      684      791 
    2814     5497     7813     9213     9046     7366     5603     5069 
    5794     7171     8343     8283     6893     4943     3393     3415 
    4861     6043     5795     3754      749     -946     -130     1846 
    3125     3519     3931     4433     4024     2644     2230     4332 
    7901    10561    10982     9364     6663     4499     3974     3785 
    2177      199      -72      830     1144      533     -616    -1343 
      67     3820     7684     9298     8946     9105    10720    12290 
   12525    10971     7700     4132     2031     1966     3485     5270 
    5876     5193     4237     3951     4569     5632     6435     6308 
    4858     2394      552      950     2205     2004      905      166 
    -342     -284     1304     4079     6493     7504     7317     6713 
    6031     5401     5125     5013     4789     4788     4982     4514 
    3217     1977     1090      521     1215     3862     7133     8653 
    7468     4610     1888      772     1489     3078     4213     3951 
    3003     3237     4760     5810     5366     4351     4518     5865 
    6890     7500     8236     7871     5159     1609      130     1586 
    4218     6335     7453     6826     4382     2073     1590     2655 
    3875     4534     5107     5482     5487     6106     7175     7060 
    5819     5664     7771    10832    12822    12204     8627     3867 
     399     -657      -47      498      492      518      403      427 
    1405     3069     4945     6612     7152     6309     5246     5422 
    6465     6367     5065     4851     5969     6039     4557     3277 
    2775     2373     2254     2781     3001     2605     2801     3462 
    3611     3511     3296     2724     2232     2756     4649     6519 
    7029     6671     6130     5254     3881     3330     4861     6616 
    6690     5637     3978     2708     3204     4621     5390     4941 
    3159      626    -1711    -2729    -1776        4     1445     2492 
    3090     4035     6273     8746     9740     8877     7195     5958 
    5235     4738     5151     6426     7033     6475     5634     4822 
    3982     3267     2336      945      -93       -9      992     2257 
    3130     3573     4021     4325     4020     3337     2847     2840 
    3705     5773     8505    10451    10332     8602     7040     6673 
    7373     8305     8160     6718     5258     4364     3557     2799 
    2412     2685     3573     4365     4712     4617     4025     4098 
    5934     8164     8760     7431     5346     4056     4464     6523 
    8927     9001     5761     1721     -552     -804      259     1782 
    2490     1780      866     1529     4418     8345    10833    10905 
    9871     8642     7447     6820     6635     6157     4704     2243 
     214     -133      828     2250     3168     2901     1954     1521 
    2623     5328     7956     8517     7156     5310     3535     2398 
    2891     4487     5865     6705     6818     6207     5572     4666 
    2646      596      666     2802     4850     5482     4851     3476 
    2500     3284     5119     5946     5486     4567     3615     3217 
    3241     2825     2023     1312      932     1501     3400     5381 
    6251     7273     8502     7036     3329     1286     1582     2727 
    4413     5559     5269     4793     5031     5934     6818     6686 
    6112     5416     4491     4648     5772     6150     5152     3723 
    3010     2563     2222     2637     3511     4479     4536     3456 
    3052     3350     3793     5194     6385     5362     3392     3200 
    4155     4089     3843     4318     4426     4374     4567     4108 
    3574     3566     2511      741      600     1568     1931     2297 
    3190     3726     4074     5208     7080     8683     8820     8166 
    8515     8787     7427     5992     5332     4371     3129     2070 
    1428     1364     1571     2461     4140     5374     6045     6794 
    7469     8230     9007     8892     7732     6396     5583     5011 
    4109     3265     2428      826     -549     -253     1192     2860 
    4548     6104     7294     7871     7848     7558     7009     5752 
    3743     1723      534      560     1564     3214     5641     7870 
    7747     5632     4021     3285     2525     2274     2513     1861 
     746     1173     3140     4761     5274     5524     5922     5907 
    5251     4288     3330     2894     3657     5290     6253     5601 
    4082     3107     3379     4338     5154     5772     6320     7280 
    9227    10558     9224     6399     4248     3121     2948     3728 
    4610     4665     4147     4162     5142     6489     7384     7365 
    6797     6173     5325     4356     3504     2508     1684     1655 
    2110     2362     2155     1799     1821     2278     2779     2864 
    2330     1621     1594     2589     4091     5416     5873     5212 
    4542     4727     4946     4703     4699     5235     5691     5506 
    5036     5086     5755     6436     6519     5757     4595     3917 
    4132     4711     4770     4093     3140     2280     1659     1483 
    1806     2339     3148     4537     5888     6588     7090     7604 
    7582     6714     5350     4180     3524     3105     2884     3172 
    3604     3728     3981     4318     4062     3419     3075     3225 
    3784     4747     6008     6856     6724     6133     5613     4970 
    4363     4313     4756     5119     4928     4189     3292     2681 
    2706     3542     4924     6023     6103     5421     4689     4212 
    4248     4781     5123     5000     4909     5169     5449     5304 
    5007     4768     4214     3693     3666     3763     3842     3889 
    3542     2806     2334     2741     3954     5514     7049     8001 
    7989     7576     7346     6891     5942     5108     4733     4345 
    3747     3680     4639     5810     6199     5861     5154     4209 
    3478     3553     4540     5705     5872     4870     3824     3449 
    3380     3403     3663     3786     3520     3226     2990     2956 
    3615     4561     4830     4382     3697     3060     2848     3299 
    3989     4099     3285     2141     1652     2396     3886     4737 
    4423     3797     3373     3030     2751     2370     1699     1084 
    1278     2427     3595     4179     4672     5412     6200     6952 
    7607     8010     7985     7371     6453     5861     5799     5800 
    5467     5221     5715     6721     7234     6534     4787     2878 
    1733     1575     2091     2899     3558     4052     4764     5466 
    5468     4685     3746     2980     2280     2053     2609     3307 
    3538     3272     2889     3036     3908     4957     5595     5768 
    5571     4936     4356     4587     5306     5764     5913     5832 
    5495     5298     5645     6214     6407     6214     6014     6062 
    6462     6952     6891     5954     4496     3273     2918     3451 
    4226     4525     4401     4500     4870     4909     4464     3890 
    3372     2932     2686     2808     3229     3585     3711     3757 
    3673     3272     2675     2199     2143     2525     2961     3295 
    3663     3998     4318     4787     5173     5267     5417     5767 
