Origin Time       2026/01/15 07:13:00
Lat.              42.7
Long.             145.4
Depth. (km)       30
Mag.              5.7
Station Code      HKD077
Station Lat.      42.9845
Station Long.     144.3824
Station Height(m) 3
Record Time       2026/01/15 07:13:42
Sampling Freq(Hz) 100Hz
Duration Time(s)  67
Dir.              N-S
Scale Factor      7845(gal)/8223790
Max. Acc. (gal)   9.143
Last Correction   2026/01/15 07:13:43
Memo.             
[...]
   -1011    -1088    -1123    -1097    -1175    -1327    -1270    -1000 
    -774     -696     -762     -966    -1158    -1152     -940     -719 
    -734    -1001    -1301    -1426    -1345    -1174    -1027     -966 
    -990     -876     -557     -444     -781    -1300    -1648    -1615 
   -1208     -662     -319     -467    -1035    -1572    -1737    -1553 
   -1312    -1205    -1092     -820     -442     -159     -245     -735 
   -1289    -1472    -1200     -831     -758    -1090    -1665    -2142 
   -2185    -1764    -1182     -715     -387     -151      -62     -164 
    -409     -696     -832     -660     -356     -265     -496     -961 
   -1525    -1979    -2107    -1907    -1613    -1456    -1472    -1472 
   -1262     -957     -824     -846     -760     -491     -179        1 
    -116     -475     -761     -858     -961    -1239    -1655    -1987 
   -1999    -1687    -1321    -1159    -1256    -1456    -1466    -1147 
    -743     -467     -338     -419     -658     -870     -950     -868 
    -812     -936    -1016     -885     -719     -796    -1121    -1345 
   -1244     -997     -865     -842     -850    -1034    -1408    -1668 
   -1603    -1264     -803     -483     -619    -1128    -1534    -1610 
   -1501    -1362    -1150     -749     -310     -191     -508     -942 
   -1101    -1042    -1105    -1309    -1362    -1228    -1098    -1015 
   -1017    -1175    -1323    -1236     -923     -581     -514     -820 
   -1179    -1250    -1019     -625     -274     -152     -265     -598 
   -1061    -1372    -1464    -1444    -1235     -864     -646     -884 
   -1476    -1815    -1494     -869     -449     -465    -1065    -2026 
   -2578    -2250    -1395     -639     -418     -769    -1109     -938 
    -527     -318     -422     -900    -1506    -1620    -1112     -479 
    -121     -201     -730    -1335    -1502    -1155     -722     -768 
   -1355    -1906    -2015    -1791    -1343     -714     -220     -137 
    -280     -365     -399     -533     -826    -1129    -1112     -706 
    -410     -665    -1225    -1594    -1588    -1281     -927     -816 
    -992    -1324    -1517    -1242     -734     -689    -1267    -1918 
   -2118    -1737    -1051     -508     -292     -411     -777    -1051 
   -1054    -1035    -1162    -1309    -1413    -1521    -1541    -1327 
    -855     -234      259      229     -423    -1229    -1641    -1588 
   -1363    -1244    -1291    -1308    -1131     -783     -311       45 
     -48     -635    -1497    -2223    -2335    -1849    -1317    -1132 
   -1233    -1344    -1190     -742     -360     -369     -683    -1055 
   -1282    -1189     -903     -791     -946    -1169    -1274    -1151 
    -942     -996    -1336    -1647    -1714    -1497    -1020     -529 
    -387     -562     -706     -677     -596     -633     -816    -1057 
   -1302    -1426    -1275     -945     -708     -731     -939    -1105 
   -1148    -1208    -1274    -1104     -652     -268     -321     -777 
   -1242    -1429    -1405    -1236     -832     -326     -126     -414 
    -893    -1156    -1142    -1156    -1435    -1755    -1696    -1294 
    -945     -842     -901     -980     -988     -931     -858     -823 
    -928    -1247    -1584    -1605    -1304     -986     -746     -548 
    -540     -715     -886    -1007    -1104    -1240    -1417    -1486 
   -1387    -1204    -1032     -926     -869     -851     -904    -1105 
   -1375    -1398    -1081     -768     -761     -966    -1112    -1035 
    -754     -452     -419     -756    -1177    -1416    -1478    -1431 
   -1378    -1467    -1618    -1555    -1231     -886     -711     -729 
    -823     -811     -643     -448     -369     -454     -580     -645 
    -797    -1186    -1709    -2070    -1921    -1217     -448     -206 
    -548     -996    -1140     -974     -716     -656     -880    -1069 
    -959     -761     -770     -915     -977     -936     -811     -642 
    -611     -764     -959    -1196    -1533    -1811    -1845    -1694 
   -1543    -1487    -1505    -1605    -1729    -1649    -1286     -845 
    -538     -353     -153       27       58     -178     -747    -1416 
   -1815    -1817    -1464     -884     -386     -307     -657    -1135 
   -1483    -1547    -1239     -703     -263     -124     -299     -695 
   -1067    -1170    -1053     -896     -785     -772     -828     -854 
    -945    -1332    -1877    -2124    -1915    -1516    -1221    -1047 
    -874     -835    -1154    -1667    -1945    -1810    -1431    -1132 
   -1146    -1337    -1382    -1188     -886     -648     -589     -654 
    -691     -634     -568     -634     -772     -805     -742     -739 
    -928    -1216    -1316    -1134     -884     -772     -797     -853 
    -880     -931    -1005     -962     -766     -492     -194      -78 
    -359     -892    -1405    -1800    -2015    -2014    -1868    -1609 
   -1290    -1121    -1178    -1293    -1317    -1228    -1040     -795 
    -733    -1009    -1306    -1331    -1115     -776     -533     -567 
    -658     -480      -87      236      299        0     -595    -1194 
   -1533    -1521    -1283    -1121    -1179    -1347    -1424    -1298 
   -1050     -846     -814     -918     -957     -880     -923    -1198 
   -1459    -1498    -1449    -1462    -1478    -1381    -1094     -714 
    -538     -741    -1162    -1587    -1885    -1933    -1799    -1696 
   -1637    -1486    -1185     -715     -218       -9     -186     -534 
    -819     -939     -893     -761     -697     -785     -942    -1105 
   -1291    -1426    -1405    -1305    -1154     -800     -379     -245 
    -333     -337     -310     -504     -886    -1221    -1354    -1244 
    -992     -754     -623     -654     -877    -1198    -1449    -1553 
   -1575    -1561    -1476    -1351    -1298    -1314    -1318    -1329 
   -1371    -1366    -1264    -1120    -1016     -949     -837     -665 
    -511     -445     -535     -780    -1042    -1175    -1115     -908 
    -778     -891    -1123    -1297    -1439    -1660    -1876    -1917 
   -1771    -1439     -926     -403      -17      184      163      -10 
    -274     -603     -864    -1096    -1483    -1809    -1687    -1279 
   -1013     -947     -903     -815     -711     -602     -535     -629 
    -884    -1161    -1341    -1387    -1312    -1197    -1117    -1031 
    -872     -750     -808     -957     -978     -787     -519     -379 
    -521     -984    -1545    -1846    -1737    -1390    -1086    -1017 
   -1124    -1140     -984     -814     -754     -870    -1081    -1213 
   -1215    -1154    -1151    -1246    -1296    -1264    -1301    -1426 
   -1474    -1368    -1221    -1057     -861     -737     -704     -730 
    -800     -846     -876    -1001    -1293    -1668    -1904    -1823 
   -1479    -1134     -908     -629     -189      197      220     -118 
    -494     -691     -795     -920    -1081    -1301    -1470    -1339 
    -978     -741     -804    -1128    -1471    -1570    -1464    -1335 
   -1220    -1104    -1009     -961     -984    -1074    -1189    -1314 
   -1436    -1540    -1629    -1614    -1383     -989     -599     -326 
    -179     -171     -317     -496     -526     -423     -345     -364 
    -427     -394     -248     -265     -648    -1193    -1607    -1780 
   -1790    -1826    -1950    -2018    -1946    -1767    -1510    -1205 
    -973     -955    -1074    -1077     -816     -364       49      214 
     155        4     -286     -762    -1282    -1748    -2212    -2585 
   -2659    -2465    -2158    -1841    -1625    -1485    -1250     -888 
    -581     -529     -665     -724     -588     -314      -39       91 
     -64     -534    -1051    -1256    -1062     -619     -198      -37 
    -114     -238     -351     -542     -907    -1390    -1733    -1800 
   -1769    -1764    -1713    -1642    -1698    -1842    -1869    -1777 
   -1809    -1988    -2069    -1989    -1837    -1524     -990     -367 
     160      481      595      515      252      -93     -468     -854 
   -1069     -949     -666     -656    -1151    -1825    -2091    -1740 
   -1034     -399     -190     -375     -535     -388      -99      -67 
    -523    -1341    -2199    -2798    -2909    -2505    -1857    -1221 
    -635     -125      206      280       97     -263     -695    -1097 
   -1421    -1674    -1821    -1885    -1961    -2093    -2216    -2201 
   -2029    -1792    -1541    -1297    -1074     -939    -1017    -1345 
   -1800    -2145    -2172    -1844    -1251     -521      245      978 
    1575     1942     2014     1734     1152      433     -337    -1080 
   -1641    -2020    -2343    -2604    -2678    -2455    -1989    -1529 
   -1283    -1158    -1000     -950    -1181    -1574    -1903    -2014 
   -1863    -1615    -1436    -1269    -1100    -1023     -899     -472 
     220      824     1058      936      553      -17     -619    -1132 
   -1476    -1606    -1617    -1621    -1628    -1601    -1451    -1175 
    -940     -908    -1121    -1480    -1791    -1903    -1759    -1428 
   -1067     -803     -720     -795     -805     -464      241      954 
    1318     1252      807      108     -657    -1459    -2323    -3045 
   -3379    -3377    -3289    -3291    -3379    -3429    -3253    -2710 
   -1879    -1013     -324      105      314      383      267      -70 
    -448     -685     -774     -768     -768     -861     -963     -881 
    -419      438     1413     2147     2417     2164     1497      592 
    -410    -1479    -2536    -3349    -3751    -3771    -3645    -3715 
   -4021    -4217    -3851    -2646     -873      772     1802     2168 
    2093     1856     1539     1138      718      217     -496    -1402 
   -2319    -2997    -3346    -3474    -3424    -3171    -2840    -2567 
   -2313    -1985    -1512     -903     -319       72      213       49 
    -421    -1089    -1730    -2047    -1872    -1316     -704     -263 
     190      891     1711     2381     2789     2987     3019     2771 
    2073      922     -488    -1914    -3144    -4012    -4441    -4518 
   -4459    -4386    -4203    -3769    -3117    -2401    -1787    -1417 
   -1281    -1293    -1471    -1860    -2411    -2944    -3153    -2828 
   -2033    -1098     -432     -135      -21       -2      -49      -87 
    -152     -272     -344     -340     -332     -364     -481     -639 
    -606     -162      562     1170     1362     1117      681      373 
     205      -68     -546    -1192    -1891    -2357    -2435    -2311 
   -2197    -2103    -1885    -1414     -702      108      816     1212 
    1067      322     -760    -1838    -2754    -3507    -4185    -4807 
   -5215    -5186    -4639    -3688    -2539    -1416     -556      -82 
     112      221      309      315      218      103       94      249 
     496      733      916     1008      943      765      661      850 
    1371     1917     2019     1468      433     -843    -2181    -3295 
   -3846    -3823    -3588    -3366    -2992    -2382    -1845    -1742 
   -2124    -2741    -3190    -3150    -2710    -2238    -1933    -1723 
   -1468    -1080     -627     -365     -523    -1044    -1667    -2166 
   -2354    -2196    -1949    -1836    -1829    -1829    -1674    -1169 
    -241     1062     2608     4156     5433     6212     6361     5815 
    4557     2786      989     -392    -1305    -1949    -2535    -3142 
   -3658    -3900    -3954    -4152    -4622    -5197    -5644    -5733 
   -5458    -5071    -4741    -4374    -3800    -2948    -1925     -980 
    -344      -82      -60        4      367     1024     1690     2057 
    2056     1813     1520     1313     1175     1108     1236     1431 
    1290      618     -429    -1528    -2450    -3265    -4085    -4716 
   -4742    -3915    -2423     -662     1030     2380     3271     3712 
    3603     2907     1914      967      184     -534    -1510    -2999 
   -4699    -5964    -6507    -6593    -6690    -6993    -7240    -6940 
   -5772    -3862    -1740       29     1216     1958     2511     2945 
    3025     2520     1632      793      211     -156     -414     -685 
    -999    -1188    -1090     -801     -611     -670     -700     -160 
    1100     2482     3126     2659     1296     -421    -1821    -2567 
   -2808    -2763    -2650    -2720    -3015    -3360    -3532    -3480 
   -3443    -3642    -3936    -4039    -3870    -3635    -3578    -3566 
   -3192    -2373    -1377     -407      437     1144     1852     2600 
    3049     2839     1980      714     -615    -1642    -2227    -2381 
   -2088    -1429     -579      311     1031     1397     1435     1227 
     811      218     -490    -1120    -1386    -1148     -548       66 
     365      264        0     -116     -106     -332     -993    -1845 
   -2589    -3244    -3978    -4842    -5699    -6254    -6143    -5274 
   -3954    -2524    -1152      147     1364     2263     2562     2208 
    1331       81    -1368    -2736    -3684    -3977    -3511    -2384 
    -931      459     1459     1902     1898     1610     1113      557 
     135      -49      -17       49      -99     -499     -854     -891 
    -542      174     1120     2011     2577     2667     2299     1638 
     870       29    -1016    -2303    -3603    -4687    -5582    -6304 
   -6601    -6292    -5584    -4845    -4247    -3682    -3051    -2482 
   -2095    -1841    -1625    -1229     -530      220      630      450 
    -298    -1237    -1964    -2427    -2712    -2848    -2980    -3204 
   -3339    -3111    -2344    -1001      730     2492     4077     5493 
    6793     7927     8571     8185     6543     4236     2181      621 
    -742    -2053    -3258    -4175    -4585    -4459    -4000    -3519 
   -3198    -2968    -2778    -2859    -3541    -4779    -6103    -7167 
   -7889    -8144    -7981    -7581    -6836    -5678    -4194    -2354 
    -361     1324     2448     2987     3033     2658     1830      726 
    -194     -450      113     1097     2037     2814     3412     3861 
    4027     3673     2936     2093     1424     1263     1583     2025 
    2145     1551      422     -595    -1208    -1625    -2226    -3352 
   -4958    -6493    -7388    -7504    -7129    -6686    -6318    -5846 
   -5167    -4341    -3419    -2478    -1630     -923     -340      183 
     677     1013      984      448     -602    -1957    -3150    -3693 
   -3303    -2025     -286     1468     3122     4684     6027     6948 
    7253     6795     5682     4314     3021     1894      800     -413 
   -1601    -2546    -3269    -3927    -4585    -5123    -5486    -5726 
   -5630    -4899    -3704    -2691    -2269    -2154    -1941    -1653 
   -1514    -1611    -1900    -2286    -2587    -2639    -2539    -2478 
   -2501    -2560    -2488    -2127    -1540     -770       74      621 
     696      457      120      -55       14      191      417      687 
    1100     1783     2619     3289     3410     2875     2110     1377 
     541     -357    -1219    -2101    -2944    -3543    -3855    -4050 
   -4224    -4229    -4056    -4025    -4386    -5070    -5768    -6104 
   -5856    -5023    -3819    -2602    -1625     -877     -271      261 
     800     1350     1976     2770     3581     4259     4796     5020 
    4677     3798     2624     1356      216     -557     -881     -901 
    -878    -1000    -1190    -1112     -673     -275     -279     -796 
   -1858    -3283    -4611    -5332    -5209    -4440    -3361    -2259 
   -1462    -1131    -1156    -1495    -2139    -2898    -3551    -4090 
   -4608    -4973    -4911    -4418    -3640    -2710    -1919    -1534 
   -1426    -1173     -390      946     2386     3410     3848     3820 
    3430     2762     1992     1097     -112    -1279    -1767    -1520 
    -936     -425     -210     -162       31      421      742      822 
     737      465      -40     -468     -675    -1105    -2008    -3191 
   -4506    -5719    -6652    -7388    -7654    -7180    -6374    -5472 
   -4239    -2650    -1089       76     1004     1711     1776     1444 
    1197      859      469      280      143      -87     -406     -742 
    -913     -826     -464      218     1215     2448     3726     4819 
    5717     6346     6392     5721     4365     2366       35    -2060 
   -3550    -4440    -4781    -4625    -4256    -3991    -4016    -4390 
   -4873    -5157    -5104    -4664    -4033    -3572    -3295    -2987 
   -2617    -2234    -1904    -1722    -1672    -1709    -1761    -1786 
   -1923    -2101    -1995    -1530     -784       93      726      961 
     938      714      411      286      319      267       68     -110 
    -252     -429     -507     -351        2      461      895     1229 
    1480     1622     1564     1394     1216      804       31     -828 
   -1599    -2290    -2802    -3078    -3325    -3689    -4078    -4572 
   -5290    -5988    -6385    -6291    -5537    -4369    -3195    -2035 
    -837      236     1063     1678     2119     2312     2224     2000 
    1707     1387     1147      940      770      724      658      471 
     349      405      422      141     -364     -878    -1310    -1641 
   -1899    -2162    -2481    -2764    -2847    -2648    -2268    -1902 
   -1618    -1345    -1023     -629     -240       75      375      685 
     872      658     -140    -1493    -3202    -4955    -6461    -7492 
   -7824    -7369    -6303    -4876    -3223    -1507      -45      908 
    1294     1221      959      826      966     1227     1366     1377 
    1429     1509     1466     1358     1317     1350     1493     1742 
    1872     1694     1468     1656     2178     2524     2378     1696 
     537     -854    -2184    -3322    -4105    -4467    -4521    -4226 
   -3646    -3165    -2990    -3071    -3353    -3788    -4278    -4707 
   -5047    -5248    -5165    -4734    -3982    -2883    -1557     -442 
     172      426      427      198      -32       20      394      916 
    1475     2069     2643     3079     3242     3048     2605     2174 
    1903     1748     1624     1366      804      -12     -892    -1655 
   -2216    -2569    -2767    -3042    -3419    -3559    -3426    -3287 
   -3165    -2968    -2816    -2889    -3196    -3684    -4252    -4554 
   -4263    -3564    -2952    -2614    -2430    -2401    -2571    -2758 
   -2718    -2405    -1908    -1282     -530      272      953     1445 
    1800     1984     2035     2030     1772     1220      714      438 
     299      151      -83     -382     -687     -839     -703     -353 
      58      472      953     1468     1686     1273      264    -1023 
   -2319    -3418    -4099    -4306    -4116    -3565    -2791    -2118 
   -1741    -1557    -1448    -1422    -1478    -1584    -1721    -1906 
   -2123    -2285    -2409    -2484    -2381    -2053    -1536     -924 
    -367       55      390      738     1105     1428     1640     1615 
    1308      895      572      367      311      484      723      772 
     553      113     -436    -1021    -1633    -2127    -2322    -2189 
   -1958    -1952    -2278    -2795    -3285    -3620    -3753    -3692 
   -3619    -3626    -3510    -3176    -2751    -2281    -1782    -1296 
    -764     -182      297      615      843     1098     1499     1960 
    2259     2359     2349     2265     2006     1416      503     -531 
   -1424    -2085    -2658    -3186    -3504    -3487    -3235    -2905 
   -2570    -2340    -2238    -2203    -2204    -2099    -1790    -1435 
