Origin Time       2026/01/15 07:13:00
Lat.              42.7
Long.             145.4
Depth. (km)       30
Mag.              5.7
Station Code      HKD051
Station Lat.      44.0221
Station Long.     143.7682
Station Height(m) 47
Record Time       2026/01/15 07:14:12
Sampling Freq(Hz) 100Hz
Duration Time(s)  60
Dir.              E-W
Scale Factor      7845(gal)/8223790
Max. Acc. (gal)   2.499
Last Correction   2026/01/15 07:14:13
Memo.             
[...]
    -490     -565     -600     -600     -560     -481     -386     -294 
    -218     -163     -118      -70      -14       25       43       33 
     -17     -101     -205     -307     -367     -359     -278     -128 
      56      244      407      519      564      542      463      341 
     202       68      -45     -132     -179     -197     -205     -209 
    -218     -241     -267     -291     -303     -299     -295     -290 
    -249     -172      -82       10       87      128      118       55 
     -52     -191     -337     -469     -553     -561     -495     -380 
    -244     -114       -9       70      118      129      105       51 
     -14      -59      -63      -32       13       55       82       83 
      66       48       33       27       35       49       62       63 
      54       31      -14      -76     -147     -224     -294     -340 
    -357     -344     -305     -255     -210     -172     -149     -143 
    -143     -145     -163     -199     -238     -274     -303     -336 
    -368     -406     -444     -469     -467     -419     -322     -187 
     -28      118      222      283      298      268      214      151 
      78        0      -89     -179     -248     -286     -297     -280 
    -251     -225     -205     -187     -171     -166     -175     -186 
    -179     -145      -90      -33       14       48       51       14 
     -39      -91     -133     -163     -180     -176     -144      -87 
     -24       29       68       83       72       44       -4      -60 
    -102     -128     -144     -144     -130      -97      -33       35 
      85      109      120      130      143      148      144      129 
      97       48      -13      -98     -195     -291     -376     -442 
    -494     -533     -560     -577     -581     -572     -549     -503 
    -448     -390     -314     -243     -179     -114      -63      -28 
      21       86      157      224      270      292      305      306 
     287      241      180      124       81       70      103      180 
     292      405      476      484      425      303      147      -24 
    -193     -344     -473     -588     -683     -764     -837     -893 
    -930     -946     -942     -924     -900     -862     -791     -676 
    -529     -364     -199      -56       68      171      248      322 
     403      477      541      598      633      638      621      589 
     537      463      378      287      199      121       54       -5 
     -64     -120     -164     -205     -252     -290     -313     -319 
    -311     -309     -337     -398     -471     -542     -595     -619 
    -622     -610     -581     -534     -465     -386     -307     -243 
    -190     -152     -122      -85      -35       14       56      101 
     162      241      317      367      375      344      290      232 
     182      148      141      163      195      211      199      162 
     102       27      -45     -117     -179     -225     -263     -295 
    -311     -326     -344     -356     -371     -392     -409     -421 
    -430     -434     -444     -467     -510     -560     -591     -583 
    -534     -452     -346     -233     -124      -12      102      210 
     307      392      453      472      448      396      334      270 
     206      155      128      125      125      108       48      -59 
    -191     -319     -440     -531     -567     -552     -502     -425 
    -333     -243     -166     -105      -62      -33      -25      -39 
     -63      -91     -118     -139     -159     -189     -236     -292 
    -342     -382     -407     -411     -386     -337     -276     -214 
    -145      -78      -32       -2       29       76      133      180 
     207      213      189      130       47      -45     -130     -187 
    -202     -191     -162     -113      -55        1       45       72 
      90       94       83       56       21       -9      -32      -33 
     -12       16       41       60       60       48       31        2 
     -25      -56      -93     -144     -213     -284     -346     -396 
    -437     -471     -495     -511     -518     -503     -475     -442 
    -399     -341     -276     -201     -113      -32       24       48 
      43       18       -8      -22       -9       32       91      156 
     202      220      224      222      221      228      238      245 
     238      218      182      122       45      -41     -130     -214 
    -286     -344     -399     -464     -533     -583     -604     -603 
    -572     -508     -423     -336     -249     -178     -148     -160 
    -191     -224     -232     -205     -151      -78        1       68 
     109      125      132      140      147      151      151      137 
      97       22      -64     -156     -245     -309     -336     -345 
    -340     -317     -275     -218     -155      -98      -60      -51 
     -67      -94     -118     -145     -167     -171     -155     -116 
     -56       10       79      148      201      224      226      226 
     217      199      180      163      147      135      121      102 
      78       44       -9      -76     -156     -236     -294     -322 
    -336     -340     -341     -355     -378     -392     -400     -407 
    -410     -419     -432     -442     -453     -454     -437     -402 
    -351     -286     -209     -125      -43       27       75       94 
      81       36      -17      -52      -63      -55      -21       29 
      78      117      143      151      139      106       76       58 
      47       44       41       25        0      -21      -41      -63 
     -91     -122     -151     -171     -176     -160     -136     -126 
    -136     -159     -190     -222     -249     -267     -263     -229 
    -171     -101      -27       37       85      110      108       71 
      -8     -112     -213     -299     -373     -434     -473     -488 
    -494     -496     -473     -421     -345     -252     -144      -40 
      41       99      128      126      113       94       60       10 
     -60     -139     -195     -214     -198     -144      -51       67 
     180      263      309      324      309      260      194      139 
      97       59       21      -13      -63     -136     -218     -298 
    -375     -450     -510     -549     -569     -567     -541     -496 
    -446     -392     -338     -298     -276     -275     -286     -288 
    -270     -229     -176     -109      -24       60      130      191 
     240      265      279      294      321      351      373      386 
     380      348      298      237      172      120       83       51 
       2      -76     -184     -297     -392     -468     -523     -564 
    -589     -610     -641     -679     -715     -737     -729     -684 
    -600     -491     -380     -278     -166      -54       41      136 
     243      349      441      510      548      558      548      515 
     473      434      395      357      318      271      211      147 
      67      -32     -147     -271     -392     -484     -538     -569 
    -584     -584     -577     -568     -560     -542     -510     -472 
    -437     -407     -386     -372     -365     -361     -360     -355 
    -325     -260     -174      -74       28      116      172      202 
     216      220      216      207      206      213      225      249 
     278      302      318      315      280      220      144       64 
     -14      -89     -155     -206     -229     -228     -221     -225 
    -241     -267     -299     -328     -348     -348     -333     -310 
    -275     -230     -193     -170     -168     -183     -211     -245 
    -287     -332     -361     -369     -352     -315     -268     -213 
    -149      -82      -18       25       41       31        8      -17 
     -47      -76     -103     -129     -140     -137     -125     -105 
     -70      -25       16       36       43       48       52       52 
      43       20      -13      -44      -56      -43      -16       18 
      71      130      176      198      205      199      186      167 
     136       89       27      -51     -137     -211     -272     -329 
    -386     -438     -479     -500     -514     -527     -534     -533 
    -518     -483     -430     -369     -306     -251     -210     -190 
    -183     -170     -139      -86      -13       64      136      182 
     197      193      172      136       93       58       45       56 
      78       98      116      124      117      102       85       55 
      16      -21      -51      -82     -128     -197     -275     -353 
    -429     -492     -533     -556     -562     -550     -531     -518 
    -513     -510     -499     -471     -422     -353     -265     -167 
     -74        0       59      114      171      236      311      398 
     480      535      565      577      556      507      452      386 
     311      233      149       72        5      -47      -78      -83 
     -76      -81     -101     -141     -222     -333     -440     -527 
    -598     -641     -660     -666     -672     -677     -681     -680 
    -668     -649     -625     -589     -545     -492     -436     -365 
    -274     -168      -62       44      135      202      261      328 
     394      452      504      546      573      583      571      537 
     484      417      334      240      149       64      -13      -76 
    -126     -172     -230     -306     -386     -469     -557     -623 
    -656     -660     -646     -619     -583     -546     -518     -492 
    -456     -410     -368     -333     -295     -260     -236     -216 
    -194     -175     -149     -103      -49       -1       41       63 
      63       63       66       60       51       51       62       76 
      90      101      103       95       72       36       -4      -43 
     -74      -94     -110     -126     -140     -157     -193     -238 
    -270     -278     -265     -226     -163      -86       -4       70 
     124      157      183      206      221      228      238      263 
     298      330      356      380      395      402      399      378 
     330      256      152       21     -128     -278     -413     -535 
    -642     -714     -753     -773     -776     -758     -738     -720 
    -703     -685     -664     -637     -614     -596     -583     -569 
    -549     -525     -506     -483     -441     -383     -310     -222 
    -132      -44       45      128      190      244      298      349 
     402      457      496      500      461      390      305      224 
     151       89       36      -10      -40      -35       -4       51 
     145      265      376      461      507      491      409      290 
     166       41      -75     -182     -274     -353     -432     -511 
    -575     -614     -629     -626     -606     -575     -541     -500 
    -448     -390     -330     -279     -232     -184     -141     -114 
    -106     -118     -153     -198     -237     -265     -278     -267 
    -232     -172      -99      -13       83      183      267      328 
     353      340      297      228      129       14      -98     -203 
    -287     -333     -330     -282     -197      -86       31      136 
     228      303      344      338      295      237      168       91 
      22      -27      -72     -125     -180     -232     -283     -336 
    -388     -436     -475     -510     -537     -552     -561     -571 
    -565     -544     -514     -473     -419     -351     -271     -187 
    -116      -62      -20        6       17       17       12        1 
     -13      -24      -29      -28      -17        6       48      106 
     168      233      299      356      403      448      477      484 
     476      454      417      369      306      229      140       43 
     -49     -128     -171     -175     -153     -122      -74      -13 
      35       56       56       36      -22     -117     -226     -346 
    -471     -579     -660     -712     -733     -730     -708     -666 
    -621     -579     -541     -526     -541     -569     -603     -641 
    -668     -670     -650     -614     -558     -492     -432     -368 
    -292     -211     -124      -35       45      129      218      303 
     376      422      449      467      467      444      407      360 
     305      245      184      129       89       75      101      170 
     264      364      457      519      527      486      403      290 
     166       52      -56     -168     -272     -376     -486     -581 
    -650     -693     -708     -689     -643     -591     -537     -476 
    -411     -361     -340     -351     -390     -457     -549     -642 
    -727     -799     -826     -795     -722     -625     -523     -436 
    -357     -288     -237     -203     -182     -168     -144      -97 
     -29       40      108      166      218      278      341      414 
     513      634      753      859      955     1020     1044     1043 
    1008      939      858      766      665      575      504      456 
     427      415      426      465      518      571      612      638 
     637      599      514      368      159     -105     -422     -773 
   -1119    -1431    -1686    -1872    -1985    -2039    -2049    -2023 
   -1960    -1864    -1749    -1624    -1499    -1387    -1294    -1212 
   -1140    -1108    -1119    -1146    -1173    -1185    -1163    -1094 
    -970     -793     -577     -332      -71      190      457      734 
    1012     1287     1566     1830     2068     2273     2424     2501 
    2515     2474     2381     2249     2087     1895     1684     1467 
    1250     1031      811      588      357      128      -99     -338 
    -588     -837    -1077    -1300    -1502    -1686    -1840    -1954 
   -2023    -2050    -2045    -2026    -2007    -1985    -1954    -1904 
   -1841    -1767    -1676    -1564    -1439    -1302    -1146     -965 
    -762     -529     -265       16      303      579      834     1074 
    1308     1528     1723     1892     2029     2123     2161     2133 
    2041     1894     1699     1478     1242      993      735      477 
     229      -10     -226     -402     -538     -642     -710     -749 
    -773     -807     -857     -930    -1027    -1140    -1260    -1377 
   -1479    -1549    -1583    -1591    -1568    -1495    -1379    -1227 
   -1039     -819     -569     -305      -37      213      430      611 
     760      888     1004     1093     1138     1135     1086     1001 
     896      787      680      588      513      440      361      272 
     164       41      -83     -209     -337     -453     -561     -666 
    -762     -845     -908     -946     -951     -916     -839     -743 
    -645     -541     -446     -369     -307     -261     -238     -225 
    -218     -213     -195     -163     -126      -87      -39       17 
      71      124      168      197      214      225      230      240 
     259      279      299      324      329      309      282      252 
     228      207      179      136       91       39      -25      -93 
    -164     -249     -330     -394     -450     -502     -549     -603 
    -661     -714     -761     -795     -804     -791     -750     -673 
    -573     -472     -373     -276     -194     -143     -118     -105 
     -89      -56        1       76      143      187      216      233 
     244      268      313      368      444      545      650      747 
     838      899      903      855      772      660      522      375 
     234      108       -5     -103     -183     -244     -292     -342 
    -406     -487     -576     -662     -738     -800     -837     -843 
    -820     -777     -710     -619     -523     -445     -383     -325 
    -279     -248     -232     -241     -278     -329     -390     -450 
    -499     -527     -526     -494     -440     -383     -329     -279 
    -224     -147      -52       40      129      216      283      328 
     365      407      456      513      568      607      626      619 
     588      531      459      388      333      307      322      353 
     368      359      324      261      175       78      -27     -151 
    -302     -446     -560     -650     -718     -760     -785     -807 
    -828     -862     -915     -970    -1009    -1032    -1038    -1026 
   -1001     -970     -932     -892     -839     -769     -677     -548 
    -380     -190       17      251      498      749     1005     1250 
    1455     1602     1676     1676     1602     1464     1274     1039 
     780      519      268       31     -186     -378     -538     -665 
    -754     -808     -835     -850     -858     -859     -843     -803 
    -738     -639     -510     -371     -245     -148      -95      -91 
    -136     -232     -380     -557     -735     -905    -1047    -1134 
   -1156    -1104     -973     -778     -535     -260        5      232 
     418      548      607      616      589      541      487      434 
     383      351      332      322      329      357      392      427 
     459      468      448      415      382      346      314      286 
     271      259      225      175      108       12     -109     -247 
    -398     -558     -708     -838     -954    -1047    -1108    -1140 
   -1147    -1124    -1073     -988     -870     -720     -538     -338 
    -147       16      128      184      206      221      245      286 
     340      392      426      427      402      356      302      248 
     176       94        9      -81     -163     -221     -264     -295 
    -313     -325     -337     -356     -380     -398     -399     -403 
    -414     -419     -413     -398     -375     -337     -291     -237 
    -172     -110      -60      -33      -29      -22        0       43 
     114      203      301      402      496      571      623      662 
     695      708      699      672      616      537      442      330 
     205       70      -72     -220     -365     -515     -662     -804 
    -936    -1047    -1125    -1171    -1183    -1163    -1113    -1040 
    -965     -900     -838     -769     -687     -587     -468     -328 
    -175      -28      114      261      413      567      715      854 
     976     1057     1093     1088     1044      962      861      765 
     681      610      552      491      415      333      247      151 
      44      -81     -232     -410     -616     -843    -1062    -1254 
   -1394    -1463    -1466    -1421    -1344    -1248    -1140    -1013 
    -861     -692     -517     -340     -167      -14      110      210 
     292      361      414      448      476      502      517      534 
     553      557      558      576      606      645      689      716 
     722      695      626      527      410      261       90      -82 
    -263     -450     -627     -785     -920    -1016    -1069    -1085 
   -1070    -1039    -1001     -950     -888     -820     -737     -631 
    -517     -396     -282     -191     -130      -97      -90      -91 
     -90      -87      -72      -41       -2       40       86      124 
     152      168      175      179      194      230      283      351 
     419      471      492      481      427      329      203       64 
     -72     -189     -272     -322     -348     -361     -369     -379 
    -390     -405     -430     -454     -461     -449     -417     -372 
    -321     -275     -240     -220     -205     -190     -171     -147 
