Origin Time       2026/01/15 07:13:00
Lat.              42.7
Long.             145.4
Depth. (km)       30
Mag.              5.7
Station Code      HKD091
Station Lat.      42.8088
Station Long.     143.6590
Station Height(m) 16
Record Time       2026/01/15 07:13:58
Sampling Freq(Hz) 100Hz
Duration Time(s)  84
Dir.              E-W
Scale Factor      7845(gal)/8223790
Max. Acc. (gal)   4.262
Last Correction   2026/01/15 07:13:59
Memo.             
[...]
  -12222   -12329   -12405   -12433   -12426   -12367   -12232   -12047 
  -11854   -11664   -11488   -11372   -11340   -11367   -11429   -11530 
  -11664   -11799   -11928   -12066   -12208   -12332   -12422   -12461 
  -12441   -12372   -12298   -12237   -12158   -12051   -11970   -11940 
  -11920   -11870   -11796   -11711   -11630   -11565   -11537   -11572 
  -11665   -11788   -11924   -12064   -12208   -12359   -12509   -12648 
  -12784   -12918   -13016   -13057   -13031   -12946   -12841   -12738 
  -12630   -12525   -12433   -12336   -12221   -12109   -12036   -12006 
  -12002   -12009   -12033   -12066   -12091   -12109   -12112   -12102 
  -12110   -12117   -12083   -12029   -11975   -11919   -11886   -11889 
  -11885   -11854   -11804   -11718   -11607   -11545   -11545   -11560 
  -11596   -11682   -11801   -11950   -12118   -12251   -12322   -12361 
  -12371   -12328   -12220   -12073   -11931   -11808   -11719   -11716 
  -11805   -11932   -12060   -12158   -12194   -12193   -12190   -12185 
  -12158   -12105   -12036   -11973   -11947   -11950   -11927   -11862 
  -11786   -11732   -11716   -11726   -11726   -11700   -11666   -11635 
  -11616   -11650   -11772   -11939   -12074   -12166   -12241   -12309 
  -12359   -12374   -12317   -12190   -12055   -11977   -11950   -11940 
  -11946   -11978   -12035   -12090   -12104   -12054   -11956   -11842 
  -11722   -11628   -11603   -11643   -11731   -11859   -12008   -12121 
  -12201   -12271   -12303   -12270   -12213   -12178   -12160   -12139 
  -12102   -12056   -11992   -11871   -11697   -11515   -11360   -11245 
  -11191   -11210   -11277   -11371   -11514   -11724   -11962   -12183 
  -12359   -12452   -12460   -12411   -12320   -12216   -12125   -12047 
  -11979   -11942   -11956   -12017   -12081   -12102   -12082   -12055 
  -12046   -12060   -12108   -12170   -12198   -12158   -12056   -11923 
  -11778   -11646   -11578   -11608   -11693   -11774   -11835   -11890 
  -11963   -12064   -12174   -12256   -12291   -12268   -12217   -12177 
  -12168   -12195   -12221   -12204   -12154   -12113   -12094   -12081 
  -12039   -11940   -11784   -11593   -11416   -11321   -11333   -11419 
  -11533   -11638   -11703   -11713   -11682   -11632   -11605   -11638 
  -11715   -11803   -11897   -12002   -12085   -12114   -12091   -12019 
  -11917   -11865   -11913   -12060   -12289   -12542   -12765   -12953 
  -13089   -13144   -13139   -13082   -12943   -12754   -12587   -12478 
  -12451   -12496   -12571   -12642   -12699   -12748   -12789   -12793 
  -12746   -12658   -12541   -12401   -12262   -12147   -12056   -11981 
  -11911   -11820   -11672   -11466   -11272   -11126   -11025   -10979 
  -10991   -11029   -11057   -11049   -10994   -10941   -10939   -10983 
  -11076   -11227   -11408   -11583   -11774   -11998   -12087   -11874 
  -11645   -11773   -11962   -11777   -11387   -11113   -11140   -11481 
  -11809   -11900   -11966   -12210   -12421   -12368   -12298   -12366 
  -12356   -12310   -12403   -12555   -12675   -12766   -12843   -12941 
  -13058   -13146   -13146   -13036   -12823   -12559   -12343   -12235 
  -12174   -12056   -11935   -11946   -12015   -12021   -12035   -12042 
  -11973   -11898   -11838   -11780   -11799   -11904   -12040   -12187 
  -12309   -12340   -12264   -12135   -11990   -11819   -11657   -11564 
  -11538   -11570   -11669   -11800   -11912   -11996   -12050   -12060 
  -12060   -12086   -12101   -12079   -12074   -12087   -12060   -11990 
  -11892   -11736   -11520   -11295   -11087   -10899   -10782   -10787 
  -10876   -11005   -11180   -11389   -11583   -11763   -11973   -12221 
  -12471   -12685   -12869   -13004   -13063   -13074   -13086   -13101 
  -13122   -13149   -13163   -13158   -13147   -13108   -13009   -12885 
  -12775   -12683   -12652   -12721   -12842   -12931   -12966   -12961 
  -12901   -12776   -12600   -12370   -12073   -11767   -11526   -11371 
  -11275   -11179   -11036   -10835   -10611   -10424   -10307   -10241 
  -10234   -10287   -10369   -10492   -10678   -10879   -11048   -11195 
  -11321   -11435   -11587   -11808   -12066   -12290   -12455   -12532 
  -12457   -12252   -12025   -11835   -11685   -11588   -11574   -11662 
  -11878   -12240   -12700   -13171   -13626   -14042   -14327   -14443 
  -14454   -14395   -14222   -13905   -13475   -12997   -12540   -12155 
  -11869   -11685   -11596   -11578   -11616   -11685   -11746   -11769 
  -11750   -11699   -11657   -11632   -11593   -11534   -11477   -11414 
  -11308   -11153   -10941   -10724   -10605   -10613   -10678   -10754 
  -10845   -10940   -11003   -11040   -11084   -11167   -11303   -11491 
  -11718   -11979   -12263   -12517   -12703   -12795   -12768   -12633 
  -12440   -12232   -12048   -11894   -11749   -11615   -11507   -11442 
  -11446   -11515   -11612   -11713   -11834   -11975   -12117   -12272 
  -12434   -12540   -12586   -12646   -12744   -12834   -12889   -12930 
  -12950   -12943   -12919   -12885   -12834   -12766   -12690   -12618 
  -12576   -12580   -12607   -12646   -12690   -12717   -12700   -12633 
  -12555   -12496   -12444   -12388   -12333   -12226   -12024   -11746 
  -11414   -11030   -10619   -10231    -9915    -9705    -9632    -9702 
   -9895   -10189   -10559   -10970   -11389   -11786   -12112   -12333 
  -12475   -12569   -12644   -12748   -12923   -13157   -13431   -13743 
  -14071   -14391   -14652   -14783   -14774   -14677   -14493   -14185 
  -13744   -13192   -12537   -11808   -11113   -10589   -10301   -10243 
  -10378   -10635   -10935   -11252   -11591   -11925   -12232   -12502 
  -12700   -12792   -12802   -12764   -12677   -12577   -12513   -12495 
  -12484   -12411   -12262   -12082   -11921   -11817   -11805   -11857 
  -11902   -11925   -11932   -11889   -11770   -11607   -11458   -11384 
  -11391   -11445   -11547   -11688   -11781   -11757   -11605   -11341 
  -10999   -10667   -10399   -10193   -10054   -10004   -10041   -10152 
  -10346   -10650   -11071   -11569   -12082   -12563   -12953   -13193 
  -13254   -13162   -12972   -12730   -12490   -12291   -12124   -11962 
  -11842   -11800   -11794   -11761   -11707   -11705   -11816   -12040 
  -12357   -12719   -13072   -13400   -13703   -13967   -14160   -14245 
  -14211   -14114   -13988   -13813   -13535   -13140   -12656   -12098 
  -11507   -10955   -10474   -10065    -9756    -9586    -9563    -9671 
   -9891   -10189   -10511   -10800   -11018   -11138   -11164   -11126 
  -11053   -10930   -10743   -10559   -10477   -10542   -10717   -10939 
  -11180   -11465   -11816   -12210   -12583   -12903   -13177   -13397 
  -13571   -13759   -13998   -14268   -14515   -14688   -14777   -14756 
  -14573   -14226   -13805   -13390   -12989   -12584   -12202   -11874 
  -11604   -11367   -11119   -10841   -10574   -10385   -10320   -10389 
  -10584   -10898   -11335   -11861   -12405   -12885   -13205   -13302 
  -13220   -13026   -12765   -12514   -12368   -12361   -12469   -12672 
  -12930   -13162   -13296   -13284   -13095   -12738   -12258   -11701 
  -11153   -10710   -10412   -10261   -10266   -10407   -10592   -10748 
  -10886   -11045   -11236   -11443   -11703   -12032   -12370   -12645 
  -12852   -13009   -13120   -13142   -13062   -12908   -12669   -12347 
  -12040   -11853   -11799   -11855   -11981   -12094   -12105   -11947 
  -11630   -11222   -10790   -10363    -9969    -9660    -9494    -9508 
   -9701   -10062   -10531   -10982   -11340   -11677   -12067   -12418 
  -12753   -13313   -13732   -13232   -12467   -12684   -13302   -13481 
  -13389   -12816   -12216   -12622   -13536   -13857   -13425   -12982 
  -13026   -13001   -12710   -12565   -12401   -12082   -11859   -11674 
  -11412   -11172   -11059   -11118   -11326   -11661   -12105   -12499 
  -12721   -12869   -13028   -13139   -13130   -12976   -12762   -12564 
  -12334   -12062   -11808   -11619   -11473   -11322   -11222   -11241 
  -11372   -11584   -11770   -11840   -11865   -11900   -11880   -11792 
  -11692   -11610   -11601   -11711   -11884   -12058   -12202   -12286 
  -12324   -12341   -12321   -12255   -12147   -12005   -11857   -11704 
  -11539   -11362   -11180   -11006   -10854   -10736   -10660   -10606 
  -10554   -10530   -10581   -10716   -10939   -11273   -11727   -12233 
  -12703   -13093   -13396   -13608   -13751   -13863   -13930   -13926 
  -13859   -13734   -13527   -13238   -12904   -12533   -12160   -11859 
  -11692   -11668   -11735   -11867   -12137   -12548   -12987   -13409 
  -13795   -14088   -14234   -14181   -13919   -13481   -12920   -12289 
  -11596   -10868   -10160    -9498    -8905    -8428    -8086    -7871 
   -7796    -7896    -8160    -8538    -8993    -9535   -10164   -10862 
  -11627   -12441   -13240   -13911   -14382   -14675   -14837   -14852 
  -14682   -14353   -13937   -13487   -13031   -12606   -12256   -11973 
  -11749   -11637   -11684   -11873   -12179   -12548   -12903   -13216 
  -13504   -13778   -14011   -14162   -14206   -14126   -13914   -13570 
  -13090   -12486   -11834   -11227   -10712   -10291    -9969    -9810 
   -9873   -10103   -10411   -10777   -11190   -11597   -11967   -12289 
  -12552   -12762   -12930   -13050   -13090   -13018   -12849   -12640 
  -12440   -12285   -12151   -12019   -11892   -11761   -11618   -11464 
  -11288   -11097   -10925   -10800   -10729   -10683   -10623   -10552 
  -10474   -10366   -10224   -10084    -9983    -9954   -10011   -10135 
  -10273   -10390   -10546   -10779   -11021   -11248   -11535   -11925 
  -12397   -12918   -13456   -13941   -14304   -14566   -14789   -14958 
  -15039   -15048   -14979   -14798   -14551   -14307   -14088   -13906 
  -13752   -13568   -13313   -13018   -12726   -12453   -12191   -11915 
  -11592   -11195   -10714   -10173    -9641    -9167    -8777    -8498 
   -8344    -8311    -8398    -8592    -8874    -9232    -9668   -10226 
  -10912   -11653   -12371   -13005   -13502   -13830   -14004   -14035 
  -13903   -13610   -13239   -12881   -12588   -12386   -12270   -12212 
  -12178   -12127   -12043   -11950   -11861   -11786   -11759   -11781 
  -11826   -11870   -11898   -11904   -11885   -11858   -11862   -11915 
  -11974   -11994   -11969   -11913   -11851   -11792   -11742   -11726 
  -11750   -11799   -11877   -11993   -12105   -12178   -12222   -12267 
  -12343   -12484   -12673   -12858   -13028   -13204   -13359   -13429 
  -13360   -13136   -12789   -12372   -11962   -11641   -11435   -11345 
  -11387   -11551   -11785   -12043   -12322   -12638   -12964   -13250 
  -13466   -13599   -13671   -13694   -13667   -13621   -13593   -13572 
  -13510   -13352   -13081   -12691   -12174   -11584   -11011   -10535 
  -10192    -9980    -9873    -9856    -9921   -10069   -10273   -10471 
  -10636   -10760   -10824   -10840   -10868   -10966   -11151   -11396 
  -11655   -11892   -12145   -12461   -12806   -13109   -13346   -13520 
  -13633   -13678   -13679   -13689   -13726   -13788   -13844   -13821 
  -13678   -13440   -13139   -12810   -12510   -12260   -12021   -11781 
  -11581   -11448   -11377   -11360   -11371   -11377   -11384   -11412 
  -11461   -11507   -11530   -11549   -11574   -11596   -11610   -11608 
  -11578   -11547   -11566   -11649   -11788   -11959   -12102   -12162 
  -12121   -11977   -11731   -11423   -11111   -10829   -10601   -10466 
  -10435   -10500   -10650   -10862   -11119   -11414   -11704   -11962 
  -12164   -12280   -12305   -12263   -12158   -11986   -11766   -11527 
  -11291   -11099   -11028   -11110   -11313   -11588   -11916   -12271 
  -12615   -12927   -13197   -13414   -13551   -13576   -13485   -13288 
  -13032   -12758   -12482   -12231   -12021   -11867   -11800   -11820 
  -11900   -12009   -12093   -12131   -12168   -12239   -12326   -12411 
  -12479   -12521   -12530   -12510   -12455   -12374   -12295   -12232 
  -12195   -12210   -12293   -12449   -12660   -12900   -13162   -13417 
  -13610   -13717   -13722   -13628   -13468   -13271   -13050   -12842 
  -12665   -12482   -12253   -11988   -11692   -11349   -10956   -10563 
  -10243   -10045    -9980   -10006   -10061   -10138   -10258   -10405 
  -10546   -10681   -10832   -10986   -11132   -11286   -11454   -11628 
  -11785   -11885   -11917   -11901   -11885   -11909   -11982   -12104 
  -12271   -12464   -12671   -12880   -13072   -13204   -13257   -13247 
  -13186   -13057   -12870   -12672   -12475   -12293   -12159   -12067 
  -11981   -11889   -11769   -11577   -11310   -11007   -10717   -10440 
  -10177    -9994   -10004   -10233   -10598   -11024   -11492   -11979 
  -12415   -12757   -13014   -13201   -13327   -13397   -13414   -13382 
  -13289   -13113   -12853   -12552   -12253   -11969   -11701   -11438 
  -11156   -10889   -10683   -10540   -10463   -10485   -10620   -10837 
  -11103   -11407   -11731   -12036   -12276   -12469   -12676   -12922 
  -13194   -13498   -13838   -14170   -14419   -14542   -14530   -14391 
  -14146   -13838   -13514   -13204   -12889   -12548   -12183   -11826 
  -11518   -11299   -11192   -11186   -11249   -11361   -11518   -11699 
  -11842   -11902   -11913   -11917   -11908   -11881   -11873   -11896 
  -11916   -11898   -11853   -11836   -11894   -12004   -12102   -12132 
  -12063   -11916   -11753   -11589   -11403   -11196   -10991   -10791 
  -10621   -10503   -10444   -10453   -10520   -10635   -10798   -10975 
  -11088   -11084   -10984   -10845   -10682   -10503   -10366   -10324 
  -10395   -10594   -10943   -11434   -12017   -12640   -13282   -13919 
  -14509   -15034   -15511   -15944   -16297   -16488   -16464   -16233 
  -15832   -15292   -14666   -14021   -13402   -12841   -12372   -12017 
  -11759   -11570   -11419   -11267   -11084   -10883   -10673   -10430 
  -10131    -9795    -9481    -9267    -9182    -9204    -9310    -9486 
   -9674    -9834    -9979   -10089   -10149   -10233   -10401   -10635 
  -10926   -11287   -11691   -12062   -12341   -12542   -12685   -12772 
  -12839   -12941   -13080   -13213   -13313   -13387   -13437   -13439 
  -13392   -13315   -13232   -13165   -13101   -13009   -12899   -12807 
  -12766   -12781   -12825   -12873   -12933   -12987   -13009   -13008 
  -12981   -12887   -12723   -12510   -12262   -12025   -11880   -11863 
  -11915   -11959   -12044   -12178   -12217   -12154   -12059   -11909 
  -11720   -11522   -11306   -11103   -10909   -10725   -10598   -10516 
  -10463   -10461   -10505   -10597   -10724   -10866   -11032   -11218 
  -11407   -11597   -11780   -11928   -12019   -12054   -12055   -12044 
  -12021   -11988   -11943   -11898   -11885   -11916   -11977   -12078 
  -12262   -12528   -12818   -13090   -13323   -13478   -13525   -13489 
  -13390   -13252   -13120   -13038   -13008   -13008   -13015   -13016 
  -13018   -13039   -13019   -12872   -12661   -12468   -12224   -11916 
  -11641   -11416   -11241   -11137   -11078   -11038   -10999   -10906 
  -10766   -10617   -10486   -10409   -10385   -10388   -10442   -10590 
  -10814   -11041   -11202   -11269   -11234   -11101   -10918   -10750 
  -10613   -10513   -10466   -10498   -10627   -10848   -11138   -11449 
  -11750   -12036   -12318   -12583   -12807   -13009   -13200   -13328 
  -13409   -13491   -13551   -13585   -13621   -13659   -13707   -13794 
  -13936   -14130   -14332   -14470   -14504   -14439   -14268   -14013 
  -13737   -13463   -13189   -12923   -12645   -12318   -11963   -11632 
  -11329   -11044   -10801   -10627   -10505   -10423   -10407   -10454 
  -10516   -10577   -10636   -10670   -10669   -10648   -10598   -10519 
  -10439   -10343   -10192   -10015    -9875    -9806    -9842   -10004 
  -10255   -10532   -10802   -11074   -11372   -11708   -12083   -12496 
  -12931   -13340   -13687   -13954   -14141   -14235   -14226   -14119 
  -13946   -13757   -13601   -13510   -13489   -13494   -13475   -13421 
  -13340   -13247   -13176   -13132   -13122   -13177   -13290   -13390 
  -13421   -13382   -13265   -13034   -12679   -12241   -11788   -11395 
  -11106   -10901   -10743   -10617   -10520   -10457   -10412   -10366 
  -10345   -10366   -10397   -10446   -10557   -10746   -10990   -11271 
  -11569   -11861   -12123   -12328   -12441   -12469   -12460   -12424 
  -12352   -12271   -12214   -12175   -12144   -12145   -12177   -12205 
  -12216   -12205   -12148   -12044   -11925   -11827   -11784   -11823 
  -11942   -12096   -12232   -12325   -12374   -12374   -12321   -12220 
  -12081   -11923   -11790   -11726   -11730   -11785   -11880   -12000 
  -12133   -12286   -12463   -12636   -12785   -12938   -13115   -13308 
  -13490   -13622   -13678   -13644   -13535   -13366   -13144   -12897 
  -12660   -12417   -12155   -11915   -11705   -11506   -11335   -11209 
  -11092   -10966   -10821   -10655   -10473   -10285   -10103    -9944 
   -9844    -9828    -9886   -10031   -10270   -10571   -10906   -11281 
  -11664   -11983   -12209   -12371   -12498   -12598   -12690   -12788 
  -12874   -12934   -12969   -12982   -12973   -12949   -12945   -12974 
  -13007   -13008   -12992   -13000   -13019   -13007   -12954   -12861 
  -12745   -12641   -12549   -12451   -12356   -12289   -12233   -12191 
  -12195   -12255   -12351   -12449   -12519   -12559   -12567   -12523 
  -12394   -12177   -11905   -11623   -11364   -11140   -10943   -10794 
  -10708   -10683   -10723   -10822   -10960   -11109   -11268   -11441 
  -11600   -11738   -11913   -12166   -12461   -12735   -12969   -13167 
  -13312   -13378   -13346   -13198   -12941   -12615   -12262   -11902 
  -11576   -11315   -11114   -10980   -10906   -10843   -10766   -10709 
  -10696   -10728   -10802   -10921   -11071   -11229   -11380   -11508 
  -11569   -11535   -11441   -11350   -11276   -11222   -11229   -11314 
  -11461   -11669   -11942   -12252   -12565   -12885   -13189   -13432 
  -13606   -13703   -13718   -13676   -13598   -13452   -13217   -12928 
  -12622   -12320   -12044   -11805   -11604   -11473   -11429   -11446 
  -11489   -11535   -11583   -11631   -11691   -11811   -12016   -12247 
  -12434   -12546   -12577   -12548   -12460   -12317   -12139   -11947 
  -11730   -11470   -11179   -10870   -10566   -10336   -10218   -10191 
  -10239   -10382   -10612   -10890   -11221   -11641   -12147   -12676 
  -13162   -13585   -13952   -14257   -14476   -14575   -14530   -14338 
  -14042   -13702   -13360   -13051   -12791   -12569   -12378   -12209 
  -12044   -11865   -11669   -11465   -11259   -11056   -10883   -10773 
  -10740   -10747   -10743   -10714   -10658   -10565   -10461   -10386 
  -10378   -10439   -10565   -10783   -11124   -11562   -12051   -12533 
  -12958   -13301   -13531   -13628   -13614   -13522   -13366   -13144 
  -12881   -12634   -12457   -12351   -12278   -12214   -12166   -12132 
  -12100   -12063   -12025   -12000   -11988   -11982   -11979   -11961 
  -11893   -11785   -11681   -11597   -11522   -11461   -11430   -11407 
  -11376   -11346   -11334   -11358   -11430   -11534   -11654   -11792 
  -11938   -12054   -12123   -12166   -12178   -12128   -12015   -11862 
  -11668   -11443   -11242   -11130   -11124   -11213   -11408   -11703 
  -12060   -12434   -12780   -13049   -13215   -13297   -13327   -13306 
  -13240   -13146   -13038   -12916   -12789   -12657   -12511   -12364 
  -12271   -12256   -12291   -12355   -12453   -12588   -12758   -12954 
  -13154   -13338   -13486   -13562   -13547   -13471   -13346   -13171 
