Origin Time       2026/01/15 07:13:00
Lat.              42.7
Long.             145.4
Depth. (km)       30
Mag.              5.7
Station Code      HKD072
Station Lat.      43.1948
Station Long.     145.5209
Station Height(m) 46
Record Time       2026/01/15 07:13:29
Sampling Freq(Hz) 100Hz
Duration Time(s)  107
Dir.              N-S
Scale Factor      7845(gal)/8223790
Max. Acc. (gal)   15.755
Last Correction   2026/01/15 07:13:29
Memo.             
[...]
    5387     5389     5387     5387     5387     5389     5387     5385 
    5385     5387     5389     5387     5385     5385     5386     5386 
    5389     5390     5387     5386     5386     5386     5386     5387 
    5386     5386     5387     5386     5386     5390     5390     5387 
    5387     5389     5386     5386     5386     5385     5383     5387 
    5389     5387     5390     5390     5387     5386     5390     5390 
    5389     5387     5386     5386     5389     5389     5387     5387 
    5387     5386     5387     5389     5389     5386     5386     5387 
    5386     5386     5389     5386     5383     5386     5387     5386 
    5387     5387     5387     5387     5389     5387     5385     5385 
    5387     5389     5386     5389     5390     5387     5387     5387 
    5386     5385     5387     5387     5386     5387     5387     5385 
    5385     5389     5389     5387     5386     5387     5387     5386 
    5387     5387     5390     5390     5389     5387     5386     5386 
    5387     5386     5385     5386     5387     5386     5386     5386 
    5386     5386     5387     5389     5389     5386     5385     5386 
    5386     5385     5386     5386     5387     5389     5386     5386 
    5390     5390     5387     5385     5386     5386     5385     5389 
    5390     5387     5387     5387     5389     5389     5387     5385 
    5385     5386     5386     5386     5387     5386     5386     5387 
    5387     5386     5385     5387     5390     5389     5386     5385 
    5386     5390     5390     5386     5385     5386     5386     5385 
    5386     5386     5389     5389     5387     5387     5387     5386 
    5387     5389     5390     5389     5387     5389     5387     5383 
    5383     5386     5387     5389     5389     5386     5385     5389 
    5391     5391     5387     5387     5389     5387     5385     5386 
    5385     5386     5389     5389     5389     5386     5386     5390 
    5389     5387     5387     5386     5386     5387     5386     5387 
    5387     5386     5389     5387     5386     5387     5389     5389 
    5387     5387     5387     5387     5387     5387     5386     5387 
    5387     5385     5386     5389     5391     5391     5386     5385 
    5387     5387     5387     5389     5387     5386     5386     5387 
    5386     5385     5386     5387     5387     5389     5389     5389 
    5390     5387     5386     5387     5390     5390     5390     5389 
    5387     5387     5385     5383     5383     5383     5387     5389 
    5387     5387     5390     5393     5391     5389     5387     5387 
    5387     5386     5386     5386     5385     5385     5386     5385 
    5385     5387     5386     5385     5385     5383     5385     5389 
    5387     5386     5389     5390     5389     5385     5386     5390 
    5389     5385     5385     5386     5386     5385     5385     5386 
    5387     5386     5386     5387     5390     5389     5387     5389 
    5389     5389     5389     5387     5389     5389     5387     5387 
    5387     5386     5385     5387     5387     5387     5389     5389 
    5390     5390     5389     5387     5387     5389     5389     5387 
    5386     5386     5386     5387     5385     5383     5385     5386 
    5387     5387     5387     5387     5386     5386     5389     5390 
    5387     5386     5386     5385     5386     5387     5386     5386 
    5389     5387     5386     5386     5386     5385     5385     5386 
    5386     5386     5389     5390     5387     5389     5391     5387 
    5385     5387     5389     5389     5389     5387     5386     5386 
    5385     5387     5387     5386     5386     5387     5387     5389 
    5389     5386     5386     5386     5387     5389     5389     5387 
    5386     5387     5386     5386     5387     5386     5386     5389 
    5387     5386     5389     5387     5387     5389     5390     5387 
    5385     5386     5387     5386     5385     5383     5385     5386 
    5387     5389     5386     5383     5385     5387     5386     5387 
    5386     5385     5387     5389     5386     5385     5387     5390 
    5385     5383     5386     5387     5387     5387     5385     5385 
    5387     5386     5385     5385     5386     5387     5387     5387 
    5387     5386     5389     5389     5386     5386     5385     5386 
    5389     5389     5386     5385     5386     5389     5389     5386 
    5387     5389     5389     5387     5387     5387     5387     5385 
    5386     5387     5386     5387     5387     5385     5387     5390 
    5387     5387     5389     5387     5386     5387     5390     5386 
    5385     5387     5387     5387     5386     5385     5386     5386 
    5385     5386     5386     5387     5387     5383     5385     5386 
    5383     5385     5385     5382     5378     5375     5375     5375 
    5368     5362     5362     5363     5363     5360     5354     5341 
    5327     5319     5319     5332     5355     5381     5410     5444 
    5474     5483     5478     5466     5448     5422     5393     5367 
    5355     5351     5332     5283     5211     5139     5092     5069 
    5073     5111     5186     5297     5417     5522     5607     5651 
    5626     5553     5485     5467     5474     5463     5456     5474 
    5478     5441     5385     5355     5351     5341     5343     5378 
    5441     5510     5556     5541     5471     5414     5454     5578 
    5697     5755     5749     5688     5586     5487     5412     5282 
    5055     4877     4873     4993     5130     5217     5232     5193 
    5165     5205     5269     5265     5219     5254     5435     5691 
    5884     5940     5880     5791     5761     5806     5823     5738 
    5572     5378     5206     5109     5062     4980     4847     4768 
    4810     4900     4918     4822     4684     4622     4718     4947 
    5254     5617     6010     6355     6588     6708     6716     6569 
    6259     5900     5660     5567     5479     5298     5065     4857 
    4766     4873     5117     5335     5435     5429     5340     5154 
    4885     4596     4361     4239     4279     4500     4855     5244 
    5616     6002     6369     6566     6521     6305     5994     5622 
    5251     4942     4725     4626     4661     4839     5184     5648 
    6111     6444     6548     6440     6234     5953     5549     5043 
    4492     4002     3774     3920     4302     4706     5042     5329 
    5589     5825     6076     6365     6582     6581     6403     6199 
    6007     5823     5668     5501     5242     4900     4579     4383 
    4367     4545     4876     5267     5680     6081     6327     6278 
    5988     5670     5452     5263     5007     4731     4563     4619 
    4895     5211     5387     5466     5637     5919     6085     5992 
    5715     5359     4976     4680     4607     4741     4942     5138 
    5377     5711     6062     6276     6318     6307     6312     6261 
    6065     5707     5205     4631     4102     3720     3593     3802 
    4320     4969     5537     5923     6143     6216     6176     6115 
    6126     6230     6342     6278     5946     5441     4953     4585 
    4325     4147     4062     4147     4523     5198     5960     6517 
    6664     6417     5983     5589     5375     5317     5270     5198 
    5219     5347     5418     5335     5189     5103     5058     4981 
    4858     4789     4891     5142     5427     5688     5952     6164 
    6137     5809     5400     5098     4872     4684     4687     5007 
    5506     5887     6000     5925     5846     5854     5840     5692 
    5491     5374     5331     5250     5116     5012     4989     5071 
    5283     5566     5790     5871     5817     5691     5517     5285 
    4986     4658     4468     4598     4973     5304     5414     5420 
    5509     5706     5923     6057     6065     6023     6008     5976 
    5842     5599     5317     5076     4891     4723     4599     4598 
    4714     4874     5035     5146     5132     5038     5059     5306 
    5640     5927     6214     6527     6764     6758     6417     5850 
    5262     4796     4523     4446     4545     4812     5130     5294 
    5267     5211     5240     5302     5281     5190     5155     5217 
    5282     5270     5275     5448     5768     6062     6169     6054 
    5752     5246     4565     3912     3564     3692     4224     4914 
    5607     6303     6963     7399     7439     7123     6644     6165 
    5713     5252     4810     4433     4155     4040     4125     4357 
    4672     5031     5385     5718     6039     6257     6205     5869 
    5456     5173     5031     4950     4891     4881     5015     5319 
    5660     5890     5969     5987     6070     6218     6243     5989 
    5479     4835     4233     3901     3973     4411     5115     5915 
    6600     7009     7049     6724     6165     5547     4947     4375 
    3915     3716     3848     4207     4596     4961     5445     6091 
    6674     6928     6760     6303     5803     5429     5144     4849 
    4592     4538     4754     5124     5429     5540     5518     5490 
    5497     5476     5398     5316     5304     5418     5620     5748 
    5701     5541     5402     5389     5451     5493     5544     5611 
    5566     5339     5081     5000     5147     5427     5655     5653 
    5481     5366     5358     5298     5130     4965     4888     4942 
    5177     5486     5648     5595     5404     5148     4891     4726 
    4765     5019     5427     5914     6318     6420     6207     5892 
    5699     5726     5886     5890     5564     5070     4683     4521 
    4530     4612     4712     4826     5008     5296     5536     5556 
    5437     5424     5582     5761     5836     5809     5780     5861 
    6026     6123     6027     5749     5406     5090     4873     4834 
    4923     4949     4853     4789     4823     4839     4801     4851 
    5161     5768     6448     6833     6748     6358     5946     5682 
    5598     5601     5566     5448     5270     5035     4722     4356 
    4094     4113     4418     4911     5485     5969     6219     6265 
    6204     6083     5903     5687     5489     5292     4992     4600 
    4324     4328     4580     4959     5406     5931     6523     7064 
    7335     7176     6655     6015     5449     4924     4332     3790 
    3555     3701     4078     4553     5100     5634     5956     5941 
    5664     5371     5356     5674     6029     6100     5844     5479 
    5247     5208     5285     5317     5158     4938     4955     5244 
    5556     5691     5672     5622     5595     5590     5591     5537 
    5378     5200     5152     5256     5370     5416     5443     5451 
    5386     5275     5184     5124     5100     5155     5304     5526 
    5871     6318     6642     6674     6473     6142     5749     5352 
    4977     4664     4471     4384     4374     4442     4526     4525 
    4461     4471     4685     5150     5788     6399     6766     6853 
    6760     6543     6193     5738     5262     4846     4534     4359 
    4352     4492     4669     4814     5039     5525     6269     7001 
    7315     7037     6403     5814     5458     5228     4970     4715 
    4638     4810     5065     5150     4916     4425     3935     3740 
    3950     4430     5003     5629     6322     7078     7846     8414 
    8530     8129     7373     6532     5830     5328     4938     4557 
    4194     3958     3927     4108     4473     4927     5297     5528 
    5759     6089     6435     6640     6652     6548     6408     6239 
    6029     5751     5385     4969     4558     4212     3977     3817 
    3591     3210     2737     2334     2134     2170     2413     2889 
    3657     4738     6004     7144     7896     8252     8307     8059 
    7446     6492     5340     4163     3083     2150     1363      785 
     572      826     1520     2531     3716     4974     6191     7200 
    7854     8043     7757     7080     6089     4899     3802     3163 
    3099     3321     3403     3144     2616     2106     1960     2355 
    3314     4803     6631     8413     9821    10862    11693    12258 
   12317    11766    10759     9560     8336     7214     6345     5790 
    5616     5883     6501     7377     8460     9508    10152    10261 
   10033     9701     9259     8511     7321     5798     4203     2659 
    1102     -427    -1648    -2197    -1912     -884      710     2664 
    4638     6245     7339     8085     8750     9398     9751     9497 
    8552     6945     4637     1652    -1628    -4491    -6226    -6430 
   -5028    -2181     1640     5714     9444    12448    14536    15784 
   16249    15809    14521    12764    10949     9312     7809     6313 
    5005     4198     3816     3488     2990     2393     1891     1597 
    1460     1205      568     -337    -1134    -1471    -1171     -360 
     610     1474     2261     3234     4614     6399     8414    10405 
   12085    13097    13085    11975    10118     7956     5670     3261 
     882    -1158    -2686    -3723    -4117    -3454    -1534     1367 
    4693     7898    10621    12718    14183    14985    15018    14304 
   12965    10997     8371     5350     2475      283     -911    -1032 
    -309      734     1611     2184     2674     3531     5042     7015 
    9105    11207    13259    15079    16510    17389    17610    17250 
   16297    14565    11905     8318     4047     -484    -4822    -8383 
  -10563   -11128   -10291    -8374    -5640    -2451      789     3836 
    6565     8889    10774    12278    13505    14473    15087    15174 
   14505    13026    11022     8957     7246     6222     5975     6265 
    6673     6716     5964     4180     1479    -1652    -4526    -6399 
   -6705    -5422    -3042     -202     2639     5337     7938    10404 
   12514    13949    14534    14262    13055    10787     7651     4249 
    1215    -1154    -2733    -3393    -3165    -2269     -877      924 
    2963     4982     6816     8309     9256     9610     9531     9147 
    8475     7516     6324     5062     4031     3492     3465     3712 
    3987     4306     4903     5910     7074     7901     8075     7646 
    6903     6075     5198     4287     3420     2779     2662     3202 
    4089     4807     5120     5270     5706     6547     7420     7828 
    7588     7040     6840     7488     8877    10295    10939    10415 
    8773     6397     3811     1525       -8     -472      110     1317 
    2664     3964     5202     6305     7227     8036     8880     9813 
   10646    11110    11083    10613     9803     8529     6438     3381 
    -301    -3793    -6138    -6833    -6042    -4182    -1516     1810 
    5490     8954    11618    13220    13833    13524    12225     9958 
    6993     3831     1119     -550     -842      199     2177     4515 
    6675     8235     8973     8980     8568     8002     7419     6943 
    6616     6266     5633     4677     3681     2976     2713     2897 
    3528     4644     6237     8090     9778    10917    11252    10600 
    8970     6633     4082     1971      757      395      614     1368 
    2884     5351     8602    11904    14215    14867    13883    11684 
    8754     5479     2184     -773    -3046    -4361    -4716    -4477 
   -3913    -2844     -958     1783     4992     8075    10596    12461 
   13807    14659    14751    13807    11799     8888     5433     1979 
   -1084    -3643    -5475    -6164    -5472    -3516     -618     2787 
    6199     9139    11333    12785    13641    13977    13751    12914 
   11437     9355     7013     4961     3496     2563     2034     1890 
    2178     2855     3730     4633     5508     6312     6979     7445 
    7581     7194     6262     5032     3762     2581     1588      916 
     720     1224     2581     4496     6223     7182     7398     7229 
    6897     6438     5856     5112     4187     3258     2629     2497 
    2910     3890     5398     7231     9153    10957    12317    12869 
   12465    11165     9093     6492     3816     1497     -309    -1575 
   -2151    -1887     -819      865     2867     4803     6509     8230 
   10211    12206    13701    14327    13941    12573    10419     7827 
    5182     2673      349    -1701    -3311    -4198    -4047    -2776 
    -600     2143     5146     8020    10245    11475    11830    11776 
   11657    11321    10416     8839     6744     4382     2018      -89 
   -1595    -2135    -1594     -328     1073     2343     3591     4847 
    5938     6758     7391     8008     8753     9657    10536    11020 
   10829     9930     8399     6444     4518     3107     2411     2242 
    2246     2204     2092     2016     2199     2844     3888     5009 
    5925     6462     6563     6428     6462     6953     7855     8769 
    9130     8652     7635     6669     6127     6030     6192     6493 
    6933     7369     7388     6683     5428     4114     3118     2583 
    2612     3277     4463     5841     7007     7680     7797     7385 
    6363     4595     2268       71    -1255    -1476     -864      195 
    1528     3144     5113     7474    10064    12471    14215    14881 
   14224    12330     9582     6369     2948     -313    -2894    -4392 
   -4634    -3726    -2064      -33     2228     4669     7160     9567 
   11692    13219    13937    13869    13138    11780     9765     7217 
    4494     2041      187     -920    -1205     -546     1093     3393 
    5701     7454     8442     8710     8365     7512     6370     5319 
    4766     4908     5543     6300     6967     7420     7526     7234 
    6717     6257     6007     5875     5572     4810     3558     2137 
     966      267       -5       51      430     1198     2484     4355 
    6588     8683    10287    11412    12101    12193    11577    10335 
    8588     6454     4060     1529     -905    -2790    -3673    -3422 
   -2138       79     3046     6349     9406    11686    12887    13042 
   12522    11686    10504     8764     6546     4245     2288      900 
      63     -353     -411      -29      918     2451     4456     6751 
    9154    11408    13099    13821    13463    12260    10723     9263 
    7800     5984     3774     1572     -125    -1135    -1591    -1661 
   -1312     -407     1061     2994     5340     7958    10397    11993 
   12247    11118     8953     6289     3802     2103     1503     1988 
    3288     4930     6365     7188     7311     6956     6426     5908 
    5481     5105     4710     4334     4068     3916     3773     3553 
    3343     3377     3816     4530     5189     5591     5873     6284 
    6818     7168     7032     6390     5476     4569     3792     3100 
    2523     2203     2249     2749     3786     5269     6929     8484 
    9674    10265    10227     9806     9296     8799     8283     7686 
    6874     5674     4078     2344      896      106      110      799 
    2003     3612     5445     7164     8476     9289     9624     9504 
    8953     8104     7159     6222     5240     4087     2702     1229 
     -27     -789     -891     -248     1134     3091     5327     7557 
    9509    10879    11457    11308    10747    10065     9316     8384 
    7152     5622     3977     2451     1185      205     -434     -571 
     -76     1036     2668     4666     6833     8903    10531    11357 
