Origin Time       2026/01/15 07:13:00
Lat.              42.7
Long.             145.4
Depth. (km)       30
Mag.              5.7
Station Code      HKD066
Station Lat.      43.6619
Station Long.     145.1307
Station Height(m) 3
Record Time       2026/01/15 07:13:35
Sampling Freq(Hz) 100Hz
Duration Time(s)  132
Dir.              E-W
Scale Factor      7845(gal)/8223790
Max. Acc. (gal)   16.555
Last Correction   2026/01/15 07:13:35
Memo.             
[...]
    5003     4990     5032     5066     5050     5030     5051     5088 
    5092     5078     5089     5117     5097     5027     4999     5054 
    5105     5105     5107     5123     5117     5092     5082     5066 
    5011     5026     5132     5144     5013     4930     5017     5147 
    5128     5019     4980     5004     5019     5046     5109     5151 
    5135     5111     5103     5111     5116     5063     4978     4958 
    4981     4981     4996     5059     5138     5147     5107     5131 
    5177     5124     5003     4874     4814     4887     4989     5051 
    5117     5170     5211     5219     5131     5055     5063     5076 
    5042     4976     4981     5059     5027     4893     4842     4926 
    5088     5231     5297     5296     5224     5148     5112     5004 
    4862     4905     5128     5274     5219     5144     5179     5161 
    5034     4961     4965     4982     5017     5059     5069     5035 
    4947     4796     4684     4787     5051     5277     5460     5606 
    5532     5251     5003     4878     4857     4947     5119     5282 
    5323     5206     5065     5011     4993     4974     5017     5082 
    5090     5108     5186     5239     5216     5146     5085     5040 
    5005     5028     5036     4901     4785     4851     4885     4754 
    4722     4882     5026     5071     5088     5044     4916     4818 
    4861     5004     5139     5217     5246     5262     5267     5162 
    4928     4756     4769     4864     5003     5244     5421     5323 
    5094     4970     4827     4550     4386     4502     4735     4932 
    5065     5148     5209     5232     5248     5310     5358     5335 
    5316     5337     5300     5132     4942     4854     4897     5031 
    5119     5032     4849     4729     4708     4772     4915     5046 
    5100     5185     5324     5416     5520     5653     5644     5493 
    5316     5120     4934     4827     4800     4803     4846     4989 
    5163     5251     5256     5235     5211     5181     5158     5205 
    5278     5251     5158     5049     4839     4595     4531     4707 
    4989     5256     5491     5687     5740     5570     5255     4946 
    4699     4523     4460     4472     4529     4708     4949     5020 
    4954     4949     4951     4899     4970     5192     5364     5381 
    5312     5294     5340     5316     5179     5039     4947     4851 
    4815     4916     5036     5008     4796     4572     4510     4575 
    4716     4935     5154     5298     5381     5448     5502     5516 
    5555     5622     5549     5270     4908     4577     4357     4330 
    4473     4696     5022     5414     5611     5535     5413     5339 
    5194     4974     4783     4626     4426     4229     4203     4317 
    4441     4654     5008     5341     5530     5625     5736     5848 
    5823     5661     5524     5427     5246     5054     5061     5247 
    5466     5718     5967     5989     5694     5232     4785     4494 
    4457     4612     4826     5039     5089     4823     4507     4494 
    4706     4919     5076     5232     5443     5555     5339     4920 
    4638     4572     4621     4764     4996     5224     5289     5161 
    5070     5163     5270     5229     5077     4900     4760     4639 
    4494     4386     4378     4357     4283     4383     4745     5098 
    5333     5620     5917     6031     6002     5954     5929     5950 
    6015     6019     5915     5718     5358     4849     4433     4249 
    4252     4380     4521     4552     4494     4425     4375     4342 
    4409     4672     4976     5094     5063     5008     4961     4918 
    4882     4942     5108     5166     5031     4909     4888     4816 
    4673     4633     4766     5015     5316     5598     5807     5933 
    5950     5910     5941     6070     6176     6180     6077     5837 
    5497     5178     4833     4375     4054     4108     4375     4617 
    4801     4974     5134     5197     5101     4953     4938     5084 
    5236     5243     5112     4989     4907     4822     4820     4916 
    4957     4850     4668     4534     4440     4321     4313     4457 
    4527     4496     4568     4753     4977     5270     5595     5848 
    6018     6146     6199     6129     6000     5881     5687     5370 
    5026     4699     4376     4153     4158     4376     4702     5058 
    5425     5751     5933     5921     5752     5540     5366     5119 
    4739     4376     4104     3874     3785     3996     4448     4912 
    5228     5348     5323     5254     5179     5127     5163     5282 
    5445     5644     5799     5834     5757     5571     5270     4896 
    4584     4494     4598     4704     4742     4760     4738     4666 
    4668     4826     5143     5597     5994     6096     5991     5846 
    5574     5140     4754     4579     4556     4556     4538     4472 
    4376     4433     4729     5166     5715     6223     6353     6093 
    5726     5348     4942     4606     4374     4187     4106     4198 
    4372     4523     4645     4708     4718     4789     5000     5282 
    5456     5408     5198     4954     4849     4981     5170     5238 
    5274     5377     5440     5400     5333     5305     5305     5296 
    5277     5304     5382     5498     5667     5836     5850     5594 
    5173     4797     4433     3960     3546     3450     3667     3993 
    4272     4488     4580     4486     4333     4284     4401     4676 
    4986     5246     5481     5678     5841     6026     6203     6299 
    6326     6304     6192     5989     5792     5675     5545     5292 
    4984     4707     4449     4236     4089     4037     4149     4355 
    4429     4315     4287     4622     5240     5856     6292     6529 
    6608     6535     6262     5791     5301     4938     4619     4270 
    3920     3576     3303     3180     3199     3389     3823     4448 
    5044     5427     5620     5711     5748     5784     5805     5784 
    5809     5942     6084     6112     5999     5755     5471     5343 
    5414     5513     5549     5589     5710     5911     6088     6111 
    5929     5599     5186     4698     4210     3856     3622     3410 
    3179     2937     2798     2849     3030     3373     3915     4445 
    4806     5049     5244     5471     5765     6065     6318     6451 
    6332     5972     5557     5251     5088     5042     5065     5107 
    5136     5139     5124     5147     5239     5381     5543     5686 
    5756     5765     5815     5946     6081     6103     5958     5753 
    5595     5416     5124     4792     4521     4355     4303     4313 
    4315     4302     4286     4276     4268     4220     4114     4045 
    4132     4349     4517     4557     4592     4692     4833     5116 
    5618     6116     6361     6430     6459     6409     6214     5875 
    5489     5194     5011     4873     4835     4989     5205     5238 
    5076     4934     4927     4976     4997     5027     5081     5043 
    4828     4561     4415     4390     4467     4779     5355     5976 
    6407     6590     6539     6249     5751     5085     4380     3863 
    3589     3391     3190     3105     3233     3511     3816     4122 
    4534     5069     5606     6025     6187     6023     5667     5247 
    4881     4801     5074     5447     5718     5853     5825     5634 
    5375     5206     5215     5317     5429     5579     5772     5938 
    6007     5979     5957     5980     5937     5751     5462     5142 
    4870     4677     4463     4187     3948     3793     3743     3893 
    4236     4561     4684     4634     4549     4558     4712     4862 
    4878     4874     4912     4881     4747     4573     4387     4226 
    4139     4132     4267     4649     5209     5730     6106     6365 
    6550     6735     6912     6929     6700     6261     5728     5267 
    4918     4648     4563     4680     4812     4853     4849     4797 
    4657     4517     4546     4789     5140     5503     5852     6114 
    6149     5919     5570     5225     4854     4449     4075     3731 
    3468     3400     3468     3543     3647     3807     3973     4172 
    4502     4980     5605     6301     6766     6821     6673     6488 
    6268     6080     5960     5860     5769     5640     5362     4918 
    4387     3923     3711     3859     4301     4850     5346     5706 
    5898     5927     5826     5513     4931     4315     3951     3877 
    4067     4502     5013     5408     5602     5535     5219     4853 
    4584     4396     4329     4450     4676     4854     4950     4977 
    4904     4737     4542     4407     4448     4669     4982     5385 
    5844     6153     6173     5980     5730     5513     5293     5032 
    4819     4741     4730     4676     4588     4595     4698     4750 
    4797     5022     5324     5460     5397     5341     5444     5571 
    5632     5775     5977     6053     5967     5744     5412     5092 
    4889     4823     4855     4918     4941     4865     4747     4742 
    4824     4816     4702     4603     4565     4619     4773     4878 
    4846     4838     4957     5169     5499     5896     6200     6347 
    6340     6134     5670     5011     4337     3797     3507     3530 
    3744     3991     4249     4558     4927     5227     5328     5385 
    5586     5837     6014     6165     6358     6532     6550     6372 
    6080     5695     5148     4484     3856     3335     2994     3015 
    3447     4068     4611     4965     5113     5062     4936     4882 
    4927     5009     5031     4972     4972     5084     5132     4978 
    4675     4333     4063     4005     4214     4568     4951     5346 
    5653     5764     5761     5764     5765     5740     5732     5798 
    5908     5973     5935     5800     5661     5587     5509     5443 
    5532     5729     5838     5794     5634     5370     5001     4565 
    4120     3758     3586     3580     3570     3549     3681     4002 
    4428     4928     5482     6000     6374     6524     6457     6280 
    6058     5810     5598     5409     5178     4949     4801     4698 
    4592     4554     4658     4843     4928     4851     4787     4835 
    4897     4935     5001     5107     5238     5377     5528     5736 
    5926     5887     5584     5262     5077     5043     5166     5297 
    5297     5285     5309     5235     5055     4919     4892     4800 
    4463     3956     3450     3034     2813     2906     3385     4185 
    5012     5579     5876     6045     6151     6262     6469     6717 
    6794     6596     6255     5904     5540     5181     4857     4507 
    4117     3777     3573     3511     3514     3535     3649     3892 
    4174     4472     4885     5414     5856     6064     6111     6011 
    5719     5417     5374     5587     5844     6037     6195     6266 
    6084     5557     4914     4482     4284     4213     4325     4662 
    5092     5482     5833     6096     6111     5832     5329     4695 
    4141     3882     3917     4136     4525     5100     5729     6192 
    6453     6575     6531     6300     5971     5660     5449     5320 
    5190     5004     4687     4248     3851     3631     3620     3792 
    3971     4010     3994     4035     4140     4288     4415     4445 
    4452     4602     4874     5065     5076     4873     4436     3944 
    3647     3616     3775     4016     4301     4644     5054     5526 
    5914     6069     6088     6127     6265     6493     6660     6602 
    6257     5629     4830     4090     3555     3246     3252     3645 
    4264     4980     5807     6606     7148     7402     7437     7354 
    7360     7534     7720     7778     7696     7398     6816     6142 
    5711     5687     5968     6308     6559     6729     6858     6975 
    7044     7002     6878     6662     6264     5775     5472     5497 
    5725     5914     6031     6241     6519     6740     6979     7261 
    7464     7522     7384     6953     6304     5665     5113     4569 
    4010     3404     2686     1860      949       18     -749    -1212 
   -1408    -1449    -1336    -1047     -635     -172      210      367 
     305      124      -98     -317     -618    -1113    -1728    -2216 
   -2346    -2016    -1142      396     2492     4764     6755     8081 
    8691     8876     8920     8965     9051     9234     9601    10077 
   10471    10724    10862    10870    10700    10380    10085    10012 
   10211    10605    11072    11496    11832    12051    12102    12002 
   11774    11438    11020    10308     9042     7398     5890     4880 
    4390     4221     4143     3929     3218     1649     -649    -3052 
   -4968    -6122    -6538    -6424    -5935    -5151    -4224    -3252 
   -2270    -1421     -824     -483     -346     -309     -291     -218 
     166     1071     2457     4198     6110     8010     9707    10708 
   10602     9640     8364     7063     5783     4511     3345     2512 
    2184     2436     3451     5449     8270    11292    13927    15997 
   17604    18816    19556    19678    19152    18029    16330    14173 
   11757     9277     6961     4901     3086     1657      927     1240 
    2632     4591     6332     7138     6570     4745     2295       75 
   -1209    -1356     -630      530     1660     2454     2870     2920 
    2515     1606      319    -1108    -2380    -3188    -3365    -3011 
   -2531    -2371    -2643    -3194    -3862    -4386    -4283    -3153 
   -1096     1582     4760     8241    11747    15175    18319    20746 
   22135    22416    21648    20017    17825    15295    12561     9784 
    7063     4445     2133      211    -1459    -2774    -3553    -3867 
   -3696    -3049    -1985     -220     2385     5354     8060    10068 
   11124    11292    10935    10377     9892     9722     9755     9531 
    8683     7294     5644     3812     1993      618     -178     -587 
    -680     -387      317     1408     2689     3731     4222     4178 
    3739     3161     2802     2722     2721     2855     3356     4267 
    5406     6438     7150     7622     7875     7776     7398     7107 
    7129     7423     7971     8536     8482     7581     6415     5541 
    5062     4912     4969     5094     5251     5462     5742     6280 
    7272     8398     9031     8980     8411     7508     6536     5726 
    5150     4866     4874     5066     5304     5368     5062     4530 
    4102     3838     3645     3562     3558     3474     3196     2716 
    2243     2145     2643     3759     5306     6832     7901     8375 
    8326     7912     7308     6702     6143     5454     4556     3672 
    2968     2381     1904     1717     1993     2758     3742     4534 
    4980     5058     4669     3996     3531     3496     3709     4016 
    4430     4953     5451     5702     5479     4822     4075     3511 
    3211     3127     3076     2938     2803     2840     3113     3507 
    3839     4009     3943     3478     2528     1355      496      386 
    1304     3330     5913     8089     9393     9972    10064     9846 
    9535     9313     9185     8931     8440     7869     7385     7064 
    6903     6669     6021     4795     3082     1269     -114     -739 
    -503      630     2542     4900     7288     9313    10655    11134 
   10714     9528     7927     6350     5038     3937     2995     2457 
    2552     3132     3873     4477     4702     4534     4268     4275 
    4762     5660     6744     7862     8839     9375     9324     8749 
    7712     6475     5471     4842     4419     4054     3626     2965 
    2026     1046      391      270      650     1316     2042     2693 
    3142     3424     3765     4315     5161     6365     7755     8970 
    9763    10006     9674     8958     8098     7040     5671     4120 
    2490      911      -64       82     1196     2755     4371     5832 
    7092     8158     8854     8849     7866     5996     3848     2111 
    1154     1127     1992     3338     4445     4583     3420     1404 
    -427    -1167     -619      749     2349     3748     4572     4626 
    4137     3673     3775     4675     6327     8522    10995    13522 
   15777    17296    17679    16818    14905    12309     9440     6601 
    3974     1753      152     -648     -643      -36     1017     2398 
    3762     4731     5247     5487     5555     5456     5279     5190 
    5269     5387     5273     4804     4117     3429     2943     2839 
    3167     3798     4514     5124     5559     5891     6239     6596 
    6899     7128     7172     6984     6758     6651     6636     6597 
    6335     5722     4865     3963     3172     2587     2215     1985 
    1900     2033     2371     2961     3940     5232     6444     7114 
    6967     5971     4348     2554     1071      163     -117      272 
    1345     2924     4656     6200     7461     8584     9648    10478 
   10750    10189     8885     7268     5724     4530     3878     3666 
    3576     3404     3186     3088     3246     3605     3919     3975 
    3742     3300     2882     2830     3280     4071     5044     6178 
    7400     8557     9589    10577    11584    12586    13481    14106 
   14238    13595    12097     9987     7574     5071     2727      776 
    -658    -1521    -1838    -1822    -1806    -2096    -2717    -3219 
   -2964    -1695      310     2608     4760     6339     7156     7415 
    7501     7597     7528     7038     6079     4843     3665     2851 
    2636     3045     3801     4561     5131     5529     5902     6257 
    6489     6535     6377     6164     6193     6646     7352     7767 
    7365     6091     4317     2552     1321      984     1520     2585 
    3778     4816     5489     5722     5752     5876     6107     6282 
    6362     6436     6551     6717     7010     7449     7956     8505 
    8959     9107     8930     8468     7774     7068     6454     5803 
    5119     4584     4394     4581     4865     4893     4575     3977 
    3229     2612     2454     2840     3565     4278     4633     4440 
    3700     2524     1243      359      182      656     1578     2735 
    3778     4278     3973     2928     1544      334     -336     -216 
     741     2187     3578     4557     5026     5065     4864     4725 
    4876     5216     5490     5622     5663     5699     5867     6183 
    6536     6890     7296     7884     8872    10288    11665    12258 
   11581     9657     6948     4151     1991     1026     1390     2631 
    3929     4645     4730     4540     4249     3906     3808     4229 
    5143     6421     7923     9404    10598    11303    11373    10697 
    9231     7207     5192     3645     2617     2014     1794     1903 
    2355     3195     4337     5589     6678     7276     7265     6949 
    6789     6975     7404     7935     8417     8561     8074     6922 
    5383     3811     2367     1057      -58     -881    -1444    -1755 
   -1701    -1198     -288      930     2394     4105     6022     8016 
    9909    11457    12375    12432    11546     9837     7608     5163 
    2705      476    -1093    -1634    -1143      203     2161     4255 
    5960     7007     7481     7750     8131     8683     9352    10021 
   10492    10543    10076     9170     7978     6640     5297     4137 
    3383     3113     3225     3537     3905     4332     4861     5413 
    5925     6443     6874     6937     6396     5169     3439     1678 
