Origin Time       2026/01/15 07:13:00
Lat.              42.7
Long.             145.4
Depth. (km)       30
Mag.              5.7
Station Code      HKD059
Station Lat.      43.8574
Station Long.     144.4609
Station Height(m) 23
Record Time       2026/01/15 07:13:55
Sampling Freq(Hz) 100Hz
Duration Time(s)  73
Dir.              E-W
Scale Factor      7845(gal)/8223790
Max. Acc. (gal)   3.685
Last Correction   2026/01/15 07:13:56
Memo.             
[...]
    2948     3006     2922     2731     2513     2347     2261     2239 
    2259     2311     2370     2408     2443     2500     2539     2512 
    2448     2411     2412     2416     2398     2376     2362     2363 
    2382     2403     2415     2413     2397     2394     2427     2479 
    2489     2394     2227     2091     2050     2072     2110     2195 
    2367     2579     2725     2747     2681     2610     2581     2577 
    2587     2655     2791     2889     2845     2686     2506     2366 
    2273     2245     2339     2554     2781     2876     2781     2556 
    2309     2101     1946     1876     1938     2124     2384     2633 
    2762     2695     2471     2207     2027     1985     2079     2286 
    2544     2774     2907     2893     2727     2500     2335     2276 
    2288     2335     2401     2475     2540     2573     2573     2562 
    2570     2601     2617     2583     2525     2488     2461     2412 
    2357     2340     2354     2369     2390     2473     2655     2891 
    3060     3048     2830     2512     2239     2080     2014     2019 
    2085     2187     2261     2247     2147     2041     1992     1999 
    2069     2231     2482     2768     2983     3056     2995     2829 
    2590     2330     2120     2037     2111     2289     2463     2586 
    2712     2828     2832     2682     2471     2344     2336     2377 
    2431     2523     2654     2771     2802     2745     2674     2632 
    2587     2508     2419     2347     2307     2305     2328     2366 
    2415     2454     2474     2474     2482     2535     2625     2710 
    2759     2760     2700     2555     2343     2165     2101     2119 
    2130     2088     2004     1930     1942     2074     2282     2488 
    2623     2662     2606     2474     2324     2253     2317     2488 
    2652     2731     2717     2612     2425     2212     2062     2043 
    2141     2285     2461     2673     2849     2866     2705     2515 
    2436     2505     2682     2867     2953     2891     2691     2405 
    2119     1918     1827     1868     2066     2377     2687     2890 
    2922     2783     2542     2290     2112     2072     2192     2394 
    2565     2639     2609     2528     2452     2404     2392     2403 
    2404     2386     2366     2397     2536     2745     2883     2847 
    2678     2457     2242     2096     2073     2173     2346     2542 
    2725     2863     2907     2836     2678     2519     2421     2367 
    2334     2353     2448     2585     2666     2656     2647     2690 
    2695     2570     2377     2246     2227     2293     2397     2494 
    2555     2579     2587     2570     2498     2408     2327     2193 
    1993     1860     1939     2220     2567     2853     3010     3007 
    2829     2511     2182     1989     1993     2151     2354     2524 
    2646     2673     2554     2326     2126     2072     2200     2471 
    2762     2934     2940     2781     2488     2137     1837     1717 
    1836     2095     2347     2543     2679     2728     2700     2689 
    2764     2893     2982     2968     2839     2641     2455     2311 
    2220     2218     2285     2349     2394     2446     2489     2490 
    2450     2398     2376     2392     2415     2425     2463     2540 
    2604     2605     2552     2500     2494     2506     2469     2385 
    2315     2268     2205     2166     2243     2459     2710     2856 
    2852     2785     2779     2864     2910     2786     2488     2100 
    1755     1599     1719     2083     2551     2941     3088     2887 
    2409     1883     1584     1690     2155     2754     3235     3433 
    3302     2921     2459     2100     1935     1965     2143     2400 
    2647     2776     2735     2601     2475     2370     2254     2135 
    2081     2141     2284     2446     2601     2748     2820     2713 
    2439     2127     1926     1906     2038     2253     2479     2677 
    2809     2832     2771     2706     2658     2620     2601     2589 
    2563     2508     2397     2241     2111     2091     2187     2344 
    2481     2546     2542     2451     2263     2058     1957     1996 
    2097     2197     2323     2482     2612     2667     2673     2704 
    2748     2710     2574     2438     2409     2512     2682     2844 
    2944     2922     2748     2482     2268     2204     2263     2371 
    2494     2597     2593     2447     2274     2227     2373     2667 
    2968     3148     3172     3061     2837     2567     2386     2396 
    2558     2751     2864     2859     2744     2560     2367     2222 
    2127     2031     1911     1813     1803     1890     2026     2131 
    2173     2189     2219     2265     2324     2393     2482     2555 
    2513     2353     2187     2120     2196     2419     2737     3040 
    3222     3250     3148     2974     2794     2646     2543     2473 
    2407     2326     2245     2204     2231     2320     2432     2511 
    2523     2454     2320     2203     2154     2158     2204     2286 
    2366     2401     2378     2316     2250     2223     2232     2246 
    2277     2347     2434     2474     2436     2342     2223     2118 
    2070     2093     2168     2273     2389     2475     2477     2407 
    2373     2450     2600     2728     2782     2808     2875     2965 
    3010     2983     2921     2848     2714     2486     2207     1996 
    1971     2143     2396     2570     2586     2473     2342     2331 
    2481     2733     2983     3094     2999     2785     2593     2498 
    2474     2466     2425     2342     2234     2106     1965     1861 
    1869     2035     2327     2628     2844     2936     2914     2802 
    2647     2525     2492     2497     2452     2334     2180     2038 
    1937     1903     1976     2176     2432     2623     2674     2601 
    2481     2403     2411     2505     2662     2839     2983     3010 
    2853     2535     2161     1858     1719     1768     1948     2164 
    2346     2465     2520     2543     2552     2550     2555     2600 
    2670     2714     2714     2697     2674     2620     2516     2350 
    2158     2010     1964     2045     2228     2455     2663     2785 
    2785     2691     2573     2494     2461     2432     2394     2359 
    2347     2362     2388     2428     2493     2566     2619     2639 
    2651     2640     2555     2397     2236     2155     2162     2218 
    2303     2396     2457     2470     2427     2355     2317     2330 
    2343     2346     2366     2430     2556     2724     2856     2916 
    2916     2870     2768     2606     2434     2338     2357     2454 
    2558     2620     2639     2600     2497     2378     2309     2331 
    2439     2581     2678     2659     2521     2332     2189     2147 
    2220     2378     2560     2700     2756     2728     2629     2506 
    2411     2380     2417     2490     2539     2513     2411     2273 
    2145     2073     2119     2295     2528     2724     2829     2802 
    2614     2312     2015     1850     1899     2154     2543     2951 
    3215     3222     2976     2581     2182     1908     1861     2081 
    2478     2889     3171     3257     3152     2926     2695     2570 
    2590     2705     2821     2867     2806     2627     2353     2070 
    1880     1837     1934     2124     2317     2443     2506     2546 
    2589     2623     2621     2577     2482     2335     2165     2033 
    1988     2022     2077     2133     2207     2336     2544     2786 
    2967     3030     2978     2847     2674     2492     2342     2281 
    2305     2331     2305     2280     2313     2389     2419     2332 
    2138     1887     1667     1572     1660     1939     2351     2755 
    3025     3107     3007     2779     2508     2282     2170     2207 
    2374     2610     2829     2957     2961     2821     2535     2207 
    1999     1979     2124     2386     2678     2875     2933     2897 
    2783     2578     2313     2045     1868     1869     2035     2280 
    2511     2700     2849     2926     2887     2731     2492     2220 
    1950     1732     1656     1784     2072     2432     2825     3200 
    3442     3458     3258     2911     2508     2118     1783     1572 
    1560     1750     2038     2292     2443     2481     2454     2471 
    2617     2857     3073     3171     3148     3051     2926     2785 
    2636     2521     2496     2586     2744     2855     2840     2693 
    2485     2303     2174     2088     2057     2093     2192     2316 
    2415     2492     2577     2660     2718     2741     2721     2612 
    2377     2064     1796     1686     1736     1890     2110     2370 
    2641     2905     3113     3204     3161     3018     2813     2563 
    2281     2018     1845     1831     1985     2223     2425     2489 
    2361     2083     1792     1607     1547     1560     1610     1707 
    1864     2038     2176     2297     2448     2640     2844     3025 
    3172     3288     3323     3211     2937     2569     2141     1633 
    1093      662      510      753     1417     2390     3434     4257 
    4638     4500     3946     3218     2608     2311     2301     2389 
    2407     2273     1992     1702     1641     1969     2616     3346 
    3919     4167     3994     3416     2610     1884     1529     1672 
    2182     2740     3042     2987     2668     2276     2019     2047 
    2361     2843     3300     3515     3391     3041     2656     2405 
    2396     2639     2970     3136     3019     2697     2332     2072 
    1987     2095     2357     2617     2673     2444     2010     1526 
    1178     1119     1343     1698     2058     2362     2516     2417 
    2088     1733     1613     1890     2540     3381     4182     4727 
    4872     4590     3960     3123     2312     1783     1641     1794 
    2039     2189     2169     2054     1941     1833     1706     1605 
    1594     1609     1460     1040      459      -17     -143      133 
     685     1304     1777     2004     2081     2249     2716     3472 
    4263     4750     4762     4375     3840     3445     3402     3785 
    4495     5242     5653     5459     4630     3381     2027      861 
      90     -160      178     1077     2347     3666     4656     4970 
    4406     3076     1466      162     -479     -452       16      654 
    1263     1707     1992     2312     2872     3677     4500     5024 
    5026     4500     3651     2725     1917     1390     1233     1401 
    1784     2296     2847     3283     3379     2957     2060     1026 
     344      351     1034     2064     2948     3295     3049     2455 
    1804     1343     1283     1686     2342     2899     3076     2837 
    2373     1944     1771     1966     2454     2995     3323     3283 
    2909     2408     2050     2004     2239     2567     2768     2732 
    2515     2295     2216     2295     2475     2700     2928     3123 
    3188     2970     2419     1713     1121      793      745      949 
    1331     1760     2062     2100     1930     1788     1884     2268 
    2878     3580     4124     4240     3854     3152     2416     1850 
    1575     1656     2066     2691     3362     3937     4361     4639 
    4747     4654     4378     4020     3693     3408     3145     2944 
    2821     2675     2367     1884     1363     1012      966     1231 
    1688     2150     2458     2554     2425     2088     1644     1269 
    1096     1143     1363     1694     2034     2288     2415     2442 
    2473     2601     2824     3063     3227     3281     3254     3164 
    3018     2929     3030     3307     3626     3865     3955     3834 
    3465     2903     2338     1954     1772     1683     1574     1350 
    1012      712      643      889     1374     1945     2454     2740 
    2670     2292     1836     1543     1518     1728     2092     2583 
    3181     3801     4311     4621     4656     4360     3788     3125 
    2555     2209     2120     2174     2204     2139     2018     1895 
    1821     1894     2200     2697     3188     3456     3407     3083 
    2532     1806     1081      673      812     1458     2358     3234 
    3848     4031     3723     3028     2189     1472     1023      858 
     955     1306     1846     2416     2820     2917     2740     2465 
    2203     1983     1906     2081     2466     2878     3144     3217 
    3179     3123     3068     3038     3103     3314     3589     3742 
    3647     3333     2848     2220     1540      969      639      562 
     656      835     1074     1368     1640     1799     1842     1825 
    1802     1821     1894     1964     1954     1876     1871     2123 
    2720     3577     4473     5144     5363     5000     4112     2987 
    2076     1710     1917     2477     3076     3446     3480     3240 
    2801     2219     1633     1224     1063     1094     1236     1489 
    1826     2116     2288     2367     2438     2605     2859     3094 
    3223     3137     2779     2280     1838     1628     1760     2232 
    2929     3684     4274     4469     4199     3561     2687     1769 
    1084      826      976     1339     1687     1898     2018     2119 
    2174     2185     2288     2608     3086     3547     3850     3910 
    3732     3410     3048     2695     2357     2034     1736     1463 
    1206     1008      936     1005     1173     1399     1659     1915 
    2137     2326     2493     2614     2687     2747     2795     2798 
    2739     2625     2466     2285     2215     2466     3156     4144 
    5139     5906     6318     6319     5934     5258     4436     3584 
    2704     1752      784      -33     -513     -550     -182      449 
    1158     1742     2037     1977     1680     1328     1019      766 
     591      561      780     1313     2130     3103     4060     4845 
    5363     5571     5443     5034     4477     3924     3454     3049 
    2685     2447     2455     2745     3227     3735     4083     4082 
    3623     2774     1725      726       10     -295     -193      260 
     939     1590     1956     1961     1740     1494     1368     1397 
    1556     1794     2010     2084     1961     1740     1591     1636 
    1910     2371     2928     3458     3792     3751     3279     2500 
    1655      985      673      805     1293     1884     2315     2494 
    2500     2411     2245     2012     1792     1675     1683     1822 
    2116     2565     3127     3696     4091     4209     4077     3816 
    3551     3314     3091     2871     2656     2497     2481     2670 
    3051     3530     3990     4325     4449     4344     4056     3663 
    3225     2776     2361     2031     1834     1786     1860     1972 
    2050     2116     2269     2554     2880     3107     3167     3061 
    2845     2606     2411     2335     2446     2722     3072     3370 
    3497     3395     3045     2474     1811     1247      951     1005 
    1341     1819     2288     2635     2817     2851     2787     2670 
    2523     2370     2238     2119     1987     1823     1638     1490 
    1459     1606     1923     2335     2724     2963     2978     2829 
    2629     2419     2169     1857     1509     1213     1062     1094 
    1278     1561     1918     2285     2544     2601     2444     2143 
    1803     1497     1327     1410     1757     2236     2670     2941 
    3021     2899     2616     2322     2192     2304     2606     2991 
    3353     3566     3483     3075     2515     2060     1918     2157 
    2708     3407     3975     4129     3780     3069     2280     1667 
    1382     1471     1875     2438     2984     3407     3663     3720 
    3557     3210     2816     2542     2481     2586     2740     2856 
    2916     2951     2986     2998     2938     2737     2381     1945 
    1541     1251     1142     1263     1584     1948     2161     2146 
    1961     1746     1656     1765     2034     2355     2610     2725 
    2709     2628     2573     2600     2691     2822     2951     2999 
    2875     2543     2095     1688     1451     1459     1703     2093 
    2575     3087     3478     3578     3319     2828     2343     2019 
    1904     1989     2209     2467     2643     2667     2608     2578 
    2652     2817     2963     2986     2872     2671     2473     2357 
    2339     2365     2334     2188     1958     1703     1455     1236 
    1121     1248     1657     2204     2650     2805     2646     2305 
    1989     1875     2043     2432     2883     3214     3312     3187 
    2945     2756     2725     2787     2829     2830     2847     2948 
    3142     3327     3399     3312     3053     2648     2189     1829 
    1691     1813     2135     2516     2775     2814     2651     2396 
    2184     2134     2335     2782     3277     3551     3469     3100 
    2646     2304     2188     2319     2631     2983     3196     3132 
    2768     2211     1641     1242     1123     1302     1703     2165 
    2532     2733     2775     2687     2504     2308     2196     2185 
    2214     2203     2119     1996     1883     1769     1653     1605 
    1707     1961     2284     2600     2874     3061     3118     3045 
    2875     2659     2427     2176     1927     1737     1648     1701 
    1891     2168     2461     2677     2754     2722     2659     2640 
    2733     2961     3257     3511     3674     3736     3696     3627 
    3605     3597     3510     3242     2755     2120     1490     1057 
     970     1236     1715     2204     2528     2612     2462     2187 
    1976     1961     2134     2398     2652     2852     2980     3002 
    2911     2766     2624     2513     2409     2307     2262     2357 
    2605     2917     3142     3190     3038     2727     2343     1980 
    1721     1609     1590     1597     1629     1709     1854     2083 
    2371     2660     2917     3164     3400     3555     3568     3450 
    3242     2987     2749     2613     2628     2758     2906     2959 
    2817     2497     2120     1803     1611     1543     1532     1513 
    1476     1453     1489     1615     1840     2138     2452     2727 
    2924     3021     3021     2948     2830     2693     2531     2371 
    2258     2177     2120     2131     2231     2384     2524     2623 
    2681     2704     2749     2870     3030     3148     3159     3042 
    2799     2443     2046     1721     1551     1587     1826     2160 
    2462     2667     2737     2650     2454     2265     2173     2200 
    2340     2539     2700     2774     2783     2763     2733     2679 
    2585     2463     2316     2127     1906     1683     1525     1474 
    1513     1606     1718     1823     1912     1985     2079     2226 
    2398     2516     2505     2378     2255     2243     2365     2600 
    2905     3225     3484     3607     3603     3535     3441     3322 
    3175     3010     2879     2813     2810     2845     2864     2852 
    2832     2809     2801     2821     2824     2763     2643     2485 
    2315     2174     2119     2168     2272     2369     2427     2421 
    2332     2182     2042     1957     1907     1879     1884     1935 
    2030     2128     2174     2176     2184     2222     2272     2323 
    2382     2462     2523     2497     2394     2297     2292     2419 
    2646     2872     2978     2890     2602     2192     1821     1626 
    1641     1838     2158     2533     2894     3157     3296     3341 
