Origin Time       2026/01/15 07:13:00
Lat.              42.7
Long.             145.4
Depth. (km)       30
Mag.              5.7
Station Code      HKD068
Station Lat.      43.4108
Station Long.     144.7704
Station Height(m) 105
Record Time       2026/01/15 07:13:42
Sampling Freq(Hz) 100Hz
Duration Time(s)  79
Dir.              U-D
Scale Factor      7845(gal)/8223790
Max. Acc. (gal)   4.915
Last Correction   2026/01/15 07:13:42
Memo.             
[...]
   -6917    -6920    -6924    -6928    -6932    -6929    -6925    -6922 
   -6918    -6918    -6921    -6920    -6920    -6921    -6924    -6924 
   -6924    -6924    -6924    -6922    -6921    -6920    -6922    -6925 
   -6929    -6932    -6929    -6924    -6920    -6916    -6917    -6924 
   -6929    -6933    -6930    -6921    -6916    -6918    -6925    -6928 
   -6926    -6922    -6917    -6917    -6921    -6929    -6932    -6929 
   -6926    -6922    -6917    -6916    -6914    -6921    -6934    -6936 
   -6929    -6925    -6922    -6921    -6920    -6922    -6926    -6926 
   -6926    -6926    -6924    -6920    -6917    -6917    -6921    -6929 
   -6933    -6932    -6928    -6921    -6914    -6913    -6917    -6922 
   -6924    -6924    -6924    -6922    -6921    -6922    -6922    -6921 
   -6922    -6924    -6924    -6925    -6929    -6925    -6916    -6918 
   -6925    -6924    -6926    -6930    -6926    -6921    -6916    -6913 
   -6918    -6925    -6930    -6930    -6922    -6918    -6917    -6913 
   -6914    -6925    -6933    -6932    -6924    -6920    -6920    -6920 
   -6921    -6921    -6921    -6926    -6933    -6928    -6921    -6920 
   -6914    -6913    -6916    -6918    -6924    -6928    -6928    -6924 
   -6918    -6914    -6917    -6921    -6918    -6918    -6924    -6926 
   -6929    -6930    -6930    -6928    -6918    -6909    -6913    -6921 
   -6924    -6924    -6924    -6918    -6909    -6907    -6914    -6924 
   -6930    -6932    -6929    -6925    -6918    -6910    -6913    -6921 
   -6925    -6926    -6925    -6922    -6924    -6924    -6920    -6921 
   -6926    -6924    -6920    -6922    -6921    -6910    -6909    -6917 
   -6918    -6917    -6920    -6921    -6922    -6929    -6926    -6921 
   -6922    -6925    -6922    -6918    -6921    -6926    -6928    -6929 
   -6930    -6939    -6948    -6956    -6968    -6983    -6999    -7015 
   -7030    -7045    -7055    -7056    -7053    -7053    -7051    -7038 
   -7025    -7022    -7026    -7029    -7025    -7015    -7005    -6999 
   -7003    -6998    -6971    -6936    -6907    -6907    -6947    -7007 
   -7069    -7113    -7121    -7094    -7037    -6967    -6910    -6891 
   -6913    -6953    -6972    -6961    -6947    -6952    -6988    -7024 
   -6997    -6903    -6822    -6845    -6978    -7140    -7230    -7203 
   -7105    -7017    -6993    -7041    -7087    -7052    -6955    -6875 
   -6870    -6948    -7036    -6984    -6748    -6488    -6407    -6529 
   -6723    -6866    -6930    -6862    -6655    -6521    -6567    -6610 
   -6540    -6426    -6313    -6234    -6245    -6415    -6696    -6929 
   -7080    -7141    -6963    -6631    -6454    -6353    -6034    -5738 
   -6014    -6718    -7153    -7236    -7442    -7766    -7858    -7742 
   -7561    -7207    -6632    -6160    -6300    -7044    -7720    -7847 
   -7582    -7377    -7392    -7430    -7391    -7264    -6980    -6619 
   -6367    -6353    -6621    -7010    -7092    -6700    -6232    -6239 
   -6879    -7654    -7950    -7668    -6934    -6025    -5467    -5494 
   -5907    -6511    -7159    -7614    -7657    -7300    -6902    -6752 
   -6598    -6193    -5958    -6345    -6997    -7311    -7300    -7257 
   -7146    -6912    -6943    -7473    -8008    -8090    -7705    -6986 
   -6343    -6307    -6939    -7623    -7776    -7669    -7591    -7230 
   -6764    -6791    -7119    -7030    -6588    -6583    -6944    -6812 
   -6265    -5981    -5899    -5856    -6394    -7639    -8499    -8217 
   -7319    -6372    -5643    -5552    -6173    -6928    -7156    -6968 
   -6848    -6531    -6106    -6534    -7462    -7531    -6967    -6974 
   -7346    -7083    -6388    -6050    -6066    -6284    -6963    -7896 
   -8239    -7751    -6964    -6220    -5975    -6716    -7780    -8124 
   -7886    -7651    -7176    -6269    -5733    -6181    -7225    -8050 
   -7871    -6847    -6239    -6471    -6546    -6204    -6316    -7003 
   -7638    -7865    -7506    -6716    -6138    -6037    -5937    -6030 
   -7134    -8359    -8102    -6883    -6003    -5594    -5682    -6727 
   -8279    -9069    -8706    -7562    -6029    -4939    -5024    -5967 
   -7130    -8247    -8931    -8770    -7911    -6936    -6385    -6316 
   -6424    -6548    -6705    -6957    -7291    -7449    -7133    -6632 
   -6675    -7190    -7447    -7307    -6914    -6134    -5283    -5243 
   -6169    -7176    -7847    -8341    -8014    -6546    -5348    -5641 
   -6964    -8086    -8251    -7804    -7348    -6817    -6137    -5705 
   -5919    -6600    -7227    -7794    -8507    -8922    -8442    -7047 
   -5211    -3990    -4402    -6048    -7545    -8357    -8820    -8800 
   -8008    -6999    -6335    -5922    -5911    -6543    -7411    -7959 
   -7923    -7425    -6835    -6351    -6124    -6303    -6812    -7399 
   -7400    -6396    -5408    -5657    -6608    -7111    -7285    -7497 
   -7236    -6388    -5934    -6484    -7539    -8451    -8567    -7460 
   -6119    -5875    -6438    -6818    -6837    -6864    -6901    -6540 
   -6192    -6862    -8031    -8117    -7141    -6370    -6142    -6188 
   -6686    -7466    -7719    -7353    -7015    -6913    -6910    -7222 
   -7990    -8548    -8259    -7501    -6849    -6312    -5698    -5406 
   -6156    -7523    -8336    -8317    -7900    -7173    -5975    -4953 
   -5215    -6555    -7811    -8453    -8521    -7960    -6775    -5568 
   -5341    -6500    -7974    -8113    -7338    -7303    -7447    -6566 
   -5603    -5571    -5995    -6343    -6739    -7399    -8029    -8106 
   -7384    -5996    -4945    -5239    -6249    -7048    -7986    -9186 
   -9583    -8567    -6939    -5730    -5215    -5131    -5335    -5968 
   -6914    -7839    -8371    -8028    -7090    -6446    -6122    -5711 
   -5724    -6647    -7480    -7272    -6987    -7601    -8313    -8087 
   -7095    -6060    -5436    -5547    -6403    -7407    -8008    -8074 
   -7577    -6663    -5782    -5455    -5944    -6858    -7362    -7209 
   -6872    -6615    -6369    -6289    -6551    -6940    -7024    -6868 
   -7177    -8046    -8527    -8191    -7564    -6862    -6027    -5614 
   -6178    -7257    -7915    -7724    -6667    -5398    -5391    -7071 
   -8669    -8626    -7645    -6824    -5895    -4889    -4969    -6566 
   -8352    -8799    -8005    -6872    -5868    -5370    -5429    -5896 
   -7063    -8694    -9498    -8631    -6781    -5138    -4205    -4148 
   -5100    -6720    -8252    -9088    -9046    -8214    -7057    -6219 
   -5786    -5829    -6520    -7041    -6728    -6369    -6598    -6863 
   -6620    -6471    -7161    -7900    -7742    -7240    -6899    -6494 
   -6334    -6951    -7989    -8677    -8702    -7933    -6247    -4492 
   -4270    -5784    -7539    -8598    -9188    -9138    -7782    -5602 
   -4391    -5188    -6821    -7628    -7595    -7392    -7001    -6455 
   -6303    -6748    -7434    -7939    -7911    -7396    -6974    -6855 
   -6504    -5741    -5476    -6259    -7114    -7388    -7703    -8094 
   -7749    -6596    -5510    -5386    -6239    -7146    -7457    -7227 
   -6658    -6053    -5703    -5940    -6979    -8194    -8710    -8449 
   -7875    -7221    -6316    -5437    -5506    -6826    -8270    -8513 
   -7730    -7042    -6855    -6689    -6482    -7025    -8117    -8144 
   -6837    -5842    -6112    -7141    -7959    -7902    -7330    -7029 
   -6963    -6729    -6597    -7129    -7936    -7869    -6785    -5788 
   -5525    -5688    -6184    -7091    -7730    -7468    -6835    -6675 
   -7010    -7226    -7005    -6621    -6405    -6501    -6795    -6944 
   -7060    -7469    -7781    -7479    -6801    -6540    -6918    -6952 
   -6296    -6116    -6689    -7136    -7379    -7708    -7917    -7771 
   -7271    -6671    -6282    -6205    -6381    -6465    -6189    -5991 
   -6466    -7541    -8509    -8650    -7874    -6635    -5516    -5121 
   -5683    -6731    -7393    -7315    -7048    -7084    -7307    -7407 
   -7315    -7373    -7685    -7813    -7507    -6957    -6624    -6658 
   -6666    -6556    -6579    -6767    -6941    -6794    -6399    -6282 
   -6508    -6683    -6772    -6909    -7002    -7024    -6955    -6736 
   -6552    -6554    -6583    -6540    -6617    -6770    -6602    -6536 
   -7322    -8060    -7658    -7005    -6920    -6710    -6254    -6346 
   -6917    -7217    -7241    -7515    -7742    -7315    -6501    -5829 
   -5769    -6588    -7634    -8101    -7925    -7597    -7533    -7410 
   -6936    -6710    -7099    -7307    -6750    -6362    -6841    -7080 
   -6234    -5278    -5194    -5648    -6151    -6678    -7015    -7007 
   -7041    -7304    -7252    -6697    -6376    -6608    -6720    -6323 
   -5965    -6313    -7393    -8607    -9185    -8872    -8181    -7642 
   -7071    -6227    -5575    -5547    -6003    -6794    -7739    -8334 
   -8216    -7404    -6326    -5880    -6631    -7847    -8359    -8075 
   -7608    -7049    -6336    -5806    -5675    -5938    -6403    -6502 
   -6097    -5821    -5972    -6297    -6778    -7418    -7705    -7306 
   -6813    -6874    -7169    -7086    -6627    -6116    -5832    -6199 
   -7445    -8818    -9224    -8660    -7749    -6675    -5800    -5898 
   -6837    -7414    -7018    -6281    -5736    -5204    -5086    -6303 
   -8137    -8772    -7996    -6963    -6296    -6120    -6593    -7452 
   -8100    -8365    -8178    -7253    -6025    -5386    -5526    -6165 
   -7182    -8259    -8637    -7884    -6466    -5327    -5229    -6223 
   -7541    -8519    -9180    -9252    -8014    -5922    -4546    -4664 
   -5869    -7526    -9192   -10135    -9521    -7759    -6116    -5283 
   -5313    -5667    -5761    -5944    -6620    -7180    -6964    -6388 
   -6353    -6831    -7017    -6882    -7072    -7356    -7138    -6774 
   -6828    -7229    -7522    -7487    -7373    -7246    -6961    -6667 
   -6667    -7113    -7630    -7665    -7227    -6694    -6480    -6767 
   -7256    -7582    -7605    -7291    -6802    -6430    -6361    -6586 
   -6829    -6795    -6628    -6687    -7015    -7264    -7090    -6570 
   -5998    -5570    -5525    -5984    -6717    -7345    -7619    -7514 
   -7192    -6754    -6091    -5498    -5652    -6625    -7916    -8969 
   -9290    -8649    -7335    -6268    -6196    -6853    -7578    -7989 
   -7800    -6995    -6092    -5699    -6008    -6647    -7078    -7325 
   -7684    -7942    -7859    -7634    -7250    -6432    -5431    -4830 
   -4945    -5786    -6914    -7662    -7928    -8035    -7933    -7341 
   -6570    -6138    -5788    -5409    -5821    -7102    -8062    -8002 
   -7360    -6902    -6934    -7269    -7790    -8336    -8645    -8537 
   -7796    -6605    -5701    -5738    -6673    -7655    -7913    -7452 
   -6781    -6215    -5840    -6027    -6681    -6906    -6679    -6860 
   -7493    -8002    -8210    -7993    -7121    -6176    -6057    -6466 
   -6536    -6346    -6334    -6347    -6210    -6351    -7226    -8221 
   -8295    -7506    -6453    -5395    -4754    -5009    -5931    -6859 
   -7680    -8449    -8446    -7322    -6181    -5991    -6412    -6878 
   -7267    -7383    -7001    -6424    -6164    -6265    -6750    -7842 
   -9196    -9948    -9501    -8008    -6228    -4743    -3935    -4294 
   -5717    -7258    -8309    -9089    -9151    -7534    -5233    -4355 
   -5229    -6575    -7415    -7786    -7587    -6461    -5232    -5316 
   -6824    -8405    -8947    -8677    -8166    -7523    -6880    -6605 
   -6751    -6909    -6855    -6565    -6030    -5732    -6103    -6718 
   -7033    -7028    -6916    -6825    -6764    -6864    -7295    -7753 
   -7541    -6659    -6034    -6007    -6168    -6748    -7874    -8445 
   -7850    -6984    -6556    -6397    -6489    -6760    -6897    -7360 
   -8532    -9474    -9362    -8491    -7072    -5173    -3793    -3805 
   -4878    -6660    -8988   -10685   -10601    -9517    -8529    -7025 
   -5003    -4355    -5591    -6825    -7230    -7720    -7925    -6681 
   -4831    -4106    -4708    -5834    -7107    -8237    -8615    -8218 
   -7600    -7223    -7225    -7253    -7200    -7312    -7304    -6895 
   -6451    -6447    -6659    -6380    -5809    -5621    -5489    -5177 
   -5628    -7226    -8607    -8480    -7280    -6139    -5548    -5634 
   -6448    -7535    -8226    -8356    -8006    -7258    -6718    -7069 
   -7778    -7524    -6076    -4872    -5244    -6702    -7842    -8008 
   -7418    -6627    -6177    -6270    -6358    -5856    -5400    -5821 
   -6760    -7647    -8483    -8934    -7909    -5124    -2385    -1844 
   -3585    -6084    -8058    -8905    -8521    -7302    -5753    -4594 
   -4776    -6204    -7601    -8325    -8842    -8930    -7654    -5555 
   -4140    -4044    -5445    -8001   -10320   -11229   -10760    -9563 
   -8178    -7256    -7173    -6988    -5919    -4816    -4588    -5441 
   -7161    -8681    -9082    -8708    -7978    -6818    -5868    -5861 
   -6265    -6292    -5988    -5790    -5996    -6671    -7485    -7888 
   -7796    -7307    -6435    -5877    -6427    -7626    -8428    -8640 
   -8510    -7793    -6713    -6438    -7005    -6925    -6072    -6129 
   -7381    -8114    -7543    -6885    -7217    -7946    -8171    -8132 
   -8178    -7813    -6698    -5352    -4459    -4473    -5562    -7199 
   -8492    -8727    -7862    -6914    -6546    -6115    -5587    -6150 
   -7740    -8523    -7869    -6905    -5896    -4576    -4043    -5242 
   -7141    -8453    -9117    -8974    -7628    -5719    -4369    -4251 
   -5324    -6937    -8496    -9201    -8271    -6334    -4824    -4623 
   -6027    -8561   -11006   -12075   -10901    -7917    -4990    -3657 
   -4086    -5733    -7759    -9155    -9378    -8455    -6766    -5215 
   -4510    -4649    -5454    -6424    -6952    -6903    -6378    -5930 
   -6319    -7506    -8722    -9077    -8270    -6898    -5837    -5366 
   -4945    -4604    -5514    -7732    -9629   -10039    -8749    -6112 
   -3553    -2663    -3694    -5809    -7954    -9305    -9531    -8920 
   -8201    -7788    -7499    -7172    -6925    -7114    -7906    -8494 
   -7958    -6691    -5842    -5803    -5819    -5401    -5277    -5954 
   -6858    -7261    -6744    -5671    -5071    -5231    -6069    -7836 
   -9821   -10493    -9350    -7476    -6277    -6038    -6581    -7917 
   -9151    -8947    -7169    -4870    -3323    -3348    -4868    -6906 
   -8163    -7942    -6821    -5937    -5876    -6766    -8226    -9347 
   -9620    -9378    -9146    -8707    -7383    -5285    -3310    -2396 
   -2975    -4675    -7053    -9591   -10620    -9112    -6953    -6369 
   -6944    -7331    -7403    -7218    -6312    -4931    -3959    -4043 
   -5513    -7690    -9116    -9433    -9315    -8862    -7950    -7294 
   -7360    -7707    -8370    -9371    -9570    -8356    -6663    -5397 
   -4490    -3739    -3491    -4090    -5466    -7317    -9105   -10164 
  -10058    -8819    -7095    -5775    -5061    -4594    -4521    -5189 
   -6234    -7001    -7429    -7840    -8039    -7749    -7550    -7805 
   -7904    -7439    -6515    -5301    -4220    -3960    -4912    -6440 
   -7492    -7716    -7437    -7103    -6920    -6961    -7329    -7703 
   -7483    -6604    -5629    -5252    -5961    -7493    -8711    -8661 
   -7310    -5385    -3944    -3558    -4179    -5568    -7412    -9093 
   -9788    -9578    -9055    -7990    -6605    -5763    -5267    -4780 
   -4725    -5130    -5819    -7217    -9197   -10581   -10812   -10413 
   -9717    -8735    -7824    -7257    -6596    -5683    -5120    -5112 
   -5767    -7094    -7842    -7210    -6349    -6296    -6528    -6246 
   -5949    -6615    -7956    -8816    -8630    -7875    -7006    -6066 
   -5740    -6384    -7040    -7024    -6539    -6066    -6112    -6494 
   -6473    -6199    -6574    -7553    -8264    -8405    -8083    -7450 
   -6953    -6601    -5981    -5472    -5486    -5495    -5296    -5892 
   -7896    -9964   -10530    -9622    -7624    -5013    -3132    -2851 
   -3847    -5648    -7758    -9130    -9121    -8604    -8600    -8784 
   -8390    -7265    -5954    -5096    -4810    -5252    -6561    -7809 
   -7904    -7076    -6299    -6131    -6535    -7194    -7751    -7786 
   -7253    -6725    -6767    -7608    -8671    -8654    -7609    -7037 
   -7268    -7446    -7422    -7744    -8302    -8033    -6782    -5748 
   -5232    -4847    -5134    -6396    -7917    -8891    -8981    -8407 
   -7564    -6804    -6141    -5296    -4760    -5256    -6355    -7443 
   -8442    -8931    -8671    -8139    -7658    -7327    -7233    -7047 
   -6485    -5814    -5428    -5560    -6241    -7156    -7847    -8040 
   -7696    -7133    -6682    -6195    -5599    -5238    -5414    -6108 
   -6885    -7392    -7474    -6840    -5787    -5208    -5455    -6436 
   -7917    -8966    -8675    -7385    -5961    -4909    -4712    -5643 
   -7246    -8766    -9624    -9574    -9012    -8448    -7651    -6551 
   -5879    -5960    -6264    -6219    -5726    -5219    -5198    -5813 
   -6789    -7711    -8575    -9462    -9865    -9173    -7312    -4884 
   -2878    -2095    -2833    -4631    -6619    -8271    -9251    -9396 
   -8887    -7744    -6143    -4900    -4441    -4345    -4549    -5431 
   -6647    -7429    -7429    -6844    -6084    -5432    -5408    -6386 
   -7820    -9012    -9699    -9923   -10057   -10200   -10064    -9590 
   -8668    -7092    -5244    -4014    -3944    -4614    -5487    -6616 
   -7642    -7906    -7692    -7576    -7481    -7434    -7588    -7330 
   -6494    -6046    -6103    -6033    -6218    -7281    -8650    -9246 
   -8762    -7684    -6864    -6916    -7450    -7935    -8461    -8648 
   -7813    -6419    -5428    -4965    -4594    -4171    -3974    -4239 
   -4943    -5944    -6849    -7381    -7747    -7971    -7928    -8098 
   -8930    -9921   -10146    -9309    -7707    -5535    -3333    -2270 
   -2791    -4203    -5819    -7411    -8722    -9418    -9439    -8922 
   -8236    -7817    -7599    -7331    -7057    -7003    -7209    -7099 
   -6262    -5309    -4930    -5116    -5613    -6164    -6486    -6627 
   -6917    -7287    -7385    -7105    -6508    -5836    -5383    -5386 
   -6099    -7464    -8953    -9845    -9585    -8313    -6779    -5892 
   -6218    -7308    -8122    -8158    -7744    -7387    -7025    -6461 
   -6120    -6359    -6523    -6029    -5517    -5541    -5649    -5764 
   -6481    -7668    -8495    -8761    -8816    -8796    -8768    -8851 
   -8947    -8644    -7844    -7234    -7021    -6394    -5174    -4230 
   -3946    -3840    -3812    -4260    -5177    -6319    -7500    -8356 
   -8586    -8235    -7346    -5871    -4536    -4504    -5728    -7187 
   -8272    -8843    -8702    -7719    -6475    -5863    -6174    -7096 
   -7940    -8232    -8233    -8322    -8325    -7854    -7103    -6818 
   -7103    -7113    -6598    -6347    -6783    -7685    -8687    -9306 
   -9440    -9178    -8368    -7252    -6158    -4938    -3685    -2668 
   -1991    -2241    -3904    -6223    -8086    -8986    -8880    -8222 
   -7557    -7071    -6902    -7114    -7616    -8202    -8434    -8037 
   -7439    -7219    -7244    -7068    -6747    -6577    -6617    -6852 
   -7257    -7609    -7720    -7487    -6790    -6066    -6127    -6895 
   -7538    -7608    -7118    -6327    -5691    -5553    -5996    -6664 
   -6967    -6829    -6689    -7042    -7817    -8167    -7669    -6828 
   -5975    -5061    -4623    -5428    -6995    -8205    -8721    -8419 
