Origin Time       2026/01/15 07:13:00
Lat.              42.7
Long.             145.4
Depth. (km)       30
Mag.              5.7
Station Code      HKD063
Station Lat.      44.1060
Station Long.     145.2478
Station Height(m) 5
Record Time       2026/01/15 07:13:59
Sampling Freq(Hz) 100Hz
Duration Time(s)  60
Dir.              E-W
Scale Factor      7845(gal)/8223790
Max. Acc. (gal)   7.633
Last Correction   2026/01/15 07:14:00
Memo.             
[...]
     209      379      507      603      670      675      577      372 
      71     -244     -491     -660     -742     -742     -712     -711 
    -746     -785     -819     -847     -880     -913     -895     -773 
    -572     -346     -159      -55      -21        5       63      157 
     307      523      796     1098     1360     1510     1543     1447 
    1208      838      351     -232     -843    -1387    -1768    -1975 
   -2069    -2089    -2026    -1844    -1552    -1216     -872     -515 
    -174      106      311      457      602      800     1007     1125 
    1138     1067      920      684      345      -51     -402     -627 
    -738     -796     -801     -711     -506     -213       94      344 
     514      585      525      340       70     -244     -571     -854 
   -1062    -1194    -1232    -1152     -997     -812     -604     -364 
     -76      229      486      639      662      549      349      136 
     -47     -198     -306     -355     -369     -376     -372     -342 
    -265     -132       12      113      166      179      144       87 
      55       41       28       -5      -60     -116     -182     -311 
    -507     -668     -708     -643     -544     -472     -415     -317 
    -184      -82      -41      -40      -14       90      268      472 
     670      847      965      966      831      571      236      -82 
    -336     -529     -673     -780     -839     -855     -851     -843 
    -827     -778     -703     -638     -585     -530     -468     -383 
    -270     -137       22      210      384      506      568      564 
     499      409      307      178       25     -128     -265     -375 
    -457     -522     -554     -523     -452     -400     -406     -469 
    -567     -661     -738     -768     -712     -564     -351      -90 
     216      538      827     1043     1161     1163     1050      805 
     423      -48     -556    -1067    -1516    -1811    -1923    -1864 
   -1680    -1424    -1108     -733     -338       39      379      626 
     735      712      592      406      182      -40     -232     -376 
    -453     -457     -365     -140      209      614      997     1298 
    1483     1553     1503     1304      954      499       -1     -483 
    -907    -1277    -1578    -1765    -1822    -1764    -1615    -1410 
   -1170     -886     -554     -179      230      646     1005     1251 
    1336     1227      945      577      234      -17     -202     -384 
    -604     -818     -926     -855     -585     -155      326      711 
     889      824      553      178     -184     -495     -764    -1001 
   -1215    -1397    -1503    -1505    -1395    -1185     -905     -619 
    -368     -162       13      191      386      561      670      664 
     510      257        2     -201     -341     -406     -399     -359 
    -334     -360     -452     -598     -745     -843     -857     -780 
    -673     -575     -460     -319     -175      -58       -5      -29 
     -86     -117      -99      -24      118      295      459      565 
     595      573      554      569      619      669      630      426 
      81     -301     -602     -726     -641     -406      -99      211 
     440      529      492      357      159      -39     -189     -282 
    -345     -441     -615     -805     -888     -803     -594     -337 
     -97       99      264      406      519      621      710      716 
     573      272     -151     -626    -1063    -1391    -1566    -1574 
   -1435    -1186     -857     -465      -68      257      475      573 
     595      619      666      691      635      452      130     -298 
    -772    -1202    -1462    -1470    -1286    -1024     -756     -515 
    -309      -97      162      472      799     1069     1213     1224 
    1096      804      380      -75     -487     -815    -1040    -1192 
   -1281    -1259    -1084     -781     -414      -48      255      487 
     650      708      607      328      -86     -517     -826     -972 
   -1008    -1008     -985     -892     -664     -324       44      407 
     764     1059     1235     1244     1080      801      471      113 
    -241     -534     -735     -876    -1011    -1169    -1321    -1362 
   -1196     -826     -324      222      716     1069     1233     1208 
    1038      789      486      114     -303     -716    -1080    -1358 
   -1503    -1478    -1293    -1011     -703     -402     -106      182 
     441      637      746      772      733      639      459      168 
    -193     -575     -936    -1235    -1428    -1490    -1393    -1138 
    -784     -392      -44      166      224      216      237      342 
     511      668      751      750      666      502      299      112 
     -45     -171     -259     -346     -464     -587     -681     -715 
    -672     -583     -490     -418     -386     -407     -440     -398 
    -261      -60      171      402      608      791      932      997 
     986      900      699      369      -71     -594    -1119    -1553 
   -1833    -1925    -1840    -1628    -1324     -957     -603     -351 
    -203     -124      -70      -17       45      143      333      621 
     928     1173     1327     1410     1420     1310     1044      662 
     253     -137     -538     -940    -1254    -1364    -1231     -916 
    -527     -130      229      490      600      560      406      183 
     -67     -328     -587     -815     -966    -1007     -946     -826 
    -691     -584     -525     -513     -529     -495     -334      -51 
     288      599      791      828      734      542      297       47 
    -183     -398     -581     -719     -832     -934    -1012    -1069 
   -1111    -1105    -1004     -783     -448      -60      294      562 
     710      711      625      567      573      595      545      345 
      20     -328     -623     -835     -919     -841     -595     -218 
     186      513      714      787      741      602      391      113 
    -213     -526     -768     -922    -1008    -1059    -1084    -1062 
    -986     -866     -692     -450     -168      102      306      375 
     295      122      -87     -292     -452     -542     -548     -469 
    -355     -233      -97       70      265      459      637      796 
     888      855      679      383       48     -228     -409     -496 
    -507     -490     -484     -479     -453     -384     -260      -95 
      95      297      449      472      344      117     -136     -345 
    -452     -454     -384     -278     -174      -91        0      132 
     286      419      481      444      345      222       74      -99 
    -279     -461     -646     -820     -986    -1155    -1293    -1372 
   -1393    -1343    -1221    -1048     -826     -558     -307     -136 
     -55      -48      -85     -122     -159     -182     -151      -58 
      52      136      186      217      252      309      390      483 
     573      634      627      552      448      380      409      523 
     658      769      849      878      830      692      460      141 
    -225     -603     -949    -1209    -1383    -1505    -1568    -1559 
   -1487    -1364    -1200    -1009     -811     -611     -434     -310 
    -233     -159      -63       35      101      126      151      210 
     260      241      159       62       18       71      179      279 
     376      502      615      685      706      668      591      521 
     488      499      541      599      680      801      943     1061 
    1138     1210     1302     1374     1367     1259     1063      830 
     575      309       87      -28      -54      -40      -21       -8 
       4       28       40        2      -89     -226     -406     -615 
    -861    -1155    -1459    -1740    -1999    -2220    -2398    -2570 
   -2740    -2882    -3009    -3150    -3312    -3488    -3650    -3744 
   -3757    -3696    -3564    -3368    -3145    -2944    -2801    -2732 
   -2671    -2515    -2242    -1884    -1458    -1000     -546     -113 
     280      631      973     1314     1633     1902     2101     2214 
    2245     2223     2174     2126     2138     2277     2559     2933 
    3287     3500     3503     3325     3041     2720     2425     2204 
    2085     2077     2128     2153     2107     1987     1790     1528 
    1208      831      427       37     -333     -683    -1007    -1289 
   -1516    -1676    -1791    -1921    -2110    -2373    -2744    -3219 
   -3707    -4091    -4278    -4228    -3991    -3645    -3214    -2758 
   -2404    -2235    -2195    -2135    -1906    -1416     -693      156 
    1017     1761     2317     2737     3137     3616     4202     4811 
    5289     5495     5347     4823     3998     3028     2084     1283 
     657      170     -210     -495     -706     -903    -1128    -1301 
   -1267     -936     -373      218      645      823      734      419 
     -14     -464     -858    -1198    -1544    -1934    -2338    -2704 
   -2983    -3102    -2984    -2608    -2023    -1377     -873     -669 
    -801    -1229    -1854    -2551    -3269    -4037    -4870    -5706 
   -6390    -6721    -6523    -5753    -4509    -2967    -1348      166 
    1485     2556     3337     3834     4072     4062     3774     3194 
    2382     1487      669       40     -392     -718    -1000    -1219 
   -1269    -1027     -495      236     1096     2019     2934     3780 
    4490     4985     5232     5206     4873     4267     3496     2659 
    1848     1165      666      365      264      309      399      454 
     457      450      507      635      742      714      460      -93 
    -907    -1804    -2586    -3125    -3389    -3451    -3406    -3260 
   -2983    -2585    -2127    -1705    -1390    -1162     -965     -783 
    -603     -414     -255     -206     -324     -594     -904    -1100 
   -1134    -1108    -1128    -1198    -1271    -1300    -1271    -1188 
    -984     -546      153     1059     2041     2876     3352     3380 
    3001     2351     1617      946      402      -14     -313     -510 
    -611     -608     -502     -307      -14      346      691      930 
     976      753      245     -504    -1418    -2377    -3252    -3901 
   -4171    -3929    -3173    -2029     -683      689     1988     3171 
    4218     5109     5776     6108     6019     5495     4611     3473 
    2149      681     -866    -2393    -3742    -4773    -5481    -5931 
   -6184    -6257    -6083    -5557    -4671    -3496    -2141     -795 
     317     1074     1456     1512     1359     1061      575     -121 
    -977    -1871    -2587    -2898    -2714    -2031     -873      568 
    2000     3188     3960     4280     4297     4194     4063     3919 
    3680     3202     2439     1509      561     -301     -990    -1448 
   -1668    -1691    -1615    -1530    -1443    -1356    -1317    -1374 
   -1512    -1642    -1695    -1676    -1679    -1775    -1944    -2115 
   -2242    -2278    -2215    -2072    -1896    -1759    -1711    -1729 
   -1748    -1710    -1575    -1287     -772       20     1062     2257 
    3489     4666     5667     6315     6480     6147     5394     4329 
    3042     1571       -8    -1521    -2805    -3807    -4514    -4923 
   -5057    -4934    -4576    -4018    -3277    -2357    -1297     -178 
     847     1599     2007     2118     2023     1821     1620     1551 
    1701     2056     2542     3022     3352     3433     3253     2856 
    2313     1648      823     -183    -1323    -2494    -3564    -4367 
   -4757    -4681    -4197    -3499    -2818    -2293    -1987    -1877 
   -1841    -1748    -1544    -1250     -897     -513     -168       51 
     160      247      406      629      810      880      811      568 
     135     -406     -889    -1161    -1104     -719     -140      479 
    1020     1413     1680     1821     1740     1366      704     -184 
   -1169    -2076    -2758    -3103    -3117    -2921    -2652    -2424 
   -2293    -2180    -1957    -1580    -1053     -382      372     1124 
    1813     2411     2949     3491     4060     4604     5003     5113 
    4869     4306     3461     2370     1116     -189    -1397    -2407 
   -3213    -3844    -4314    -4575    -4506    -4071    -3337    -2328 
   -1121       93     1193     2072     2543     2529     2097     1366 
     491     -360    -1035    -1414    -1470    -1270     -901     -403 
     232     1013     1908     2835     3663     4263     4564     4561 
    4299     3846     3206     2315     1144     -267    -1825    -3375 
   -4765    -5903    -6732    -7229    -7376    -7114    -6390    -5262 
   -3852    -2317     -847      406     1360     1935     2101     1950 
    1617     1221      843      526      332      314      464      731 
    1035     1306     1502     1595     1547     1317      904      376 
    -124     -438     -476     -260       60      307      356      159 
    -267     -846    -1458    -2007    -2469    -2864    -3163    -3234 
   -2914    -2116     -881      641     2226     3635     4671     5185 
    5098     4413     3200     1618      -94    -1675    -2897    -3620 
   -3824    -3597    -3064    -2336    -1510     -684        8      442 
     534      229     -437    -1313    -2189    -2836    -3069    -2845 
   -2232    -1324     -205     1030     2281     3442     4411     5124 
    5544     5653     5447     4920     4090     2980     1628      167 
   -1212    -2389    -3312    -3960    -4360    -4607    -4772    -4854 
   -4826    -4639    -4270    -3742    -3071    -2238    -1254     -125 
    1166     2585     4027     5385     6544     7398     7850     7780 
    7125     5969     4410     2517      417    -1738    -3780    -5493 
   -6690    -7273    -7215    -6565    -5444    -4005    -2430     -940 
     284     1174     1694     1806     1521      913       60     -954 
   -1988    -2895    -3551    -3832    -3674    -3080    -2083     -797 
     599     1949     3109     3935     4341     4334     3986     3418 
    2749     2050     1336      622      -72     -738    -1339    -1826 
   -2158    -2288    -2197    -1912    -1491    -1019     -587     -226 
      71      279      336      224      -25     -330     -602     -797 
    -909     -934     -904     -880     -897     -965    -1043    -1048 
    -913     -639     -313      -51       82       70      -95     -399 
    -820    -1354    -1949    -2506    -2928    -3126    -3032    -2578 
   -1741     -595      707     2025     3215     4151     4770     5065 
    5023     4684     4110     3329     2386     1391      433     -437 
   -1169    -1728    -2089    -2195    -2002    -1576    -1028     -415 
     236      839     1291     1580     1667     1471     1040      449 
    -276    -1035    -1755    -2415    -2928    -3221    -3273    -3024 
   -2396    -1420     -241      939     1885     2423     2559     2332 
    1761      935      -48    -1092    -2045    -2787    -3257    -3379 
   -3141    -2636    -1999    -1381     -913     -641     -510     -473 
    -527     -661     -831     -977    -1042    -1003     -841     -526 
     -39      604     1377     2220     3059     3819     4407     4720 
    4689     4311     3627     2698     1594      391     -792    -1780 
   -2421    -2666    -2538    -2145    -1648    -1159     -704     -302 
      12      224      330      321      206      -22     -405     -947 
   -1587    -2241    -2817    -3252    -3512    -3584    -3472    -3198 
   -2789    -2259    -1626     -931     -221      442      997     1410 
    1683     1836     1907     1910     1800     1559     1233      913 
     672      541      495      488      487      452      340      153 
     -75     -334     -603     -874    -1171    -1493    -1787    -1977 
   -1996    -1775    -1275     -522      437     1510     2547     3389 
    3925     4117     4018     3709     3241     2679     2116     1614 
    1210      958      869      878      895      828      612      234 
    -275     -878    -1495    -2031    -2454    -2747    -2891    -2870 
   -2690    -2392    -2026    -1625    -1221     -868     -600     -417 
    -299     -244     -247     -272     -301     -315     -307     -301 
    -348     -468     -672     -997    -1452    -1991    -2529    -2986 
   -3300    -3441    -3410    -3211    -2841    -2307    -1664     -996 
    -355      271      909     1533     2095     2559     2879     3029 
    3025     2870     2548     2096     1599     1132      753      487 
     318      251      292      391      477      507      460      356 
     236      101      -76     -305     -592     -940    -1294    -1566 
   -1680    -1586    -1259     -735      -86      615     1282     1822 
    2181     2317     2200     1837     1267      537     -270    -1067 
   -1796    -2425    -2944    -3361    -3669    -3843    -3869    -3728 
   -3388    -2832    -2081    -1198     -253      664     1470     2112 
    2556     2781     2803     2654     2349     1929     1428      864 
     297     -211     -631     -938    -1123    -1227    -1294    -1352 
   -1426    -1528    -1636    -1703    -1671    -1501    -1197     -799 
    -351      116      556      915     1174     1323     1364     1347 
    1297     1197     1042      834      568      252      -76     -379 
    -630     -811     -927     -992     -981     -884     -742     -564 
    -332      -90      110      249      307      309      301      279 
     224      141       20     -147     -336     -541     -758     -954 
   -1112    -1223    -1252    -1156     -909     -508        5      552 
    1061     1476     1742     1827     1759     1567     1271      888 
     414     -149     -750    -1301    -1715    -1934    -1933    -1725 
   -1328     -743       -4      823     1663     2423     2997     3291 
    3249     2860     2189     1329      352     -689    -1740    -2724 
   -3557    -4159    -4472    -4490    -4236    -3751    -3106    -2388 
   -1669     -996     -383      179      673     1066     1347     1516 
    1559     1467     1237      886      477       87     -230     -427 
    -468     -364     -157       99      344      526      654      769 
     872      936      928      792      517      145     -263     -637 
    -923    -1113    -1223    -1248    -1178     -996     -695     -306 
     109      513      877     1159     1318     1341     1235     1046 
     834      637      459      302      141      -87     -410     -800 
   -1217    -1588    -1810    -1815    -1570    -1067     -371      426 
    1250     2011     2602     2960     3067     2902     2465     1777 
     855     -236    -1381    -2465    -3373    -4009    -4325    -4321 
   -4020    -3478    -2789    -2012    -1177     -311      541     1302 
    1868     2195     2284     2139     1768     1209      540     -156 
    -792    -1325    -1765    -2088    -2255    -2276    -2142    -1864 
   -1490    -1061     -623     -237       68      299      452      537 
     573      581      591      616      650      684      719      761 
     789      781      729      611      394       93     -236     -541 
    -743     -776     -614     -264      205      704     1159     1498 
    1664     1624     1382      967      406     -249     -924    -1549 
   -2047    -2370    -2520    -2478    -2250    -1891    -1447     -939 
    -395      139      619      996     1206     1206      996      587 
      28     -569    -1108    -1530    -1784    -1841    -1722    -1466 
