Origin Time       2026/01/15 07:13:00
Lat.              42.7
Long.             145.4
Depth. (km)       30
Mag.              5.7
Station Code      HKD083
Station Lat.      43.2329
Station Long.     144.3251
Station Height(m) 35
Record Time       2026/01/15 07:13:38
Sampling Freq(Hz) 100Hz
Duration Time(s)  91
Dir.              E-W
Scale Factor      7845(gal)/8223790
Max. Acc. (gal)   5.534
Last Correction   2026/01/15 07:13:38
Memo.             
[...]
   -1894    -1701    -1175     -893    -1219    -1669    -1837    -1852 
   -1730    -1510    -1441    -1522    -1607    -1688    -1814    -1939 
   -1925    -1871    -1929    -1846    -1551    -1470    -1798    -2126 
   -2096    -1900    -1777    -1642    -1453    -1368    -1545    -1814 
   -1818    -1557    -1347    -1428    -1730    -1850    -1695    -1723 
   -1969    -1849    -1405    -1301    -1471    -1462    -1516    -1790 
   -1857    -1736    -1726    -1584    -1242    -1242    -1698    -2042 
   -1906    -1474    -1194    -1320    -1744    -2254    -2540    -2311 
   -1825    -1551    -1518    -1672    -1954    -2030    -1790    -1483 
   -1267    -1201    -1281    -1420    -1622    -1854    -1942    -1813 
   -1583    -1464    -1653    -2060    -2282    -2072    -1714    -1642 
   -1802    -1887    -1883    -1927    -2133    -2320    -1923    -1142 
   -1050    -1617    -1818    -1599    -1416    -1105     -753     -888 
   -1383    -1775    -2018    -2084    -1841    -1529    -1633    -2224 
   -2797    -2799    -2151    -1397    -1154    -1359    -1680    -1988 
   -2052    -1725    -1163     -665     -718    -1343    -1834    -1927 
   -1896    -1746    -1579    -1672    -2056    -2550    -2636    -2039 
   -1486    -1412    -1354    -1399    -1879    -2192    -1861    -1389 
   -1237    -1255    -1309    -1572    -1917    -1960    -1775    -1502 
   -1051     -876    -1470    -2282    -2563    -2236    -1624    -1285 
   -1499    -2010    -2461    -2424    -1880    -1398    -1123    -1039 
   -1509    -2108    -1944    -1329    -1054    -1129    -1439    -1763 
   -1744    -1738    -2081    -2215    -1826    -1502    -1668    -1964 
   -2020    -1875    -1579    -1277    -1188    -1290    -1466    -1575 
   -1525    -1436    -1453    -1831    -2481    -2438    -1513     -900 
    -988    -1287    -1888    -2558    -2505    -1950    -1605    -1462 
   -1435    -1671    -1968    -2023    -1876    -1671    -1522    -1615 
   -1956    -2273    -2288    -1922    -1362    -1011    -1237    -1842 
   -2168    -1972    -1470     -939     -850    -1390    -2050    -2235 
   -1813    -1356    -1494    -1957    -2317    -2516    -2273    -1595 
   -1086    -1062    -1425    -1961    -2250    -2034    -1597    -1341 
   -1275    -1232    -1283    -1463    -1591    -1647    -1686    -1669 
   -1726    -1869    -1798    -1591    -1730    -2188    -2350    -2018 
   -1709    -1710    -1788    -1765    -1628    -1501    -1472    -1300 
    -963     -891    -1247    -1741    -1934    -1682    -1343    -1393 
   -1872    -2354    -2488    -2231    -1749    -1462    -1624    -2083 
   -2566    -2592    -1890    -1024     -688    -1023    -1760    -2211 
   -1827    -1155    -1001    -1275    -1656    -1952    -1925    -1732 
   -1686    -1706    -1633    -1647    -1964    -2313    -2398    -2226 
   -1648     -903     -729    -1178    -1763    -2242    -2334    -1818 
   -1121     -899    -1239    -1703    -1935    -1964    -1927    -1875 
   -1825    -1765    -1736    -1865    -2069    -2052    -1790    -1474 
   -1200    -1113    -1285    -1455    -1323     -970     -804    -1078 
   -1601    -1933    -1912    -1831    -1888    -2008    -2155    -2297 
   -2328    -2122    -1683    -1325    -1344    -1715    -2124    -2077 
   -1521    -1159    -1455    -1946    -1962    -1534    -1259    -1359 
   -1489    -1553    -1923    -2577    -2822    -2419    -1948    -1686 
   -1561    -1686    -1853    -1684    -1309     -982     -818     -982 
   -1394    -1647    -1590    -1387    -1194    -1254    -1714    -2219 
   -2312    -2061    -1807    -1745    -1907    -2087    -2083    -1980 
   -1734    -1273     -986    -1156    -1606    -2101    -2320    -2128 
   -1930    -1930    -1849    -1570    -1308    -1309    -1528    -1640 
   -1593    -1683    -1927    -1975    -1823    -1888    -2224    -2398 
   -2118    -1513    -1009     -903    -1008    -1081    -1192    -1378 
   -1509    -1532    -1610    -1867    -2115    -2228    -2262    -2093 
   -1723    -1458    -1405    -1470    -1628    -1806    -1908    -1826 
   -1464    -1109    -1140    -1410    -1656    -1891    -2146    -2408 
   -2443    -2023    -1548    -1494    -1605    -1539    -1541    -1692 
   -1661    -1636    -1983    -2278    -2072    -1613    -1273    -1163 
   -1186    -1262    -1611    -2189    -2311    -1863    -1594    -1740 
   -1911    -1777    -1228     -616     -426     -679    -1152    -1624 
   -1981    -2316    -2485    -2243    -1883    -1803    -1825    -1657 
   -1383    -1302    -1640    -2164    -2332    -2031    -1665    -1530 
   -1498    -1466    -1598    -1888    -2147    -2216    -1996    -1678 
   -1476    -1352    -1394    -1621    -1823    -2038    -2251    -2231 
   -2054    -1875    -1719    -1638    -1467    -1123     -936    -1044 
   -1291    -1614    -1942    -2227    -2334    -1998    -1443    -1221 
   -1354    -1575    -1745    -1802    -1844    -1815    -1547    -1381 
   -1618    -1946    -2097    -1987    -1579    -1201    -1138    -1289 
   -1620    -2019    -2111    -1864    -1669    -1725    -1846    -1829 
   -1707    -1480    -1077     -778     -936    -1460    -1987    -2192 
   -2008    -1671    -1452    -1421    -1512    -1682    -1833    -1772 
   -1540    -1397    -1426    -1549    -1696    -1848    -2076    -2189 
   -1825    -1328    -1328    -1756    -2208    -2371    -2091    -1663 
   -1459    -1478    -1678    -2030    -2189    -1819    -1205     -953 
   -1225    -1610    -1645    -1431    -1386    -1517    -1698    -2066 
   -2430    -2317    -1876    -1586    -1479    -1431    -1422    -1408 
   -1420    -1521    -1633    -1807    -2166    -2388    -2141    -1740 
   -1468    -1239    -1229    -1566    -1877    -2038    -2226    -2184 
   -1671    -1158    -1174    -1501    -1543    -1248    -1070    -1146 
   -1279    -1395    -1505    -1675    -1899    -1991    -1957    -2034 
   -2277    -2457    -2353    -2073    -1845    -1705    -1705    -1880 
   -2027    -1991    -1884    -1834    -1760    -1610    -1526    -1490 
   -1335    -1215    -1368    -1703    -1919    -1864    -1676    -1544 
   -1514    -1622    -1799    -1906    -2003    -2112    -2083    -1900 
   -1668    -1553    -1607    -1544    -1237    -1035    -1183    -1507 
   -1783    -2070    -2401    -2498    -2247    -1829    -1412    -1327 
   -1707    -1934    -1586    -1232    -1467    -2022    -2301    -2228 
   -2043    -1796    -1498    -1217     -966     -924    -1327    -1790 
   -1767    -1615    -1871    -2212    -2243    -2089    -1931    -1887 
   -2026    -2269    -2431    -2312    -1912    -1490    -1304    -1471 
   -1791    -1946    -1841    -1474    -1063    -1057    -1389    -1638 
   -1726    -1687    -1575    -1570    -1656    -1661    -1587    -1567 
   -1647    -1675    -1528    -1301    -1113     -955     -824     -693 
    -634     -908    -1405    -1707    -1834    -1917    -1844    -1672 
   -1576    -1691    -2137    -2624    -2621    -2089    -1362     -792 
    -770    -1363    -2160    -2671    -2617    -2085    -1520    -1310 
   -1336    -1251    -1232    -1641    -2120    -2242    -2324    -2612 
   -2751    -2396    -1621     -869     -631     -908    -1220    -1366 
   -1563    -1738    -1644    -1486    -1618    -1989    -2195    -2003 
   -1695    -1665    -1850    -1922    -1790    -1748    -2066    -2432 
   -2373    -2064    -1822    -1553    -1324    -1331    -1391    -1339 
   -1244    -1143    -1144    -1395    -1721    -1841    -1759    -1649 
   -1707    -1956    -2138    -2151    -2123    -1966    -1599    -1182 
    -911    -1003    -1393    -1644    -1710    -1899    -1971    -1637 
   -1308    -1260    -1331    -1528    -1811    -2101    -2488    -2614 
   -2115    -1522    -1476    -1844    -2184    -2303    -2257    -2160 
   -2052    -1900    -1640    -1279     -965     -949    -1282    -1642 
   -1830    -1881    -1651    -1186     -973    -1104    -1179    -1028 
    -778     -691     -919    -1167    -1264    -1614    -2235    -2536 
   -2398    -2176    -2012    -1881    -1733    -1490    -1243    -1174 
   -1212    -1150    -1043    -1104    -1428    -1935    -2339    -2370 
   -2074    -1649    -1316    -1317    -1624    -1831    -1706    -1609 
   -1983    -2581    -2785    -2470    -1973    -1507    -1105     -872 
    -872    -1043    -1296    -1480    -1512    -1578    -1817    -1961 
   -1688    -1098     -595     -503     -893    -1532    -2104    -2484 
   -2670    -2654    -2540    -2516    -2546    -2403    -2049    -1763 
   -1740    -1799    -1780    -1719    -1524    -1324    -1453    -1737 
   -1892    -2018    -2080    -2026    -2019    -1934    -1580    -1251 
   -1208    -1352    -1665    -2079    -2266    -2089    -1763    -1533 
   -1516    -1741    -2081    -2128    -1667    -1174    -1220    -1537 
   -1601    -1570    -1607    -1395     -943     -629     -556     -579 
    -618     -695     -855    -1139    -1563    -2189    -2957    -3412 
   -3229    -2789    -2592    -2512    -2207    -1804    -1692    -1918 
   -2160    -2223    -2307    -2478    -2377    -1960    -1779    -1938 
   -1917    -1723    -1714    -1672    -1332     -893     -572     -508 
    -819    -1348    -1768    -1836    -1489    -1004     -738     -719 
    -795     -824     -827     -988    -1221    -1398    -1746    -2270 
   -2600    -2652    -2539    -2195    -1779    -1707    -1931    -2041 
   -1961    -1919    -2158    -2570    -2569    -1980    -1402    -1260 
   -1552    -2230    -2976    -3261    -2948    -2355    -1961    -2074 
   -2455    -2586    -2367    -2100    -2089    -2438    -2876    -3011 
   -2772    -2363    -1966    -1680    -1618    -1726    -1628    -1282 
   -1144    -1252    -1224    -1039     -916     -850     -762     -893 
   -1529    -2403    -2933    -2817    -2180    -1487    -1183    -1354 
   -1806    -2065    -1807    -1397    -1138     -830     -527     -476 
    -792    -1644    -2875    -3882    -4284    -4170    -3689    -2822 
   -1784    -1227    -1459    -1945    -2018    -1659    -1243    -1016 
   -1090    -1463    -1896    -2027    -1792    -1493    -1337    -1405 
   -1794    -2295    -2551    -2506    -2227    -1896    -1864    -2095 
   -2226    -2158    -1966    -1656    -1251     -885     -778     -942 
   -1215    -1706    -2473    -3113    -3265    -2863    -1929     -762 
       9      136      174      606     1156     1231      367    -1233 
   -2797    -4002    -4895    -5077    -4321    -3196    -2239    -1421 
    -796     -603     -697     -652     -226      234      103     -484 
    -724     -328      253      453      143     -221     -352     -676 
   -1468    -2282    -2609    -2331    -1686    -1136     -961    -1078 
   -1352    -1613    -1466     -935     -738    -1179    -1926    -2828 
   -3519    -3279    -2133     -903     -278     -463    -1067    -1539 
   -1921    -2521    -3234    -3813    -4245    -4414    -3985    -2997 
   -1976    -1406    -1447    -1698    -1520    -1007     -795    -1062 
   -1513    -1687    -1237     -337      606     1417     1884     1651 
     630     -773    -1964    -2566    -2636    -2430    -1977    -1258 
    -449      287      693      481     -160     -903    -1771    -2681 
   -3138    -2870    -2230    -1676    -1275     -939     -726     -854 
   -1474    -2223    -2646    -3114    -4129    -5251    -5775    -5379 
   -3989    -2088     -600      -63     -274     -664     -916    -1088 
   -1310    -1759    -2382    -2647    -2281    -1753    -1522    -1642 
   -1972    -2180    -2030    -1737    -1617    -1572    -1317    -1101 
   -1510    -2488    -3377    -3591    -2938    -1946    -1340    -1189 
   -1279    -1609    -2052    -2288    -2196    -2000    -1980    -2189 
   -2419    -2439    -2459    -2744    -2895    -2527    -2049    -1873 
   -1694    -1109     -365      -41     -164     -157      306      994 
    1495     1405      576     -619    -1680    -2317    -2268    -1528 
    -770     -827    -1752    -2787    -3271    -3283    -3345    -3626 
   -3686    -3136    -2031     -652      413      521     -272    -1605 
   -3123    -4013    -3782    -2868    -1713     -630     -211     -731 
   -1803    -2787    -3258    -3295    -3072    -2436    -1510     -901 
    -888    -1227    -1611    -1756    -1475     -988     -780    -1048 
   -1507    -1679    -1406     -904     -203      653     1063      724 
      67     -746    -1721    -2446    -2756    -2817    -2583    -2164 
   -1844    -1598    -1422    -1512    -1875    -2359    -2749    -2936 
   -3122    -3381    -3453    -3210    -2652    -1826    -1080     -854 
   -1202    -1718    -1915    -1777    -1726    -1976    -2313    -2470 
   -2377    -2234    -2280    -2373    -2187    -1702    -1229    -1169 
   -1611    -2182    -2363    -1810     -553      828     1567     1420 
     606     -646    -1711    -1790    -1093     -553     -777    -1830 
   -3159    -3987    -4126    -3866    -3402    -2851    -2282    -1512 
    -537      237      490      -93    -1615    -3319    -4387    -4672 
   -3959    -2124       93     1599     1892     1354      758      332 
    -429    -1890    -3551    -4622    -4997    -5090    -5073    -4820 
   -4310    -3769    -3402    -3087    -2533    -1732    -1139    -1402 
   -2704    -4260    -4826    -3973    -2513    -1439     -861     -499 
    -457     -643     -348      642     1464     1354      400     -954 
   -2239    -3034    -3308    -3244    -2745    -1664     -432      194 
      18     -611    -1410    -2166    -2744    -3372    -4214    -4773 
   -4332    -2710     -390     1852     3450     4112     3599     2035 
     329     -584     -699     -670    -1231    -2463    -3389    -3339 
   -2779    -2095    -1251     -415       78     -116    -1131    -2710 
   -4336    -5286    -5134    -4288    -3531    -3068    -2349    -1062 
      10     -120    -1383    -2856    -3700    -3739    -3491    -3464 
   -3586    -3437    -2597     -999      795     1998     2257     1806 
    1202      720       33    -1287    -3127    -4642    -4804    -3388 
   -1237      662     1892     2170     1146     -870    -2802    -3994 
   -4725    -5148    -4823    -3585    -1858     -338      324       49 
    -816    -2020    -3238    -4164    -4820    -5130    -4773    -3742 
   -2462    -1509    -1377    -2034    -2883    -3492    -3728    -3361 
   -2412    -1418     -841     -743     -904     -957     -827     -772 
   -1051    -1811    -2782    -3348    -3136    -2281    -1429    -1264 
   -1723    -2242    -2608    -2839    -2710    -2141    -1493    -1143 
   -1121    -1220    -1247    -1071     -513      372      947      526 
    -743    -2154    -3277    -4028    -4295    -3834    -2471     -627 
     766     1116      437     -934    -2361    -3176    -3250    -2951 
   -2604    -2266    -1922    -1721    -1763    -1780    -1633    -1755 
   -2400    -3119    -3354    -2793    -1347      527     2007     2660 
    2701     2527     2303     1713      433    -1107    -2304    -3168 
   -3601    -3127    -1887     -594      488     1293     1344      336 
   -1333    -3079    -4703    -6030    -6427    -5406    -3214     -653 
    1217     1742     1213      275     -820    -1981    -2898    -3420 
   -3649    -3370    -2285     -716      626     1240      801     -600 
   -2184    -3252    -3811    -4133    -4384    -4487    -4102    -3017 
   -1379      476     2207     3420     3692     2736      664    -1841 
   -3908    -4981    -4922    -3937    -2502    -1286     -985    -1876 
   -3449    -4676    -4945    -4553    -4071    -3612    -2910    -1902 
    -988     -515     -305      -35      305      522      384       52 
     139      683      880      247     -754    -1344    -1271     -915 
    -635     -498     -526     -895    -1831    -3105    -3847    -3592 
   -2949    -2650    -2629    -2447    -1873    -1069     -426      -67 
     194      372      279     -211    -1001    -1787    -2396    -2779 
   -2787    -2350    -1545     -600       43       64     -457    -1318 
   -2466    -3850    -5179    -6056    -6203    -5493    -4041    -2288 
    -778       76       67     -847    -2423    -4029    -5105    -5479 
   -5015    -3677    -1925     -361      722     1215     1080      399 
    -672    -1999    -3311    -3994    -3730    -3024    -2389    -1787 
   -1242     -851     -491     -171      -22      -72     -598    -1999 
   -3952    -5356    -5352    -4014    -2111     -441      646     1204 
    1404     1404     1177      450     -822    -2187    -3252    -3933 
   -4221    -4183    -3811    -2998    -1980    -1093     -434     -299 
   -1023    -2367    -3817    -4808    -4719    -3574    -2201    -1275 
    -865     -602     -120      371      494      272     -349    -1455 
   -2505    -2930    -2918    -2810    -2434    -1649     -793     -278 
    -371    -1074    -1861    -2120    -1908    -1718    -1630    -1424 
   -1283    -1509    -1965    -2367    -2517    -2174    -1320     -525 
    -533    -1456    -2671    -3472    -3724    -3769    -3770    -3586 
   -3191    -2797    -2540    -2272    -1726     -873        5      580 
     691      345     -391    -1594    -3194    -4465    -4557    -3445 
   -1799     -334      452      548      391      218       -4     -229 
    -535    -1057    -1641    -2087    -2322    -2251    -1876    -1339 
    -718     -157       67     -147     -742    -1667    -2743    -3550 
   -3607    -2938    -2277    -1965    -1445     -576      -97     -415 
   -1243    -2131    -2735    -3037    -3180    -3049    -2620    -2227 
   -2139    -2286    -2369    -2153    -1624     -999     -753    -1339 
   -2637    -3906    -4415    -4002    -2957    -1718     -681       -4 
     257      -45     -870    -1806    -2439    -2648    -2469    -1799 
    -575      819     1791     2018     1399       68    -1433    -2527 
   -3019    -3042    -2910    -2960    -3238    -3364    -2928    -2138 
   -1620    -1701    -2305    -3080    -3458    -3118    -2243    -1293 
    -693     -568     -676     -756     -811    -1047    -1613    -2326 
   -2803    -2978    -3111    -3294    -3327    -3111    -2829    -2650 
   -2574    -2467    -2128    -1610    -1205     -908     -361      592 
    1587     1985     1362     -191    -2010    -3146    -3053    -2045 
    -936     -328     -278     -584    -1224    -2214    -3142    -3474 
   -3222    -2845    -2687    -2639    -2224    -1174      140     1065 
    1270      892      163     -773    -1701    -2323    -2554    -2466 
   -2020    -1188     -189      615      891      359    -1017    -2916 
   -4842    -6210    -6332    -5015    -3021    -1404     -535      -98 
     302      814     1162      847      -44     -864    -1271    -1345 
   -1146     -610      184      770      616     -359    -1779    -3033 
   -3738    -4095    -4448    -4750    -4766    -4380    -3514    -2282 
   -1232     -881    -1192    -1903    -2936    -4172    -5150    -5279 
   -4453    -3157    -1819     -561      442      930      892      687 
     692      760      357     -625    -1761    -2623    -2849    -2245 
   -1204     -515     -588    -1155    -1711    -2123    -2594    -3133 
   -3403    -3091    -2218    -1092      -49      608      688      193 
    -765    -1840    -2470    -2543    -2524    -2763    -3179    -3555 
   -3748    -3696    -3511    -3503    -3790    -3921    -3248    -1834 
    -523        8     -305    -1227    -2254    -2745    -2538    -2002 
