Origin Time       2026/01/15 07:13:00
Lat.              42.7
Long.             145.4
Depth. (km)       30
Mag.              5.7
Station Code      HKD060
Station Lat.      43.9136
Station Long.     144.6657
Station Height(m) 6
Record Time       2026/01/15 07:13:57
Sampling Freq(Hz) 100Hz
Duration Time(s)  63
Dir.              E-W
Scale Factor      7845(gal)/8223790
Max. Acc. (gal)   1.541
Last Correction   2026/01/15 07:13:57
Memo.             
[...]
   -4754    -4743    -4756    -4757    -4700    -4604    -4527    -4500 
   -4553    -4702    -4885    -5011    -5046    -4978    -4811    -4621 
   -4515    -4542    -4684    -4880    -5024    -5011    -4851    -4691 
   -4585    -4509    -4502    -4595    -4719    -4834    -4965    -5108 
   -5204    -5179    -5024    -4834    -4727    -4730    -4783    -4816 
   -4789    -4711    -4648    -4652    -4702    -4758    -4806    -4827 
   -4820    -4804    -4772    -4715    -4645    -4590    -4587    -4622 
   -4668    -4712    -4700    -4594    -4467    -4445    -4576    -4803 
   -5034    -5208    -5278    -5243    -5159    -5076    -4988    -4864 
   -4706    -4575    -4541    -4634    -4800    -4927    -4959    -4934 
   -4900    -4839    -4749    -4687    -4680    -4735    -4842    -4927 
   -4942    -4924    -4923    -4916    -4828    -4654    -4484    -4419 
   -4482    -4603    -4700    -4731    -4706    -4687    -4703    -4683 
   -4583    -4483    -4480    -4584    -4733    -4855    -4932    -4977 
   -5019    -5073    -5112    -5085    -5003    -4924    -4870    -4835 
   -4823    -4812    -4787    -4769    -4760    -4723    -4666    -4645 
   -4687    -4735    -4742    -4738    -4768    -4822    -4860    -4870 
   -4869    -4861    -4849    -4850    -4880    -4939    -5000    -5022 
   -4981    -4892    -4781    -4668    -4571    -4526    -4542    -4568 
   -4549    -4499    -4502    -4588    -4683    -4716    -4712    -4723 
   -4722    -4658    -4587    -4596    -4723    -4918    -5067    -5078 
   -4947    -4768    -4666    -4706    -4842    -4988    -5061    -5013 
   -4868    -4692    -4560    -4525    -4580    -4692    -4824    -4911 
   -4920    -4873    -4791    -4707    -4710    -4819    -4946    -4997 
   -4949    -4824    -4688    -4583    -4525    -4519    -4567    -4633 
   -4657    -4618    -4549    -4486    -4441    -4430    -4459    -4517 
   -4571    -4575    -4500    -4376    -4274    -4274    -4428    -4692 
   -4936    -5089    -5181    -5223    -5165    -5043    -4972    -4989 
   -5065    -5161    -5224    -5185    -5039    -4885    -4810    -4810 
   -4868    -4978    -5148    -5321    -5389    -5312    -5130    -4896 
   -4681    -4554    -4540    -4627    -4789    -4985    -5127    -5159 
   -5112    -5007    -4855    -4764    -4797    -4837    -4730    -4488 
   -4236    -4074    -4059    -4191    -4407    -4607    -4720    -4764 
   -4761    -4699    -4614    -4604    -4726    -4927    -5092    -5124 
   -5011    -4810    -4599    -4440    -4398    -4537    -4850    -5219 
   -5489    -5605    -5607    -5493    -5219    -4860    -4576    -4436 
   -4414    -4495    -4649    -4785    -4807    -4730    -4653    -4619 
   -4610    -4627    -4669    -4689    -4645    -4517    -4353    -4263 
   -4276    -4330    -4396    -4514    -4677    -4801    -4835    -4818 
   -4800    -4800    -4819    -4834    -4797    -4698    -4569    -4467 
   -4460    -4540    -4633    -4719    -4839    -4980    -5047    -4958 
   -4766    -4638    -4664    -4760    -4796    -4734    -4619    -4527 
   -4529    -4662    -4900    -5143    -5301    -5363    -5356    -5278 
   -5105    -4876    -4658    -4483    -4365    -4337    -4391    -4475 
   -4523    -4522    -4553    -4675    -4861    -5058    -5201    -5239 
   -5188    -5103    -5019    -4927    -4787    -4606    -4487    -4506 
   -4602    -4683    -4731    -4801    -4924    -5032    -5085    -5146 
   -5233    -5270    -5200    -5028    -4801    -4585    -4440    -4396 
   -4441    -4509    -4526    -4496    -4490    -4542    -4634    -4747 
   -4877    -5011    -5134    -5220    -5209    -5074    -4850    -4625 
   -4500    -4514    -4615    -4707    -4708    -4648    -4634    -4699 
   -4807    -4945    -5084    -5165    -5152    -5081    -4999    -4918 
   -4834    -4754    -4703    -4707    -4764    -4823    -4833    -4804 
   -4791    -4835    -4919    -4959    -4892    -4731    -4546    -4407 
   -4345    -4340    -4332    -4290    -4287    -4434    -4726    -5034 
   -5229    -5274    -5202    -5086    -4978    -4864    -4738    -4654 
   -4633    -4621    -4584    -4552    -4579    -4673    -4804    -4939 
   -5015    -4997    -4949    -4927    -4930    -4903    -4789    -4611 
   -4479    -4464    -4523    -4576    -4608    -4662    -4758    -4916 
   -5148    -5383    -5490    -5427    -5267    -5093    -4946    -4807 
   -4652    -4514    -4421    -4348    -4295    -4297    -4349    -4415 
   -4519    -4684    -4853    -4969    -5028    -5044    -4993    -4876 
   -4743    -4649    -4612    -4622    -4638    -4619    -4554    -4507 
   -4538    -4625    -4711    -4766    -4785    -4781    -4777    -4800 
   -4833    -4827    -4811    -4866    -5012    -5152    -5174    -5036 
   -4774    -4477    -4270    -4229    -4333    -4525    -4758    -4985 
   -5151    -5236    -5274    -5294    -5279    -5185    -4999    -4753 
   -4503    -4295    -4155    -4105    -4148    -4261    -4380    -4432 
   -4413    -4386    -4409    -4510    -4660    -4773    -4816    -4835 
   -4861    -4904    -4972    -5043    -5088    -5085    -5043    -4990 
   -4942    -4876    -4801    -4757    -4762    -4839    -4993    -5173 
   -5265    -5208    -5070    -4920    -4773    -4673    -4680    -4772 
   -4835    -4830    -4833    -4899    -4953    -4922    -4818    -4719 
   -4669    -4672    -4738    -4857    -4972    -5026    -5009    -4959 
   -4926    -4935    -4992    -5035    -4981    -4819    -4603    -4433 
   -4391    -4479    -4637    -4834    -5047    -5202    -5211    -5077 
   -4911    -4811    -4826    -4939    -5065    -5111    -5061    -4958 
   -4850    -4779    -4770    -4816    -4874    -4885    -4814    -4700 
   -4594    -4515    -4503    -4590    -4723    -4826    -4854    -4796 
   -4644    -4421    -4209    -4079    -4025    -4029    -4098    -4218 
   -4336    -4409    -4442    -4469    -4509    -4557    -4595    -4610 
   -4599    -4553    -4504    -4510    -4564    -4623    -4646    -4633 
   -4662    -4787    -4957    -5082    -5096    -5007    -4887    -4815 
   -4835    -4932    -5054    -5157    -5206    -5151    -4978    -4745 
   -4525    -4380    -4344    -4410    -4542    -4700    -4873    -5059 
   -5220    -5287    -5248    -5151    -5027    -4872    -4708    -4575 
   -4498    -4513    -4626    -4761    -4845    -4873    -4874    -4893 
   -4938    -4986    -5046    -5113    -5146    -5134    -5098    -5040 
   -4950    -4843    -4783    -4833    -4955    -5047    -5085    -5086 
   -5047    -4986    -4924    -4849    -4762    -4681    -4627    -4621 
   -4673    -4734    -4718    -4614    -4488    -4425    -4472    -4585 
   -4676    -4711    -4757    -4873    -5023    -5135    -5147    -5030 
   -4792    -4488    -4229    -4143    -4264    -4504    -4750    -4916 
   -4949    -4842    -4665    -4511    -4463    -4554    -4741    -4920 
   -4985    -4868    -4614    -4345    -4160    -4077    -4085    -4194 
   -4367    -4509    -4558    -4514    -4415    -4353    -4375    -4437 
   -4471    -4448    -4402    -4356    -4302    -4224    -4124    -4051 
   -4074    -4199    -4384    -4615    -4846    -4958    -4887    -4693 
   -4504    -4399    -4364    -4378    -4425    -4446    -4413    -4387 
   -4455    -4623    -4827    -5016    -5212    -5435    -5632    -5733 
   -5714    -5590    -5402    -5224    -5125    -5163    -5324    -5516 
   -5660    -5760    -5848    -5941    -6021    -6043    -6014    -5971 
   -5914    -5794    -5595    -5368    -5211    -5193    -5300    -5460 
   -5606    -5676    -5647    -5530    -5371    -5244    -5205    -5223 
   -5206    -5108    -4972    -4847    -4777    -4823    -4973    -5105 
   -5125    -5035    -4872    -4696    -4596    -4603    -4654    -4657 
   -4568    -4392    -4162    -3940    -3801    -3804    -3946    -4164 
   -4359    -4441    -4376    -4226    -4093    -4031    -4014    -3994 
   -3955    -3898    -3797    -3681    -3601    -3572    -3620    -3757 
   -3936    -4126    -4330    -4548    -4747    -4877    -4908    -4861 
   -4810    -4792    -4756    -4660    -4549    -4480    -4465    -4491 
   -4530    -4595    -4730    -4881    -4941    -4924    -4923    -4949 
   -4976    -4992    -5000    -4965    -4868    -4769    -4708    -4658 
   -4639    -4689    -4783    -4893    -5023    -5135    -5196    -5206 
   -5185    -5131    -5032    -4884    -4712    -4556    -4432    -4348 
   -4364    -4531    -4789    -4996    -5051    -4969    -4846    -4773 
   -4765    -4823    -4954    -5121    -5256    -5356    -5468    -5566 
   -5555    -5418    -5258    -5157    -5109    -5111    -5165    -5232 
   -5256    -5212    -5134    -5059    -4985    -4923    -4908    -4934 
   -4969    -4965    -4888    -4783    -4729    -4777    -4927    -5128 
   -5309    -5414    -5437    -5408    -5324    -5178    -4985    -4737 
   -4455    -4216    -4097    -4162    -4405    -4693    -4860    -4845 
   -4710    -4554    -4464    -4476    -4554    -4627    -4664    -4733 
   -4866    -4989    -5024    -4989    -4961    -4980    -5007    -4984 
   -4872    -4668    -4438    -4261    -4199    -4303    -4526    -4695 
   -4669    -4453    -4139    -3835    -3626    -3572    -3689    -3927 
   -4178    -4365    -4503    -4606    -4661    -4715    -4810    -4939 
   -5076    -5144    -5076    -4862    -4550    -4232    -3997    -3889 
   -3890    -3950    -4047    -4186    -4348    -4488    -4557    -4550 
   -4549    -4625    -4742    -4835    -4904    -4969    -5000    -4981 
   -4970    -5013    -5096    -5206    -5331    -5402    -5358    -5206 
   -5047    -4980    -5034    -5175    -5343    -5421    -5305    -5005 
   -4630    -4310    -4179    -4295    -4591    -4950    -5254    -5360 
   -5205    -4915    -4698    -4645    -4739    -4936    -5194    -5447 
   -5587    -5529    -5327    -5138    -5047    -5030    -5008    -4928 
   -4812    -4712    -4633    -4580    -4615    -4788    -5039    -5254 
   -5370    -5362    -5209    -4932    -4615    -4380    -4324    -4487 
   -4851    -5321    -5752    -6015    -6056    -5880    -5572    -5271 
   -5077    -5027    -5093    -5189    -5209    -5097    -4891    -4675 
   -4498    -4342    -4191    -4068    -3989    -3948    -3978    -4124 
   -4387    -4735    -5088    -5292    -5212    -4855    -4367    -3904 
   -3574    -3476    -3674    -4110    -4588    -4927    -5076    -5092 
   -5049    -4961    -4841    -4718    -4602    -4463    -4272    -4018 
   -3743    -3530    -3445    -3538    -3846    -4309    -4754    -5042 
   -5113    -4978    -4734    -4537    -4495    -4599    -4729    -4757 
   -4634    -4379    -4056    -3774    -3663    -3753    -3948    -4158 
   -4360    -4579    -4842    -5124    -5348    -5463    -5476    -5382 
   -5152    -4860    -4666    -4658    -4756    -4837    -4869    -4893 
   -4947    -5077    -5286    -5521    -5733    -5881    -5907    -5784 
   -5548    -5278    -5066    -4995    -5073    -5251    -5491    -5763 
   -6002    -6118    -6064    -5894    -5737    -5691    -5719    -5676 
   -5449    -5061    -4645    -4383    -4363    -4502    -4644    -4700 
   -4725    -4810    -4974    -5155    -5292    -5333    -5256    -5082 
   -4892    -4762    -4700    -4666    -4603    -4445    -4203    -3969 
   -3796    -3677    -3612    -3626    -3767    -4048    -4355    -4525 
   -4502    -4349    -4175    -4027    -3881    -3719    -3565    -3451 
   -3418    -3542    -3863    -4261    -4568    -4747    -4820    -4761 
   -4554    -4266    -4002    -3882    -3975    -4243    -4546    -4762 
   -4857    -4860    -4799    -4737    -4725    -4757    -4815    -4850 
   -4780    -4585    -4315    -4045    -3871    -3873    -4068    -4380 
   -4685    -4878    -4923    -4887    -4915    -5081    -5331    -5539 
   -5549    -5294    -4858    -4410    -4089    -3973    -4091    -4419 
   -4849    -5202    -5362    -5340    -5215    -5070    -5008    -5080 
   -5213    -5314    -5381    -5460    -5566    -5617    -5505    -5260 
   -5053    -5013    -5125    -5256    -5331    -5378    -5397    -5341 
   -5231    -5117    -5053    -5080    -5202    -5355    -5425    -5374 
   -5275    -5215    -5204    -5215    -5224    -5216    -5157    -5053 
   -4989    -5028    -5155    -5324    -5486    -5589    -5605    -5525 
   -5363    -5161    -4935    -4689    -4482    -4403    -4484    -4650 
   -4797    -4873    -4831    -4634    -4298    -3927    -3701    -3757 
   -4087    -4576    -5059    -5381    -5455    -5286    -4976    -4646 
   -4383    -4213    -4085    -3940    -3785    -3669    -3659    -3800 
   -4089    -4468    -4846    -5150    -5346    -5413    -5339    -5124 
   -4831    -4542    -4282    -4027    -3808    -3690    -3678    -3753 
   -3927    -4176    -4387    -4494    -4556    -4626    -4696    -4757 
   -4758    -4657    -4496    -4368    -4365    -4549    -4911    -5360 
   -5746    -5941    -5902    -5687    -5448    -5310    -5333    -5521 
   -5779    -5940    -5896    -5629    -5186    -4703    -4349    -4197 
   -4212    -4345    -4567    -4793    -4942    -4981    -4926    -4804 
   -4650    -4504    -4383    -4261    -4133    -4048    -4062    -4220 
   -4568    -5035    -5416    -5525    -5323    -4887    -4344    -3819 
   -3434    -3283    -3381    -3699    -4170    -4664    -5031    -5185 
   -5116    -4881    -4610    -4426    -4374    -4414    -4487    -4517 
   -4455    -4282    -4041    -3840    -3780    -3877    -4113    -4479 
   -4938    -5363    -5609    -5624    -5455    -5182    -4880    -4611 
   -4399    -4234    -4104    -4006    -3996    -4151    -4503    -5007 
   -5551    -5995    -6270    -6390    -6392    -6342    -6293    -6207 
   -6041    -5844    -5684    -5574    -5472    -5309    -5054    -4780 
   -4600    -4548    -4552    -4538    -4461    -4284    -4013    -3730 
   -3547    -3545    -3761    -4197    -4769    -5329    -5724    -5860 
   -5755    -5512    -5260    -5116    -5124    -5220    -5320    -5395 
   -5393    -5246    -4985    -4695    -4399    -4108    -3898    -3862 
   -3994    -4197    -4351    -4386    -4325    -4241    -4168    -4139 
   -4212    -4405    -4671    -4911    -5026    -5028    -5035    -5146 
   -5394    -5745    -6075    -6176    -5919    -5363    -4657    -3963 
   -3472    -3302    -3454    -3835    -4295    -4684    -4881    -4877 
   -4785    -4735    -4808    -4990    -5192    -5335    -5366    -5274 
   -5131    -5016    -4968    -5031    -5223    -5468    -5640    -5634 
   -5441    -5162    -4935    -4815    -4733    -4610    -4494    -4494 
   -4623    -4822    -5027    -5179    -5197    -5057    -4860    -4760 
   -4843    -5086    -5385    -5601    -5645    -5525    -5340    -5205 
   -5157    -5151    -5152    -5148    -5101    -4990    -4828    -4652 
   -4509    -4405    -4309    -4217    -4144    -4101    -4078    -4063 
   -4072    -4131    -4256    -4453    -4681    -4864    -4926    -4869 
   -4781    -4731    -4714    -4679    -4587    -4457    -4386    -4457 
   -4657    -4881    -5044    -5101    -4996    -4700    -4278    -3840 
   -3484    -3277    -3260    -3426    -3703    -3982    -4203    -4394 
   -4584    -4758    -4907    -5034    -5125    -5171    -5189    -5161 
   -5044    -4849    -4633    -4482    -4482    -4653    -4935    -5224 
   -5406    -5421    -5267    -4978    -4619    -4272    -4001    -3832 
   -3770    -3813    -3969    -4228    -4553    -4878    -5120    -5205 
   -5115    -4957    -4903    -5017    -5232    -5425    -5463    -5273 
   -4899    -4471    -4162    -4086    -4228    -4475    -4734    -4970 
   -5174    -5323    -5397    -5387    -5252    -4986    -4662    -4369 
   -4183    -4126    -4170    -4314    -4571    -4927    -5350    -5755 
   -6016    -6064    -5922    -5648    -5287    -4918    -4617    -4421 
   -4333    -4332    -4380    -4440    -4487    -4544    -4646    -4806 
   -4993    -5169    -5285    -5302    -5232    -5121    -4985    -4823 
   -4650    -4502    -4399    -4336    -4303    -4320    -4410    -4572 
   -4774    -4954    -5063    -5092    -5038    -4935    -4854    -4841 
   -4851    -4811    -4693    -4553    -4491    -4563    -4745    -4966 
   -5147    -5231    -5238    -5246    -5320    -5455    -5586    -5644 
   -5587    -5432    -5251    -5103    -5000    -4963    -5024    -5177 
   -5377    -5560    -5638    -5539    -5274    -4939    -4669    -4557 
   -4594    -4693    -4779    -4807    -4766    -4691    -4665    -4727 
   -4839    -4942    -4965    -4862    -4680    -4517    -4421    -4415 
   -4530    -4714    -4843    -4846    -4726    -4525    -4311    -4152 
   -4068    -4016    -3947    -3855    -3769    -3723    -3727    -3770 
   -3846    -3943    -4066    -4234    -4437    -4630    -4810    -4970 
   -5061    -5016    -4828    -4571    -4359    -4311    -4465    -4726 
   -4965    -5155    -5327    -5485    -5606    -5649    -5572    -5347 
   -4995    -4588    -4243    -4066    -4086    -4255    -4509    -4795 
   -5074    -5292    -5391    -5329    -5121    -4881    -4734    -4735 
   -4889    -5134    -5362    -5487    -5458    -5269    -4962    -4612 
   -4307    -4118    -4070    -4128    -4202    -4226    -4187    -4110 
   -4041    -4021    -4072    -4203    -4384    -4540    -4599    -4577 
   -4537    -4525    -4548    -4596    -4627    -4611    -4564    -4533 
   -4557    -4654    -4814    -4995    -5140    -5209    -5185    -5090 
   -4972    -4884    -4858    -4893    -4985    -5116    -5259    -5363 
   -5400    -5397    -5382    -5341    -5270    -5186    -5111    -5071 
   -5082    -5127    -5159    -5113    -4953    -4703    -4461    -4328 
   -4329    -4405    -4498    -4591    -4673    -4703    -4639    -4480 
   -4272    -4082    -3954    -3909    -3956    -4056    -4147    -4203 
   -4236    -4244    -4247    -4283    -4330    -4347    -4344    -4347 
   -4344    -4320    -4287    -4261    -4245    -4268    -4345    -4453 
   -4560    -4638    -4688    -4737    -4773    -4773    -4734    -4649 
   -4525    -4401    -4328    -4337    -4441    -4635    -4887    -5131 
   -5328    -5466    -5533    -5539    -5497    -5436    -5381    -5344 
   -5331    -5335    -5348    -5359    -5351    -5331    -5325    -5346 
   -5371    -5395    -5433    -5476    -5495    -5475    -5410    -5305 
   -5165    -4984    -4804    -4711    -4726    -4784    -4860    -4961 
   -5078    -5170    -5204    -5175    -5124    -5092    -5105    -5174 
   -5263    -5331    -5377    -5386    -5333    -5231    -5098    -4927 
   -4716    -4514    -4388    -4380    -4469    -4607    -4743    -4828 
   -4820    -4716    -4565    -4436    -4390    -4467    -4635    -4812 
   -4947    -5047    -5121    -5173    -5198    -5186    -5136    -5053 
   -4936    -4779    -4599    -4459    -4421    -4495    -4629    -4737 
   -4761    -4696    -4572    -4434    -4313    -4232    -4217    -4282 
   -4401    -4518    -4600    -4658    -4730    -4838    -4965    -5054 
   -5065    -4989    -4835    -4630    -4398    -4151    -3933    -3785 
   -3689    -3640    -3681    -3817    -4013    -4259    -4553    -4847 
   -5071    -5194    -5233    -5224    -5202    -5208    -5252    -5277 
   -5228    -5130    -5038    -4988    -5009    -5094    -5193    -5279 
   -5358    -5433    -5503    -5537    -5481    -5337    -5158    -4978 
   -4806    -4614    -4399    -4240    -4206    -4313    -4521    -4752 
   -4926    -4996    -4963    -4877    -4787    -4715    -4666    -4612 
   -4538    -4460    -4395    -4371    -4414    -4506    -4619    -4730 
