Origin Time       2026/01/15 07:13:00
Lat.              42.7
Long.             145.4
Depth. (km)       30
Mag.              5.7
Station Code      HKD055
Station Lat.      43.8244
Station Long.     144.1087
Station Height(m) 23
Record Time       2026/01/15 07:14:00
Sampling Freq(Hz) 100Hz
Duration Time(s)  60
Dir.              U-D
Scale Factor      7845(gal)/8223790
Max. Acc. (gal)   0.863
Last Correction   2026/01/15 07:14:02
Memo.             
[...]
    6720     6785     6843     6880     6898     6914     6924     6947 
    6994     7003     6959     6916     6860     6786     6724     6678 
    6671     6717     6752     6733     6693     6658     6628     6592 
    6529     6465     6448     6481     6509     6502     6477     6439 
    6434     6493     6558     6585     6593     6619     6669     6687 
    6627     6540     6485     6477     6536     6640     6721     6758 
    6777     6785     6754     6694     6656     6637     6602     6573 
    6586     6631     6686     6731     6744     6737     6721     6701 
    6689     6690     6664     6592     6534     6531     6563     6609 
    6640     6648     6671     6735     6813     6852     6805     6710 
    6648     6629     6624     6627     6646     6678     6708     6739 
    6787     6833     6855     6863     6860     6844     6808     6759 
    6733     6723     6686     6644     6635     6652     6655     6612 
    6569     6575     6621     6670     6694     6697     6701     6689 
    6647     6608     6593     6589     6600     6637     6678     6656 
    6589     6566     6601     6617     6578     6511     6473     6478 
    6488     6502     6561     6637     6674     6673     6656     6605 
    6551     6574     6642     6700     6758     6783     6756     6735 
    6728     6698     6678     6674     6639     6588     6550     6527 
    6528     6536     6512     6469     6459     6488     6525     6585 
    6663     6716     6743     6760     6736     6679     6658     6678 
    6681     6664     6687     6735     6732     6654     6548     6512 
    6548     6567     6547     6546     6585     6644     6697     6690 
    6610     6546     6567     6643     6693     6700     6704     6704 
    6678     6681     6727     6720     6660     6650     6686     6709 
    6724     6777     6862     6910     6901     6921     6995     7024 
    6970     6907     6882     6863     6820     6767     6747     6772 
    6797     6774     6721     6660     6604     6561     6513     6451 
    6390     6320     6235     6210     6264     6297     6280     6264 
    6284     6334     6374     6389     6401     6407     6404     6434 
    6504     6574     6624     6662     6709     6767     6818     6852 
    6885     6957     7038     7049     7010     6983     6963     6925 
    6856     6733     6620     6596     6606     6583     6550     6521 
    6485     6473     6501     6517     6502     6500     6524     6556 
    6579     6589     6588     6593     6637     6717     6790     6837 
    6866     6860     6810     6736     6704     6758     6832     6853 
    6851     6851     6822     6764     6731     6744     6778     6813 
    6851     6889     6907     6899     6843     6763     6736     6771 
    6809     6816     6808     6794     6744     6664     6629     6642 
    6646     6650     6673     6675     6632     6582     6574     6610 
    6643     6621     6573     6562     6552     6494     6440     6428 
    6430     6442     6470     6501     6536     6579     6629     6644 
    6593     6531     6520     6554     6613     6655     6635     6577 
    6554     6602     6673     6698     6670     6631     6592     6528 
    6469     6465     6485     6498     6547     6612     6602     6550 
    6542     6578     6623     6647     6633     6616     6632     6651 
    6621     6569     6569     6623     6670     6698     6713     6709 
    6702     6723     6786     6848     6852     6818     6786     6743 
    6696     6683     6705     6732     6748     6747     6747     6745 
    6713     6678     6696     6736     6750     6764     6802     6833 
    6860     6876     6856     6814     6785     6755     6714     6694 
    6731     6771     6737     6652     6578     6538     6534     6551 
    6577     6590     6570     6531     6494     6454     6438     6469 
    6500     6505     6507     6523     6552     6552     6538     6563 
    6609     6646     6678     6686     6671     6646     6625     6644 
    6663     6646     6651     6696     6740     6763     6766     6751 
    6704     6646     6635     6669     6694     6712     6736     6745 
    6716     6689     6700     6690     6644     6636     6637     6604 
    6588     6615     6650     6651     6610     6552     6484     6431 
    6416     6393     6340     6303     6313     6376     6458     6511 
    6534     6555     6593     6642     6682     6735     6778     6772 
    6755     6752     6741     6745     6787     6829     6844     6844 
    6879     6949     6972     6936     6903     6876     6844     6843 
    6880     6910     6910     6912     6956     7005     6999     6982 
    6961     6885     6793     6725     6637     6529     6455     6423 
    6413     6419     6439     6412     6285     6173     6157     6118 
    6050     6069     6124     6118     6127     6241     6369     6439 
    6511     6617     6706     6752     6764     6791     6862     6899 
    6895     6932     6987     7002     6970     6930     6941     6979 
    7020     7072     7114     7145     7149     7072     6964     6918 
    6895     6843     6782     6717     6651     6616     6621     6642 
    6636     6594     6516     6442     6431     6431     6392     6384 
    6415     6431     6459     6527     6616     6666     6674     6682 
    6669     6647     6651     6639     6632     6663     6698     6739 
    6790     6829     6835     6814     6849     6945     6976     6928 
    6921     6956     6951     6933     6914     6840     6708     6574 
    6516     6546     6555     6523     6500     6455     6385     6347 
    6320     6284     6273     6262     6241     6245     6234     6193 
    6204     6234     6257     6338     6434     6492     6552     6624 
    6687     6759     6806     6808     6826     6876     6885     6829 
    6737     6647     6633     6681     6667     6615     6613     6643 
    6669     6669     6654     6694     6737     6727     6774     6836 
    6772     6708     6739     6745     6709     6716     6710     6663 
    6652     6666     6648     6593     6482     6407     6440     6458 
    6451     6519     6583     6598     6635     6712     6781     6793 
    6785     6789     6752     6701     6704     6712     6685     6663 
    6670     6709     6772     6816     6843     6864     6826     6747 
    6727     6706     6604     6529     6516     6524     6556     6494 
    6366     6380     6459     6461     6475     6585     6735     6795 
    6759     6744     6727     6674     6681     6717     6664     6523 
    6416     6451     6525     6497     6470     6524     6525     6504 
    6605     6701     6693     6700     6733     6752     6783     6804 
    6795     6785     6791     6832     6882     6879     6814     6764 
    6801     6880     6944     6998     6983     6909     6883     6874 
    6852     6875     6885     6855     6847     6843     6829     6791 
    6685     6583     6547     6508     6481     6502     6474     6377 
    6336     6388     6408     6342     6320     6401     6469     6489 
    6527     6623     6728     6718     6678     6745     6824     6837 
    6794     6721     6720     6785     6789     6739     6736     6710 
    6656     6779     6933     6825     6621     6562     6627     6690 
    6698     6704     6648     6512     6473     6538     6516     6369 
    6259     6300     6394     6428     6380     6327     6339     6346 
    6347     6380     6354     6282     6305     6490     6694     6697 
    6562     6583     6843     6995     6899     6889     6979     6955 
    6905     6880     6820     6787     6826     6863     6837     6772 
    6733     6718     6724     6758     6710     6631     6706     6777 
    6648     6528     6588     6686     6646     6520     6469     6462 
    6381     6334     6423     6439     6327     6315     6359     6358 
    6438     6565     6619     6648     6620     6566     6644     6758 
    6755     6687     6636     6679     6821     6921     6944     6945 
    6839     6687     6718     6868     6978     6980     6864     6795 
    6868     6964     6994     6948     6921     6917     6718     6467 
    6525     6640     6489     6369     6486     6623     6578     6358 
    6192     6295     6583     6721     6566     6438     6555     6712 
    6681     6504     6448     6601     6793     6833     6660     6637 
    6867     6849     6671     6754     6852     6779     6791     6929 
    6948     6756     6596     6714     6998     7065     6826     6667 
    6743     6789     6785     6729     6458     6219     6251     6327 
    6374     6432     6386     6342     6416     6485     6559     6625 
    6505     6404     6594     6762     6706     6686     6674     6547 
    6474     6439     6436     6694     7021     6953     6646     6550 
    6629     6739     6899     7013     7053     7007     6853     6779 
    6876     7037     7105     6968     6755     6625     6659     6872 
    6978     6798     6570     6428     6385     6478     6555     6550 
    6469     6292     6259     6424     6554     6686     6820     6825 
    6782     6766     6839     7009     7096     7015     6876     6856 
    7026     7198     7171     7022     6916     6883     6939     7025 
    6947     6794     6880     7125     7129     6853     6779     7088 
    7248     6926     6575     6639     6872     6924     6751     6411 
    6218     6351     6430     6319     6273     6299     6226     6018 
    5980     6216     6316     6212     6168     6164     6134     6138 
    6241     6350     6397     6507     6594     6596     6774     7041 
    7060     6897     6817     6886     6971     7006     7014     6944 
    6829     6793     6822     6887     6912     6741     6485     6439 
    6590     6698     6681     6586     6467     6380     6411     6623 
    6832     6862     6883     6963     7003     7051     7086     7087 
    7088     7047     6968     6889     6818     6758     6705     6658 
    6540     6349     6203     6180     6251     6284     6220     6106 
    6008     6041     6193     6354     6426     6401     6381     6451 
    6620     6667     6442     6327     6600     6948     7001     6755 
    6554     6629     6741     6670     6570     6534     6509     6539 
    6524     6427     6440     6498     6396     6241     6212     6322 
    6461     6426     6300     6307     6316     6301     6373     6481 
    6605     6558     6367     6465     6771     6872     6763     6691 
    6824     7040     7079     6890     6735     6778     6844     6887 
    6851     6590     6424     6520     6663     6812     6709     6326 
    6288     6635     6848     6878     6816     6698     6717     6879 
    7075     7256     7288     7156     7044     7076     7157     7150 
    7032     6858     6745     6697     6628     6578     6585     6550 
    6484     6453     6389     6366     6404     6326     6265     6305 
    6288     6278     6308     6332     6378     6386     6520     6802 
    6853     6831     7033     7155     7121     7157     7165     7024 
    6829     6736     6833     6903     6743     6525     6401     6384 
    6465     6517     6442     6238     6062     6126     6315     6401 
    6338     6193     6137     6280     6524     6637     6517     6403 
    6513     6735     6867     6817     6655     6579     6604     6597 
    6561     6519     6485     6434     6386     6515     6687     6660 
    6637     6740     6793     6847     6972     7032     7025     6987 
    6898     6871     6903     6895     6910     6955     6983     7059 
    7157     7157     7032     6879     6785     6733     6691     6648 
    6552     6432     6436     6535     6507     6423     6516     6655 
    6669     6643     6675     6743     6771     6760     6790     6816 
    6737     6625     6644     6737     6778     6829     6867     6797 
    6766     6849     6913     6960     7022     7005     6951     6922 
    6833     6732     6706     6655     6573     6565     6577     6555 
    6538     6497     6467     6489     6513     6544     6528     6431 
    6394     6413     6355     6288     6342     6475     6554     6542 
    6513     6485     6431     6408     6443     6440     6385     6394 
    6463     6489     6524     6640     6717     6709     6698     6693 
    6702     6731     6743     6756     6756     6724     6698     6690 
    6698     6755     6883     7015     7068     7034     6922     6829 
    6801     6771     6822     6945     6957     6883     6840     6833 
    6840     6791     6700     6674     6700     6663     6558     6463 
    6435     6466     6507     6527     6535     6569     6619     6625 
    6593     6596     6637     6675     6728     6793     6802     6735 
    6639     6600     6683     6810     6876     6875     6804     6735 
    6694     6600     6523     6562     6632     6604     6485     6411 
    6403     6394     6458     6562     6558     6508     6509     6544 
    6605     6642     6650     6671     6623     6562     6606     6667 
    6708     6762     6766     6720     6701     6739     6817     6851 
    6799     6727     6660     6654     6745     6852     6891     6818 
    6694     6675     6768     6821     6791     6739     6704     6709 
    6723     6700     6696     6754     6782     6723     6613     6525 
    6512     6531     6532     6465     6292     6141     6122     6145 
    6118     6050     6002     6019     6077     6160     6264     6362 
    6475     6666     6909     7075     7141     7211     7326     7445 
    7528     7562     7555     7515     7473     7430     7353     7229 
    7036     6775     6536     6424     6424     6423     6362     6278 
    6223     6242     6322     6426     6539     6602     6575     6517 
    6504     6559     6616     6616     6574     6534     6559     6670 
    6806     6901     6905     6808     6662     6571     6573     6563 
    6440     6255     6146     6174     6276     6374     6424     6403 
    6394     6475     6574     6613     6596     6555     6515     6504 
    6536     6581     6602     6585     6558     6597     6713     6826 
    6860     6808     6725     6669     6673     6735     6777     6747 
    6698     6714     6810     6897     6898     6885     6925     6964 
    6960     6941     6945     6982     6988     6905     6771     6667 
    6623     6594     6523     6420     6284     6118     6031     6061 
    6100     6097     6054     5985     5988     6107     6253     6345 
    6372     6412     6552     6733     6849     6889     6895     6914 
    6957     7021     7069     7069     7059     7069     7078     7090 
    7125     7140     7109     7037     6948     6925     6975     7017 
    7011     6966     6910     6874     6851     6836     6826     6814 
    6806     6785     6770     6794     6805     6786     6755     6683 
    6632     6685     6741     6700     6615     6547     6500     6480 
    6457     6378     6273     6222     6235     6264     6295     6343 
    6401     6451     6473     6485     6539     6597     6612     6616 
    6593     6536     6550     6631     6690     6748     6831     6885 
    6899     6901     6860     6764     6697     6698     6698     6666 
    6627     6583     6554     6555     6544     6509     6494     6501 
    6516     6550     6569     6535     6489     6469     6458     6457 
    6490     6550     6585     6579     6562     6561     6593     6643 
    6677     6673     6642     6635     6674     6729     6767     6783 
    6785     6795     6836     6885     6901     6886     6870     6860 
    6859     6864     6853     6826     6805     6775     6737     6710 
    6687     6671     6662     6652     6658     6678     6681     6664 
    6655     6658     6686     6748     6813     6840     6841     6836 
    6821     6785     6741     6704     6664     6642     6656     6662 
    6609     6536     6505     6508     6505     6474     6426     6394 
    6392     6401     6426     6454     6478     6515     6559     6589 
    6597     6620     6670     6737     6791     6801     6794     6793 
    6777     6759     6741     6687     6605     6544     6527     6525 
    6502     6457     6409     6385     6384     6388     6396     6407 
    6415     6442     6485     6528     6586     6663     6729     6793 
    6853     6879     6885     6889     6895     6924     6943     6912 
    6856     6832     6832     6828     6817     6798     6758     6704 
    6659     6629     6598     6577     6575     6585     6600     6610 
    6628     6658     6660     6613     6546     6504     6511     6544 
    6592     6650     6708     6777     6859     6939     6993     6999 
    6971     6937     6913     6898     6874     6825     6777     6759 
    6758     6745     6718     6691     6677     6664     6664     6693 
    6721     6724     6704     6669     6632     6608     6590     6548 
    6482     6436     6434     6440     6430     6416     6404     6393 
    6392     6386     6361     6330     6315     6334     6382     6457 
    6540     6615     6694     6805     6912     6986     7049     7099 
    7134     7163     7182     7194     7187     7133     7036     6940 
    6879     6836     6760     6637     6513     6417     6349     6281 
    6200     6126     6070     6038     6052     6110     6184     6268 
    6346     6405     6465     6524     6586     6656     6712     6732 
    6735     6756     6798     6816     6801     6778     6754     6743 
    6771     6793     6772     6739     6702     6673     6671     6683 
    6690     6678     6647     6612     6593     6600     6629     6660 
    6669     6670     6681     6702     6727     6754     6770     6747 
    6675     6592     6542     6536     6556     6586     6615     6644 
    6690     6750     6785     6793     6804     6805     6786     6767 
    6747     6716     6662     6596     6548     6516     6494     6496 
    6511     6521     6520     6505     6501     6515     6548     6615 
    6698     6759     6795     6812     6805     6808     6836     6870 
    6891     6895     6899     6916     6914     6894     6880     6886 
    6889     6872     6844     6795     6718     6619     6511     6440 
    6409     6366     6311     6308     6367     6457     6558     6642 
    6686     6728     6791     6864     6918     6928     6901     6882 
    6883     6872     6824     6737     6659     6613     6556     6471 
    6385     6305     6235     6184     6151     6127     6119     6135 
    6150     6145     6137     6138     6161     6218     6291     6350 
    6412     6475     6528     6586     6655     6702     6728     6766 
    6813     6845     6856     6848     6826     6825     6878     6953 
    7006     7025     7015     7001     7006     7026     7041     7029 
    6991     6949     6914     6882     6856     6833     6801     6762 
    6723     6694     6702     6735     6740     6708     6664     6616 
    6575     6561     6558     6547     6528     6492     6440     6405 
    6388     6357     6323     6315     6338     6392     6458     6524 
    6577     6598     6596     6596     6632     6717     6790     6794 
    6754     6706     6671     6669     6701     6744     6759     6733 
    6697     6683     6708     6768     6816     6810     6785     6778 
    6790     6808     6818     6837     6870     6885     6868     6835 
    6802     6771     6745     6720     6671     6619     6604     6602 
