Origin Time       2026/01/15 07:13:00
Lat.              42.7
Long.             145.4
Depth. (km)       30
Mag.              5.7
Station Code      HKD086
Station Lat.      42.8542
Station Long.     143.8579
Station Height(m) 9
Record Time       2026/01/15 07:13:37
Sampling Freq(Hz) 100Hz
Duration Time(s)  122
Dir.              N-S
Scale Factor      7845(gal)/8223790
Max. Acc. (gal)   10.907
Last Correction   2026/01/15 07:13:37
Memo.             
[...]
   -6107    -6057    -5773    -5351    -4984    -4772    -4719    -4850 
   -5171    -5567    -5834    -5857    -5687    -5436    -5198    -5081 
   -5128    -5248    -5304    -5232    -5063    -4877    -4785    -4872 
   -5140    -5508    -5823    -5946    -5876    -5734    -5606    -5516 
   -5464    -5404    -5263    -5046    -4797    -4568    -4469    -4621 
   -4984    -5347    -5512    -5463    -5298    -5094    -4911    -4814 
   -4796    -4820    -4954    -5231    -5499    -5560    -5385    -5107 
   -4866    -4757    -4837    -5035    -5215    -5324    -5378    -5401 
   -5456    -5610    -5903    -6272    -6555    -6644    -6534    -6277 
   -5953    -5616    -5324    -5150    -5151    -5328    -5594    -5799 
   -5837    -5668    -5314    -4892    -4604    -4621    -4889    -5143 
   -5208    -5111    -4893    -4577    -4260    -4072    -4059    -4167 
   -4309    -4460    -4642    -4858    -5084    -5300    -5472    -5537 
   -5482    -5385    -5310    -5271    -5283    -5364    -5509    -5698 
   -5907    -6077    -6116    -5989    -5752    -5497    -5339    -5346 
   -5495    -5741    -6066    -6370    -6455    -6219    -5715    -5038 
   -4305    -3735    -3495    -3585    -3959    -4556    -5171    -5580 
   -5746    -5802    -5841    -5857    -5844    -5819    -5745    -5601 
   -5472    -5428    -5425    -5481    -5659    -5879    -5994    -5984 
   -5888    -5722    -5520    -5329    -5142    -4941    -4770    -4664 
   -4618    -4665    -4885    -5285    -5719    -6015    -6129    -6110 
   -5989    -5813    -5655    -5524    -5337    -5057    -4707    -4334 
   -4036    -3913    -3973    -4148    -4383    -4658    -5000    -5435 
   -5925    -6370    -6640    -6646    -6423    -6089    -5732    -5401 
   -5185    -5170    -5347    -5648    -6008    -6367    -6616    -6640 
   -6417    -6033    -5640    -5378    -5254    -5169    -5047    -4897 
   -4731    -4575    -4496    -4531    -4590    -4564    -4446    -4298 
   -4180    -4118    -4063    -3975    -3843    -3686    -3593    -3669 
   -3896    -4144    -4344    -4496    -4612    -4789    -5162    -5726 
   -6323    -6824    -7183    -7365    -7371    -7279    -7168    -7040 
   -6867    -6586    -6106    -5451    -4845    -4490    -4402    -4531 
   -4873    -5379    -5900    -6235    -6312    -6259    -6257    -6376 
   -6610    -6918    -7190    -7271    -7056    -6517    -5710    -4808 
   -4035    -3555    -3406    -3488    -3631    -3688    -3639    -3573 
   -3527    -3415    -3183    -2913    -2713    -2643    -2776    -3133 
   -3607    -4114    -4656    -5184    -5637    -6062    -6527    -7011 
   -7426    -7645    -7608    -7349    -6956    -6515    -6080    -5679 
   -5324    -5049    -4932    -5016    -5227    -5452    -5634    -5790 
   -5937    -6060    -6157    -6242    -6254    -6058    -5620    -5051 
   -4527    -4222    -4237    -4507    -4845    -5109    -5270    -5273 
   -5040    -4631    -4237    -4016    -4017    -4214    -4491    -4685 
   -4687    -4507    -4251    -4039    -3990    -4201    -4708    -5425 
   -6131    -6575    -6633    -6381    -6007    -5688    -5548    -5621 
   -5807    -5961    -5973    -5769    -5385    -5035    -4916    -5017 
   -5228    -5444    -5559    -5544    -5439    -5196    -4766    -4272 
   -3877    -3608    -3434    -3391    -3478    -3613    -3761    -3983 
   -4411    -5171    -6215    -7284    -8086    -8372    -8005    -7113 
   -6068    -5247    -4884    -5017    -5530    -6237    -6914    -7348 
   -7392    -7028    -6381    -5655    -5069    -4774    -4764    -4901 
   -5054    -5127    -5067    -4924    -4846    -4946    -5192    -5486 
   -5734    -5850    -5846    -5837    -5834    -5713    -5470    -5244 
   -5108    -4993    -4837    -4708    -4668    -4619    -4488    -4347 
   -4293    -4375    -4568    -4769    -4926    -5070    -5185    -5184 
   -5040    -4849    -4711    -4664    -4692    -4764    -4868    -4986 
   -5040    -4970    -4837    -4768    -4870    -5139    -5404    -5459 
   -5223    -4738    -4197    -3885    -3978    -4479    -5312    -6309 
   -7180    -7627    -7557    -7113    -6509    -5964    -5676    -5690 
   -5933    -6309    -6669    -6845    -6798    -6624    -6442    -6289 
   -6156    -6054    -5938    -5684    -5242    -4679    -4116    -3649 
   -3327    -3161    -3110    -3117    -3175    -3322    -3601    -4033 
   -4546    -5015    -5339    -5452    -5337    -5062    -4777    -4626 
   -4680    -4989    -5562    -6296    -7029    -7618    -7948    -7917 
   -7542    -7025    -6619    -6397    -6204    -5868    -5366    -4754 
   -4108    -3566    -3275    -3284    -3545    -3940    -4371    -4810 
   -5238    -5616    -5913    -6112    -6220    -6288    -6388    -6523 
   -6639    -6694    -6674    -6542    -6268    -5880    -5416    -4897 
   -4369    -3878    -3460    -3188    -3152    -3368    -3800    -4367 
   -4941    -5429    -5780    -5854    -5528    -4858    -4043    -3329 
   -2956    -3034    -3491    -4225    -5134    -5964    -6467    -6660 
   -6678    -6617    -6602    -6828    -7335    -7938    -8438    -8748 
   -8818    -8656    -8348    -7965    -7543    -7202    -7123    -7335 
   -7587    -7515    -6932    -5898    -4557    -3057    -1615     -500 
     152      417      457      395      284      108     -210     -751 
   -1568    -2632    -3835    -5032    -6029    -6608    -6687    -6411 
   -6058    -5892    -6081    -6651    -7418    -8056    -8348    -8255 
   -7859    -7331    -6951    -6943    -7304    -7892    -8532    -8980 
   -9036    -8754    -8345    -7935    -7578    -7392    -7430    -7514 
   -7404    -6990    -6253    -5259    -4217    -3430    -3078    -3064 
   -3148    -3125    -2829    -2160    -1227     -317      301      473 
     193     -459    -1323    -2116    -2548    -2486    -2018    -1416 
   -1036    -1161    -1883    -3121    -4706    -6392    -7857    -8881 
   -9532   -10002   -10465   -11121   -12110   -13313   -14382   -14952 
  -14786   -13795   -12109   -10110    -8237    -6755    -5692    -4954 
   -4428    -4005    -3601    -3244    -2972    -2709    -2369    -1938 
   -1422     -869     -330      205      711     1057     1105      746 
    -118    -1512    -3167    -4561    -5360    -5645    -5593    -5292 
   -4892    -4603    -4518    -4623    -4934    -5493    -6239    -7025 
   -7763    -8386    -8773    -8899    -8920    -8991    -9073    -9022 
   -8725    -8139    -7312    -6373    -5498    -4897    -4699    -4830 
   -5144    -5603    -6197    -6836    -7407    -7839    -8044    -7955 
   -7626    -7163    -6579    -5867    -5154    -4592    -4201    -3981 
   -3997    -4214    -4456    -4531    -4279    -3658    -2794    -1864 
   -1053     -567     -533     -891    -1458    -2062    -2597    -3018 
   -3319    -3520    -3658    -3784    -3983    -4357    -4959    -5726 
   -6448    -6925    -7136    -7176    -7117    -7006    -6910    -6855 
   -6821    -6789    -6795    -6890    -7053    -7230    -7427    -7657 
   -7832    -7885    -7846    -7699    -7333    -6793    -6281    -5873 
   -5462    -5013    -4638    -4372    -4066    -3618    -3171    -2943 
   -2967    -3114    -3206    -3038    -2519    -1782    -1084     -650 
    -660    -1189    -2157    -3329    -4414    -5216    -5744    -6115 
   -6367    -6552    -6840    -7308    -7905    -8638    -9525   -10397 
  -11010   -11290   -11313   -11134   -10752   -10187    -9563    -8981 
   -8379    -7716    -7086    -6454    -5571    -4340    -2957    -1672 
    -745     -406     -630    -1148    -1696    -2127    -2343    -2262 
   -1931    -1564    -1391    -1486    -1799    -2254    -2770    -3199 
   -3412    -3461    -3520    -3765    -4375    -5510    -7099    -8726 
   -9840   -10072    -9393    -8089    -6573    -5229    -4395    -4263 
   -4774    -5710    -6855    -7994    -8912    -9464    -9551    -9104 
   -8189    -7068    -6093    -5458    -5084    -4854    -4729    -4603 
   -4372    -4156    -4147    -4342    -4615    -4878    -5115    -5305 
   -5390    -5233    -4699    -3829    -2857    -2072    -1676    -1794 
   -2473    -3554    -4675    -5547    -6100    -6334    -6243    -5890 
   -5374    -4819    -4455    -4523    -5020    -5706    -6363    -6872 
   -7226    -7520    -7821    -8090    -8263    -8284    -8109    -7766 
   -7392    -7109    -6870    -6513    -5903    -4984    -3858    -2795 
   -2045    -1653    -1503    -1449    -1390    -1304    -1256    -1372 
   -1732    -2284    -2910    -3543    -4162    -4750    -5306    -5817 
   -6253    -6536    -6578    -6470    -6459    -6625    -6808    -6853 
   -6760    -6592    -6397    -6224    -6099    -5994    -5809    -5431 
   -4816    -4005    -3098    -2309    -1965    -2272    -3172    -4460 
   -5899    -7227    -8213    -8727    -8764    -8438    -8019    -7800 
   -7912    -8287    -8761    -9127    -9154    -8677    -7727    -6525 
   -5408    -4692    -4486    -4600    -4704    -4476    -3699    -2376 
    -712      947     2188     2660     2209      938     -826    -2664 
   -4179    -5150    -5613    -5706    -5556    -5336    -5269    -5495 
   -6023    -6736    -7422    -7892    -8137    -8303    -8533    -8972 
   -9771   -10905   -12085   -12920   -13142   -12676   -11610   -10165 
   -8608    -7146    -5898    -4868    -3950    -3025    -2072    -1138 
    -255      575     1323     1890     2160     2123     1919     1734 
    1636     1532     1269      666     -479    -2254    -4509    -6933 
   -9205   -11021   -12118   -12453   -12280   -11985   -11851   -11961 
  -12183   -12249   -11885   -10951    -9567    -8074    -6779    -5810 
   -5248    -5182    -5483    -5829    -5979    -5765    -5049    -3923 
   -2716    -1706    -1031     -742     -776     -953    -1054     -993 
    -912    -1030    -1447    -2131    -2968    -3777    -4330    -4529 
   -4471    -4341    -4360    -4747    -5576    -6739    -8051    -9305 
  -10284   -10806   -10764   -10196    -9278    -8221    -7177    -6241 
   -5459    -4860    -4453    -4224    -4126    -4056    -3896    -3624 
   -3283    -2886    -2519    -2358    -2515    -2917    -3380    -3767 
   -4051    -4306    -4653    -5119    -5617    -6068    -6434    -6606 
   -6467    -6037    -5476    -4968    -4714    -4941    -5728    -6844 
   -7874    -8436    -8307    -7500    -6261    -4947    -3889    -3315 
   -3329    -3815    -4476    -5058    -5429    -5559    -5576    -5748 
   -6281    -7163    -8121    -8699    -8510    -7495    -5931    -4206 
   -2660    -1582    -1162    -1352    -1829    -2222    -2434    -2605 
   -2891    -3460    -4368    -5404    -6297    -6925    -7152    -6812 
   -5960    -4932    -4140    -3883    -4270    -5197    -6417    -7603 
   -8469    -8908    -8957    -8700    -8297    -7896    -7550    -7303 
   -7204    -7145    -6840    -6072    -4912    -3649    -2578    -1934 
   -1800    -2068    -2493    -2808    -2897    -2867    -2899    -3111 
   -3550    -4240    -5190    -6292    -7342    -8176    -8649    -8604 
   -8067    -7299    -6600    -6156    -6030    -6176    -6403    -6434 
   -6118    -5525    -4831    -4232    -3912    -3959    -4275    -4661 
   -4958    -5069    -4927    -4519    -3909    -3238    -2689    -2401 
   -2443    -2829    -3510    -4351    -5190    -5965    -6691    -7335 
   -7867    -8322    -8642    -8654    -8268    -7535    -6569    -5553 
   -4741    -4352    -4488    -5136    -6153    -7199    -7886    -8067 
   -7874    -7479    -6971    -6424    -5908    -5470    -5155    -4985 
   -4880    -4735    -4542    -4349    -4156    -3900    -3518    -3003 
   -2430    -1856    -1318     -943     -876    -1117    -1553    -2084 
   -2683    -3358    -4085    -4808    -5454    -5948    -6320    -6701 
   -7221    -7925    -8706    -9317    -9602    -9567    -9331    -9042 
   -8780    -8559    -8419    -8379    -8359    -8237    -7906    -7306 
   -6434    -5337    -4139    -3052    -2311    -2041    -2168    -2492 
   -2839    -3140    -3372    -3469    -3380    -3144    -2810    -2376 
   -1883    -1489    -1325    -1472    -1949    -2608    -3222    -3694 
   -4045    -4260    -4349    -4453    -4733    -5206    -5791    -6450 
   -7168    -7882    -8522    -9038    -9327    -9223    -8646    -7705 
   -6658    -5753    -5107    -4716    -4517    -4379    -4203    -4005 
   -3846    -3763    -3769    -3820    -3878    -3987    -4212    -4542 
   -4900    -5163    -5259    -5259    -5367    -5752    -6401    -7167 
   -7893    -8463    -8811    -9004    -9193    -9436    -9691    -9909 
  -10008    -9873    -9501    -9009    -8452    -7813    -7117    -6435 
   -5833    -5320    -4846    -4284    -3462    -2354    -1174     -225 
     314      492      491      473      483      449      241     -284 
   -1206    -2446    -3786    -4989    -5922    -6548    -6907    -7123 
   -7303    -7447    -7527    -7485    -7215    -6702    -6053    -5363 
   -4742    -4425    -4625    -5346    -6415    -7561    -8492    -9018 
   -9088    -8714    -7969    -7053    -6201    -5528    -5009    -4599 
   -4276    -4021    -3821    -3693    -3667    -3807    -4191    -4826 
   -5597    -6295    -6724    -6858    -6813    -6725    -6674    -6731 
   -6961    -7360    -7850    -8321    -8649    -8737    -8591    -8318 
   -8028    -7777    -7562    -7281    -6708    -5656    -4201    -2573 
    -970      450     1572     2305     2616     2573     2263     1725 
    1015      264     -386     -847    -1104    -1269    -1494    -1854 
   -2378    -3125    -4152    -5437    -6924    -8592   -10409   -12245 
  -13925   -15291   -16237   -16714   -16721   -16293   -15496   -14438 
  -13230   -11947   -10600    -9167    -7663    -6145    -4612    -3059 
   -1560     -233      864     1745     2403     2785     2891     2822 
    2682     2474     2153     1713     1136      332     -789    -2204 
   -3719    -5054    -6069    -6814    -7375    -7831    -8299    -8829 
   -9267    -9391    -9117    -8505    -7653    -6778    -6172    -5930 
   -5948    -6158    -6502    -6833    -7041    -7153    -7213    -7221 
   -7203    -7164    -6988    -6551    -5850    -4953    -3915    -2852 
   -1975    -1453    -1317    -1475    -1760    -2010    -2196    -2411 
   -2724    -3119    -3510    -3808    -3960    -3955    -3824    -3658 
   -3565    -3688    -4176    -5088    -6335    -7762    -9154   -10228 
  -10733   -10609   -10026    -9244    -8432    -7668    -7001    -6419 
   -5869    -5355    -4919    -4579    -4324    -4159    -4126    -4293 
   -4660    -5117    -5427    -5359    -4888    -4190    -3534    -3173 
   -3261    -3802    -4646    -5521    -6170    -6462    -6413    -6134 
   -5730    -5308    -5008    -4968    -5250    -5810    -6523    -7207 
   -7674    -7879    -7944    -7967    -7970    -7947    -7819    -7461 
   -6902    -6359    -6025    -5954    -6102    -6370    -6648    -6848 
   -6920    -6860    -6674    -6286    -5621    -4756    -3804    -2801 
   -1822     -985     -332      164      487      588      502      311 
      25     -372     -858    -1389    -1944    -2523    -3167    -3975 
   -5059    -6384    -7720    -8816    -9512    -9728    -9516    -9107 
   -8814    -8851    -9266    -9957   -10724   -11307   -11491   -11219 
  -10600    -9802    -8966    -8135    -7325    -6650    -6222    -5945 
   -5583    -4989    -4170    -3218    -2284    -1574    -1294    -1505 
   -2035    -2578    -2925    -3094    -3200    -3323    -3499    -3727 
   -3933    -4027    -4000    -3871    -3684    -3530    -3499    -3650 
   -4018    -4595    -5302    -5930    -6195    -5950    -5269    -4338 
   -3399    -2704    -2398    -2416    -2512    -2444    -2178    -1880 
   -1753    -1953    -2577    -3581    -4727    -5755    -6554    -7095 
   -7360    -7435    -7553    -7902    -8537    -9417   -10416   -11307 
  -11858   -11921   -11434   -10470    -9297    -8225    -7400    -6798 
   -6324    -5872    -5381    -4834    -4286    -3844    -3599    -3568 
   -3719    -3952    -4110    -4081    -3848    -3481    -3055    -2598 
   -2131    -1765    -1680    -1937    -2413    -2937    -3393    -3747 
   -4035    -4325    -4689    -5219    -5961    -6809    -7511    -7871 
   -7909    -7778    -7623    -7588    -7825    -8355    -9036    -9652 
   -9937    -9679    -8893    -7804    -6632    -5514    -4564    -3873 
   -3456    -3200    -2917    -2496    -1983    -1480    -1097     -963 
   -1158    -1610    -2143    -2608    -2925    -3082    -3113    -3109 
   -3204    -3522    -4071    -4770    -5539    -6313    -6984    -7435 
   -7654    -7686    -7543    -7254    -6905    -6542    -6157    -5760 
   -5444    -5319    -5402    -5680    -6100    -6481    -6628    -6471 
   -6004    -5240    -4244    -3125    -1998    -1011     -318        2 
     -36     -398    -1019    -1819    -2760    -3789    -4814    -5783 
   -6683    -7489    -8160    -8626    -8837    -8807    -8583    -8240 
   -7875    -7551    -7310    -7188    -7180    -7277    -7476    -7709 
   -7781    -7476    -6779    -5842    -4826    -3873    -3142    -2740 
   -2664    -2895    -3426    -4195    -5036    -5755    -6227    -6434 
   -6485    -6544    -6700    -6886    -6937    -6743    -6361    -5971 
   -5732    -5692    -5825    -6062    -6285    -6374    -6278    -6030 
   -5705    -5351    -5004    -4749    -4673    -4833    -5269    -5907 
   -6473    -6718    -6646    -6396    -6073    -5717    -5344    -4976 
   -4607    -4241    -3924    -3740    -3732    -3850    -3996    -4131 
   -4272    -4455    -4718    -5038    -5316    -5467    -5470    -5324 
   -5043    -4644    -4144    -3603    -3164    -3010    -3204    -3654 
   -4247    -4900    -5517    -5989    -6231    -6195    -5875    -5341 
   -4710    -4120    -3726    -3639    -3866    -4324    -4924    -5621 
   -6338    -6982    -7492    -7815    -7894    -7720    -7325    -6758 
   -6135    -5638    -5394    -5389    -5505    -5643    -5814    -6045 
   -6296    -6484    -6570    -6590    -6589    -6512    -6254    -5790 
   -5193    -4522    -3865    -3384    -3213    -3364    -3778    -4328 
   -4807    -5003    -4812    -4279    -3561    -2870    -2394    -2205 
   -2280    -2583    -3048    -3542    -3978    -4414    -4939    -5539 
   -6142    -6748    -7358    -7884    -8252    -8495    -8645    -8715 
   -8779    -8915    -9099    -9246    -9289    -9192    -8969    -8652 
   -8291    -7947    -7612    -7204    -6656    -5898    -4857    -3581 
   -2242    -1023      -54      623     1027     1161      997      542 
    -148    -1035    -2066    -3111    -4001    -4633    -4969    -5016 
   -4862    -4656    -4541    -4602    -4876    -5333    -5876    -6403 
   -6841    -7128    -7245    -7272    -7306    -7369    -7425    -7472 
   -7562    -7701    -7848    -7982    -8116    -8253    -8353    -8340 
   -8159    -7836    -7453    -7055    -6605    -6062    -5455    -4823 
   -4170    -3528    -2988    -2624    -2458    -2457    -2571    -2771 
   -3014    -3210    -3227    -3037    -2785    -2648    -2702    -2972 
   -3499    -4229    -4989    -5667    -6265    -6763    -7123    -7364 
   -7497    -7503    -7396    -7254    -7145    -7080    -7068    -7141 
   -7296    -7434    -7393    -7060    -6416    -5526    -4518    -3581 
   -2893    -2525    -2451    -2605    -2893    -3196    -3433    -3578 
   -3669    -3751    -3863    -4051    -4372    -4830    -5367    -5911 
   -6354    -6621    -6772    -6939    -7169    -7414    -7620    -7736 
