Origin Time       2026/01/15 07:13:00
Lat.              42.7
Long.             145.4
Depth. (km)       30
Mag.              5.7
Station Code      HKD083
Station Lat.      43.2329
Station Long.     144.3251
Station Height(m) 35
Record Time       2026/01/15 07:13:38
Sampling Freq(Hz) 100Hz
Duration Time(s)  91
Dir.              U-D
Scale Factor      7845(gal)/8223790
Max. Acc. (gal)   3.006
Last Correction   2026/01/15 07:13:38
Memo.             
[...]
   -7392    -7581    -7759    -7650    -6758    -5979    -6115    -6758 
   -7376    -7431    -6588    -5714    -5744    -6070    -6004    -6038 
   -6254    -6004    -5584    -5629    -5769    -5649    -5549    -5613 
   -5887    -6388    -6717    -6751    -6835    -6804    -6318    -5769 
   -5769    -6388    -6944    -6573    -5516    -4899    -5212    -6230 
   -7361    -7549    -6474    -5282    -4978    -5590    -6694    -7331 
   -6845    -5953    -5544    -5784    -6678    -7695    -7821    -7091 
   -6448    -6034    -5578    -5536    -6076    -6779    -7647    -8229 
   -7553    -6204    -5472    -5302    -5439    -5998    -6486    -6538 
   -6370    -5957    -5406    -5355    -6026    -6971    -7734    -7890 
   -7129    -6018    -5594    -5873    -6170    -6347    -6160    -5163 
   -4390    -5174    -6693    -7469    -7329    -6523    -5545    -5165 
   -5387    -6027    -7010    -7267    -6210    -5285    -5586    -6658 
   -7835    -8086    -6601    -4877    -5039    -6497    -7419    -7568 
   -7106    -5707    -4259    -4234    -5628    -7254    -7763    -6677 
   -5233    -4857    -5578    -6666    -7249    -6867    -6215    -6270 
   -7083    -7929    -8000    -7209    -6384    -6192    -6462    -6754 
   -6820    -6535    -5969    -5494    -5505    -5976    -6407    -6397 
   -6316    -6619    -6839    -6577    -6366    -6517    -6660    -6374 
   -5560    -5003    -5610    -6756    -7163    -6588    -5620    -5109 
   -5470    -6030    -6143    -6058    -5996    -5973    -6335    -7051 
   -7227    -6462    -5749    -6069    -7121    -7951    -7819    -6859 
   -6096    -6000    -6139    -6405    -6777    -6675    -6046    -5703 
   -5887    -6073    -6072    -5791    -5242    -5341    -6473    -7393 
   -7531    -7641    -7781    -7582    -7222    -6832    -6651    -6976 
   -7200    -6543    -5321    -4468    -4541    -5212    -5589    -5464 
   -5405    -5471    -5292    -5097    -5425    -6180    -6683    -6578 
   -6330    -6571    -7134    -7348    -7063    -6601    -6243    -6281 
   -6728    -7028    -6789    -6307    -6026    -6007    -6037    -6019 
   -6084    -6296    -6571    -6723    -6465    -5929    -5718    -5980 
   -6399    -6697    -6439    -5702    -5370    -5680    -6039    -6054 
   -5579    -4878    -4730    -5383    -6208    -6662    -6740    -6519 
   -6111    -5815    -5665    -5629    -6006    -6712    -7207    -7371 
   -7240    -6713    -6185    -6174    -6496    -6716    -6679    -6511 
   -6455    -6405    -6099    -5856    -6203    -6953    -7362    -7020 
   -6299    -5856    -5950    -6340    -6664    -6866    -6801    -6088 
   -5192    -5119    -5814    -6601    -7003    -6602    -5846    -5622 
   -5665    -5601    -5667    -5579    -5367    -5809    -6677    -7115 
   -6993    -6428    -5845    -6093    -7030    -7468    -6988    -6415 
   -6462    -6876    -7221    -7562    -7727    -7287    -6544    -6156 
   -6205    -6447    -6658    -6650    -6435    -6091    -5721    -5725 
   -6205    -6516    -6354    -6081    -5850    -5780    -5989    -5985 
   -5609    -5632    -6319    -7040    -7364    -7210    -6615    -5907 
   -5466    -5466    -5864    -6220    -6115    -5868    -5918    -5981 
   -5868    -5935    -6258    -6624    -6898    -6814    -6396    -6083 
   -5896    -5679    -5688    -5848    -5687    -5529    -6110    -7061 
   -7402    -6876    -5967    -5529    -5975    -6447    -6397    -6523 
   -6759    -6412    -6077    -6266    -6369    -6339    -6443    -6311 
   -6137    -6539    -7018    -6690    -5933    -5792    -6346    -7022 
   -7524    -7541    -7006    -6459    -6261    -6384    -6554    -6249 
   -5647    -5402    -5236    -4884    -5057    -5794    -6255    -6366 
   -6434    -6361    -6412    -6871    -7140    -6795    -6296    -6010 
   -6002    -6284    -6617    -6809    -6879    -6744    -6432    -6262 
   -6397    -6524    -6342    -6188    -6408    -6547    -6112    -5282 
   -4573    -4650    -5775    -7003    -7110    -6262    -5518    -5324 
   -5776    -6922    -7890    -7701    -6794    -6034    -5699    -5907 
   -6281    -6134    -5744    -5900    -6505    -6891    -6737    -6258 
   -5913    -5944    -6286    -6778    -7106    -7047    -6778    -6531 
   -6405    -6471    -6600    -6552    -6176    -5510    -5065    -5451 
   -6601    -7645    -7554    -6323    -5312    -5583    -6663    -7365 
   -7145    -6462    -5930    -5544    -5227    -5308    -5827    -6370 
   -6778    -7010    -6741    -6031    -5513    -5549    -6033    -6717 
   -7130    -6957    -6569    -6193    -5633    -5401    -6096    -7025 
   -7410    -7279    -6736    -6324    -6486    -6507    -6313    -6752 
   -7211    -6718    -5906    -5594    -5976    -6936    -7601    -7307 
   -6717    -6421    -5999    -5441    -5468    -5953    -5989    -5476 
   -5194    -5645    -6600    -7241    -6980    -6455    -6405    -6266 
   -5786    -5845    -6237    -6021    -5664    -5814    -6227    -6814 
   -7137    -6508    -5601    -5360    -5470    -5559    -5840    -6285 
   -6555    -6384    -5846    -5340    -5387    -6354    -7666    -8233 
   -8110    -7769    -6885    -5899    -5998    -6843    -7217    -6933 
   -6394    -5935    -5809    -5935    -6172    -6562    -6831    -6562 
   -5989    -5637    -5707    -6274    -6929    -6843    -6180    -5903 
   -6077    -6223    -6304    -6293    -6111    -5825    -5503    -5516 
   -6006    -6216    -5794    -5543    -5892    -6203    -5983    -5611 
   -5749    -6573    -7342    -6955    -5632    -4974    -5653    -6752 
   -7346    -7107    -6281    -5709    -5753    -5938    -6058    -6299 
   -6550    -6444    -5950    -5815    -6543    -7276    -7160    -6504 
   -5761    -5302    -5595    -6250    -6374    -5919    -5590    -6030 
   -7092    -7700    -7134    -6129    -5875    -6523    -7267    -7338 
   -6601    -5737    -5593    -6138    -6751    -7005    -6720    -6172 
   -5980    -6305    -6917    -7555    -7720    -7142    -6363    -5910 
   -5800    -6181    -7038    -7713    -7600    -6691    -5636    -5314 
   -5772    -6309    -6515    -6295    -5883    -5941    -6453    -6504 
   -5898    -5458    -5547    -5638    -5362    -5111    -5336    -5760 
   -5910    -5788    -5614    -5698    -6178    -6498    -6382    -6394 
   -6575    -6741    -7273    -7659    -7138    -6515    -6288    -5921 
   -5822    -6264    -6358    -6345    -6971    -7331    -6828    -6261 
   -5949    -5860    -6196    -6721    -7298    -7836    -7510    -6087 
   -4870    -5011    -6242    -7429    -7670    -6991    -6134    -5810 
   -6131    -6613    -6826    -6716    -6471    -6551    -7223    -7928 
   -7798    -6755    -5676    -5416    -5859    -6255    -6077    -5414 
   -5003    -5382    -6083    -6525    -6733    -6486    -5579    -4765 
   -4656    -4920    -5306    -5718    -5857    -5907    -6066    -5817 
   -5417    -5919    -6718    -6605    -6374    -6870    -7258    -7203 
   -7082    -6735    -6404    -6463    -6328    -5819    -5601    -5814 
   -6340    -7038    -7107    -6249    -5390    -5035    -4885    -5016 
   -5521    -6079    -6664    -7307    -7549    -7132    -6365    -5755 
   -5676    -6042    -6515    -6982    -7275    -7014    -6249    -5751 
   -6185    -7198    -7892    -7794    -6816    -5379    -4669    -5238 
   -6130    -6502    -6470    -6224    -5937    -5922    -6195    -6458 
   -6465    -6389    -6516    -6613    -6384    -5956    -5664    -5962 
   -6814    -7476    -7666    -7580    -7119    -6516    -6250    -6108 
   -5817    -5737    -5995    -6120    -6015    -6164    -6651    -7125 
   -7354    -7056    -6326    -5902    -5968    -6192    -6647    -7047 
   -6802    -6469    -6739    -6967    -6671    -6334    -6178    -6273 
   -6774    -7134    -6752    -5983    -5374    -5036    -5031    -5215 
   -5319    -5694    -6519    -6905    -6363    -5575    -5171    -5443 
   -6334    -6972    -6670    -5860    -5281    -5378    -6160    -6922 
   -6961    -6408    -5865    -5798    -6150    -6359    -6052    -5553 
   -5408    -5713    -6189    -6509    -6478    -6207    -6003    -6139 
   -6550    -6777    -6820    -7065    -7096    -6427    -5676    -5560 
   -6189    -7277    -7820    -7311    -6849    -6851    -6403    -5918 
   -6346    -6930    -6993    -6928    -6863    -6844    -6682    -5705 
   -4653    -5086    -6586    -7646    -7646    -6664    -5460    -5089 
   -5610    -6257    -6369    -5702    -4831    -4918    -6119    -7279 
   -7804    -7970    -7605    -6701    -5995    -5782    -6158    -7163 
   -7422    -5911    -4355    -4514    -5694    -6700    -7129    -6801 
   -6062    -5543    -5208    -5009    -5337    -5954    -6300    -6463 
   -6436    -6068    -5981    -6477    -6671    -6303    -6201    -6589 
   -7078    -7264    -6419    -4737    -3977    -4977    -6629    -7846 
   -8125    -7159    -5601    -4714    -4837    -5485    -6216    -6520 
   -6269    -6426    -7457    -8094    -7437    -6284    -5633    -5819 
   -6600    -7111    -6766    -5879    -5161    -5189    -5675    -5736 
   -5537    -5888    -6615    -7028    -6921    -6544    -6330    -6380 
   -6347    -6081    -5871    -6027    -6432    -6655    -6594    -6500 
   -6489    -6482    -6322    -6035    -5923    -5925    -5597    -5117 
   -5146    -5703    -6270    -6552    -6477    -6174    -6334    -7226 
   -7577    -6390    -4828    -4409    -5152    -6318    -7037    -6810 
   -6381    -6674    -7134    -6918    -6366    -6008    -5929    -6242 
   -6623    -6458    -6025    -5868    -5903    -6164    -6629    -6696 
   -6318    -6149    -6274    -6403    -6451    -6246    -5881    -5757 
   -5661    -5305    -5246    -5779    -6261    -6295    -6176    -6203 
   -6459    -6825    -7030    -7196    -7568    -7758    -7468    -7221 
   -7516    -8108    -8210    -7229    -5705    -4846    -5022    -5624 
   -5768    -5036    -4191    -4338    -5584    -7206    -7905    -6631 
   -4432    -3483    -4297    -6034    -7778    -8482    -7815    -6717 
   -6097    -6174    -6744    -7298    -7407    -6867    -5991    -5915 
   -6991    -7874    -7646    -6870    -6228    -6030    -6295    -6497 
   -6361    -6408    -6860    -7271    -7406    -7285    -6831    -6133 
   -5691    -6057    -7098    -7834    -7453    -6199    -4976    -4525 
   -5103    -6438    -7609    -7626    -6663    -5792    -5475    -5605 
   -6110    -6465    -6134    -5618    -5626    -6081    -6656    -6953 
   -6511    -5761    -5734    -6428    -6922    -6691    -5864    -5119 
   -5314    -6282    -7064    -7495    -7908    -8025    -7481    -6583 
   -6053    -6311    -6918    -7096    -6656    -5881    -5252    -5590 
   -7133    -8536    -8201    -6320    -4612    -4302    -4957    -5490 
   -5586    -5472    -5271    -5131    -5148    -5324    -5852    -6631 
   -6988    -6693    -6384    -6704    -7497    -7825    -7061    -5737 
   -4904    -5121    -6025    -6643    -6536    -6192    -6180    -6604 
   -7148    -7423    -7462    -7242    -6376    -5323    -5104    -5436 
   -5412    -5221    -5375    -5800    -6311    -6546    -6084    -5375 
   -5418    -6365    -7319    -7553    -7221    -6808    -6546    -6454 
   -6511    -6554    -6219    -5424    -4708    -4693    -5456    -6631 
   -7742    -8248    -7672    -6376    -5605    -5921    -6461    -6474 
   -6238    -6115    -6088    -6089    -5999    -5930    -6326    -6902 
   -6739    -5807    -4855    -4344    -4477    -5101    -5818    -6667 
   -7495    -7608    -7053    -6698    -6975    -7634    -8209    -8175 
   -7439    -6720    -6521    -6235    -5421    -4633    -4315    -4608 
   -5495    -5958    -5132    -4126    -4170    -4726    -5213    -5746 
   -6091    -6308    -6913    -7545    -7605    -7415    -7204    -6550 
   -5582    -5239    -5802    -6362    -6237    -6069    -6920    -8529 
   -9358    -8608    -6978    -5536    -5127    -5850    -6671    -6828 
   -6567    -6139    -5958    -6621    -7681    -8181    -7900    -7078 
   -6416    -6729    -7473    -7549    -7034    -6222    -5120    -4504 
   -4985    -6050    -7142    -7831    -7543    -6426    -5192    -4266 
   -4093    -4945    -6046    -6357    -5861    -5217    -4807    -4835 
   -5521    -6339    -6216    -5081    -3964    -3775    -4818    -6535 
   -7699    -7619    -6693    -5913    -6066    -6845    -7344    -7528 
   -7815    -7881    -7302    -6293    -5383    -5252    -6253    -7549 
   -7813    -6844    -5652    -5209    -5616    -6208    -6376    -6119 
   -5736    -5459    -5541    -6135    -6984    -7553    -7539    -7136 
   -6751    -6523    -6237    -5832    -5601    -5686    -5865    -5926 
   -5954    -6311    -7075    -7670    -7592    -7145    -6805    -6519 
   -6253    -6286    -6562    -6880    -7254    -7318    -6781    -6262 
   -6307    -6690    -7072    -6998    -6154    -5287    -5317    -5740 
   -5502    -4773    -4380    -4560    -5344    -6736    -8051    -8459 
   -7901    -6847    -5836    -5397    -5813    -6775    -7592    -7788 
   -7360    -6635    -6120    -6027    -5915    -5528    -5400    -5675 
   -5610    -4982    -4345    -4054    -4359    -5363    -6492    -7200 
   -7465    -7169    -6359    -5626    -5443    -5795    -6180    -5786 
   -4668    -4205    -5294    -7061    -8082    -7994    -7373    -6650 
   -5915    -5540    -5888    -6650    -7321    -7654    -7273    -6076 
   -4880    -4477    -4854    -5788    -6912    -7547    -7522    -7298 
   -7149    -7040    -7032    -7134    -7021    -6556    -6146    -6012 
   -5964    -5957    -6089    -6444    -7123    -7835    -7977    -7642 
   -7576    -7943    -8050    -7164    -5281    -3480    -3148    -4452 
   -6264    -7341    -7118    -5883    -4590    -4216    -4946    -6018 
   -6528    -6308    -5876    -5705    -5822    -6054    -6231    -6193 
   -6048    -6262    -6976    -7527    -7400    -6947    -6620    -6481 
   -6478    -6432    -6408    -6855    -7385    -7063    -6268    -6084 
   -6373    -6232    -5472    -4801    -4989    -6027    -7226    -7781 
   -7279    -6208    -5611    -6021    -7099    -7858    -7445    -6165 
   -5071    -4726    -4999    -5348    -5269    -5097    -5638    -6717 
   -7376    -7280    -6710    -5875    -5097    -4977    -5902    -7627 
   -9161    -9324    -8152    -7036    -6899    -7434    -7932    -7778 
   -6925    -5967    -5158    -4463    -4418    -5374    -6574    -7136 
   -7053    -6766    -6446    -6037    -5729    -5788    -5903    -5616 
   -5208    -5131    -5332    -5715    -6222    -6589    -6639    -6385 
   -5869    -5293    -4947    -4760    -4534    -4585    -5250    -6228 
   -7118    -7827    -8131    -7769    -7076    -6507    -6122    -6188 
   -6893    -7439    -7071    -6187    -5543    -5521    -6103    -6713 
   -6786    -6485    -6153    -5930    -6048    -6411    -6540    -6443 
   -6374    -6259    -6242    -6643    -7225    -7522    -7365    -6700 
   -5745    -5161    -5252    -5606    -5892    -6214    -6494    -6303 
   -5458    -4599    -4621    -5572    -6789    -7653    -7870    -7690 
   -7543    -7311    -6905    -6859    -7253    -7361    -6783    -5842 
   -5294    -5576    -6027    -6011    -5899    -5763    -5163    -4415 
   -4322    -5260    -6858    -7990    -7915    -7096    -6338    -6124 
   -6565    -7165    -7273    -6610    -5424    -4629    -4901    -5667 
   -6069    -5953    -5482    -5067    -5213    -5799    -6331    -6637 
   -6758    -6766    -6880    -7225    -7456    -7082    -6184    -5368 
   -4978    -4889    -5101    -5872    -6917    -7325    -6737    -5845 
   -5510    -5948    -6748    -7318    -7310    -6944    -6745    -6733 
   -6500    -6177    -6349    -7045    -7641    -7557    -6748    -5701 
   -4953    -4777    -5278    -6183    -6863    -6937    -6465    -5837 
   -5698    -6207    -6682    -6602    -6177    -5775    -5697    -6146 
   -6831    -7138    -6837    -6096    -5254    -4966    -5786    -7302 
   -8368    -8243    -7141    -5903    -5352    -5711    -6571    -7254 
   -7172    -6381    -5705    -5678    -5973    -6281    -6620    -6721 
   -6173    -5076    -4143    -4178    -5184    -6216    -6467    -6153 
   -5988    -6139    -6237    -6196    -6210    -6257    -6286    -6319 
   -6291    -6315    -6619    -7061    -7248    -7015    -6631    -6488 
   -6606    -6797    -7129    -7564    -7670    -7296    -6794    -6355 
   -5941    -5730    -5656    -5179    -4467    -4453    -5339    -6435 
   -7094    -7078    -6694    -6373    -6124    -5886    -5702    -5493 
   -5238    -5105    -5236    -5625    -6133    -6556    -6604    -5931 
   -4780    -4334    -5360    -7068    -8310    -8718    -8314    -7493 
   -6901    -6570    -6189    -5946    -6075    -6427    -6863    -7273 
   -7383    -7032    -6513    -6374    -6802    -7315    -7422    -7302 
   -7275    -7168    -6702    -6056    -5751    -5958    -6274    -6386 
   -6339    -6122    -5760    -5556    -5694    -5865    -5706    -5418 
   -5553    -6281    -7076    -7115    -6349    -5717    -5695    -5892 
   -6087    -6191    -5994    -5640    -5420    -5497    -6049    -6795 
   -7123    -7040    -6886    -6648    -6374    -6257    -6276    -6470 
   -6756    -6602    -6010    -5826    -6296    -6782    -6863    -6502 
   -5857    -5404    -5470    -5788    -5925    -5807    -5651    -5520 
   -5341    -5225    -5358    -5779    -6343    -6710    -6716    -6571 
   -6372    -6203    -6527    -7354    -8027    -8210    -7956    -7346 
   -6793    -6801    -7294    -7785    -7885    -7388    -6384    -5351 
   -4889    -5209    -5898    -6230    -5773    -4785    -4093    -4311 
   -5240    -6308    -7067    -7164    -6683    -6265    -6318    -6650 
   -6925    -6925    -6655    -6358    -6130    -5906    -5984    -6660 
   -7398    -7408    -6799    -6251    -6193    -6767    -7708    -8413 
   -8576    -8163    -7110    -5798    -5047    -5166    -5655    -5935 
   -5952    -5925    -5871    -5714    -5671    -5931    -6106    -5779 
   -5235    -4970    -5239    -5946    -6434    -6299    -6122    -6324 
   -6598    -6889    -7371    -7776    -7766    -7325    -6596    -5744 
   -4951    -4618    -5163    -6191    -6652    -6285    -5911    -6137 
   -6586    -6559    -5972    -5368    -5063    -4907    -4935    -5425 
   -6318    -7064    -7102    -6543    -6085    -6127    -6524    -6974 
   -7218    -7222    -7141    -6934    -6450    -5908    -5651    -5602 
   -5560    -5532    -5541    -5614    -5809    -6077    -6303    -6343 
   -6276    -6392    -6624    -6751    -6899    -7044    -6982    -6934 
   -7117    -7377    -7565    -7527    -7202    -6887    -6851    -6868 
   -6509    -5726    -4999    -4799    -5036    -5243    -5150    -5026 
   -5305    -5904    -6455    -7003    -7670    -8033    -7676    -6843 
   -6146    -6004    -6509    -7379    -7874    -7504    -6844    -6589 
   -6481    -6327    -6362    -6286    -5832    -5427    -5270    -5256 
   -5555    -6042    -6192    -5795    -5032    -4484    -4715    -5285 
   -5466    -5526    -5837    -6102    -6199    -6250    -6192    -6224 
   -6613    -6979    -6947    -6860    -6986    -6968    -6593    -6133 
   -5854    -5871    -6141    -6369    -6355    -6219    -6056    -5996 
   -6332    -6895    -6990    -6469    -5980    -6041    -6679    -7557 
   -8008    -7669    -6976    -6596    -6736    -7090    -7144    -6724 
   -6139    -5614    -5213    -5111    -5104    -4737    -4248    -4126 
   -4252    -4517    -5062    -5535    -5466    -5140    -5107    -5526 
