Origin Time       2026/01/15 07:13:00
Lat.              42.7
Long.             145.4
Depth. (km)       30
Mag.              5.7
Station Code      HKD079
Station Lat.      43.3034
Station Long.     144.5998
Station Height(m) 32
Record Time       2026/01/15 07:13:39
Sampling Freq(Hz) 100Hz
Duration Time(s)  92
Dir.              U-D
Scale Factor      7845(gal)/8223790
Max. Acc. (gal)   3.061
Last Correction   2026/01/15 07:13:39
Memo.             
[...]
    7240     6457     7317     8938     9177     7553     6000     6569 
    8540     9423     8511     7122     6339     6397     7214     8422 
    9235     8723     7110     6339     7368     8430     8041     7015 
    6651     7095     7474     7317     7275     7551     7549     7371 
    7619     8418     9150     8932     7965     7304     7306     7587 
    7717     7600     7546     7420     6840     6582     7570     8914 
    9150     8110     6782     6485     7461     8399     8164     7118 
    6470     6646     6849     6778     7018     7464     7587     7414 
    7138     7030     7267     7593     8050     8802     9008     7975 
    6768     6828     8067     8988     8424     7121     6617     7242 
    8303     8811     8152     6994     6567     7168     7975     8089 
    7607     7217     7221     7572     8012     8141     7730     6990 
    6733     7601     9019     9720     9035     7385     6043     6007 
    6943     7906     8445     8405     7803     7095     6813     7102 
    7720     8129     8006     7742     7869     8166     8063     7863 
    8158     8533     8402     7973     7635     7522     7531     7496 
    7712     8411     8907     8685     8209     7863     7677     7618 
    7543     7566     7780     7809     7427     6853     6552     6976 
    7850     8293     7927     7109     6554     6781     7368     7534 
    7491     7816     8121     7711     6941     6921     7854     8586 
    8256     7271     6705     7447     9086    10015     9371     7911 
    6980     7264     8118     8313     7639     7128     7492     8056 
    7900     7287     6995     7237     7962     8719     8361     6669 
    5270     5468     6662     7410     7113     6663     7230     8498 
    9051     8364     7453     7312     7674     7911     8151     8754 
    9294     8993     8074     7415     6993     6504     6519     7214 
    7769     7825     7715     7607     7604     7771     7677     7132 
    6983     7798     8888     9377     9049     8341     8041     8270 
    8289     7896     7693     7820     7893     7882     7912     7763 
    7284     6905     7190     7986     8515     8206     7225     6366 
    6192     6585     7300     8172     8777     8648     7848     7030 
    6858     7368     7978     8348     8526     8221     7341     6848 
    7555     8721     8984     8145     7218     7034     7446     7935 
    8394     8804     8649     7535     6168     5780     6536     7399 
    7695     7696     7712     7619     7299     7026     7267     8046 
    8711     8626     7904     7137     6817     7221     8082     8494 
    8058     7322     6624     6065     6346     7716     9038     9204 
    8392     7483     6916     6671     7123     8479     9667     9459 
    8056     6741     6488     7020     7557     7917     8032     7612 
    6895     6694     7530     8843     9271     8371     7333     7111 
    7420     7766     7913     7720     7331     7086     7119     7276 
    7326     7194     6976     6976     7446     8120     8492     8395 
    8090     7950     7776     7203     6777     7069     7595     7709 
    7572     7866     8618     8746     7747     6849     7225     8148 
    8248     7690     7600     7998     7797     6787     6378     7407 
    8554     8440     7782     7888     8467     8511     8068     7681 
    7248     6640     6373     6967     8193     9084     9053     8505 
    7877     7406     7580     8345     8885     8780     8185     7465 
    7144     7291     7543     7665     7325     6561     6286     7056 
    8118     8336     7647     7222     7639     7863     7227     6812 
    7433     8149     7850     6872     6358     6762     7645     8522 
    9250     9610     9239     8224     7352     7364     7932     7982 
    7303     6808     6984     7319     7460     7707     8306     8942 
    8827     7732     6763     6990     7838     7966     7199     6612 
    6851     7317     7358     7210     7179     7269     7581     7935 
    7993     7996     8124     7990     7423     6671     6157     6524 
    7839     9008     9030     7950     6725     6744     8158     9339 
    9065     7916     7361     8004     8707     8199     6772     5583 
    5587     6849     8104     8363     8290     8525     8438     7604 
    6592     6048     6204     6817     7323     7542     7619     7442 
    6984     6690     7049     7890     8459     8451     8233     8063 
    8085     8271     8206     7874     7624     7398     7338     7906 
    8608     8310     7246     6968     7966     8872     8496     7558 
    7460     8032     8046     7381     7002     7429     8249     8723 
    8699     8480     7794     6663     6475     7858     9117     8671 
    7126     6184     6775     8208     8857     8025     6895     6959 
    7789     7958     7645     7931     8382     7875     6905     6760 
    7376     7692     7237     6783     7550     9024     8969     7129 
    6353     8325    10773    10795     8877     7368     7038     7277 
    7732     8274     8575     8445     8125     7959     8037     8054 
    7527     6609     6081     6286     6686     6554     6069     6316 
    7553     8571     8360     7524     7338     7749     7668     6982 
    6721     7527     8753     9057     8086     7045     6883     7200 
    7416     7429     7240     6978     6894     7248     8291     9613 
    9899     8521     6745     6151     6744     7520     7808     7631 
    7362     7130     6849     6782     7199     7793     8164     8214 
    7979     7651     7346     7021     6895     7237     7811     8164 
    8363     8806     9166     8779     7874     7034     6632     7041 
    8122     8989     8858     7983     7404     7568     8036     8087 
    7187     6104     6318     7651     8715     8815     8010     6902 
    6409     6876     7807     8405     8245     7649     7369     7642 
    7873     7794     8035     8695     8768     7898     7187     7385 
    7812     7736     7443     7462     7747     8002     8176     8326 
    8329     8113     7942     8033     8243     8398     8444     8178 
    7580     7277     7835     8835     9416     9235     8483     7619 
    7133     7123     7288     7426     7445     7152     6697     6733 
    7551     8537     8910     8644     8236     7777     6822     5474 
    4980     6053     7460     7670     6652     5606     5745     6960 
    7960     7986     7600     7620     7836     7574     7195     7591 
    8434     8533     7946     7800     8101     7898     7236     7329 
    8707     9917     9246     7366     6523     7362     8382     8463 
    8144     8291     8816     8924     8230     7334     7079     7510 
    7763     7182     6350     6253     6895     7377     6887     5740 
    5285     6311     8164     9617     9884     8930     7704     7591 
    8665     9562     9342     8398     7790     7958     8028     7416 
    7102     7793     8590     8479     7641     6963     7010     7624 
    8352     8864     9009     8881     8575     7786     6381     5143 
    5158     6604     8344     8834     7935     7038     6980     7171 
    6831     6081     5773     6376     7476     8438     8916     8868 
    8451     7828     7308     7222     7500     7955     8560     9020 
    8773     7793     6844     6542     6821     7318     7501     7294 
    7473     8297     8816     8301     7250     6883     7782     9136 
    9707     8984     7569     6808     7126     7375     6662     5556 
    5142     5778     6709     6759     5769     5023     5625     7044 
    8166     8725     8938     9023     9120     8993     8640     8675 
    9061     9058     8622     8102     7457     6882     7015     7948 
    8671     8060     6643     6242     7322     8506     8846     8567 
    7985     7155     6434     6718     8363    10027    10033     8401 
    6485     5501     5613     6361     7514     8482     8392     7477 
    6713     6600     7053     7705     8205     8514     8680     8550 
    8434     9088     9981     9521     7638     6046     5807     6338 
    6907     7669     8661     8974     7749     5775     5146     6394 
    7663     7789     7753     8553     9674     9938     8939     7256 
    6129     6708     8457     9595     9300     8064     6956     6701 
    7056     7843     9080     9988    10030     9761     9356     8257 
    6783     6268     7172     8040     7261     5567     5086     6243 
    7435     7437     6910     7188     8270     9139     9456     9528 
    9126     8095     7419     7877     8696     8769     8063     7238 
    6677     6286     6075     6540     7807     8835     8540     7164 
    5787     5022     5046     6100     7804     9034     9153     8502 
    7819     7449     7096     6600     6474     7101     7969     8274 
    7782     7110     7180     8023     8806     9040     8569     7357 
    6219     6161     7060     8156     8857     8785     8133     7659 
    7761     8087     7867     6708     5660     6170     7956     9451 
    9487     8172     6860     6704     7472     8279     8514     8086 
    7483     7130     6820     6291     5869     6203     7512     9109 
    9742     8797     7245     6835     8039     9490     9622     8330 
    7171     7716     9319     9726     8179     6187     5472     6469 
    8151     9189     9556     9960    10107     9267     7993     7495 
    7973     8598     8295     6970     5923     5869     5981     5800 
    5811     5953     5759     5694     6667     8545     9963     9763 
    8479     7542     7371     7433     7493     7666     7812     7595 
    7059     6644     6716     7442     8513     8972     8181     6774 
    6106     6750     7735     8020     7932     7952     7641     6893 
    6501     6913     7500     7257     6177     5530     6106     7134 
    7744     8194     8988     9630     9130     7898     7472     8031 
    8514     8546     8289     7923     7801     7923     8190     8711 
    8760     7484     5902     5703     6729     7499     7461     7337 
    7534     7639     7404     7118     7188     7433     7136     6594 
    7025     8320     9055     8788     8391     8472     8685     8448 
    7951     8041     8893     9505     9142     8418     8068     7614 
    6559     5884     6598     7938     8445     7867     7173     7233 
    7987     8735     8901     8577     8183     7906     7773     7793 
    7944     8480     9522    10123     9382     8127     7580     7757 
    8271     8800     8714     7697     6349     5687     6096     6771 
    6806     6453     6565     7237     7665     7419     7102     7272 
    7726     8051     8044     7673     7285     7414     8035     8623 
    8938     9197     9491     9539     9194     8783     8525     7908 
    6454     5020     4752     5246     5532     5683     6153     6839 
    7277     7227     7173     7703     8343     8226     7651     7442 
    7342     6963     7086     7952     8487     8218     7708     7526 
    7767     7858     7312     6559     6212     6346     6713     7075 
    7248     7079     6759     6880     7566     8086     7958     7680 
    7869     8233     7921     6849     6139     6716     7869     8278 
    7932     7863     8532     9358     9543     8958     8158     7653 
    7619     8071     8642     8642     7863     6806     6062     5799 
    5906     6498     7823     9579    10836    10802     9840     9066 
    8865     8804     8673     8617     8518     8000     7134     6502 
    6315     6361     6829     7878     8858     8877     7699     6172 
    5562     6118     7214     8432     9229     9012     8252     7927 
    8197     8629     8872     8826     8496     7798     6917     6442 
    6656     7385     8429     9409     9471     8097     6319     5818 
    6766     7865     8167     7933     7821     7862     7769     7635 
    7593     7426     6983     6582     6709     7346     7878     7803 
    7223     6462     5779     5668     6554     7873     8469     8012 
    7245     6943     7068     7063     6789     6839     7543     8178 
    8029     7589     7638     7979     7881     7285     7110     7858 
    8596     8272     7160     6261     6173     7002     8430     9641 
   10081     9931     9498     9003     8748     8839     8851     8206 
    7075     6285     6250     6673     7060     7064     6534     5589 
    4796     4949     6110     7317     7847     7925     7943     7986 
    8028     8185     8704     9412     9558     8650     7345     6801 
    7091     7464     7731     8066     8459     8769     8525     7566 
    6879     7414     8725     9614     9509     8731     7707     6679 
    5965     5863     6442     7314     7886     8113     8081     7473 
    6667     6822     8051     9073     9015     8499     8646     9381 
    9409     8181     6771     6284     6555     6907     7183     7628 
    8321     8920     8901     8151     7118     6307     6021     6373 
    7142     7804     7777     7152     7179     8577     9936     9630 
    8178     7175     7123     7246     6876     6504     6932     7785 
    8109     7928     7902     8044     7866     7430     7218     7254 
    7430     7886     8320     8293     8064     7900     7684     7474 
    7308     7183     7426     7861     7628     6856     6762     7848 
    9366    10164     9580     8106     7087     7396     8563     9292 
    8824     7582     6583     6565     7368     7977     7653     6798 
    6241     6226     6484     6637     6563     6714     7338     7788 
    7761     7959     8881    10135    10894    10542     9099     7303 
    6281     6544     7396     7902     7724     6974     6216     6149 
    6660     7171     7608     7993     8047     7902     8031     8395 
    8546     8221     7549     6921     6575     6515     6864     7753 
    8775     9038     8074     6501     5544     5895     7057     8068 
    8514     8357     7736     7227     7330     7728     7776     7557 
    7693     8195     8421     8110     7635     7457     7803     8382 
    8575     8294     7959     7728     7547     7511     7636     7840 
    8122     8365     8367     8145     7832     7423     6816     6085 
    5661     5996     7005     7877     7855     7304     7130     7371 
    7545     7643     7762     7773     7792     7989     8205     8186 
    7781     7288     7437     8278     9051     9433     9833    10458 
   10783    10201     9000     8031     7672     7782     8112     8293 
    8027     7411     6864     6659     6578     6347     6322     6955 
    7916     8374     7871     6940     6725     7391     7925     7911 
    7882     8118     8340     8210     7693     7083     6604     6210 
    5995     6386     7452     8407     8391     7541     6883     7194 
    8174     8834     8542     7599     6750     6488     6928     7639 
    7696     6879     6192     6396     7088     7604     7722     7484 
    7123     6906     6835     6737     6655     6945     7624     7940 
    7407     6720     6855     7912     9246    10100    10192     9759 
    9061     8314     7913     7975     8083     7897     7496     7105 
    6821     6612     6644     7204     8046     8567     8457     7824 
    7057     6567     6617     7410     8712     9564     9173     8024 
    7317     7393     7580     7398     7021     6820     7148     8070 
    9042     9350     9009     8700     8708     8664     8306     7889 
    7827     8090     8185     7828     7225     6787     6771     7047 
    7430     8020     8745     9055     8577     7599     6768     6438 
    6423     6551     6879     7241     7389     7314     7082     6883 
    6914     7074     7123     6975     6774     6656     6575     6554 
    6617     6592     6558     6837     7470     8371     9437    10102 
    9732     8695     8035     8141     8642     9147     9451     9479 
    9271     8854     8337     7958     7736     7402     6782     6089 
    5880     6504     7416     7708     7357     7187     7695     8455 
    8687     8237     7646     7290     7137     7271     7751     8166 
    8037     7566     7465     8060     8804     8919     8391     7840 
    7566     7265     6677     6265     6686     7561     7896     7601 
    7379     7414     7318     7086     7194     7840     8587     8731 
    8116     7327     6978     7091     7252     7245     7302     7555 
    7734     7682     7587     7518     7242     6708     6346     6448 
    6748     6952     7141     7614     8410     8908     8479     7447 
    6745     6725     6928     7041     7203     7429     7553     7582 
    7797     8336     8766     8737     8610     8704     8820     8834 
    8826     8827     8830     8715     8453     8291     8352     8402 
    8187     7819     7723     7927     7923     7574     7186     6824 
    6513     6469     6675     6955     7318     7688     7796     7550 
    7198     7090     7362     7753     7807     7497     7364     7697 
    8185     8405     8078     7194     6409     6569     7643     8757 
    8962     8001     6673     6003     6195     6868     7692     8359 
    8548     8174     7612     7446     7832     8448     8857     8634 
    7730     6818     6621     6999     7213     6926     6565     6709 
    7461     8410     9016     8981     8313     7304     6574     6725 
    7649     8499     8687     8390     8006     7711     7555     7527 
    7452     7254     7129     7241     7527     7731     7758     7948 
    8444     8739     8446     7892     7676     7970     8287     8147 
    7728     7435     7462     7831     8149     7952     7537     7566 
    8012     8270     8183     8122     8104     7722     6995     6502 
    6528     6662     6555     6471     6759     7157     7186     6993 
    7026     7191     7115     6832     6813     7368     8145     8587 
    8527     8073     7446     7030     7191     7877     8596     8992 
    9101     9032     8930     9038     9269     9148     8509     7724 
    7325     7523     7939     8117     8121     8093     7839     7206 
    6404     5991     6431     7352     7804     7535     7256     7585 
    8264     8533     8190     7754     7501     7307     7344     7808 
    8305     8221     7485     6770     6805     7411     7782     7699 
    7657     7948     8243     8185     8046     8224     8452     8264 
    7790     7402     7164     7029     6930     6829     6909     7229 
    7507     7662     7803     7788     7539     7441     7828     8363 
    8442     8033     7543     7180     6924     6825     6936     7186 
    7515     7842     7977     7834     7616     7665     8067     8419 
    8230     7593     7165     7456     8205     8604     8267     7700 
    7554     7932     8480     8646     8205     7693     7701     7938 
    7778     7334     7123     7187     7242     7229     7383     7825 
    8326     8598     8598     8479     8360     8209     8060     7996 
    7987     8054     8216     8309     8217     8082     8078     8095 
    7817     7180     6619     6579     6988     7558     8185     8704 
    8846     8641     8391     8226     8089     7950     7801     7484 
    6833     6178     6027     6342     6820     7245     7422     7357 
    7056     6504     6180     6448     6890     7074     7088     7227 
    7572     7773     7528     7144     7033     7140     7275     7429 
    7696     8048     8283     8222     7906     7662     7696     7699 
