Origin Time       2026/01/15 07:13:00
Lat.              42.7
Long.             145.4
Depth. (km)       30
Mag.              5.7
Station Code      HKD079
Station Lat.      43.3034
Station Long.     144.5998
Station Height(m) 32
Record Time       2026/01/15 07:13:39
Sampling Freq(Hz) 100Hz
Duration Time(s)  92
Dir.              N-S
Scale Factor      7845(gal)/8223790
Max. Acc. (gal)   4.701
Last Correction   2026/01/15 07:13:39
Memo.             
[...]
    2471     2752     3046     3019     3048     3121     2972     2643 
    2505     2743     2970     2917     2884     3106     3261     3072 
    2841     2770     2663     2617     2775     2886     2809     2674 
    2571     2548     2624     2774     2986     3218     3284     3110 
    2886     2817     2920     2999     2956     2843     2555     2303 
    2500     2789     2609     2276     2458     3015     3254     3132 
    2995     2855     2813     3013     3192     3119     2879     2698 
    2631     2516     2494     2781     3010     2898     2840     3098 
    3267     3053     2817     2857     2893     2716     2643     2855 
    2998     2847     2628     2571     2704     2766     2597     2637 
    3122     3551     3514     3079     2640     2582     2691     2600 
    2520     2689     2859     2782     2644     2708     2841     2751 
    2623     2874     3242     3214     3013     3042     3127     3069 
    2970     2813     2570     2424     2475     2587     2685     2762 
    2751     2704     2724     2759     2798     2906     2917     2693 
    2571     2771     2982     2987     2901     2893     2959     2916 
    2754     2736     2913     2949     2717     2620     2920     3229 
    3150     2818     2590     2624     2762     2735     2690     2951 
    3167     2902     2566     2614     2821     2771     2523     2470 
    2690     3011     3230     3121     2818     2547     2416     2722 
    3191     3123     2767     2652     2667     2706     2704     2527 
    2397     2444     2570     2853     3117     3041     2875     2876 
    2840     2755     2851     3079     3171     2995     2718     2539 
    2516     2727     3001     3038     3007     3064     2902     2627 
    2740     2952     2798     2646     2862     3213     3186     2700 
    2421     2625     2776     2583     2266     2189     2562     3148 
    3462     3233     2683     2344     2485     2990     3493     3481 
    2895     2386     2451     2870     3217     3146     2704     2539 
    2893     3214     3222     2951     2542     2512     2832     2841 
    2705     2960     3289     3339     3207     2876     2539     2570 
    2830     2925     2758     2552     2482     2554     2890     3269 
    3088     2678     2762     2961     2832     2635     2562     2712 
    2955     2894     2756     2960     3141     3005     2884     2844 
    2763     2849     3056     3126     3053     2754     2241     2031 
    2470     3123     3299     2968     2754     2956     3231     3257 
    3075     2826     2640     2587     2666     2795     2798     2667 
    2577     2469     2398     2632     2891     2829     2721     2818 
    2961     2895     2786     3034     3349     3279     2967     2556 
    2245     2393     2825     3059     3006     2866     2790     2836 
    2959     3003     2883     2721     2705     2799     2797     2808 
    3009     3129     2968     2710     2531     2573     2813     2911 
    2712     2547     2632     2693     2656     2786     2953     2899 
    2863     2947     2943     2937     2943     2836     2836     3022 
    3087     2998     3017     3156     3233     3213     3095     2864 
    2705     2754     2853     2975     3148     3040     2660     2609 
    2883     2983     2914     2782     2606     2674     2920     2894 
    2617     2454     2516     2714     2918     2944     2822     2832 
    3030     3186     3132     2992     2979     2932     2697     2612 
    2789     2829     2616     2447     2415     2317     2331     2771 
    3195     3099     2911     3119     3451     3443     3056     2624 
    2479     2598     2751     2768     2558     2286     2286     2604 
    2925     2879     2593     2643     3011     3126     2906     2691 
    2702     2955     3145     2947     2600     2516     2650     2808 
    2863     2772     2727     2840     3001     3138     3118     2847 
    2683     2949     3160     2755     2228     2340     2751     2774 
    2571     2502     2532     2739     3179     3420     3100     2581 
    2488     2901     3233     3113     2945     3002     2960     2805 
    2868     2956     2702     2423     2490     2617     2604     2575 
    2398     2139     2270     2673     2758     2604     2830     3343 
    3524     3519     3694     3682     3252     2837     2776     2859 
    2770     2686     2901     3117     2871     2400     2332     2624 
    2702     2578     2654     2845     2898     2820     2625     2392 
    2362     2574     2747     2803     2911     2976     2852     2824 
    3090     3329     3348     3338     3260     2901     2442     2218 
    2270     2419     2458     2371     2362     2521     2706     2821 
    2917     3037     3194     3420     3692     3831     3639     3269 
    3034     2808     2331     1987     2261     2708     2710     2663 
    2905     2852     2424     2386     2816     3122     3249     3311 
    3084     2733     2689     2770     2646     2473     2408     2500 
    2818     3028     2944     2979     3114     2975     2845     2965 
    2917     2601     2494     2716     2847     2701     2598     2785 
    3051     3063     2857     2767     2894     3075     3229     3358 
    3484     3596     3420     2875     2492     2515     2496     2241 
    2066     2160     2311     2243     2134     2353     2656     2644 
    2704     3256     3728     3477     2999     2934     2905     2583 
    2439     2700     3006     3125     3175     3339     3458     3168 
    2685     2550     2721     2911     3113     3221     3034     2677 
    2438     2390     2423     2469     2620     2905     3115     3230 
    3387     3481     3477     3500     3354     2893     2509     2409 
    2296     2238     2581     2982     2883     2571     2565     2675 
    2617     2612     2722     2681     2573     2594     2559     2386 
    2334     2524     2766     2857     2928     3083     3099     2920 
    2802     2872     2987     2963     2794     2609     2562     2760 
    3065     3264     3262     3030     2795     2799     2845     2828 
    2918     2984     2974     3090     3141     2867     2489     2377 
    2621     2883     2795     2505     2370     2470     2705     2910 
    2899     2718     2679     2921     3132     2933     2457     2316 
    2687     2914     2779     2798     3030     3196     3281     3248 
    3092     2940     2767     2616     2667     2886     3049     3061 
    2982     2779     2432     2312     2593     2760     2697     2845 
    3011     2812     2674     2844     2759     2440     2655     3256 
    3338     2933     2752     2748     2474     2191     2397     2768 
    2724     2648     3044     3385     3244     2997     2840     2698 
    2673     2700     2529     2246     2188     2390     2617     2774 
    2814     2822     3059     3316     3207     3107     3469     3730 
    3241     2602     2624     2903     2806     2706     3132     3566 
    3203     2434     2231     2539     2691     2652     2721     2740 
    2442     2150     2215     2378     2376     2417     2760     3214 
    3434     3419     3218     2841     2655     2741     2636     2327 
    2166     2155     2165     2181     2196     2231     2380     2567 
    2623     2725     3100     3500     3582     3339     2934     2613 
    2662     3024     3275     3291     3283     3237     3107     3227 
    3736     4031     3591     2778     2326     2442     2594     2371 
    2085     1988     1935     1979     2209     2535     2956     3345 
    3549     3663     3607     3375     3338     3510     3451     3029 
    2566     2261     1894     1464     1368     1688     2157     2691 
    3388     4078     4347     4278     4317     4247     3775     3456 
    3555     3626     3491     3280     3051     2944     3044     3206 
    3387     3646     3908     4260     4716     4768     4232     3592 
    3092     2720     2452     1941     1074      440      355      500 
     768     1348     1890     1768     1362     1563     2268     2940 
    3537     3825     3501     3051     3165     3829     4418     4374 
    3869     3384     2972     2866     3526     4414     4671     4571 
    4479     4002     3233     2866     2824     2538     2189     2266 
    2620     2824     2910     3090     3060     2629     2432     2910 
    3553     3986     4580     5378     5641     5040     4118     3411 
    3122     3265     3694     4118     4266     4241     4278     4190 
    3780     3227     2813     2571     2340     2231     2377     2288 
    1702     1347     1706     2119     2054     1985     2315     2700 
    2749     2560     2494     2602     2608     2508     2385     2060 
    1690     1664     1750     1391      695      178     -114     -405 
    -589     -395      291     1426     2817     3838     3847     3140 
    2515     2346     2616     2988     3136     3226     3383     3314 
    2998     2717     2484     2307     2400     2740     3129     3520 
    3798     3769     3535     3327     3114     2643     1873     1217 
    1004     1081     1320     1945     2902     3443     3040     2319 
    2273     2944     3712     4220     4295     3886     3406     3341 
    3477     3403     3515     4367     5414     5714     5317     4764 
    4139     3558     3430     3623     3573     3253     2918     2313 
    1209      120     -356     -178      430     1215     1923     2515 
    3102     3523     3492     3154     2813     2497     2191     1877 
    1533     1344     1498     1841     2180     2506     2747     2849 
    3107     3748     4344     4257     3545     2721     1999     1309 
     696      387      565     1039     1470     1868     2268     2475 
    2662     3171     3678     3538     2808     2385     2882     3620 
    3704     3462     3357     2918     2176     1962     2419     3146 
    4013     4881     5456     5456     4814     3974     3596     3692 
    3666     3261     2814     2728     2961     3123     3040     2733 
    2224     1742     1464     1509     1991     2370     1985     1270 
    1023     1220     1472     1786     2099     1962     1309      688 
     784     1768     2899     3458     3558     3408     3061     2824 
    3068     3825     4780     5692     6367     6193     4889     3345 
    2493     2180     1976     1969     2155     2087     1598     1246 
    1499     1723     1089      326      700     1853     2674     3280 
    4310     5158     4743     3330     2088     1636     1872     2490 
    3307     4203     4710     4496     4224     4406     4365     3894 
    3827     4228     4375     4143     3689     2864     1895     1281 
     886      492      569     1271     1908     2230     2636     3188 
    3742     4342     4882     5082     4816     4248     3682     3275 
    2825     2110     1356      905      715      823     1494     2494 
    3277     3717     3962     4214     4668     5063     4866     4059 
    3198     2732     2602     2349     1590      481     -442     -726 
    -226     1007     2729     4112     4303     3461     2282     1278 
     908     1298     2077     2848     3233     3003     2566     2380 
    2209     2026     2218     2474     2481     2825     3763     4707 
    5179     5123     4689     4186     3919     3925     4002     4014 
    4032     4118     4299     4596     4718     4415     4112     3893 
    3076     1890     1347     1507     1668     1356      711      454 
     957     1660     2072     2377     2776     3350     4347     5397 
    5544     4889     4396     4109     3366     2301     1737     2022 
    2818     3709     4388     4600     4293     3823     3586     3414 
    3037     2714     2605     2331     1721     1193     1075     1181 
    1321     1502     1652     1825     2172     2667     3199     3634 
    3951     4045     3593     2759     2123     1744     1335      980 
    1127     2012     3233     4047     4228     4180     4097     3936 
    3964     4174     4159     3813     3242     2740     2543     2289 
    1829     1717     2080     2463     2832     3501     4297     4742 
    4843     4831     4534     3784     2745     1555      442     -209 
    -379     -226      337     1296     2401     3458     4311     4982 
    5647     6143     6162     5756     5080     4168     3250     2799 
    2895     2893     2331     1545      859      274       25      430 
    1333     2207     2650     2755     2947     3392     3738     3667 
    3373     3119     2891     2752     2868     3019     2802     2409 
    2286     2165     1707     1410     1772     2473     2937     3127 
    3314     3447     3485     3667     3912     3638     2766     2261 
    2787     3658     3913     3404     2413     1136       62       32 
    1154     2539     3500     4116     4649     4970     4811     4360 
    4020     3716     3279     2978     2897     2643     2119     1629 
    1277     1026     1092     1777     3014     4272     4949     4826 
    4226     3620     3227     3129     3246     3163     2610     1871 
    1237      774      712     1271     2312     3418     4097     4185 
    3940     3528     3103     3041     3352     3516     3186     2439 
    1547      737      116     -216     -170      268      985     1779 
    2593     3468     4303     4959     5341     5232     4510     3613 
    3102     2859     2419     1767     1270     1115     1254     1618 
    2178     3037     4247     5462     6297     6758     6859     6276 
    4884     2979      816    -1161    -2101    -1718     -793     -226 
    -201     -326     -198      259     1036     2220     3627     4810 
    5702     6457     6790     6493     6049     5776     5144     3807 
    2563     2305     2743     3121     3262     3221     2864     2200 
    1680     1701     1841     1489      973      966     1206      974 
     438      284      441      409      251      368      970     1985 
    3136     4185     4934     5192     5178     5263     5296     4988 
    4383     3651     3049     2810     2832     2795     2490     2026 
    1771     1854     2016     2309     3246     4644     5458     5251 
    4301     2871     1641     1404     1881     2317     2627     2925 
    3100     3183     3095     2655     2218     2265     2756     3418 
    3867     3608     2652     1823     1767     2006     1809     1358 
    1193     1350     1570     1787     2199     2870     3566     4234 
    5001     5572     5572     5305     5184     4943     4394     3985 
    3813     3346     2420     1367      414     -318     -557      -82 
     911     1914     2560     2879     3086     3208     3226     3423 
    3956     4460     4633     4557     4261     3654     2895     2390 
    2316     2450     2659     3192     4178     5162     5525     5238 
    4776     4405     4058     3744     3503     3133     2401     1471 
     743      221     -301     -488      -43      577     1017     1452 
    1877     2124     2369     2776     3029     2930     2964     3380 
    3484     2782     1944     1857     2359     2764     3037     3430 
    3773     4041     4471     4857     4922     4860     4831     4716 
    4463     4128     3834     3727     3682     3334     2610     1829 
    1219      843      891     1416     2080     2577     2732     2389 
    1881     1777     1946     1999     1923     1579      865      349 
     444      839     1336     1911     2373     2830     3545     4330 
    4730     4602     4301     4086     3819     3376     2786     2216 
    1964     2031     2018     1717     1456     1502     1669     1856 
    2208     2681     3042     3279     3585     3915     3915     3595 
    3356     3302     3345     3520     3686     3599     3272     2886 
    2740     3014     3439     3817     4372     5062     5420     5235 
    4710     4059     3387     2852     2624     2685     2829     2841 
    2624     2261     1900     1614     1563     1957     2702     3457 
    3975     4171     4226     4482     4801     4739     4395     4149 
    3939     3578     3114     2596     2074     1845     2232     3056 
    3650     3603     3215     3064     3230     3410     3451     3357 
    3167     2945     2623     2151     1618     1073      553      155 
     -24       12       98      170      471     1071     1684     2228 
    2844     3361     3561     3730     4221     4726     4630     3882 
    2933     2168     1786     1844     2153     2525     3045     3654 
    4036     4059     3808     3411     3129     3208     3495     3527 
    3090     2347     1471      496     -388     -722     -279      599 
    1532     2378     3065     3665     4222     4503     4330     3754 
    3045     2612     2451     2243     2155     2528     3146     3699 
    4233     4776     5059     4861     4340     3780     3356     3214 
    3250     3125     2740     2181     1605     1413     1701     1925 
    1723     1387     1347     1737     2443     3265     3960     4267 
    4104     3650     3010     2122     1194      716      994     1957 
    3137     3913     4012     3574     2868     2191     1804     1829 
    2254     2994     3882     4537     4571     4114     3537     2889 
    2289     2177     2648     3218     3480     3434     3241     3075 
    2941     2617     2047     1597     1540     1668     1714     1683 
    1617     1479     1333     1389     1775     2477     3391     4251 
    4783     4824     4407     3910     3708     3694     3645     3547 
    3397     3271     3322     3368     3130     2716     2297     1914 
    1721     1849     2126     2380     2641     2871     2980     3045 
    3230     3589     3923     3958     3661     3088     2334     1706 
    1490     1784     2505     3218     3535     3508     3280     2955 
    2720     2592     2315     1826     1545     1771     2195     2501 
    2735     2889     2947     3198     3781     4251     4203     3901 
    3793     3859     3873     3848     3724     3262     2552     1941 
    1709     1826     1840     1576     1464     1825     2547     3334 
    3974     4313     4059     3191     2282     1787     1505     1161 
     878      804      858     1017     1416     2069     2749     3210 
    3454     3663     3900     4010     3767     3150     2435     1915 
    1717     1836     2123     2357     2374     2193     2111     2527 
    3470     4511     5337     5962     6218     5850     5100     4448 
    4048     3721     3199     2413     1626     1212     1291     1647 
    2070     2492     2808     3056     3353     3586     3580     3333 
    2974     2612     2228     1900     1873     2065     2138     2041 
    1853     1602     1453     1540     1807     2266     2970     3766 
    4522     5235     5690     5611     5071     4336     3645     3172 
    3038     3308     3808     4218     4361     4168     3699     3245 
    2994     2830     2781     2976     3141     2949     2497     1949 
    1332      899     1107     1919     2748     3163     3146     2918 
    2722     2558     2354     2236     2286     2386     2439     2382 
    2093     1607     1221     1178     1540     2295     3249     4056 
    4496     4522     4167     3516     2768     2204     1977     2034 
    2222     2420     2671     3100     3607     3816     3539     3009 
    2504     2177     2165     2346     2347     2054     1659     1413 
