Origin Time       2026/01/15 07:13:00
Lat.              42.7
Long.             145.4
Depth. (km)       30
Mag.              5.7
Station Code      HKD080
Station Lat.      43.5077
Station Long.     144.4485
Station Height(m) 140
Record Time       2026/01/15 07:13:36
Sampling Freq(Hz) 100Hz
Duration Time(s)  101
Dir.              E-W
Scale Factor      7845(gal)/8223790
Max. Acc. (gal)   8.597
Last Correction   2026/01/15 07:13:36
Memo.             
[...]
   -6624    -6606    -6616    -6616    -6624    -6656    -6662    -6633 
   -6623    -6646    -6662    -6654    -6642    -6610    -6565    -6575 
   -6637    -6655    -6647    -6647    -6594    -6551    -6578    -6577 
   -6613    -6709    -6631    -6481    -6494    -6554    -6647    -6745 
   -6610    -6430    -6427    -6478    -6685    -6891    -6682    -6401 
   -6423    -6497    -6648    -6874    -6750    -6444    -6455    -6631 
   -6732    -6787    -6717    -6600    -6617    -6718    -6839    -6889 
   -6750    -6592    -6579    -6562    -6535    -6673    -6748    -6623 
   -6593    -6534    -6301    -6400    -6875    -7055    -6740    -6408 
   -6301    -6284    -6439    -6702    -6685    -6463    -6234    -6004 
   -6227    -6862    -6970    -6540    -6342    -6403    -6486    -6566 
   -6675    -6903    -6852    -6324    -6191    -6635    -6771    -6732 
   -7032    -7203    -6955    -6570    -6363    -6683    -7092    -6806 
   -6331    -6442    -6686    -6570    -6467    -6700    -6887    -6569 
   -6210    -6660    -7337    -6980    -6173    -6200    -6585    -6508 
   -6474    -6826    -6944    -6535    -6093    -6192    -6782    -6987 
   -6494    -6293    -6496    -6231    -5938    -6350    -6879    -6833 
   -6386    -6138    -6316    -6608    -6937    -7368    -7303    -6610 
   -6509    -7219    -7410    -7078    -7057    -7067    -6849    -6538 
   -6255    -6372    -6812    -7198    -7306    -6802    -6088    -6057 
   -6583    -7102    -7402    -7041    -5935    -5115    -5578    -6917 
   -7659    -7217    -6326    -5629    -5566    -6222    -7067    -7669 
   -7603    -6970    -6473    -6154    -6112    -6482    -6736    -7002 
   -7117    -6286    -5822    -6889    -7670    -7245    -6933    -6997 
   -6836    -6513    -6319    -6396    -6467    -6420    -6674    -7107 
   -7265    -7024    -6470    -6188    -6593    -7105    -6941    -6451 
   -6323    -6073    -5800    -6612    -7522    -7005    -6257    -6532 
   -6952    -6729    -6365    -6529    -6902    -6654    -6007    -5633 
   -5409    -5309    -5741    -6629    -7159    -6689    -5958    -5892 
   -6124    -6361    -6952    -7558    -7341    -6593    -6677    -7689 
   -8108    -7580    -7353    -7611    -7299    -6669    -6802    -7006 
   -6405    -5942    -6066    -6266    -6421    -5958    -5008    -5139 
   -6081    -6466    -6658    -6837    -6519    -6088    -5968    -6465 
   -7408    -7483    -6650    -6346    -6604    -7053    -7919    -8128 
   -6836    -5331    -4904    -5416    -6126    -6677    -6867    -6273 
   -5578    -5788    -6149    -6137    -6592    -7416    -7759    -7555 
   -7098    -6547    -6149    -6440    -7318    -7522    -6856    -6646 
   -7084    -7241    -7153    -7319    -7304    -6841    -6577    -6647 
   -6450    -6021    -6145    -6839    -6970    -6291    -5710    -5414 
   -5432    -6357    -7742    -8268    -7588    -6501    -5872    -6041 
   -6793    -7284    -6782    -5778    -5402    -5915    -6486    -6670 
   -6948    -7169    -6975    -7032    -7198    -6654    -6195    -6596 
   -6820    -6459    -6785    -7892    -8181    -7415    -6741    -6466 
   -6551    -7167    -7869    -7882    -7187    -6779    -7040    -7086 
   -6691    -6228    -5433    -4509    -4461    -5400    -6057    -5626 
   -5043    -5490    -6678    -7315    -6785    -5948    -5769    -6265 
   -7199    -7884    -7462    -6512    -6165    -6431    -6849    -7161 
   -7013    -6434    -6272    -6978    -7751    -7659    -6940    -6586 
   -6743    -6906    -7117    -7276    -7242    -7306    -7182    -6602 
   -5772    -4657    -4056    -5113    -7041    -8055    -7596    -6512 
   -6030    -6453    -6893    -6839    -6613    -6097    -5385    -5452 
   -6172    -6436    -6264    -6228    -6374    -6462    -6463    -6936 
   -7774    -7749    -6853    -6208    -5930    -5578    -5328    -5752 
   -6667    -7142    -7156    -7146    -6905    -6762    -7350    -8021 
   -7805    -6685    -5595    -5873    -7321    -8074    -7472    -6415 
   -5815    -6031    -6246    -5926    -5965    -6299    -6269    -6717 
   -7800    -8220    -7618    -6592    -5969    -6305    -6875    -6986 
   -6899    -6439    -5702    -5846    -6933    -7499    -6833    -5846 
   -5657    -6046    -6251    -6376    -6689    -7096    -7357    -7142 
   -6474    -5656    -5170    -5645    -6835    -7766    -8104    -8101 
   -8023    -8032    -7927    -7508    -7159    -7045    -6752    -6566 
   -6833    -6631    -5802    -5467    -5740    -6048    -6007    -5382 
   -4907    -5262    -6145    -7466    -8532    -8031    -6519    -5462 
   -5321    -6046    -6864    -6897    -6542    -6563    -7231    -8117 
   -8070    -6851    -5432    -4681    -5243    -6681    -7365    -6994 
   -6517    -6218    -6212    -6466    -6428    -6273    -6370    -6334 
   -6482    -7281    -7546    -6463    -5190    -4792    -5159    -5934 
   -6907    -7626    -7422    -6596    -6528    -7512    -8158    -7712 
   -6826    -6133    -5865    -6166    -7033    -7933    -7828    -6855 
   -6327    -6331    -6188    -6000    -6066    -6471    -6817    -6598 
   -6369    -6604    -6690    -6417    -6226    -6110    -5895    -5764 
   -5962    -6513    -6933    -6858    -6882    -7416    -7870    -7901 
   -7793    -7605    -7257    -7060    -7379    -7808    -7443    -6474 
   -6008    -6053    -5902    -5852    -6251    -6562    -6750    -7227 
   -7460    -7002    -6563    -6547    -6708    -7078    -7439    -7430 
   -7223    -6909    -6574    -6577    -6714    -6689    -6625    -6276 
   -5714    -5840    -6542    -6675    -6048    -5382    -5231    -5452 
   -5367    -5204    -5802    -6766    -7349    -7689    -7803    -7568 
   -7260    -7034    -7163    -7719    -7828    -7412    -7547    -7839 
   -7148    -6006    -5366    -5259    -5382    -5293    -5031    -5320 
   -5965    -6284    -6754    -7407    -7337    -6933    -6991    -7109 
   -6967    -6750    -6521    -6389    -6204    -5856    -5937    -6681 
   -7469    -7820    -7489    -6528    -5427    -4564    -4434    -5236 
   -5915    -5663    -5265    -5545    -6359    -7373    -8125    -8004 
   -7267    -6916    -7051    -6978    -6774    -6948    -7442    -8001 
   -8405    -8298    -7418    -6085    -5563    -6515    -7295    -6573 
   -5798    -5979    -6115    -5975    -5875    -5583    -5491    -5965 
   -6795    -7870    -8245    -7051    -5668    -5656    -6381    -6864 
   -6949    -6470    -5630    -5198    -5756    -7001    -7612    -7053 
   -6405    -6350    -6685    -7195    -7319    -6781    -6393    -6581 
   -6763    -6840    -6939    -6644    -6045    -5830    -6413    -7604 
   -8533    -8484    -7824    -7479    -7616    -7541    -7215    -7109 
   -6783    -5949    -5472    -5854    -6216    -5641    -4904    -5341 
   -6390    -6552    -5933    -5773    -6471    -7319    -7622    -7404 
   -7010    -6489    -6093    -6492    -7312    -7222    -6166    -5583 
   -6199    -7223    -7820    -7765    -7088    -6326    -6149    -6605 
   -7165    -7217    -6771    -6357    -6239    -6308    -6355    -6419 
   -6691    -6984    -7007    -6763    -6444    -6408    -6783    -7187 
   -7177    -6876    -6664    -6421    -6172    -6210    -6156    -5713 
   -5184    -5026    -5776    -7037    -7588    -7134    -6197    -5459 
   -5602    -6381    -6953    -7128    -7256    -7483    -7568    -7526 
   -7632    -7703    -7569    -7446    -7304    -6839    -6183    -6145 
   -6822    -7103    -6694    -6399    -6589    -7192    -7801    -7790 
   -6993    -5645    -4536    -4637    -5676    -6517    -6581    -6100 
   -5653    -5599    -6066    -6867    -7087    -6305    -5529    -5462 
   -5799    -6346    -6953    -7346    -7437    -7121    -6558    -6304 
   -6573    -6980    -7015    -6720    -6705    -6964    -6930    -6747 
   -6735    -6700    -6654    -6691    -6698    -6693    -6617    -6469 
   -6585    -6980    -7117    -6856    -6804    -7103    -7047    -6542 
   -6165    -5872    -5674    -6100    -6953    -7217    -6305    -4984 
   -4584    -5247    -6096    -6655    -6968    -7101    -7052    -6837 
   -6498    -6289    -6390    -6504    -6562    -6883    -7165    -6986 
   -6862    -7161    -7300    -7172    -7214    -7132    -6772    -6693 
   -6947    -7167    -7269    -7256    -7005    -6274    -5427    -5377 
   -5891    -6099    -6265    -6748    -7229    -7508    -7342    -6729 
   -6473    -6843    -7053    -6696    -6081    -5670    -6015    -7096 
   -7962    -7987    -7466    -6820    -6168    -5620    -5622    -6291 
   -6713    -6443    -6272    -6438    -6471    -6507    -6763    -6970 
   -6894    -6480    -6012    -6164    -6913    -7348    -7168    -6778 
   -6381    -6309    -6889    -7534    -7312    -6223    -5223    -5294 
   -6407    -7373    -7383    -6847    -6415    -6359    -6489    -6384 
   -6111    -5898    -5769    -5906    -6265    -6490    -6486    -6421 
   -6670    -7349    -7844    -7757    -7483    -7389    -7414    -7258 
   -6887    -6662    -6639    -6752    -7203    -7614    -7188    -6057 
   -5314    -5476    -5756    -5652    -5695    -6061    -6501    -6926 
   -7115    -7067    -6933    -6610    -6427    -6693    -6820    -6728 
   -7153    -7808    -7981    -7812    -7307    -6528    -6176    -6268 
   -6307    -6336    -6243    -6029    -6276    -6794    -6826    -6482 
   -6223    -6246    -6559    -6794    -6756    -6824    -7218    -7584 
   -7462    -6930    -6470    -6392    -6770    -7453    -7846    -7377 
   -6223    -5184    -5015    -5524    -5755    -5683    -5825    -5834 
   -5660    -5930    -6428    -6367    -5803    -5564    -5944    -6358 
   -6397    -6347    -6620    -7049    -7252    -7339    -7342    -7071 
   -6747    -6621    -6810    -7303    -7715    -7881    -7954    -7776 
   -7036    -5881    -5130    -5351    -6134    -6983    -7681    -7813 
   -7344    -6771    -6323    -5869    -5417    -5224    -5404    -5765 
   -6220    -6694    -6898    -6775    -6578    -6525    -6643    -6689 
   -6403    -5886    -5620    -5894    -6311    -6505    -6682    -6859 
   -6768    -6563    -6577    -6534    -6079    -5764    -6048    -6461 
   -6817    -7376    -7865    -7936    -7657    -7338    -7472    -7904 
   -7801    -7082    -6450    -6365    -6716    -6853    -6450    -6130 
   -6195    -6064    -5854    -6199    -6640    -6660    -6820    -7241 
   -7118    -6218    -5331    -5308    -6172    -7051    -7177    -6809 
   -6671    -7011    -7449    -7333    -6601    -5876    -5541    -5760 
   -6702    -7651    -7491    -6561    -6228    -6798    -7404    -7356 
   -6608    -5618    -5123    -5649    -6994    -8212    -8297    -7145 
   -5899    -5692    -6268    -6820    -7095    -6928    -6377    -6228 
   -6845    -7476    -7342    -6409    -5451    -5418    -5952    -6169 
   -6474    -6918    -6536    -5818    -5934    -6469    -6583    -6431 
   -6416    -6434    -6280    -6284    -6875    -7755    -8137    -8006 
   -8148    -8307    -7487    -6173    -5557    -5621    -5703    -5703 
   -6126    -6993    -7469    -7307    -7052    -6897    -6824    -6922 
   -7219    -7568    -7561    -7076    -6687    -6789    -6802    -6183 
   -5528    -5474    -5753    -6085    -6550    -7110    -7202    -6303 
   -5254    -5144    -5636    -6319    -7384    -8279    -8206    -7438 
   -6760    -6411    -6269    -6315    -6173    -5374    -4459    -4360 
   -5140    -6372    -7622    -8232    -7901    -7360    -7553    -8374 
   -8699    -7747    -6251    -5521    -5633    -5962    -6446    -6708 
   -6037    -5062    -4891    -5350    -5907    -6516    -7015    -7052 
   -6440    -5499    -5017    -5317    -6041    -6968    -7690    -7726 
   -7546    -7774    -8483    -9433    -9574    -8220    -6521    -5717 
   -5630    -5682    -5609    -5197    -4379    -3649    -3751    -4799 
   -6149    -7306    -8338    -9024    -8873    -8297    -7978    -7952 
   -8313    -8880    -8739    -7730    -6536    -5424    -4789    -5275 
   -6382    -7068    -7015    -6372    -5853    -6470    -8136    -9778 
  -10424    -9599    -7587    -5356    -4105    -4428    -5414    -5972 
   -6454    -7101    -7399    -7717    -8600    -9286    -8634    -6945 
   -6120    -6906    -7743    -7581    -6596    -4652    -2664    -2694 
   -4695    -6559    -6988    -6178    -5352    -5609    -6339    -6246 
   -5296    -4337    -4094    -4919    -6594    -8268    -8661    -7377 
   -6099    -6420    -7612    -8455    -8849    -8777    -8141    -7520 
   -7558    -8118    -8564    -8235    -6959    -5424    -4314    -3634 
   -3465    -3870    -4280    -4517    -5051    -5968    -7037    -7665 
   -7310    -6655    -6403    -6556    -7528    -8893    -9058    -8017 
   -7241    -7204    -7356    -7325    -7169    -7037    -6867    -6448 
   -5760    -5059    -4754    -5285    -6485    -7244    -6889    -6073 
   -5711    -5890    -5964    -5702    -5694    -6296    -7225    -7990 
   -8025    -7215    -6444    -6860    -8376    -9304    -8318    -6166 
   -4337    -3488    -3851    -5290    -6839    -7441    -7192    -7217 
   -8217    -9626   -10162    -9043    -6648    -3889    -1818    -1381 
   -2153    -2862    -3260    -3773    -4779    -6504    -7974    -8224 
   -8280    -9022   -10081   -11616   -13212   -13254   -11628    -9879 
   -8837    -7962    -6161    -3346     -938      182      487      274 
    -394    -1125    -2003    -3557    -5984    -8930   -10964   -10708 
   -9051    -7797    -7130    -6373    -5395    -4564    -4567    -5702 
   -6855    -6671    -5047    -2731    -1258    -2393    -5809    -8905 
   -9676    -8521    -7462    -8355   -11489   -14924   -15630   -12811 
   -9024    -7294    -8445   -10589   -10956    -8783    -5194    -1687 
     -39     -792    -1910    -1664    -1017    -1745    -4202    -7106 
   -9117   -10296   -10947   -10787   -10172    -9724    -9186    -8446 
   -7998    -7493    -6116    -4545    -3840    -3796    -4391    -5845 
   -7452    -8818    -9806    -9860    -9664   -10282   -10642    -9262 
   -6801    -4934    -4684    -6197    -8407    -9398    -8191    -5805 
   -4120    -3647    -3447    -3211    -3572    -4770    -6349    -7568 
   -7707    -6551    -4762    -3495    -3493    -4342    -4828    -4595 
   -4455    -4814    -5417    -6141    -7088    -8361    -9522    -9941 
   -9582    -8603    -7541    -7534    -8712    -9960   -10308    -8873 
   -5726    -3400    -4197    -7290   -10413   -11821   -10797    -8002 
   -4768    -2411    -1799    -2278    -2285    -1691    -1863    -3338 
   -5471    -7742    -9521    -9910    -8889    -7125    -5260    -4453 
   -5742    -8545   -10802   -10462    -7381    -3738    -2056    -3044 
   -5206    -6701    -6860    -6073    -5796    -6987    -8658    -9903 
  -10693   -10237    -7780    -4174    -1294     -896    -3426    -7221 
   -9960   -10759   -10033    -8502    -7082    -6115    -5150    -4444 
   -4581    -5346    -6242    -6249    -4608    -2754    -3025    -6145 
  -10133   -11592    -9536    -6381    -4860    -5807    -7947    -9132 
   -8471    -7156    -7086    -8590    -9945    -9648    -8175    -6843 
   -6158    -6242    -7176    -8237    -8731    -8723    -8077    -7169 
   -7146    -7884    -8409    -8502    -8010    -6345    -3642    -1518 
   -1337    -2412    -3438    -3769    -2767     -814     -205    -2590 
   -6943   -10843   -12221   -10651    -7997    -6963    -8789   -12152 
  -14345   -13671   -10859    -8476    -7792    -7462    -6490    -4961 
   -3115    -2265    -3414    -5629    -7520    -8317    -8121    -7770 
   -8244    -9902   -11160   -10015    -7052    -4299    -2783    -2411 
   -2583    -2641    -2112    -1210    -1146    -2913    -5895    -8402 
   -9177    -8222    -6978    -6971    -7946    -8606    -8136    -6620 
   -5297    -5277    -6006    -6210    -5606    -5270    -6068    -7334 
   -8106    -8631    -9728   -11349   -12333   -11844   -10590    -9459 
   -8023    -6049    -4749    -4858    -5586    -6170    -6069    -4482 
   -1907     -179     -302    -1584    -2316    -1732    -1066    -1524 
   -2662    -3699    -4710    -5853    -6777    -7354    -8139    -9821 
  -12175   -13778   -13548   -12074   -10860   -10407    -9813    -8615 
   -7267    -6400    -6889    -8541    -9387    -8375    -6875    -6770 
   -8388   -10243   -10407    -8047    -4257    -1896    -2889    -5517 
   -6222    -3809     -367     1705     1336    -1651    -5697    -8068 
   -8091    -7561    -7518    -6632    -3978    -1486    -1085    -1937 
   -2875    -4031    -4974    -5260    -6070    -7916    -9132    -8989 
   -9051   -10280   -11797   -12685   -12914   -12602   -11227    -8413 
   -5362    -3773    -3645    -4176    -5319    -6527    -6475    -5510 
   -5819    -8160   -10759   -11811   -11115    -9497    -7975    -7171 
   -7034    -7034    -6048    -3361     -588      353        2    -1061 
   -3376    -6043    -7275    -7137    -7310    -8699   -10243   -10408 
   -9054    -7113    -5944    -6660    -8338    -8928    -8117    -6760 
   -5314    -4311    -4064    -4124    -4234    -4893    -6343    -7838 
   -8671    -8834    -8252    -6860    -5636    -6218    -8526   -10594 
  -11321   -10567    -8442    -6345    -5557    -5702    -6185    -6624 
   -6293    -5277    -4923    -6072    -7834    -8854    -8793    -7654 
   -5539    -3839    -4234    -6531    -9112   -10328    -9250    -6624 
   -4529    -4241    -4992    -5283    -4704    -3628    -2610    -2636 
   -4222    -6573    -8287    -8519    -7620    -6637    -6392    -7084 
   -8305    -9516   -10292    -9958    -8298    -6524    -5460    -4349 
   -3356    -3472    -4268    -5275    -6748    -8235    -8980    -8478 
   -6700    -4820    -4124    -4978    -7264    -9589    -9929    -8773 
   -8356    -9208   -10543   -11719   -11604    -9354    -5813    -2413 
     -40      793      170    -1410    -3640    -5788    -6659    -6351 
   -6389    -7676    -9643   -11065   -11217   -10419    -9666    -9590 
   -9867    -9775    -8752    -6768    -4762    -3742    -3472    -3403 
   -3750    -4425    -4982    -5967    -7813    -9238    -8943    -7373 
   -5988    -6014    -7375    -8970    -9761    -9082    -7321    -5595 
   -4174    -3086    -2690    -2451    -1999    -2335    -3659    -4347 
   -3546    -3063    -4652    -7164    -9039   -10102   -10100    -9188 
   -8577    -9351   -10692   -10384    -8557    -7654    -8102    -8086 
   -6831    -5193    -4021    -3909    -5302    -7508    -8885    -8541 
   -7349    -6929    -7527    -8066    -7956    -7578    -7406    -7164 
   -6534    -5891    -5397    -4942    -4652    -5275    -7198    -8445 
   -7624    -6133    -5000    -4264    -3684    -2890    -2527    -3188 
   -4433    -5945    -7663    -8532    -7065    -4352    -3754    -6166 
   -8873   -10037   -10227    -9543    -8160    -7240    -6740    -5703 
   -3654    -1750    -2007    -3835    -5898    -8270    -9927    -9775 
   -8692    -8608    -9691   -10050    -9890   -10045    -9332    -7680 
   -6319    -6226    -7570    -9294   -10037    -8569    -5269    -2516 
   -1672    -2128    -2893    -3330    -3042    -2288    -2023    -2597 
   -3773    -5540    -7715    -9389    -9771    -9676   -10089   -10165 
   -9035    -7603    -6797    -6091    -5077    -4332    -4062    -3817 
   -3565    -3877    -4800    -5240    -4610    -4145    -5201    -7543 
   -9990   -11674   -12324   -11565    -9601    -7981    -7719    -8160 
   -8878   -10497   -12391   -12529   -10597    -8318    -7088    -6751 
