Origin Time       2026/01/15 07:13:00
Lat.              42.7
Long.             145.4
Depth. (km)       30
Mag.              5.7
Station Code      HKD085
Station Lat.      42.9581
Station Long.     144.0698
Station Height(m) 5
Record Time       2026/01/15 07:13:40
Sampling Freq(Hz) 100Hz
Duration Time(s)  114
Dir.              E-W
Scale Factor      7845(gal)/8223790
Max. Acc. (gal)   4.583
Last Correction   2026/01/15 07:13:41
Memo.             
[...]
     330      270      195      141      140      176      209      203 
     153       75       13       -8      -35     -122     -230     -309 
    -359     -398     -422     -418     -379     -325     -240      -58 
     206      403      423      309      167       82       74       95 
     101      103      143      216      286      352      452      591 
     756      934     1084     1151     1108      946      729      573 
     535      576      618      619      598      588      591      575 
     515      390      182      -54     -187     -141        8      141 
     237      346      479      553      502      361      222      101 
     -16      -75      -39       14       -5      -99     -211     -274 
    -245     -167     -137     -207     -319     -376     -334     -243 
    -136      -25       51       72       79      110      155      203 
     249      288      309      283      218      163      156      190 
     213      195      153      121      145      238      352      406 
     398      399      446      546      695      824      851      764 
     602      418      244       98      -16      -93     -140     -190 
    -249     -286     -288     -237     -109       68      214      255 
     184       62      -76     -207     -280     -267     -194      -83 
      64      233      392      522      614      675      730      785 
     796      730      599      432      274      199      236      330 
     403      399      301      167       78       59       89      151 
     228      288      346      463      633      778      846      853 
     834      801      742      642      518      388      256      122 
       0     -102     -198     -306     -398     -405     -290      -90 
     110      253      313      261       90     -135     -307     -396 
    -452     -522     -572     -538     -425     -278     -129       22 
     182      318      417      514      634      760      865      936 
     976      984      955      876      726      506      249       13 
    -152     -238     -253     -198      -59      168      442      680 
     812      859      919     1030     1092     1016      858      702 
     519      249      -52     -261     -315     -220      -22      199 
     365      418      351      213       82       -6      -82     -189 
    -315     -418     -469     -506     -571     -630     -630     -560 
    -432     -240        5      237      394      490      567      633 
     664      656      645      685      772      827      789      650 
     426      184       17      -32       10       85      125      103 
      74       93      166      255      306      261       95     -132 
    -332     -480     -599     -689     -723     -665     -504     -260 
      25      295      514      691      812      819      730      680 
     722      750      669      510      365      284      256      248 
     222      170      137      180      301      409      410      326 
     275      318      419      523      576      518      330       62 
    -218     -422     -476     -376     -190        8      183      314 
     387      411      452      556      668      683      560      321 
       9     -317     -595     -762     -760     -588     -345     -155 
     -39       59      170      275      383      537      726      915 
    1104     1306     1503     1630     1609     1408     1069      660 
     255      -86     -338     -514     -619     -654     -630     -557 
    -421     -247     -108       -6      130      326      480      461 
     259       13     -116      -71      108      326      500      603 
     660      693      680      580      378      108     -163     -386 
    -552     -683     -777     -791     -672     -402      -33      333 
     596      706      660      517      414      491      751     1086 
    1397     1645     1810     1875     1857     1791     1698     1544 
    1283      931      549      176     -157     -429     -656     -896 
   -1146    -1287    -1216     -958     -658     -441     -348     -360 
    -409     -406     -315     -186     -124     -182     -295     -363 
    -330     -210     -110     -143     -309     -527     -708     -800 
    -800     -733     -646     -585     -526     -402     -224      -93 
     -85     -156     -198     -116      133      506      897     1205 
    1375     1426     1404     1336     1260     1223     1201     1124 
     950      710      472      305      263      368      546      692 
     772      835      913      970      943      801      587      365 
     152      -74     -321     -575     -769     -832     -776     -675 
    -588     -564     -611     -652     -575     -383     -197     -113 
    -143     -241     -356     -467     -580     -693     -800     -878 
    -864     -679     -321      113      494      745      877      961 
    1078     1239     1393     1524     1628     1647     1509     1228 
     876      510      174      -66     -171     -160      -76       68 
     278      479      545      407      121     -175     -372     -460 
    -490     -515     -583     -722     -886     -970     -904     -723 
    -542     -454     -491     -627     -799     -895     -824     -584 
    -244      121      450      723      934     1054     1032      823 
     427      -70     -529     -838    -1003    -1090    -1120    -1047 
    -849     -562     -274      -41      145      310      450      577 
     685      703      538      182     -278     -704     -984    -1035 
    -797     -257      499     1305     1993     2465     2668     2583 
    2238     1737     1254      940      850      927     1081     1254 
    1422     1557     1626     1649     1653     1618     1497     1294 
    1080      957      978     1098     1223     1271     1193      985 
     689      371      129       58      168      400      658      866 
     924      697      155     -549    -1183    -1572    -1630    -1324 
    -680      155      980     1640     2027     2097     1917     1613 
    1335     1190     1209     1359     1574     1784     1953     2061 
    2060     1922     1680     1391     1108      870      700      587 
     486      326       41     -360     -751     -976     -985     -843 
    -700     -724    -1003    -1472    -1976    -2322    -2330    -1935 
   -1266     -556       17      379      473      267     -124     -446 
    -508     -317        0      284      417      387      309      317 
     417      481      384      145     -124     -355     -519     -534 
    -321       91      591     1046     1366     1528     1552     1440 
    1204      881      522      183      -54     -118      -12      147 
     193       56     -156     -291     -329     -378     -533     -853 
   -1328    -1860    -2336    -2693    -2887    -2876    -2633    -2153 
   -1493     -784     -190      140      164      -21     -275     -469 
    -504     -337      -25      336      699     1074     1475     1868 
    2187     2330     2191     1742     1074      313     -433    -1084 
   -1578    -1937    -2236    -2435    -2378    -1992    -1348     -552 
     299     1102     1745     2146     2312     2334     2277     2191 
    2172     2319     2644     3059     3410     3535     3337     2829 
    2088     1206      310     -476    -1111    -1610    -1944    -2056 
   -1914    -1536     -984     -376      147      510      761     1000 
    1233     1378     1379     1247      981      553      -39     -672 
   -1154    -1366    -1305    -1019     -595     -187       60      130 
     114       95       41     -172     -584    -1080    -1505    -1738 
   -1725    -1517    -1256    -1043     -850     -604     -288       89 
     510      892     1131     1204     1197     1228     1355     1587 
    1911     2223     2374     2303     2046     1672     1279      980 
     845      881     1039     1237     1387     1436     1377     1223 
     996      735      491      306      147      -44     -265     -453 
    -573     -610     -561     -476     -460     -598     -873    -1194 
   -1483    -1710    -1804    -1634    -1165     -588     -205     -232 
    -685    -1413    -2191    -2749    -2835    -2334    -1325      -28 
    1267     2315     2956     3161     3025     2706     2303     1791 
    1154      511       14     -310     -577     -897    -1267    -1591 
   -1752    -1713    -1543    -1314    -1016     -616     -149      268 
     481      399       78     -340     -723     -965    -1027     -936 
    -730     -413       14      481      912     1317     1732     2123 
    2409     2511     2374     2007     1464      814      103     -567 
   -1026    -1108     -750        0      994     1958     2560     2606 
    2185     1603     1150      965     1073     1432     1899     2226 
    2214     1860     1314      735      207     -263     -695    -1070 
   -1310    -1314    -1081     -723     -345       25      390      753 
    1094     1363     1517     1540     1443     1278     1117     1011 
     970      994     1013      936      751      503      193     -221 
    -738    -1308    -1884    -2415    -2812    -2956    -2812    -2428 
   -1867    -1177     -417      363     1111     1757     2265     2616 
    2782     2724     2424     1896     1179      340     -487    -1139 
   -1520    -1667    -1703    -1719    -1706    -1552    -1120     -363 
     600     1536     2222     2560     2601     2479     2354     2281 
    2172     1884     1314      487     -429    -1219    -1767    -2085 
   -2211    -2126    -1799    -1264     -623        1      504      805 
     865      734      531      326       52     -411    -1080    -1803 
   -2369    -2670    -2747    -2704    -2644    -2620    -2598    -2492 
   -2180    -1567     -710      232     1125     1887     2438     2721 
    2737     2543     2193     1702     1057      309     -437    -1074 
   -1466    -1480    -1120     -522       71      413      421      238 
      91      113      357      866     1594     2332     2843     2990 
    2775     2305     1736     1232      954      920     1004     1067 
    1036      855      448     -257    -1182    -2045    -2542    -2547 
   -2139    -1460     -596      372     1333     2162     2759     3051 
    2994     2598     1980     1356      911      665      504      325 
     121      -43     -124     -124      -55       66      201      307 
     355      303      121     -210     -683    -1277    -1972    -2702 
   -3326    -3719    -3863    -3792    -3499    -2961    -2203    -1321 
    -475      176      573      814     1102     1651     2529     3554 
    4375     4707     4432     3593     2377     1081       37     -544 
    -681     -556     -367     -230     -145      -22      207      573 
    1075     1638     2116     2411     2508     2432     2257     2072 
    1911     1701     1316      691     -124    -1000    -1763    -2236 
   -2317    -2042    -1602    -1227    -1023     -955     -947     -946 
    -938     -918     -824     -562      -83      562     1225     1752 
    2096     2349     2639     3009     3348     3520     3473     3180 
    2602     1786      901      149     -378     -707     -915    -1046 
   -1105    -1117    -1127    -1132    -1131    -1171    -1300    -1518 
   -1777    -1972    -2027    -1962    -1833    -1692    -1594    -1566 
   -1601    -1630    -1514    -1085     -272      818     1976     2987 
    3716     4136     4295     4257     4041     3609     2925     2072 
    1236      584      222      149      260      429      558      549 
     299     -198     -841    -1513    -2118    -2542    -2690    -2575 
   -2309    -1981    -1605    -1194     -827     -603     -550     -573 
    -544     -387     -101      271      650      940     1061     1009 
     881      781      735      707      614      329     -179     -769 
   -1196    -1236     -826     -145      479      793      739      434 
      97      -45       78      348      556      569      425      236 
      55     -120     -324     -583     -864    -1077    -1138    -1009 
    -760     -538     -477     -602     -784     -846     -688     -334 
     105      545     1024     1642     2421     3256     3936     4305 
    4337     4106     3711     3252     2818     2482     2309     2311 
    2403     2478     2498     2457     2338     2135     1842     1480 
    1127      823      549      287       39     -214     -492     -756 
    -923     -951     -892     -864     -949    -1128    -1305    -1371 
   -1260    -1015     -799     -791    -1021    -1332    -1522    -1499 
   -1358    -1285    -1385    -1614    -1871    -2035    -2039    -1935 
   -1813    -1710    -1576    -1297     -795     -137      515     1003 
    1242     1254     1143      989      772      463      103     -179 
    -265     -136      128      418      610      618      454      229 
      94      153      429      868     1364     1790     2014     1953 
    1653     1236      819      494      322      309      415      608 
     923     1408     1972     2409     2583     2469     2079     1425 
     561     -394    -1312    -2120    -2771    -3223    -3472    -3551 
   -3534    -3507    -3507    -3505    -3435    -3230    -2878    -2447 
   -2026    -1653    -1290     -899     -535     -287     -174     -157 
    -175     -152      -47      101      217      283      336      407 
     514      631      715      768      846     1000     1247     1590 
    2004     2427     2802     3127     3438     3767     4114     4452 
    4742     4941     5013     4953     4765     4469     4126     3794 
    3493     3187     2816     2323     1682      885      -20     -897 
   -1580    -1981    -2149    -2215    -2290    -2431    -2641    -2898 
   -3181    -3512    -3881    -4183    -4286    -4136    -3770    -3273 
   -2751    -2265    -1796    -1294     -722      -91      554     1185 
    1767     2234     2494     2486     2245     1868     1443     1020 
     616      238      -75     -274     -325     -211       95      598 
    1216     1837     2349     2678     2817     2791     2639     2448 
    2293     2122     1836     1382      795      206     -237     -518 
    -702     -851     -990    -1127    -1248    -1286    -1148     -832 
    -429      -60      199      338      369      261      -78     -712 
   -1588    -2546    -3352    -3839    -3986    -3851    -3535    -3175 
   -2836    -2439    -1894    -1225     -564      -49      248      356 
     367      390      498      683      889     1073     1206     1298 
    1366     1422     1451     1432     1428     1559     1879     2313 
    2731     3024     3127     3011     2702     2307     1956     1725 
    1578     1410     1135      720      226     -240     -598     -824 
    -919     -845     -554      -76      475      961     1291     1468 
    1570     1684     1853     2041     2164     2130     1845     1287 
     567     -135     -683    -1043    -1285    -1514    -1823    -2251 
   -2771    -3289    -3650    -3719    -3456    -2938    -2307    -1669 
   -1062     -496        0      399      695      866      881      758 
     581      441      396      453      584      776     1030     1356 
    1768     2257     2781     3289     3750     4155     4499     4764 
    4922     4927     4765     4456     4056     3673     3399     3211 
    3009     2667     2092     1309      426     -446    -1240    -1934 
   -2535    -3067    -3516    -3835    -3993    -4012    -3936    -3820 
   -3686    -3510    -3271    -3005    -2767    -2585    -2458    -2349 
   -2227    -2123    -2092    -2135    -2180    -2135    -1953    -1637 
   -1216     -693      -93      510     1044     1480     1794     1952 
    1898     1632     1246      839      469      203      120      234 
     490      799     1054     1144     1047      849      652      504 
     399      314      238      160       81       49      128      345 
     669     1009     1289     1482     1611     1744     1922     2145 
    2389     2624     2841     3059     3281     3464     3504     3287 
    2791     2131     1460      891      464      168      -12      -87 
     -70       28      186      368      542      677      758      778 
     702      495      180     -193     -568     -865    -1012    -1023 
   -1009    -1085    -1243    -1364    -1321    -1062     -633     -126 
     357      751     1051     1278     1428     1472     1387     1198 
     982      811      688      537      274     -112     -560     -978 
   -1271    -1398    -1390    -1301    -1197    -1125    -1078    -1015 
    -927     -874     -903    -1007    -1150    -1274    -1331    -1327 
   -1267    -1143     -965     -746     -499     -247       -5      243 
     531      873     1283     1733     2119     2332     2297     1981 
    1424      723       22     -533     -907    -1159    -1351    -1502 
   -1602    -1652    -1696    -1777    -1879    -1945    -1900    -1710 
   -1420    -1134     -961     -958    -1098    -1310    -1518    -1691 
   -1865    -2041    -2138    -2092    -1914    -1663    -1408    -1215 
   -1085     -908     -567      -41      595     1248     1864     2419 
    2874     3181     3318     3265     3028     2666     2273     1934 
    1657     1377     1046      660      226     -184     -468     -558 
    -461     -216      121      475      769      957     1050     1102 
    1162     1240     1335     1452     1598     1752     1895     2041 
    2204     2362     2488     2581     2636     2662     2675     2679 
    2667     2636     2569     2444     2277     2115     2011     1950 
    1845     1599     1163      573      -95     -769    -1391    -1956 
   -2492    -2965    -3298    -3450    -3433    -3285    -3059    -2774 
   -2432    -2035    -1617    -1232     -915     -649     -391     -106 
     221      594      973     1297     1520     1593     1493     1260 
     962      629      257     -140     -540     -909    -1197    -1345 
   -1337    -1209    -1011     -750     -414      -28      345      677 
     945     1147     1333     1543     1744     1873     1906     1853 
    1744     1602     1447     1286     1119      957      834      793 
     869     1040     1224     1324     1266     1021      622      133 
    -402     -953    -1456    -1838    -2065    -2178    -2263    -2386 
   -2593    -2891    -3222    -3493    -3650    -3666    -3518    -3191 
   -2732    -2241    -1792    -1418    -1120     -901     -762     -670 
    -549     -328        8      425      889     1370     1830     2222 
    2512     2700     2818     2895     2944     2979     3034     3117 
    3180     3190     3160     3130     3134     3179     3246     3310 
    3338     3304     3208     3051     2821     2517     2139     1692 
    1209      739      332       13     -226     -421     -579     -681 
    -704     -646     -552     -460     -371     -267     -152      -41 
      68      214      432      712     1008     1283     1525     1723 
    1857     1891     1794     1575     1271      916      542      187 
    -129     -409     -622     -745     -766     -712     -656     -649 
    -702     -791     -900    -1027    -1177    -1316    -1404    -1432 
   -1401    -1320    -1175     -947     -641     -298       44      375 
     687      954     1159     1329     1506     1706     1894     2010 
    2019     1908     1713     1472     1189      864      544      276 
