Origin Time       2026/01/15 07:13:00
Lat.              42.7
Long.             145.4
Depth. (km)       30
Mag.              5.7
Station Code      HKD053
Station Lat.      43.7849
Station Long.     143.6072
Station Height(m) 208
Record Time       2026/01/15 07:13:46
Sampling Freq(Hz) 100Hz
Duration Time(s)  77
Dir.              N-S
Scale Factor      7845(gal)/8223790
Max. Acc. (gal)   1.886
Last Correction   2026/01/15 07:13:46
Memo.             
[...]
    -707     -799     -843     -838     -812     -776     -764     -774 
    -749     -707     -711     -753     -789     -799     -789     -777 
    -761     -743     -726     -683     -630     -602     -589     -610 
    -683     -753     -770     -756     -772     -850     -916     -911 
    -888     -880     -878     -886     -881     -853     -828     -796 
    -741     -681     -633     -619     -635     -641     -642     -668 
    -693     -691     -665     -664     -719     -787     -839     -893 
    -911     -874     -855     -884     -927     -955     -939     -888 
    -842     -830     -853     -862     -815     -739     -662     -575 
    -481     -409     -375     -384     -407     -427     -464     -526 
    -627     -760     -849     -858     -826     -792     -780     -789 
    -799     -832     -888     -916     -903     -854     -788     -729 
    -677     -649     -665     -708     -756     -803     -843     -888 
    -924     -926     -900     -862     -801     -735     -673     -614 
    -569     -519     -438     -360     -313     -303     -332     -373 
    -432     -518     -622     -739     -846     -901     -918     -915 
    -874     -795     -706     -631     -602     -610     -629     -675 
    -731     -773     -832     -907     -954     -959     -932     -889 
    -864     -851     -843     -841     -818     -769     -712     -676 
    -685     -727     -766     -797     -819     -838     -858     -850 
    -812     -789     -787     -761     -702     -629     -560     -481 
    -411     -413     -475     -548     -619     -677     -708     -742 
    -791     -839     -861     -835     -808     -818     -819     -780 
    -742     -746     -796     -843     -845     -827     -828     -843 
    -851     -835     -830     -870     -901     -892     -886     -882 
    -851     -785     -688     -612     -596     -611     -641     -658 
    -629     -589     -577     -565     -542     -527     -527     -538 
    -546     -575     -670     -797     -884     -930     -961     -984 
   -1003     -989     -932     -853     -756     -654     -588     -576 
    -583     -554     -508     -527     -622     -724     -800     -839 
    -847     -841     -816     -795     -811     -864     -919     -931 
    -881     -824     -818     -834     -838     -816     -764     -685 
    -569     -429     -330     -291     -290     -324     -378     -448 
    -552     -688     -842     -985    -1081    -1119    -1119    -1081 
   -1017     -934     -822     -707     -604     -519     -473     -449 
    -430     -448     -503     -573     -646     -716     -810     -901 
    -923     -878     -808     -711     -618     -579     -595     -666 
    -774     -872     -926     -930     -907     -877     -807     -707 
    -656     -679     -737     -773     -766     -762     -780     -787 
    -756     -669     -544     -454     -436     -459     -502     -548 
    -618     -733     -834     -872     -873     -862     -846     -820 
    -769     -716     -696     -704     -730     -750     -741     -722 
    -718     -719     -729     -753     -793     -843     -876     -896 
    -920     -932     -922     -895     -827     -722     -633     -606 
    -630     -656     -649     -627     -633     -691     -772     -823 
    -841     -831     -770     -683     -645     -669     -712     -746 
    -764     -764     -750     -738     -750     -781     -826     -892 
    -954     -967     -938     -886     -841     -814     -774     -714 
    -650     -571     -490     -446     -445     -488     -581     -688 
    -770     -816     -842     -874     -904     -911     -908     -891 
    -861     -850     -841     -784     -689     -592     -526     -507 
    -517     -554     -622     -677     -712     -720     -689     -677 
    -711     -749     -774     -795     -803     -784     -723     -652 
    -616     -587     -537     -506     -514     -564     -642     -722 
    -804     -888     -936     -936     -897     -828     -769     -726 
    -695     -700     -743     -812     -886     -907     -864     -808 
    -754     -687     -614     -557     -546     -569     -577     -577 
    -598     -627     -661     -687     -675     -650     -646     -638 
    -614     -606     -646     -723     -787     -837     -892     -945 
    -986    -1005    -1005    -1013    -1003     -946     -884     -843 
    -808     -766     -708     -650     -618     -600     -612     -703 
    -827     -905     -923     -892     -838     -793     -761     -756 
    -776     -785     -778     -760     -722     -696     -684     -656 
    -616     -596     -602     -604     -579     -552     -550     -561 
    -594     -646     -695     -739     -774     -785     -815     -876 
    -927     -957     -982    -1013    -1050    -1067    -1058    -1024 
    -939     -803     -654     -533     -459     -411     -388     -436 
    -526     -587     -625     -677     -730     -756     -738     -699 
    -683     -696     -733     -784     -811     -780     -707     -612 
    -531     -499     -500     -517     -538     -546     -560     -599 
    -654     -727     -799     -845     -872     -877     -865     -861 
    -845     -808     -765     -716     -679     -660     -653     -664 
    -670     -643     -612     -616     -654     -708     -753     -781 
    -810     -837     -868     -896     -901     -915     -959     -982 
    -970     -961     -935     -873     -799     -715     -638     -596 
    -591     -604     -612     -622     -665     -710     -708     -684 
    -654     -622     -616     -656     -726     -791     -816     -820 
    -831     -832     -824     -796     -731     -665     -634     -634 
    -653     -684     -720     -757     -780     -796     -800     -768 
    -712     -660     -629     -637     -675     -707     -723     -731 
    -742     -746     -718     -684     -689     -707     -714     -726 
    -747     -787     -819     -800     -761     -742     -719     -684 
    -652     -630     -623     -608     -584     -585     -615     -641 
    -652     -649     -652     -688     -758     -855     -940     -953 
    -913     -882     -845     -783     -726     -703     -719     -753 
    -781     -795     -788     -769     -745     -706     -679     -681 
    -675     -658     -679     -734     -795     -838     -832     -776 
    -718     -700     -729     -757     -751     -735     -731     -738 
    -761     -784     -785     -778     -765     -733     -687     -657 
    -679     -735     -772     -784     -792     -783     -756     -722 
    -681     -658     -662     -673     -680     -666     -643     -646 
    -666     -695     -738     -776     -795     -795     -772     -747 
    -756     -784     -812     -826     -807     -784     -777     -758 
    -718     -660     -596     -561     -564     -591     -634     -664 
    -673     -679     -669     -665     -706     -756     -773     -773 
    -772     -778     -791     -805     -837     -880     -913     -935 
    -924     -870     -816     -768     -716     -685     -695     -737 
    -773     -762     -738     -745     -758     -776     -814     -859 
    -891     -899     -886     -868     -835     -780     -737     -708 
    -666     -633     -623     -625     -614     -588     -573     -573 
    -565     -561     -564     -564     -587     -643     -708     -778 
    -835     -855     -843     -814     -774     -734     -689     -645 
    -612     -589     -572     -561     -546     -534     -554     -621 
    -718     -812     -886     -947     -982     -994     -999     -977 
    -923     -859     -805     -787     -800     -796     -769     -742 
    -710     -673     -642     -607     -579     -583     -608     -637 
    -656     -672     -702     -727     -737     -742     -751     -765 
    -788     -801     -797     -787     -764     -734     -697     -662 
    -656     -661     -646     -627     -635     -689     -778     -841 
    -864     -888     -913     -923     -909     -876     -854     -853 
    -846     -827     -820     -837     -854     -819     -729     -630 
    -550     -502     -495     -515     -544     -580     -621     -670 
    -735     -784     -805     -810     -804     -807     -805     -761 
    -706     -672     -635     -591     -560     -560     -588     -618 
    -641     -679     -722     -762     -800     -818     -838     -896 
    -959    -1007    -1035    -1034    -1011     -973     -907     -835 
    -761     -665     -576     -525     -495     -487     -508     -561 
    -634     -677     -673     -665     -662     -650     -635     -612 
    -591     -591     -600     -623     -677     -745     -808     -855 
    -873     -878     -874     -857     -847     -842     -822     -793 
    -745     -677     -615     -565     -541     -556     -592     -641 
    -699     -753     -814     -868     -884     -877     -861     -827 
    -799     -789     -785     -788     -778     -745     -703     -662 
    -645     -662     -696     -751     -828     -900     -959     -997 
    -994     -954     -882     -774     -661     -573     -522     -525 
    -558     -600     -654     -722     -788     -842     -866     -884 
    -919     -931     -903     -868     -834     -787     -718     -646 
    -602     -577     -556     -542     -533     -533     -560     -587 
    -595     -615     -649     -680     -703     -722     -769     -841 
    -895     -927     -938     -912     -864     -805     -750     -711 
    -679     -646     -641     -677     -729     -760     -772     -799 
    -847     -881     -893     -895     -878     -846     -792     -722 
    -683     -687     -704     -737     -791     -839     -858     -835 
    -780     -722     -665     -618     -585     -549     -523     -535 
    -569     -591     -571     -508     -454     -430     -427     -468 
    -548     -633     -711     -772     -804     -822     -839     -851 
    -850     -835     -816     -796     -753     -696     -645     -608 
    -585     -561     -540     -552     -580     -594     -603     -611 
    -614     -615     -596     -561     -544     -553     -588     -630 
    -664     -714     -789     -873     -966    -1053    -1112    -1154 
   -1166    -1129    -1055     -963     -881     -822     -761     -703 
    -664     -633     -618     -626     -625     -596     -544     -480 
    -432     -405     -394     -410     -440     -465     -508     -560 
    -606     -650     -692     -737     -780     -807     -837     -885 
    -935     -992    -1046    -1057    -1016     -935     -846     -796 
    -791     -830     -920    -1042    -1155    -1246    -1302    -1335 
   -1337    -1287    -1208    -1144    -1089    -1011     -900     -776 
    -657     -519     -341     -175      -66      -18      -41     -110 
    -197     -302     -410     -511     -615     -710     -796     -861 
    -878     -882     -909     -943     -974    -1015    -1058    -1090 
   -1107    -1119    -1150    -1202    -1270    -1333    -1356    -1324 
   -1250    -1128     -950     -743     -542     -364     -194      -17 
     125      203      230      202      121       10     -137     -322 
    -507     -668     -792     -870     -903     -869     -768     -630 
    -491     -400     -390     -429     -506     -619     -737     -846 
    -947    -1038    -1127    -1198    -1244    -1301    -1367    -1421 
   -1443    -1379    -1229    -1054     -884     -734     -607     -503 
    -467     -515     -614     -739     -854     -911     -916     -869 
    -757     -616     -465     -295     -118       59      217      322 
     382      371      260       85     -140     -418     -703     -967 
   -1210    -1412    -1594    -1763    -1864    -1868    -1786    -1626 
   -1414    -1165     -896     -654     -467     -349     -321     -364 
    -457     -568     -649     -700     -731     -727     -687     -621 
    -538     -468     -410     -353     -326     -329     -345     -391 
    -465     -569     -719     -886    -1053    -1225    -1386    -1522 
   -1640    -1718    -1757    -1773    -1738    -1636    -1485    -1283 
   -1021     -706     -360      -43      198      333      337      247 
     116      -40     -211     -392     -571     -707     -781     -799 
    -787     -778     -780     -784     -792     -774     -706     -602 
    -477     -367     -337     -413     -591     -838    -1077    -1274 
   -1436    -1524    -1509    -1422    -1316    -1213    -1117    -1026 
    -955     -913     -866     -784     -657     -487     -294      -99 
      71      176      197      132       -1     -163     -325     -477 
    -604     -715     -819     -911     -997    -1082    -1158    -1224 
   -1236    -1179    -1102    -1017     -920     -824     -746     -712 
    -715     -699     -677     -675     -657     -612     -567     -530 
    -519     -533     -526     -490     -457     -426     -383     -328 
    -282     -260     -252     -245     -247     -260     -299     -378 
    -499     -670     -897    -1148    -1391    -1601    -1764    -1880 
   -1942    -1952    -1935    -1895    -1822    -1709    -1533    -1298 
   -1042     -761     -461     -167       93      278      353      325 
     187      -54     -345     -630     -858    -1011    -1121    -1202 
   -1224    -1174    -1066     -922     -772     -631     -506     -421 
    -386     -392     -413     -403     -351     -252      -86      120 
     307      411      384      237        5     -268     -535     -774 
    -993    -1197    -1413    -1663    -1929    -2195    -2438    -2616 
   -2709    -2710    -2604    -2398    -2108    -1749    -1348     -913 
    -469      -68      252      481      616      646      560      382 
     182        9     -129     -249     -372     -486     -576     -656 
    -702     -673     -571     -405     -199       -1      147      205 
     136      -54     -346     -715    -1117    -1513    -1856    -2080 
   -2162    -2118    -1983    -1799    -1584    -1339    -1094     -877 
    -696     -546     -409     -283     -184      -91        6       90 
     128       91      -17     -179     -383     -610     -845    -1061 
   -1201    -1240    -1198    -1074     -891     -716     -565     -423 
    -294     -176      -94      -79     -129     -247     -403     -552 
    -695     -842     -962    -1057    -1135    -1213    -1329    -1478 
   -1614    -1722    -1783    -1760    -1622    -1359    -1028     -703 
    -410     -175      -22       54       63       32        2      -37 
    -114     -206     -303     -396     -487     -614     -778     -945 
   -1088    -1198    -1281    -1340    -1372    -1398    -1425    -1429 
   -1408    -1350    -1223    -1016     -766     -515     -299     -128 
     -21      -22     -124     -272     -422     -529     -569     -546 
    -468     -388     -375     -442     -587     -791    -1017    -1250 
   -1458    -1591    -1634    -1586    -1468    -1337    -1232    -1174 
   -1179    -1209    -1232    -1231    -1161    -1008     -800     -557 
    -314     -108       52      157      202      222      240      255 
     270      278      282      268      194       40     -198     -508 
    -826    -1098    -1313    -1447    -1509    -1534    -1547    -1568 
   -1617    -1686    -1765    -1811    -1763    -1622    -1414    -1179 
    -972     -814     -722     -697     -684     -650     -622     -581 
    -504     -395     -248      -83       56      148      157       62 
    -114     -326     -519     -664     -770     -828     -824     -785 
    -735     -687     -664     -681     -749     -845     -918     -947 
    -927     -842     -718     -592     -498     -484     -562     -695 
    -845     -954     -980     -946     -861     -722     -561     -415 
    -325     -333     -421     -549     -697     -839     -953    -1030 
   -1078    -1119    -1148    -1152    -1136    -1096    -1020     -911 
    -762     -591     -433     -306     -222     -202     -247     -357 
    -514     -669     -788     -866     -900     -904     -878     -822 
    -761     -722     -706     -727     -785     -868     -963    -1046 
   -1105    -1152    -1171    -1159    -1134    -1080     -981     -853 
    -712     -602     -540     -496     -461     -421     -349     -265 
    -193     -136     -114     -133     -193     -314     -491     -688 
    -882    -1040    -1134    -1159    -1132    -1090    -1035     -943 
    -823     -677     -499     -341     -247     -209     -217     -268 
    -363     -496     -646     -803     -967    -1117    -1239    -1329 
   -1368    -1371    -1374    -1360    -1317    -1235    -1088     -904 
    -727     -550     -382     -232     -110      -35        1       13 
     -29     -147     -309     -484     -646     -796     -949    -1073 
   -1134    -1135    -1094    -1042     -994     -953     -939     -972 
   -1028    -1090    -1121    -1092    -1017     -909     -774     -635 
    -517     -446     -452     -507     -584     -683     -773     -820 
    -815     -757     -680     -627     -588     -553     -535     -542 
    -580     -625     -653     -679     -707     -724     -747     -781 
    -826     -895     -974    -1048    -1120    -1165    -1166    -1147 
   -1105    -1027     -907     -743     -575     -448     -340     -236 
    -130      -21       60      112      148      133       48      -66 
    -195     -345     -510     -685     -866    -1062    -1289    -1513 
   -1699    -1844    -1945    -2010    -2041    -2008    -1900    -1732 
   -1495    -1206     -895     -577     -283      -40      139      252 
     302      290      210       74     -102     -288     -433     -531 
    -618     -683     -715     -751     -805     -870     -940    -1001 
   -1059    -1116    -1158    -1205    -1243    -1227    -1147    -1017 
    -854     -692     -544     -409     -310     -257     -230     -213 
    -189     -172     -202     -274     -367     -490     -638     -808 
    -974    -1084    -1132    -1161    -1169    -1146    -1092    -1030 
    -999     -980     -936     -869     -785     -693     -615     -558 
    -545     -591     -666     -766     -885     -985    -1055    -1105 
   -1123    -1107    -1065    -1001     -936     -874     -804     -733 
    -650     -552     -461     -388     -319     -272     -263     -288 
    -334     -368     -378     -372     -360     -338     -295     -229 
    -172     -143     -143     -202     -324     -480     -658     -843 
   -1032    -1235    -1425    -1570    -1664    -1710    -1742    -1794 
   -1825    -1803    -1722    -1557    -1316    -1017     -670     -326 
     -32      201      345      383      338      226       74      -70 
    -191     -294     -392     -508     -641     -784     -945    -1104 
   -1252    -1397    -1520    -1601    -1628    -1586    -1489    -1351 
   -1170     -977     -792     -611     -454     -328     -228     -195 
    -232     -295     -383     -500     -616     -723     -808     -859 
    -877     -869     -845     -816     -780     -743     -712     -676 
    -661     -685     -719     -737     -723     -664     -581     -515 
    -480     -486     -535     -616     -739     -901    -1063    -1188 
   -1260    -1279    -1269    -1228    -1167    -1117    -1061     -982 
    -911     -861     -827     -791     -719     -607     -490     -383 
    -301     -265     -272     -307     -338     -352     -382     -434 
    -483     -534     -589     -638     -685     -730     -772     -823 
