Origin Time       2026/01/15 07:13:00
Lat.              42.7
Long.             145.4
Depth. (km)       30
Mag.              5.7
Station Code      HKD051
Station Lat.      44.0221
Station Long.     143.7682
Station Height(m) 47
Record Time       2026/01/15 07:14:12
Sampling Freq(Hz) 100Hz
Duration Time(s)  60
Dir.              U-D
Scale Factor      7845(gal)/8223790
Max. Acc. (gal)   0.601
Last Correction   2026/01/15 07:14:13
Memo.             
[...]
   -3623    -3626    -3626    -3634    -3646    -3666    -3693    -3704 
   -3692    -3666    -3632    -3595    -3558    -3524    -3496    -3477 
   -3470    -3476    -3495    -3519    -3545    -3572    -3603    -3634 
   -3653    -3653    -3636    -3616    -3607    -3608    -3615    -3618 
   -3609    -3601    -3601    -3597    -3588    -3582    -3588    -3603 
   -3624    -3640    -3640    -3616    -3565    -3497    -3418    -3325 
   -3235    -3177    -3157    -3183    -3256    -3350    -3443    -3530 
   -3604    -3651    -3673    -3674    -3659    -3643    -3642    -3653 
   -3674    -3704    -3731    -3732    -3697    -3636    -3577    -3537 
   -3519    -3516    -3524    -3537    -3553    -3582    -3626    -3659 
   -3681    -3696    -3693    -3688    -3676    -3640    -3585    -3532 
   -3489    -3453    -3414    -3366    -3311    -3258    -3219    -3191 
   -3175    -3179    -3207    -3250    -3306    -3362    -3408    -3453 
   -3510    -3577    -3649    -3712    -3754    -3766    -3755    -3738 
   -3719    -3700    -3681    -3663    -3650    -3632    -3616    -3612 
   -3615    -3620    -3630    -3634    -3623    -3592    -3543    -3497 
   -3470    -3462    -3470    -3488    -3500    -3499    -3491    -3478 
   -3466    -3451    -3437    -3429    -3423    -3415    -3403    -3388 
   -3384    -3406    -3451    -3512    -3566    -3597    -3616    -3627 
   -3628    -3626    -3624    -3630    -3651    -3692    -3736    -3765 
   -3771    -3758    -3728    -3694    -3665    -3636    -3612    -3582 
   -3547    -3512    -3478    -3453    -3445    -3449    -3466    -3493 
   -3520    -3541    -3549    -3542    -3519    -3485    -3449    -3416 
   -3397    -3384    -3376    -3395    -3442    -3501    -3550    -3581 
   -3595    -3596    -3589    -3578    -3569    -3557    -3546    -3539 
   -3543    -3568    -3604    -3634    -3650    -3647    -3623    -3592 
   -3555    -3516    -3480    -3446    -3415    -3385    -3361    -3349 
   -3345    -3353    -3385    -3429    -3465    -3493    -3507    -3496 
   -3473    -3443    -3415    -3400    -3403    -3422    -3461    -3515 
   -3582    -3654    -3703    -3713    -3696    -3672    -3655    -3643 
   -3619    -3580    -3530    -3477    -3430    -3396    -3381    -3391 
   -3426    -3472    -3511    -3550    -3595    -3627    -3645    -3653 
   -3654    -3649    -3638    -3634    -3642    -3642    -3628    -3613 
   -3592    -3562    -3541    -3537    -3534    -3514    -3488    -3473 
   -3478    -3503    -3531    -3553    -3568    -3565    -3542    -3510 
   -3478    -3460    -3456    -3457    -3473    -3514    -3564    -3611 
   -3655    -3696    -3726    -3743    -3742    -3716    -3676    -3630 
   -3591    -3562    -3539    -3526    -3524    -3527    -3511    -3466 
   -3418    -3388    -3376    -3383    -3410    -3460    -3520    -3570 
   -3600    -3615    -3618    -3600    -3566    -3522    -3472    -3437 
   -3438    -3472    -3515    -3555    -3588    -3612    -3626    -3632 
   -3632    -3626    -3605    -3562    -3496    -3424    -3368    -3333 
   -3331    -3370    -3441    -3522    -3586    -3626    -3649    -3653 
   -3643    -3630    -3612    -3588    -3564    -3538    -3518    -3507 
   -3497    -3487    -3483    -3488    -3504    -3531    -3562    -3593 
   -3608    -3596    -3555    -3495    -3430    -3373    -3338    -3337 
   -3360    -3388    -3419    -3443    -3460    -3478    -3497    -3512 
   -3532    -3554    -3577    -3604    -3642    -3693    -3753    -3798 
   -3825    -3829    -3813    -3782    -3746    -3707    -3659    -3607 
   -3551    -3495    -3456    -3445    -3450    -3461    -3478    -3500 
   -3520    -3545    -3569    -3585    -3581    -3555    -3528    -3514 
   -3505    -3495    -3474    -3451    -3438    -3439    -3454    -3469 
   -3478    -3485    -3487    -3489    -3495    -3492    -3485    -3488 
   -3496    -3500    -3508    -3522    -3545    -3582    -3620    -3649 
   -3669    -3692    -3713    -3721    -3708    -3670    -3616    -3559 
   -3504    -3446    -3388    -3337    -3287    -3240    -3208    -3200 
   -3217    -3252    -3298    -3356    -3422    -3481    -3524    -3564 
   -3611    -3654    -3677    -3684    -3686    -3684    -3670    -3640 
   -3601    -3559    -3524    -3504    -3499    -3505    -3515    -3535 
   -3578    -3640    -3711    -3777    -3821    -3840    -3835    -3812 
   -3780    -3730    -3658    -3578    -3511    -3458    -3422    -3404 
   -3402    -3408    -3412    -3407    -3407    -3424    -3445    -3454 
   -3461    -3468    -3465    -3446    -3423    -3404    -3399    -3406 
   -3415    -3429    -3446    -3470    -3503    -3538    -3573    -3607 
   -3632    -3655    -3674    -3681    -3688    -3704    -3713    -3708 
   -3699    -3693    -3685    -3673    -3673    -3682    -3682    -3661 
   -3616    -3558    -3493    -3426    -3375    -3357    -3361    -3373 
   -3391    -3406    -3418    -3423    -3416    -3403    -3393    -3387 
   -3376    -3366    -3377    -3408    -3462    -3528    -3597    -3655 
   -3693    -3707    -3692    -3666    -3642    -3618    -3597    -3592 
   -3603    -3636    -3673    -3685    -3676    -3655    -3623    -3582 
   -3546    -3515    -3491    -3480    -3484    -3503    -3542    -3592 
   -3632    -3649    -3636    -3605    -3559    -3500    -3442    -3402 
   -3384    -3389    -3410    -3438    -3465    -3485    -3492    -3488 
   -3483    -3485    -3488    -3483    -3474    -3474    -3485    -3504 
   -3523    -3541    -3568    -3618    -3678    -3736    -3789    -3816 
   -3819    -3802    -3766    -3713    -3651    -3585    -3526    -3483 
   -3447    -3424    -3415    -3418    -3435    -3462    -3496    -3531 
   -3553    -3554    -3537    -3510    -3477    -3439    -3400    -3364 
   -3338    -3337    -3353    -3370    -3392    -3420    -3461    -3503 
   -3535    -3561    -3589    -3620    -3645    -3666    -3697    -3743 
   -3788    -3813    -3815    -3792    -3754    -3709    -3653    -3586 
   -3524    -3468    -3410    -3362    -3341    -3350    -3385    -3433 
   -3470    -3493    -3496    -3480    -3450    -3415    -3384    -3369 
   -3379    -3407    -3447    -3484    -3510    -3528    -3545    -3561 
   -3578    -3591    -3596    -3600    -3603    -3600    -3599    -3595 
   -3577    -3549    -3522    -3504    -3492    -3480    -3462    -3446 
   -3449    -3468    -3491    -3524    -3566    -3597    -3607    -3593 
   -3555    -3505    -3453    -3411    -3381    -3364    -3372    -3408 
   -3461    -3520    -3572    -3605    -3619    -3611    -3591    -3566 
   -3542    -3532    -3528    -3520    -3512    -3510    -3520    -3549 
   -3593    -3643    -3682    -3703    -3707    -3701    -3686    -3672 
   -3659    -3649    -3630    -3605    -3589    -3572    -3538    -3496 
   -3461    -3431    -3414    -3410    -3414    -3415    -3411    -3407 
   -3410    -3423    -3434    -3439    -3453    -3478    -3504    -3537 
   -3574    -3605    -3627    -3636    -3627    -3611    -3597    -3580 
   -3553    -3534    -3530    -3534    -3537    -3534    -3534    -3545 
   -3564    -3582    -3597    -3616    -3642    -3655    -3653    -3645 
   -3640    -3639    -3634    -3611    -3578    -3553    -3531    -3505 
   -3478    -3454    -3439    -3439    -3449    -3460    -3483    -3511 
   -3526    -3524    -3520    -3518    -3519    -3520    -3523    -3538 
   -3558    -3581    -3603    -3618    -3628    -3638    -3643    -3649 
   -3657    -3663    -3666    -3662    -3639    -3600    -3565    -3549 
   -3558    -3591    -3631    -3658    -3658    -3636    -3603    -3566 
   -3538    -3519    -3515    -3512    -3495    -3474    -3462    -3451 
   -3449    -3453    -3450    -3441    -3427    -3410    -3399    -3399 
   -3410    -3430    -3457    -3491    -3528    -3564    -3591    -3607 
   -3623    -3649    -3670    -3681    -3690    -3692    -3680    -3665 
   -3646    -3624    -3609    -3605    -3603    -3608    -3618    -3623 
   -3630    -3642    -3651    -3649    -3631    -3593    -3547    -3510 
   -3483    -3474    -3483    -3491    -3515    -3561    -3599    -3615 
   -3622    -3627    -3634    -3631    -3620    -3609    -3599    -3584 
   -3570    -3568    -3574    -3585    -3607    -3634    -3647    -3638 
   -3609    -3572    -3542    -3523    -3503    -3484    -3474    -3465 
   -3453    -3443    -3449    -3469    -3497    -3528    -3557    -3574 
   -3574    -3568    -3572    -3588    -3599    -3611    -3620    -3608 
   -3574    -3534    -3495    -3464    -3434    -3408    -3403    -3410 
   -3420    -3430    -3435    -3434    -3437    -3454    -3474    -3491 
   -3508    -3519    -3514    -3499    -3484    -3464    -3445    -3437 
   -3438    -3446    -3458    -3474    -3484    -3476    -3460    -3449 
   -3449    -3446    -3437    -3438    -3453    -3464    -3469    -3477 
   -3474    -3458    -3439    -3418    -3400    -3387    -3377    -3373 
   -3369    -3361    -3358    -3365    -3385    -3415    -3451    -3489 
   -3516    -3519    -3501    -3481    -3465    -3447    -3423    -3399 
   -3387    -3391    -3411    -3445    -3485    -3526    -3561    -3586 
   -3607    -3631    -3659    -3678    -3676    -3666    -3658    -3636 
   -3597    -3559    -3535    -3526    -3527    -3528    -3526    -3523 
   -3522    -3515    -3503    -3503    -3534    -3591    -3658    -3712 
   -3743    -3763    -3780    -3781    -3766    -3739    -3699    -3650 
   -3593    -3553    -3541    -3531    -3511    -3499    -3496    -3488 
   -3469    -3443    -3426    -3412    -3411    -3434    -3464    -3485 
   -3515    -3553    -3578    -3585    -3580    -3591    -3622    -3643 
   -3645    -3636    -3626    -3619    -3612    -3604    -3597    -3589 
   -3578    -3558    -3531    -3503    -3476    -3454    -3441    -3438 
   -3438    -3441    -3453    -3466    -3474    -3487    -3507    -3522 
   -3527    -3535    -3545    -3550    -3555    -3574    -3604    -3639 
   -3665    -3673    -3667    -3655    -3638    -3615    -3580    -3535 
   -3496    -3466    -3451    -3454    -3469    -3485    -3503    -3524 
   -3537    -3528    -3511    -3491    -3466    -3442    -3424    -3419 
   -3419    -3422    -3430    -3439    -3453    -3462    -3460    -3469 
   -3497    -3523    -3543    -3557    -3549    -3527    -3516    -3510 
   -3500    -3496    -3501    -3511    -3526    -3545    -3561    -3577 
   -3591    -3597    -3599    -3603    -3616    -3628    -3636    -3638 
   -3642    -3651    -3654    -3643    -3630    -3607    -3572    -3532 
   -3491    -3449    -3416    -3408    -3415    -3431    -3456    -3480 
   -3504    -3534    -3561    -3585    -3607    -3616    -3604    -3580 
   -3557    -3543    -3541    -3558    -3589    -3623    -3649    -3662 
   -3669    -3676    -3686    -3699    -3707    -3701    -3688    -3678 
   -3667    -3649    -3619    -3576    -3526    -3484    -3443    -3395 
   -3345    -3307    -3283    -3272    -3281    -3314    -3366    -3430 
   -3496    -3554    -3601    -3639    -3667    -3686    -3693    -3685 
   -3669    -3654    -3650    -3654    -3653    -3651    -3657    -3657 
   -3642    -3622    -3593    -3558    -3522    -3493    -3477    -3469 
   -3464    -3462    -3470    -3487    -3508    -3550    -3595    -3624 
   -3642    -3654    -3667    -3689    -3705    -3704    -3680    -3627 
   -3553    -3485    -3441    -3414    -3396    -3385    -3379    -3384 
   -3406    -3430    -3443    -3462    -3489    -3520    -3551    -3576 
   -3586    -3578    -3553    -3516    -3477    -3449    -3438    -3435 
   -3441    -3453    -3468    -3487    -3507    -3524    -3531    -3530 
   -3522    -3505    -3484    -3462    -3451    -3461    -3485    -3507 
   -3534    -3574    -3619    -3659    -3689    -3705    -3705    -3688 
   -3661    -3632    -3604    -3584    -3581    -3589    -3603    -3627 
   -3662    -3689    -3694    -3682    -3661    -3628    -3580    -3510 
   -3439    -3387    -3348    -3327    -3334    -3360    -3392    -3422 
   -3446    -3468    -3491    -3503    -3491    -3457    -3414    -3375 
   -3349    -3337    -3329    -3319    -3311    -3302    -3291    -3287 
   -3298    -3318    -3346    -3388    -3453    -3541    -3630    -3711 
   -3792    -3866    -3916    -3940    -3950    -3948    -3946    -3939 
   -3921    -3910    -3919    -3928    -3932    -3937    -3943    -3950 
   -3962    -3975    -3990    -4008    -4010    -3981    -3916    -3824 
   -3715    -3600    -3489    -3383    -3285    -3208    -3153    -3121 
   -3105    -3095    -3094    -3095    -3088    -3076    -3068    -3065 
   -3071    -3090    -3118    -3153    -3190    -3223    -3249    -3272 
   -3287    -3289    -3289    -3303    -3333    -3379    -3437    -3503 
   -3576    -3658    -3753    -3851    -3940    -4013    -4070    -4102 
   -4105    -4079    -4028    -3954    -3865    -3763    -3657    -3557 
   -3473    -3402    -3339    -3296    -3269    -3241    -3210    -3186 
   -3168    -3159    -3159    -3164    -3177    -3207    -3244    -3283 
   -3325    -3368    -3414    -3461    -3507    -3542    -3559    -3570 
   -3584    -3596    -3604    -3605    -3597    -3584    -3562    -3522 
   -3474    -3435    -3408    -3410    -3437    -3477    -3538    -3619 
   -3712    -3805    -3882    -3940    -3985    -4016    -4021    -4013 
   -4000    -3975    -3937    -3890    -3836    -3786    -3740    -3680 
   -3608    -3546    -3491    -3435    -3399    -3388    -3395    -3407 
   -3411    -3406    -3397    -3383    -3352    -3306    -3244    -3173 
   -3111    -3075    -3073    -3110    -3180    -3273    -3384    -3510 
   -3640    -3769    -3897    -4014    -4101    -4152    -4168    -4147 
   -4095    -4025    -3936    -3834    -3732    -3635    -3534    -3433 
   -3341    -3262    -3200    -3150    -3114    -3098    -3102    -3111 
   -3122    -3138    -3168    -3219    -3295    -3380    -3470    -3559 
   -3635    -3686    -3726    -3763    -3796    -3816    -3815    -3794 
   -3769    -3738    -3693    -3655    -3634    -3613    -3592    -3570 
   -3541    -3507    -3470    -3431    -3395    -3362    -3335    -3318 
   -3316    -3330    -3354    -3387    -3419    -3454    -3491    -3518 
   -3537    -3562    -3595    -3631    -3674    -3724    -3777    -3820 
   -3848    -3858    -3846    -3807    -3742    -3655    -3561    -3472 
   -3404    -3368    -3357    -3352    -3350    -3361    -3380    -3400 
   -3423    -3449    -3470    -3480    -3470    -3453    -3431    -3397 
   -3357    -3316    -3281    -3264    -3267    -3281    -3302    -3330 
   -3365    -3406    -3456    -3504    -3549    -3593    -3632    -3657 
   -3673    -3684    -3678    -3661    -3646    -3626    -3603    -3585 
   -3565    -3549    -3538    -3532    -3535    -3555    -3589    -3628 
   -3682    -3758    -3842    -3916    -3975    -4009    -4024    -4023 
   -3983    -3904    -3804    -3700    -3596    -3499    -3420    -3376 
   -3362    -3361    -3372    -3399    -3429    -3450    -3461    -3451 
   -3426    -3397    -3372    -3338    -3302    -3279    -3269    -3264 
   -3258    -3260    -3277    -3308    -3337    -3358    -3387    -3431 
   -3478    -3519    -3549    -3578    -3603    -3616    -3624    -3639 
   -3672    -3717    -3762    -3801    -3842    -3883    -3905    -3906 
   -3904    -3889    -3861    -3823    -3771    -3709    -3647    -3586 
   -3534    -3492    -3453    -3423    -3402    -3379    -3348    -3312 
   -3284    -3273    -3272    -3279    -3294    -3306    -3323    -3348 
   -3376    -3402    -3414    -3414    -3410    -3393    -3368    -3349 
   -3342    -3345    -3358    -3379    -3414    -3465    -3515    -3561 
   -3613    -3673    -3734    -3789    -3835    -3869    -3896    -3913 
   -3915    -3904    -3888    -3856    -3804    -3744    -3684    -3622 
   -3568    -3523    -3474    -3419    -3370    -3341    -3326    -3323 
   -3341    -3377    -3424    -3476    -3520    -3558    -3591    -3599 
   -3578    -3542    -3500    -3462    -3441    -3431    -3442    -3473 
   -3510    -3545    -3585    -3628    -3672    -3716    -3755    -3790 
   -3825    -3855    -3863    -3838    -3775    -3681    -3573    -3457 
   -3333    -3214    -3121    -3051    -3002    -2983    -2994    -3033 
   -3098    -3181    -3276    -3377    -3477    -3568    -3643    -3703 
   -3743    -3765    -3774    -3769    -3751    -3721    -3684    -3645 
   -3608    -3570    -3535    -3504    -3478    -3458    -3443    -3438 
   -3446    -3472    -3518    -3570    -3616    -3657    -3708    -3771 
   -3835    -3881    -3902    -3909    -3897    -3858    -3801    -3740 
   -3686    -3640    -3588    -3531    -3477    -3426    -3375    -3322 
   -3276    -3241    -3218    -3208    -3208    -3211    -3226    -3258 
   -3296    -3326    -3353    -3383    -3416    -3453    -3493    -3530 
   -3568    -3607    -3643    -3680    -3724    -3769    -3798    -3813 
   -3815    -3792    -3753    -3701    -3638    -3568    -3507    -3465 
   -3450    -3461    -3476    -3483    -3489    -3499    -3508    -3515 
   -3527    -3547    -3578    -3613    -3643    -3672    -3692    -3694 
   -3677    -3647    -3608    -3555    -3491    -3430    -3373    -3312 
   -3261    -3237    -3233    -3240    -3260    -3295    -3342    -3391 
   -3439    -3492    -3537    -3562    -3569    -3559    -3542    -3526 
   -3516    -3518    -3546    -3592    -3638    -3682    -3719    -3739 
   -3753    -3766    -3762    -3739    -3705    -3667    -3630    -3588 
   -3537    -3485    -3447    -3415    -3384    -3357    -3346    -3356 
   -3379    -3415    -3470    -3535    -3582    -3601    -3607    -3593 
   -3562    -3528    -3496    -3470    -3456    -3447    -3449    -3458 
   -3476    -3501    -3527    -3550    -3570    -3581    -3586    -3592 
   -3589    -3572    -3555    -3547    -3542    -3539    -3547    -3573 
   -3611    -3654    -3699    -3739    -3770    -3784    -3773    -3746 
   -3712    -3658    -3591    -3528    -3472    -3423    -3379    -3338 
   -3306    -3275    -3256    -3261    -3283    -3325    -3391    -3461 
   -3530    -3601    -3659    -3697    -3727    -3754    -3769    -3771 
   -3770    -3759    -3730    -3682    -3630    -3582    -3547    -3519 
   -3496    -3480    -3466    -3464    -3476    -3488    -3503    -3541 
   -3599    -3662    -3716    -3757    -3792    -3817    -3808    -3769 
   -3712    -3647    -3582    -3522    -3462    -3408    -3362    -3325 
   -3296    -3287    -3308    -3350    -3399    -3447    -3491    -3526 
   -3558    -3578    -3580    -3572    -3557    -3534    -3511    -3492 
   -3483    -3480    -3478    -3477    -3481    -3485    -3480    -3470 
   -3468    -3473    -3495    -3534    -3577    -3624    -3680    -3728 
   -3759    -3775    -3781    -3767    -3724    -3661    -3595    -3537 
   -3483    -3443    -3429    -3427    -3426    -3431    -3447    -3472 
   -3499    -3522    -3532    -3530    -3522    -3514    -3508    -3499 
   -3487    -3487    -3500    -3512    -3519    -3532    -3551    -3562 
   -3564    -3554    -3539    -3522    -3496    -3464    -3438    -3423 
   -3410    -3404    -3410    -3430    -3465    -3501    -3522    -3530 
   -3542    -3546    -3524    -3489    -3457    -3429    -3414    -3415 
   -3423    -3434    -3454    -3481    -3508    -3532    -3554    -3570 
   -3582    -3582    -3581    -3593    -3601    -3599    -3597    -3600 
   -3600    -3589    -3564    -3535    -3518    -3518    -3519    -3518 
   -3523    -3543    -3570    -3588    -3591    -3588    -3593    -3604 
