Origin Time       2026/01/15 07:13:00
Lat.              42.7
Long.             145.4
Depth. (km)       30
Mag.              5.7
Station Code      HKD073
Station Lat.      43.3327
Station Long.     145.6003
Station Height(m) 36
Record Time       2026/01/15 07:13:30
Sampling Freq(Hz) 100Hz
Duration Time(s)  84
Dir.              E-W
Scale Factor      7845(gal)/8223790
Max. Acc. (gal)   25.204
Last Correction   2026/01/15 07:13:30
Memo.             
[...]
    1445     1444     1441     1444     1445     1440     1443     1447 
    1444     1443     1445     1441     1440     1445     1445     1441 
    1443     1445     1440     1436     1440     1444     1443     1443 
    1444     1445     1444     1444     1441     1443     1445     1440 
    1439     1444     1444     1443     1445     1449     1444     1439 
    1441     1445     1440     1437     1443     1444     1443     1444 
    1443     1444     1447     1443     1439     1441     1443     1441 
    1440     1443     1445     1443     1444     1444     1441     1440 
    1440     1441     1443     1441     1443     1444     1444     1444 
    1444     1443     1440     1439     1440     1445     1448     1445 
    1444     1443     1441     1443     1441     1437     1440     1444 
    1443     1441     1443     1443     1443     1445     1447     1444 
    1440     1441     1443     1443     1443     1440     1441     1443 
    1441     1444     1445     1443     1437     1440     1444     1445 
    1441     1439     1443     1445     1443     1441     1441     1441 
    1443     1447     1448     1444     1441     1441     1441     1444 
    1444     1440     1443     1448     1445     1441     1437     1437 
    1443     1444     1441     1440     1443     1445     1445     1443 
    1443     1440     1439     1444     1447     1443     1441     1445 
    1444     1439     1440     1444     1443     1441     1443     1441 
    1444     1444     1439     1436     1444     1444     1439     1443 
    1447     1443     1443     1445     1445     1443     1440     1437 
    1440     1445     1445     1439     1439     1443     1444     1445 
    1449     1444     1440     1444     1445     1444     1441     1436 
    1437     1445     1447     1439     1435     1444     1448     1441 
    1440     1445     1444     1441     1443     1444     1440     1436 
    1441     1445     1445     1444     1440     1440     1447     1447 
    1440     1441     1441     1439     1439     1441     1444     1444 
    1441     1441     1443     1441     1440     1439     1441     1445 
    1444     1441     1444     1444     1441     1441     1441     1440 
    1440     1441     1443     1441     1440     1444     1449     1444 
    1441     1443     1441     1441     1441     1440     1443     1444 
    1439     1439     1448     1451     1443     1441     1443     1440 
    1437     1439     1440     1445     1445     1441     1440     1445 
    1444     1443     1444     1445     1441     1439     1443     1447 
    1443     1443     1444     1441     1441     1444     1439     1437 
    1441     1443     1441     1443     1443     1440     1439     1443 
    1444     1439     1440     1443     1440     1440     1443     1444 
    1444     1444     1441     1440     1443     1445     1444     1443 
    1444     1444     1441     1441     1441     1441     1443     1441 
    1441     1443     1441     1439     1444     1447     1443     1439 
    1443     1447     1441     1437     1441     1444     1443     1447 
    1448     1445     1443     1437     1439     1445     1443     1439 
    1440     1444     1447     1443     1439     1441     1445     1445 
    1444     1444     1443     1440     1443     1443     1443     1445 
    1444     1444     1444     1441     1436     1441     1445     1444 
    1441     1444     1447     1444     1440     1440     1440     1437 
    1440     1445     1444     1441     1440     1444     1447     1440 
    1437     1443     1444     1443     1443     1441     1440     1440 
    1439     1441     1441     1441     1447     1445     1443     1444 
    1440     1440     1444     1444     1440     1443     1448     1447 
    1439     1437     1441     1444     1444     1441     1439     1443 
    1445     1440     1437     1441     1441     1441     1445     1447 
    1440     1435     1437     1444     1444     1443     1444     1441 
    1441     1447     1445     1443     1441     1441     1443     1439 
    1440     1443     1440     1440     1444     1440     1437     1441 
    1444     1444     1441     1437     1439     1439     1437     1441 
    1444     1443     1441     1440     1436     1431     1431     1432 
    1433     1432     1431     1429     1424     1421     1420     1414 
    1412     1410     1410     1420     1439     1456     1462     1452 
    1429     1402     1394     1416     1444     1458     1464     1475 
    1474     1447     1414     1410     1414     1385     1343     1335 
    1377     1437     1471     1460     1416     1356     1333     1390 
    1503     1620     1653     1557     1441     1417     1485     1533 
    1412     1209     1175     1344     1587     1752     1729     1601 
    1485     1398     1321     1271     1314     1412     1386     1302 
    1383     1603     1845     2061     2107     1858     1443     1120 
    1009     1015     1090     1267     1458     1549     1548     1489 
    1344     1158     1148     1362     1433     1247     1185     1425 
    1765     2003     2122     2103     1730     1082      739      931 
    1314     1530     1476     1348     1258     1077      862      820 
    1069     1602     2162     2374     2212     1941     1696     1510 
    1325      963      518      499     1167     1995     2363     2400 
    2411     2197     1620      988      441      -71     -259      179 
    1005     1719     2142     2502     2828     2741     2224     1707 
    1377     1116      916      942     1124     1143     1034     1109 
    1452     1798     1746     1341     1066     1120     1358     1648 
    1853     1853     1669     1414     1227     1101      959     1003 
    1394     1836     2054     2126     2097     1872     1456      977 
     594      486      675      930     1229     1733     2088     1995 
    1944     2211     2305     1773      889      444      702     1260 
    1822     2127     2022     1738     1474     1329     1233      920 
     691     1021     1609     2035     2241     2151     1759     1178 
     611      338      483      974     1559     1863     1931     1977 
    1922     1937     2104     1885     1154      450      216      625 
    1279     1491     1331     1318     1471     1497     1453     1563 
    1744     1861     1999     2158     2158     1908     1432      886 
     700      970     1194     1163     1147     1263     1521     1945 
    2303     2366     2231     2014     1684     1223      714      348 
     260      513     1073     1525     1597     1733     2222     2538 
    2216     1590     1190     1036      943      903      907      931 
    1112     1557     2057     2246     2079     1737     1394     1364 
    1580     1426      982      935     1296     1502     1123      378 
     121      685     1482     2135     2708     2955     2620     2122 
    1896     1675     1289     1044      826      364       75      438 
    1236     1925     2293     2405     2268     2039     1838     1329 
     599      334      607      911     1090     1382     1884     2269 
    2261     1938     1505     1312     1435     1505     1502     1601 
    1695     1636     1235      585      284      531      967     1424 
    1845     2178     2481     2606     2326     1699     1202     1235 
    1458     1440     1097      432      170      913     1798     2110 
    2273     2255     1610      789      546      978     1710     2116 
    1782     1000      475      591      978     1345     1937     2475 
    2431     2087     1895     1972     2228     2137     1429      642 
     259      384      742      807      826     1362     2077     2398 
    2141     1509      969      766     1113     1946     2461     2110 
    1167      542     1015     1791     1887     1756     1598     1237 
    1247     1678     1767     1209      438      225      715     1271 
    1717     2077     2101     1872     1472     1054     1097     1507 
    1884     2011     1614     1134     1325     1827     1864     1286 
     569      498     1124     1838     2388     2552     2110     1482 
    1046      773      677      683      841     1375     2018     2281 
    2080     1741     1695     1996     2253     2025     1282      387 
    -186       59     1142     2274     2656     2200     1354      691 
     652     1188     1713     1777     1437     1043      919     1135 
    1594     1989     1999     1717     1379     1248     1464     1599 
    1366     1088      972      931      888      841      812      803 
    1144     2145     3117     3284     2945     2454     1746     1097 
     874      958      943      729      648      830     1123     1421 
    1568     1674     2120     2700     2771     2313     1795     1318 
     711      207      117      206      334      804     1514     2155 
    2772     3149     2992     2582     2145     1459      465     -264 
     -98      637     1188     1495     1726     1837     1904     1868 
    1584     1251     1162     1336     1390      966      410      379 
    1034     1953     2380     2034     1622     1725     2057     2153 
    1887     1437     1013      638      386      402      619      843 
    1054     1544     2349     2803     2565     2134     1883     1765 
    1691     1571     1505     1551     1435     1228     1302     1425 
    1220      815      395      113      356     1328     2609     3368 
    3076     2091     1185      696      554      641      716      549 
     367      642     1462     2434     2965     2714     1898      988 
     426      544     1181     1732     1853     1745     1769     1956 
    1883     1453     1205     1252     1306     1467     1607     1425 
    1437     2034     2593     2490     1676      656      240      681 
    1634     2415     2234     1327      702      683      985     1267 
    1458     1841     2222     2127     1679     1246     1150     1459 
    1744     1660     1163      418      -90       17      604     1279 
    1791     2065     2092     2002     1984     1950     1637     1142 
     908     1209     1834     2308     2369     2083     1651     1190 
     575      -75     -184      314      938     1563     2177     2566 
    2706     2640     2419     2201     1934     1575     1237      843 
     521      606      870     1004     1169     1363     1408     1310 
    1124     1139     1491     1663     1456     1302     1478     1961 
    2401     2461     2319     2100     1688     1147      668      446 
     557      955     1528     1872     1755     1534     1398     1208 
    1101     1190     1350     1638     2018     2118     1780     1204 
     703      611      997     1539     1891     1972     1869     1645 
    1327     1085     1077     1169     1220     1266     1345     1443 
    1343     1116     1350     1907     1972     1610     1593     2011 
    2230     1984     1655     1363     1004      918     1208     1354 
    1267     1445     1933     2168     1825     1205      665      230 
      67      511     1455     2443     3061     3037     2551     2026 
    1506      831      139     -122      209      769     1404     2119 
    2412     2060     1701     1644     1463     1073      845      859 
     990     1304     1732     1925     1763     1513     1440     1620 
    1915     1973     1647     1127      637      519      997     1676 
    2143     2475     2532     1930      934      272      321     1000 
    1939     2694     3024     2847     2122      992       -6     -263 
     193      822     1324     1669     1821     1722     1345     1071 
    1352     1768     1779     1687     1806     1914     1682     1148 
     751      650      602      498      611     1259     2166     2841 
    3350     3609     3109     1977      784     -132     -421     -112 
     162      178      372      946     1561     1966     2280     2547 
    2567     2258     1867     1687     1636     1525     1602     1902 
    1871     1323      693      298      234      579     1255     1941 
    2276     2353     2400     2151     1539     1075     1026     1236 
    1584     2031     2515     2830     2693     2062     1252      746 
     947     1659     2133     2106     1966     2080     2547     3022 
    2988     2575     2322     2366     2538     2847     3323     3501 
    2828     1686     1047     1258     1867     2238     2220     2315 
    2905     3850     4853     5539     5506     4527     2651      413 
   -1576    -3134    -4118    -4357    -3946    -3114    -2016     -751 
     306      417     -738    -2705    -4715    -5861    -5483    -3775 
   -1436     1021     3314     5223     6608     7523     8158     8446 
    7888     6181     3859     1642     -187    -1401    -1844    -1463 
       8     2149     3647     4044     4303     5416     6864     6519 
    3019    -2205    -6563    -8858    -9325    -8284    -5540    -1094 
    3646     6440     6415     4518     1833    -1301    -4374    -6123 
   -5274    -1335     4847    11283    16150    18094    15835     9335 
     810    -6620   -11250   -13387   -14165   -13883   -11426    -6466 
   -1047     3302     7508    12013    15653    18056    19592    20073 
   18612    13867     5879    -3535   -12501   -19325   -22511   -20532 
  -12282       63    11126    17069    17969    15530    11076     5304 
   -1425    -8233   -13289   -14473   -10825    -3041     6755    14800 
   18231    17061    11884     3781    -5148   -13050   -17092   -15503 
  -10474    -4279     2328     8959    16101    22179    22538    14688 
    1483   -12044   -22022   -24977   -19070    -7477     3052     8338 
   10349    12960    16399    18075    15857     9861     3196     -880 
   -2039     -727     2346     4293     3038      155    -2313    -4768 
   -7515    -8780    -7419    -4488    -2243    -2330    -3165    -1371 
    3929    10332    14505    15071    13315    10871     7663     2339 
   -4985   -11610   -14825   -13873    -9795    -4295     1638     6714 
    9355     9863     8542     4760      -98    -4279    -7790    -9629 
   -7989    -3073     2967     8046    11839    14611    15321    12968 
    8498     3312    -2343    -7337    -8997    -6203     -934     3962 
    7152     8432     8025     6470     3554     -951    -5105    -6112 
   -3411     1243     5624     8426     9352     8052     4234     -642 
   -3801    -4376    -3727    -2212      531     3429     5193     5485 
    4580     3420     2407      538    -2883    -7041   -10203   -10717 
   -8245    -4043      135     3264     5572     7713     9626    10494 
    9506     6745     3335      222    -2675    -4992    -5367    -3580 
   -1071      801     1944     3188     5050     7353     9688    10962 
    9807     6543     2932       10    -2178    -4089    -6601    -9158 
   -8980    -4731     1043     4691     5121     4213     3929     4261 
    4567     4342     2444    -1582    -5958    -8171    -7477    -4954 
   -1317     3658     9572    14659    16652    14420     9167     3385 
   -1952    -7357   -11838   -12915    -9813    -4156     2803    10543 
   16613    17915    13936     6392    -1840    -7434    -8861    -6983 
   -3238      864     3925     5578     6237     5930     3527    -1756 
   -7933   -11381   -10206    -5435      383     5216     8020     8634 
    8182     7511     6205     4197     1834     -824    -3310    -4754 
   -4444    -1829     2671     7211     9823     9767     8102     6663 
    5879     5040     3882     2423      768     -700    -1615    -1821 
   -1498     -990     -441      182     1242     3048     4430     3626 
     973    -1339    -1972    -1404     -452      407      319    -1097 
   -2412    -1749      884     3416     3879     2569     1247      808 
     778      473      268     1505     4422     6957     7057     4938 
    2138      -95    -1389    -1952    -1803    -1112     -648     -661 
    -376     1092     3628     5728     5873     4062      967    -2790 
   -5950    -7161    -6174    -3526      454     5185     9024    11017 
   12015    12162     9880     4517    -2111    -7138    -9127    -8536 
   -5876    -1792     2042     4657     6407     7615     8347     8409 
    7092     4018      202    -2647    -3927    -4137    -3557    -2361 
   -1136      155     2079     3964     4487     3665     2928     3434 
    4402     4403     3449     1993      282    -1123    -1753    -1293 
      75     1452     2398     3223     4027     4214     2997      599 
   -1741    -3206    -3607    -3133    -2768    -3007    -2597     -475 
    2837     6629    10135    11450     9027     3848    -1341    -4473 
   -5069    -3318     -398      955     -506    -2427    -2076      292 
    2444     3445     4360     6000     8136    10471    12482    12702 
    9667     3736    -3177    -9360   -13475   -14320   -11966    -7933 
   -3337     1698     6777    11311    14693    15415    12276     6339 
      67    -4689    -7339    -7812    -6052    -2802      329     2180 
    2571     1996     1104      178     -502     -322      892     2791 
    4993     6609     6872     6199     5115     3524     1487     -652 
   -2461    -3237    -2386       62     3434     6265     6902     5293 
    3146     1729      546    -1278    -3187    -3663    -1969     1107 
    3997     5486     5358     4513     3748     3015     2408     1933 
     943     -639    -1999    -2340    -1236     1192     3994     5620 
    5162     3375     1294    -1101    -3724    -5773    -6573    -5570 
   -2425     2110     6378     8959     9427     8320     6446     4380 
    2525     1059      -86     -761     -811     -687     -734     -664 
    -282      328      999     1771     3083     4459     4430     2936 
    1375      471      -97     -832    -1783    -2513    -2841    -2767 
   -1867       39     2488     4719     5756     5486     5252     5765 
    5961     4878     2932     1136      -74    -1030    -1784    -1977 
   -1644     -931     -139      -17     -530     -560      708     3146 
    5787     7429     7504     6133     3770     1156     -839    -1879 
   -2188    -1713     -330     1347     2635     3468     3748     3076 
    1512      -78     -819     -634      132     1336     2731     3835 
    4365     4213     3612     3091     2643     1854      616     -850 
   -2231    -3431    -4328    -4405    -3321    -1332      897     2916 
    4903     6822     7627     6214     3056      -20    -2084    -3564 
   -4511    -4380    -3109    -1339      388     2259     4411     6385 
    7827     8611     8351     6764     4213     1327    -1358    -3335 
   -4357    -4363    -3385    -2062    -1043       31     1679     3493 
    4698     5169     5335     5389     5281     4914     3983     2353 
     579     -558     -815     -272      842     1860     2250     2404 
    2855     3167     2627     1309     -301    -1749    -2434    -1938 
    -545     1023     2313     3233     3793     4207     4664     4715 
    3881     2558     1005    -1117    -3136    -3647    -2533     -745 
     909     1898     2223     2496     3048     3651     4122     4495 
    4725     4503     3595     2378     1239      110     -729     -768 
     -37     1097     2208     2889     2990     2598     1949     1142 
      17    -1215    -1845    -1277      480     2513     3659     3794 
    3635     3435     2820     1512     -337    -2073    -2951    -2766 
   -1827     -791     -283     -236     -143      168      700     1660 
