Origin Time       2026/01/15 07:13:00
Lat.              42.7
Long.             145.4
Depth. (km)       30
Mag.              5.7
Station Code      HKD077
Station Lat.      42.9845
Station Long.     144.3824
Station Height(m) 3
Record Time       2026/01/15 07:13:42
Sampling Freq(Hz) 100Hz
Duration Time(s)  67
Dir.              U-D
Scale Factor      7845(gal)/8223790
Max. Acc. (gal)   8.540
Last Correction   2026/01/15 07:13:43
Memo.             
[...]
   -8854    -8276    -8488    -9643   -10702   -10747    -9748    -8407 
   -7808    -8478    -9884   -11086   -11252   -10154    -8625    -7526 
   -6868    -6789    -7759    -9487   -10858   -10875    -9489    -7858 
   -7416    -8410    -9875   -10891   -11052   -10145    -8467    -7142 
   -7233    -8743   -10716   -11696   -10836    -8950    -7564    -7453 
   -8445    -9559    -9842    -9498    -9151    -9008    -9282    -9790 
   -9736    -8959    -8147    -7921    -8550    -9726   -10289    -9418 
   -8141    -7952    -8715    -9516   -10010   -10156    -9937    -9514 
   -9196    -9097    -8876    -8310    -8040    -8729    -9844   -10461 
  -10311    -9410    -8243    -8000    -9112   -10619   -11411   -10956 
   -9514    -8322    -8461    -9652   -10744   -10717    -9460    -8050 
   -7596    -8014    -8525    -8850    -9212    -9463    -9339    -9126 
   -9209    -9559    -9956   -10220   -10276   -10069    -9721    -9552 
   -9516    -9347    -9173    -9107    -9024    -9045    -9358    -9625 
   -9282    -8468    -7854    -7792    -8328    -9240    -9840    -9721 
   -9279    -8985    -9013    -9238    -9254    -8993    -8768    -8634 
   -8537    -8715    -9251    -9553    -9143    -8455    -8251    -8837 
   -9869   -10651   -10727   -10191    -9517    -9165    -9335    -9806 
  -10126   -10233   -10108    -9331    -8073    -7281    -7362    -8000 
   -8806    -9379    -9450    -9213    -9096    -9288    -9705   -10039 
   -9832    -9080    -8498    -8472    -8661    -8845    -9086    -9286 
   -9247    -9004    -8997    -9551   -10246   -10428    -9964    -9165 
   -8525    -8486    -9128   -10022   -10413    -9830    -8602    -7720 
   -8019    -9221   -10214   -10332    -9868    -9447    -9369    -9549 
   -9907   -10233    -9971    -9051    -8206    -7915    -8050    -8419 
   -8910    -9355    -9572    -9571    -9539    -9564    -9580    -9512 
   -9292    -8874    -8437    -8434    -8926    -9216    -8847    -8333 
   -8290    -8708    -9418   -10249   -10669   -10241    -9258    -8452 
   -8522    -9549   -10534   -10455    -9463    -8395    -7889    -8182 
   -9020    -9687    -9675    -9285    -9090    -9258    -9539    -9612 
   -9520    -9444    -9343    -9304    -9464    -9705    -9890    -9888 
   -9568    -9093    -8761    -8619    -8618    -8818    -9119    -9321 
   -9416    -9378    -9040    -8530    -8290    -8386    -8419    -8365 
   -8568    -8999    -9367    -9518    -9433    -9316    -9285    -9270 
   -9385    -9551    -9494    -9418    -9551    -9590    -9190    -8541 
   -8325    -8851    -9643   -10185   -10315   -10000    -9321    -8513 
   -8052    -8340    -9078    -9463    -9216    -8943    -9139    -9679 
  -10235   -10431   -10146    -9652    -9157    -8784    -8681    -8758 
   -8800    -8837    -9078    -9418    -9364    -8891    -8452    -8121 
   -7966    -8461    -9541   -10389   -10426    -9863    -9394    -9369 
   -9483    -9486    -9477    -9493    -9481    -9506    -9609    -9533 
   -9105    -8625    -8390    -8430    -8766    -9220    -9532    -9856 
  -10184    -9921    -8997    -8257    -8225    -8710    -9325    -9556 
   -9109    -8432    -8253    -8827    -9764   -10326   -10135    -9618 
   -9385    -9425    -9424    -9478    -9849   -10238   -10061    -9228 
   -8320    -8156    -9000   -10037   -10254    -9610    -8849    -8587 
   -8731    -8788    -8743    -8857    -8985    -9093    -9289    -9281 
   -8950    -8658    -8672    -9026    -9498    -9803   -10022   -10309 
  -10384    -9852    -8804    -7944    -7888    -8468    -9171    -9637 
   -9601    -9209    -8935    -8892    -8955    -9159    -9418    -9394 
   -8873    -8208    -8051    -8445    -8799    -8916    -9212    -9753 
  -10065    -9923    -9547    -9321    -9456    -9624    -9479    -9166 
   -8868    -8548    -8295    -8476    -9228   -10002   -10119    -9676 
   -9329    -9366    -9506    -9435    -9207    -9197    -9536    -9844 
   -9822    -9502    -8864    -8141    -8082    -8922    -9809   -10098 
  -10111   -10098    -9941    -9678    -9278    -8772    -8561    -8726 
   -8758    -8537    -8586    -9020    -9319    -9254    -9157    -9251 
   -9328    -9180    -9051    -9332    -9981   -10508   -10434    -9848 
   -9350    -9225    -9039    -8451    -8002    -8370    -9274    -9926 
   -9980    -9639    -9234    -8959    -8899    -9028    -9147    -8978 
   -8586    -8446    -8665    -8741    -8494    -8374    -8770    -9489 
  -10093   -10531   -10783   -10363    -9077    -7835    -7750    -8784 
   -9934   -10345    -9995    -9456    -9128    -9092    -9289    -9433 
   -9310    -8984    -8526    -8089    -7990    -8387    -9054    -9450 
   -9269    -9070    -9481   -10049   -10075    -9711    -9470    -9525 
   -9688    -9605    -9100    -8486    -8220    -8438    -9088    -9825 
   -9930    -9475    -9409    -9832    -9999    -9799    -9636    -9626 
   -9587    -9364    -9016    -8661    -8394    -8320    -8383    -8444 
   -8324    -7974    -7928    -8622    -9489    -9729    -9412    -9198 
   -9409    -9795   -10011    -9971    -9832    -9806    -9852    -9688 
   -9369    -9310    -9487    -9397    -8922    -8410    -8093    -8077 
   -8367    -8677    -8880    -9128    -9347    -9348    -9265    -9421 
   -9834    -9981    -9540    -9003    -8924    -9086    -8966    -8595 
   -8394    -8564    -9011    -9437    -9686   -10026   -10449   -10492 
  -10054    -9595    -9579    -9899   -10089    -9956    -9458    -8734 
   -8401    -8769    -9379    -9686    -9429    -8707    -8124    -8236 
   -8881    -9271    -8914    -8332    -8205    -8529    -9045    -9373 
   -9298    -9297    -9661    -9856    -9566    -9173    -8905    -8681 
   -8544    -8546    -8692    -9078    -9641   -10069   -10257   -10357 
  -10346   -10142    -9875    -9545    -9094    -8795    -8802    -8876 
   -8892    -8856    -8676    -8455    -8469    -8873    -9563   -10066 
   -9876    -9186    -8891    -9435   -10145   -10251    -9771    -8957 
   -7993    -7349    -7400    -7905    -8392    -8661    -8819    -9070 
   -9452    -9786    -9942   -10071   -10278   -10304    -9980    -9585 
   -9328    -9158    -9117    -9321    -9721   -10041    -9934    -9386 
   -8745    -8387    -8483    -8876    -9248    -9451    -9520    -9458 
   -9288    -9229    -9398    -9682    -9976   -10073    -9760    -9244 
   -8927    -8788    -8484    -8095    -8006    -8213    -8519    -8874 
   -9147    -9247    -9337    -9559    -9806    -9981   -10103    -9988 
   -9401    -8563    -7978    -7940    -8240    -8500    -8764    -8989 
   -8784    -8394    -8505    -9112    -9705    -9999   -10154   -10463 
  -10917   -11295   -11383   -10897    -9903    -9132    -9108    -9405 
   -9256    -8542    -7859    -7780    -8510    -9942   -11346   -11550 
  -10274    -8598    -7593    -7399    -7657    -8035    -8294    -8208 
   -7916    -7946    -8332    -8698    -8973    -8999    -8514    -7897 
   -7816    -8445    -9358    -9996   -10300   -10606   -11109   -11688 
  -11993   -11751   -11102   -10405    -9826    -9362    -8951    -8413 
   -7751    -7381    -7605    -8309    -9144    -9652    -9648    -9553 
   -9737    -9925    -9765    -9489    -9477    -9616    -9686    -9828 
  -10114   -10200    -9622    -8494    -7728    -7892    -8445    -8750 
   -8849    -8919    -8919    -8896    -9027    -9275    -9402    -9300 
   -9107    -8962    -8785    -8392    -7970    -8031    -8706    -9630 
  -10455   -10891   -10773   -10426   -10246   -10048    -9630    -9290 
   -9247    -9316    -9393    -9630   -10011   -10304   -10361   -10176 
   -9805    -9296    -8710    -8333    -8523    -9177    -9640    -9435 
   -8776    -8175    -7848    -7705    -7824    -8325    -8829    -8916 
   -8752    -8764    -9112    -9460    -9342    -8738    -8040    -7723 
   -7986    -8617    -9290    -9711    -9795    -9837    -9998   -10160 
  -10351   -10601   -10716   -10574   -10207    -9699    -9180    -8792 
   -8667    -8714    -8621    -8361    -8259    -8380    -8534    -8637 
   -8594    -8403    -8275    -8325    -8571    -8988    -9331    -9425 
   -9504    -9904   -10683   -11597   -12352   -12700   -12390   -11387 
  -10021    -8764    -7938    -7480    -7140    -6852    -6744    -6895 
   -7290    -7994    -8907    -9553    -9761    -9859    -9895    -9693 
   -9436    -9451    -9736   -10008   -10084   -10035    -9910    -9647 
   -9278    -8873    -8487    -8279    -8378    -8700    -9058    -9371 
   -9707   -10104   -10496   -10805   -10901   -10597    -9859    -8818 
   -7705    -6858    -6466    -6450    -6675    -7028    -7388    -7762 
   -8268    -9005    -9873   -10574   -10935   -11152   -11512   -11904 
  -11878   -11334   -10693   -10272    -9941    -9455    -8761    -8059 
   -7634    -7456    -7203    -6801    -6504    -6500    -6893    -7797 
   -9063   -10112   -10446   -10153    -9641    -9309    -9412    -9842 
  -10311   -10620   -10644   -10431   -10280   -10395   -10627   -10677 
  -10438   -10188   -10266   -10490   -10285    -9421    -8282    -7425 
   -7013    -6862    -6897    -7268    -7983    -8673    -8962    -8895 
   -8810    -8996    -9486   -10053   -10407   -10381    -9954    -9335 
   -8912    -8870    -9045    -9288    -9589    -9868   -10002    -9953 
   -9802    -9663    -9508    -9198    -8727    -8295    -8086    -8079 
   -8114    -8035    -7858    -7813    -7975    -8171    -8426    -8856 
   -9385    -9992   -10547   -10666   -10318    -9864    -9464    -9184 
   -9190    -9414    -9568    -9551    -9448    -9312    -9166    -9116 
   -9220    -9356    -9463    -9744   -10277   -10605   -10204    -9290 
   -8561    -8357    -8569    -8901    -9003    -8665    -7955    -7252 
   -7107    -7704    -8590    -9275    -9791   -10363   -11001   -11584 
  -12016   -12212   -12152   -11902   -11460   -10764    -9900    -9040 
   -8163    -7194    -6401    -6191    -6706    -7805    -9147   -10287 
  -10864   -10883   -10777   -10854   -10829   -10397    -9780    -9342 
   -9039    -8494    -7520    -6519    -6007    -5987    -6201    -6547 
   -6968    -7329    -7464    -7425    -7491    -7794    -8343    -9173 
  -10104   -10835   -11304   -11659   -12082   -12514   -12564   -11931 
  -10774    -9667    -9113    -8924    -8541    -7904    -7477    -7705 
   -8622    -9832   -10899   -11507   -11323   -10378    -9256    -8452 
   -7933    -7464    -6929    -6246    -5486    -5139    -5598    -6536 
   -7291    -7538    -7635    -8306    -9757   -11362   -12367   -12654 
  -12699   -12839   -12953   -12792   -12303   -11697   -11291   -11206 
  -11238   -11057   -10590   -10064    -9640    -9240    -8807    -8446 
   -8221    -8174    -8502    -9231    -9965   -10308   -10096    -9292 
   -8060    -6867    -6259    -6381    -6762    -6955    -7084    -7566 
   -8529    -9535   -10095   -10249   -10249   -10274   -10498   -10800 
  -10669    -9855    -8789    -8127    -8131    -8638    -9188    -9221 
   -8564    -7592    -6934    -6979    -7415    -7568    -7287    -7033 
   -7248    -7929    -8769    -9547   -10238   -10870   -11511   -12096 
  -12226   -11554   -10168    -8463    -6939    -6004    -5772    -6278 
   -7508    -9080   -10492   -11611   -12587   -13509   -14138   -14011 
  -12910   -11122    -9239    -7780    -6835    -6257    -6251    -6997 
   -7894    -8141    -7650    -7022    -6936    -7581    -8630    -9637 
  -10301   -10547   -10508   -10504   -10866   -11520   -12074   -12272 
  -11970   -11103    -9931    -8837    -8047    -7709    -7820    -8093 
   -8264    -8278    -8127    -7923    -7965    -8361    -8935    -9520 
  -10033   -10341   -10330   -10045    -9695    -9591    -9805   -10037 
  -10125   -10168   -10273   -10412   -10258    -9459    -8162    -6949 
   -6319    -6223    -6205    -6049    -6057    -6628    -7681    -8731 
   -9448    -9872   -10150   -10424   -10870   -11538   -12112   -12263 
  -12163   -12104   -11921   -11313   -10397    -9578    -9032    -8600 
   -8109    -7511    -6670    -5547    -4673    -4661    -5324    -6043 
   -6709    -7654    -8830    -9749   -10254   -10702   -11349   -12001 
  -12267   -12120   -11908   -11695   -11300   -10822   -10523   -10493 
  -10571   -10496   -10093    -9389    -8779    -8552    -8374    -7877 
   -7036    -6015    -5252    -5198    -5935    -7179    -8386    -9117 
   -9471    -9848   -10370   -10747   -10735   -10525   -10399   -10424 
  -10667   -10993   -11098   -11055   -10979   -10687   -10218    -9819 
   -9568    -9401    -9283    -9205    -8993    -8611    -8557    -9077 
   -9774   -10293   -10485   -10381   -10041    -9165    -7863    -7111 
   -7349    -7728    -7560    -7372    -7730    -8149    -8171    -8106 
   -8020    -7639    -7157    -7171    -8151    -9680   -10674   -10839 
  -10813   -11044   -11406   -11554   -11215   -10227    -8731    -7196 
   -6038    -5308    -4892    -4957    -5794    -7368    -9433   -11623 
  -13473   -14943   -16240   -16926   -16310   -14540   -12224    -9679 
   -7310    -5584    -4515    -4029    -4310    -5287    -6401    -7149 
   -7558    -7938    -8449    -9096    -9896   -10773   -11387   -11466 
  -11125   -10683   -10257    -9649    -8756    -7769    -6975    -6693 
   -7172    -8279    -9552   -10604   -11380   -12025   -12611   -13103 
  -13420   -13440   -13072   -12356   -11356   -10018    -8267    -6309 
   -4648    -3551    -2933    -2951    -3813    -5123    -6461    -8002 
   -9778   -11263   -12228   -13031   -13861   -14478   -14635   -14358 
  -13905   -13381   -12548   -11333    -9972    -8351    -6075    -3358 
   -1196     -265     -317    -1046    -2452    -4190    -5825    -7360 
   -8950   -10558   -11958   -13070   -14164   -15358   -16301   -16488 
  -15726   -14301   -12561   -10648    -8754    -7069    -5780    -5162 
   -5084    -5059    -4957    -5177    -6122    -7527    -8853   -10119 
  -11431   -12407   -12650   -12306   -11929   -11735   -11341   -10725 
  -10435   -10428   -10139    -9664    -9472    -9463    -9112    -8271 
   -7457    -7038    -6610    -5894    -5506    -5985    -6824    -7335 
   -7653    -8114    -8613    -9055    -9733   -10897   -12160   -12706 
  -12217   -11361   -11099   -11531   -11908   -11794   -11387   -11030 
  -11043   -11354   -11500   -11318   -10902   -10174    -9113    -7815 
   -6482    -5420    -4828    -4995    -6145    -7722    -8610    -8279 
   -7283    -6620    -6732    -7275    -7726    -7886    -8036    -8667 
   -9784   -11009   -12069   -12546   -12028   -10793    -9636    -9081 
   -8895    -8507    -7974    -7643    -7352    -7231    -7801    -8687 
   -9036    -8784    -8514    -8681    -9306   -10029   -10621   -11365 
  -12264   -12847   -12934   -12571   -11923   -11209   -10269    -8962 
   -7785    -7441    -7789    -7978    -8009    -8378    -8452    -7762 
   -7223    -7279    -7321    -7130    -7017    -7196    -7406    -7222 
   -7026    -7665    -9215   -11003   -12310   -12777   -12559   -12071 
  -11653   -11279   -10569    -9518    -8758    -8746    -9495   -10679 
  -11569   -11645   -11168   -10698   -10374    -9958    -9234    -8120 
   -6798    -5699    -5221    -5451    -5992    -6268    -6250    -6632 
   -7979   -10002   -12023   -13535   -14204   -14170   -14040   -14075 
  -13834   -12969   -11767   -10385    -8426    -5825    -3327    -1714 
   -1078    -1202    -1984    -3145    -4205    -5117    -6436    -8456 
  -10592   -12015   -12594   -12883   -13338   -14015   -14742   -15121 
  -14736   -13625   -12252   -11067   -10326    -9822    -8912    -7537 
   -6409    -5809    -5447    -5256    -5381    -5922    -6876    -8125 
   -9620   -11199   -12333   -12553   -12105   -11781   -11754   -11373 
  -10498    -9625    -8777    -7796    -6997    -6712    -6889    -7260 
   -7585    -7819    -8135    -8810    -9763   -10431   -10388    -9794 
   -9193    -8869    -8679    -8499    -8318    -8122    -8043    -8347 
   -9121   -10018   -10554   -10650   -10544   -10432   -10397   -10605 
  -11257   -12206   -12892   -12860   -12248   -11533   -10751    -9614 
   -8264    -7068    -6100    -5454    -5449    -6116    -6988    -7746 
   -8410    -8880    -9043    -9063    -9085    -9063    -8970    -8770 
   -8455    -8224    -8212    -8278    -8286    -8264    -8279    -8376 
   -8594    -8870    -9039    -9012    -9018    -9454   -10296   -10889 
  -10762   -10380   -10540   -11195   -11538   -11384   -11329   -11429 
  -11196   -10689   -10273    -9952    -9525    -8878    -8106    -7462 
   -7047    -6755    -6615    -6652    -6617    -6411    -6442    -6975 
   -7761    -8533    -9212    -9802   -10388   -10951   -11295   -11427 
  -11603   -11807   -11784   -11599   -11389   -10994   -10446   -10045 
   -9805    -9460    -8861    -8148    -7730    -7836    -8201    -8511 
   -8843    -9304    -9566    -9166    -8185    -7308    -7182    -7780 
   -8433    -8492    -7973    -7534    -7732    -8419    -9148    -9883 
  -10782   -11677   -12209   -12201   -11807   -11294   -10656    -9749 
   -8692    -7836    -7493    -7712    -8232    -8586    -8361    -7770 
   -7408    -7315    -7214    -7349    -8191    -9621   -10929   -11480 
  -11252   -10825   -10770   -10913   -10702   -10187    -9741    -9256 
   -8422    -7333    -6635    -7107    -8560    -9861   -10235    -9759 
   -9020    -8617    -8739    -9247    -9818   -10191   -10341   -10299 
  -10091    -9784    -9445    -9194    -9067    -8914    -8660    -8355 
   -7956    -7470    -7171    -7356    -7978    -8800    -9747   -10740 
  -11569   -12074   -12178   -11896   -11443   -11018   -10609   -10110 
   -9505    -8847    -8185    -7582    -7087    -6679    -6436    -6453 
   -6604    -6712    -6887    -7396    -8276    -9348   -10347   -10912 
  -10979   -11056   -11529   -12158   -12460   -12082   -11025    -9736 
   -8622    -7649    -6767    -6111    -5728    -5744    -6367    -7468 
   -8649    -9610   -10320   -10928   -11400   -11565   -11520   -11565 
  -11831   -12212   -12436   -12213   -11481   -10393    -9084    -7697 
   -6597    -6138    -6301    -6755    -7164    -7415    -7551    -7712 
   -8097    -8656    -9063    -9094    -8861    -8681    -8680    -8700 
   -8733    -8982    -9390    -9649    -9720    -9856   -10258   -10908 
  -11508   -11693   -11396   -10808   -10154    -9630    -9211    -8669 
   -8023    -7539    -7339    -7371    -7605    -8101    -8861    -9678 
  -10251   -10411   -10162    -9648    -9065    -8646    -8631    -9035 
   -9574   -10017   -10342   -10636   -10978   -11178   -10825    -9886 
   -8761    -7805    -7159    -6804    -6539    -6199    -5869    -5736 
   -5930    -6546    -7580    -8931   -10416   -11668   -12258   -12150 
  -11770   -11449   -11198   -11044   -11090   -11238   -11286   -11200 
  -11071   -10889   -10525    -9864    -8993    -8249    -7867    -7670 
   -7333    -6824    -6405    -6281    -6435    -6745    -7173    -7796 
   -8644    -9597   -10409   -10860   -10894   -10638   -10316   -10116 
  -10010    -9899    -9809    -9779    -9775    -9738    -9630    -9444 
   -9215    -9019    -8949    -9023    -9151    -9221    -9227    -9235 
   -9347    -9617    -9867    -9826    -9498    -9073    -8656    -8330 
   -8205    -8149    -7963    -7731    -7643    -7789    -8077    -8276 
   -8401    -8733    -9421   -10365   -11190   -11541   -11581   -11603 
  -11473   -10993   -10235    -9387    -8584    -7901    -7404    -7115 
   -6979    -6988    -7173    -7472    -7844    -8332    -8899    -9440 
