Origin Time       2026/01/15 07:13:00
Lat.              42.7
Long.             145.4
Depth. (km)       30
Mag.              5.7
Station Code      HKD084
Station Lat.      43.1141
Station Long.     144.1230
Station Height(m) 30
Record Time       2026/01/15 07:13:48
Sampling Freq(Hz) 100Hz
Duration Time(s)  67
Dir.              N-S
Scale Factor      7845(gal)/8223790
Max. Acc. (gal)   6.159
Last Correction   2026/01/15 07:13:49
Memo.             
[...]
    3798     3978     4152     4226     4079     3870     3798     3844 
    3944     4012     3905     3615     3253     2964     2882     3002 
    3179     3318     3447     3643     3861     3959     3906     3769 
    3624     3562     3603     3716     3877     3971     3844     3545 
    3292     3191     3198     3254     3311     3300     3187     3005 
    2822     2714     2763     3005     3369     3708     3882     3863 
    3788     3777     3732     3531     3279     3148     3227     3496 
    3798     4005     4113     4152     4125     4000     3761     3478 
    3258     3129     3076     3111     3244     3441     3615     3753 
    3875     3904     3743     3434     3136     2959     2925     3033 
    3203     3318     3358     3373     3416     3516     3601     3600 
    3527     3445     3446     3569     3704     3763     3781     3807 
    3862     3896     3798     3596     3451     3477     3670     3933 
    4158     4260     4191     4001     3827     3762     3794     3854 
    3882     3848     3688     3387     3082     2862     2748     2820 
    3032     3200     3219     3141     3142     3325     3578     3824 
    4039     4132     4086     3952     3769     3623     3568     3542 
    3497     3441     3426     3451     3414     3298     3203     3181 
    3248     3353     3465     3666     3931     4079     4018     3820 
    3672     3721     3882     3991     4017     3955     3755     3420 
    3032     2704     2589     2762     3125     3512     3827     4012 
    4029     3875     3596     3330     3203     3218     3365     3623 
    3892     4059     4087     3996     3832     3654     3466     3311 
    3310     3431     3515     3526     3522     3538     3584     3597 
    3503     3308     3144     3165     3357     3549     3696     3836 
    3902     3871     3798     3640     3361     3083     2951     2970 
    3049     3140     3253     3422     3658     3896     4023     3963 
    3688     3272     2906     2736     2770     2937     3144     3307 
    3408     3554     3856     4237     4502     4538     4368     4118 
    3964     3969     3986     3897     3778     3716     3658     3484 
    3142     2717     2393     2340     2592     3029     3464     3707 
    3690     3519     3339     3237     3235     3319     3456     3623 
    3813     3978     3975     3758     3528     3497     3657     3869 
    4016     4055     4016     3912     3777     3682     3630     3595 
    3608     3651     3682     3659     3561     3465     3395     3265 
    3121     3076     3132     3254     3457     3761     4131     4425 
    4534     4465     4276     4023     3748     3477     3240     3057 
    2951     2971     3099     3264     3377     3307     3099     3005 
    3109     3287     3422     3465     3493     3632     3866     4039 
    4044     3973     3958     3947     3798     3578     3457     3418 
    3376     3346     3352     3408     3504     3528     3451     3388 
    3423     3535     3653     3681     3572     3379     3233     3223 
    3248     3184     3125     3186     3352     3539     3618     3500 
    3254     3026     2955     3032     3134     3244     3415     3631 
    3847     4052     4251     4436     4592     4648     4507     4210 
    3905     3665     3491     3366     3231     3080     3001     3052 
    3207     3358     3414     3410     3411     3453     3564     3680 
    3759     3917     4159     4332     4365     4287     4166     4050 
    3921     3788     3638     3402     3125     2910     2772     2778 
    2990     3295     3497     3472     3237     2949     2754     2728 
    2857     3015     3157     3346     3543     3674     3690     3524 
    3249     3087     3180     3531     4017     4429     4648     4702 
    4657     4533     4387     4324     4338     4297     4118     3870 
    3654     3483     3316     3167     3083     3100     3222     3333 
    3262     3059     2924     2944     3098     3316     3497     3635 
    3712     3604     3360     3137     2893     2597     2416     2459 
    2731     3169     3596     3852     3964     4039     4147     4248 
    4239     4098     3870     3596     3360     3254     3285     3361 
    3406     3478     3689     3956     4090     4041     3881     3666 
    3453     3315     3291     3348     3429     3523     3669     3889 
    4168     4419     4487     4328     4006     3564     3059     2624 
    2401     2393     2486     2643     2879     3171     3466     3649 
    3609     3418     3214     3030     2893     2895     3067     3354 
    3690     4032     4371     4660     4808     4810     4735     4627 
    4477     4259     3958     3592     3184     2798     2552     2489 
    2517     2610     2837     3153     3437     3595     3574     3453 
    3395     3429     3520     3699     3878     3919     3870     3858 
    3964     4266     4625     4799     4746     4525     4168     3780 
    3439     3183     3042     2983     2967     2956     2916     2905 
    2938     2913     2844     2816     2806     2835     2971     3194 
    3408     3532     3573     3601     3667     3774     3921     4098 
    4226     4245     4207     4175     4064     3801     3503     3397 
    3569     3863     3983     3727     3214     2745     2505     2536 
    2787     3156     3599     4043     4275     4143     3813     3593 
    3582     3697     3820     3780     3456     2971     2628     2614 
    2883     3233     3473     3554     3566     3620     3724     3788 
    3805     3869     4036     4332     4684     4907     4835     4433 
    3824     3284     2986     2844     2674     2457     2334     2382 
    2573     2866     3181     3412     3558     3670     3721     3694 
    3600     3477     3420     3511     3736     3964     4068     4051 
    3904     3592     3230     3069     3318     3928     4563     4942 
    5059     5038     4897     4565     4059     3550     3175     2963 
    2940     3076     3186     3141     3026     2964     3003     3113 
    3248     3442     3716     3947     4039     4010     3873     3685 
    3604     3692     3831     3897     3881     3802     3692     3646 
    3731     3879     3985     4000     3983     4039     4153     4202 
    4104     3867     3557     3325     3348     3620     3923     4077 
    4059     3912     3732     3631     3545     3277     2814     2436 
    2417     2716     3117     3496     3801     4017     4197     4368 
    4482     4494     4361     4074     3742     3477     3217     2860 
    2428     1998     1688     1625     1753     1914     2052     2145 
    2204     2320     2515     2744     2997     3233     3488     3908 
    4463     4916     5074     4900     4526     4167     3990     4055 
    4261     4425     4468     4422     4284     4027     3663     3287 
    3100     3285     3812     4461     4966     5173     5103     4847 
    4455     3954     3369     2695     1987     1356      882      656 
     724     1026     1514     2200     3015     3852     4549     4914 
    4916     4734     4603     4664     4870     5076     5125     4901 
    4419     3798     3142     2542     2110     1961     2092     2346 
    2555     2629     2517     2263     2054     2020     2131     2322 
    2566     2863     3159     3402     3659     4010     4502     5131 
    5732     6142     6400     6538     6447     6010     5201     4214 
    3361     2789     2425     2111     1783     1560     1559     1721 
    1953     2223     2457     2598     2727     2949     3299     3732 
    4145     4465     4683     4887     5250     5805     6304     6467 
    6222     5675     5047     4526     4109     3669     3126     2565 
    2203     2216     2573     3041     3337     3227     2708     2029 
    1432     1009      810      807      936     1204     1605     2097 
    2573     2871     2998     3134     3372     3634     3842     4020 
    4163     4178     4000     3643     3231     2960     2987     3372 
    4013     4691     5335     6038     6814     7531     7954     7812 
    7063     5941     4768     3789     3048     2470     2074     1919 
    1972     2142     2308     2389     2397     2336     2172     1911 
    1587     1300     1283     1736     2590     3622     4641     5518 
    6178     6606     6832     6899     6793     6528     6249     6052 
    5933     5827     5549     4961     4114     3106     2108     1449 
    1308     1489     1687     1791     1865     1949     1949     1825 
    1629     1362     1115     1097     1375     1926     2700     3457 
    3933     4093     4005     3777     3545     3366     3231     3145 
    3127     3267     3631     4094     4461     4612     4468     4106 
    3690     3258     2839     2478     2164     1972     2031     2349 
    2852     3395     3797     4055     4199     4175     4149     4417 
    4968     5602     6122     6343     6228     5906     5545     5227 
    4835     4229     3451     2663     1983     1503     1264     1212 
    1296     1437     1570     1786     2209     2785     3358     3774 
    3889     3688     3331     2948     2560     2284     2299     2621 
    3100     3514     3728     3831     3963     4097     4105     3942 
    3707     3570     3612     3800     4102     4567     5254     6033 
    6578     6604     6045     5094     4078     3337     3046     3044 
    3076     3100     3180     3327     3519     3634     3496     3105 
    2658     2386     2493     3048     3842     4483     4762     4806 
    4853     5004     5171     5216     5062     4692     4126     3431 
    2660     1804      888      133     -133      249     1171     2347 
    3483     4321     4673     4518     3989     3306     2739     2574 
    3024     4012     5152     6119     6836     7349     7670     7754 
    7564     7084     6326     5402     4479     3619     2774     1952 
    1244      707      360      171       67       36      139      436 
     926     1544     2199     2843     3483     3986     4012     3501 
    2849     2447     2385     2457     2411     2265     2227     2532 
    3322     4436     5489     6143     6235     5815     5115     4259 
    3229     2195     1528     1506     2145     3210     4360     5377 
    6195     6733     6937     6840     6417     5644     4706     3931 
    3573     3618     3786     3856     3815     3694     3445     2976 
    2323     1617      926      318       17      186      685     1318 
    2064     2830     3416     3796     4072     4342     4696     5144 
    5617     6088     6546     6910     7169     7427     7747     8082 
    8336     8356     7983     7219     6201     5008     3620     2069 
     535     -739    -1629    -2119    -2226    -2033    -1680    -1343 
   -1138     -959     -579       36      723     1441     2309     3311 
    4205     4806     5193     5620     6273     7122     7936     8468 
    8617     8387     7809     6929     5790     4496     3269     2347 
    1830     1594     1449     1297     1123     1058     1283     1749 
    2254     2647     2898     3146     3497     3901     4205     4198 
    3834     3388     3072     2735     2165     1317      329     -496 
    -892     -774     -182      805     2154     3789     5459     6882 
    7831     8125     7809     7222     6721     6512     6612     6812 
    6844     6596     6089     5451     4897     4569     4375     4079 
    3500     2617     1543      413     -575    -1134    -1047     -348 
     787     2188     3612     4707     5128     4739     3820     2941 
    2531     2631     2959     3157     3034     2623     2106     1746 
    1811     2367     3230     4164     4978     5522     5756     5671 
    5329     4955     4730     4696     4816     4978     5130     5229 
    5162     4908     4614     4430     4396     4367     4121     3659 
    3230     3017     3009     3117     3245     3325     3315     3183 
    3009     2913     2857     2762     2650     2579     2587     2682 
    2762     2741     2666     2623     2695     2965     3449     4008 
    4405     4521     4379     3982     3337     2612     2127     2095 
    2498     3231     4153     5028     5578     5638     5293     4868 
    4658     4604     4467     4168     3775     3358     3009     2766 
    2560     2289     1908     1466     1088      926     1080     1543 
    2251     3175     4264     5359     6235     6644     6442     5714 
    4683     3649     2930     2581     2389     2153     1783     1367 
    1101     1131     1505     2110     2714     3257     3797     4256 
    4499     4444     4116     3744     3550     3477     3442     3514 
    3746     4156     4698     5124     5211     5026     4820     4742 
    4649     4314     3755     3171     2764     2616     2640     2775 
    2992     3184     3360     3728     4405     5248     6022     6589 
    6997     7285     7311     6887     6027     4950     3882     2930 
    2131     1485      988      696      695     1030     1691     2562 
    3404     3997     4344     4654     5061     5485     5715     5521 
    4806     3750     2714     2031     1856     2097     2533     3009 
    3514     4091     4642     4961     4968     4781     4540     4276 
    3939     3496     3018     2659     2538     2592     2573     2300 
    1871     1578     1602     1864     2165     2438     2783     3230 
    3537     3447     2955     2180     1269      407     -206     -429 
    -287        9      255      367      429      646     1215     2197 
    3501     4942     6370     7639     8631     9352     9823    10003 
    9871     9486     8895     7959     6484     4538     2471      688 
    -519    -1088    -1113     -776     -324       25      252      495 
     857     1317     1787     2155     2361     2457     2560     2748 
    3001     3222     3314     3379     3693     4390     5293     6138 
    6758     7117     7276     7263     7055     6731     6415     6137 
    5907     5730     5495     5038     4293     3356     2494     1985 
    1892     2089     2404     2625     2600     2343     1989     1695 
    1570     1628     1848     2149     2349     2359     2259     2169 
    2203     2470     3067     3987     5024     5873     6315     6272 
    5834     5130     4251     3389     2771     2434     2266     2193 
    2262     2610     3204     3788     4126     4091     3693     3194 
    2961     3202     3819     4423     4536     3960     2948     1977 
    1370     1097     1011     1100     1367     1791     2401     3207 
    4199     5331     6423     7229     7578     7481     7098     6646 
    6315     6133     6022     5941     5864     5749     5533     5155 
    4641     4072     3472     2840     2285     1983     2002     2227 
    2519     2839     3230     3739     4379     5094     5706     6003 
    5883     5321     4378     3264     2235     1458      966      751 
     811     1108     1534     1942     2251     2471     2586     2596 
    2592     2659     2808     2978     3067     3103     3321     3936 
    4896     5852     6376     6235     5497     4386     3144     2061 
    1449     1498     2204     3362     4558     5393     5711     5563 
    5098     4483     3767     2983     2212     1506      916      484 
     201      116      302      733     1343     2080     2776     3227 
    3431     3518     3638     3956     4488     5128     5755     6212 
    6404     6296     5868     5198     4482     3902     3526     3273 
    3005     2637     2168     1629     1135      819      689      695 
     815     1013     1289     1594     1791     1881     2008     2257 
    2658     3221     3947     4792     5587     6119     6319     6305 
    6219     6066     5790     5408     5004     4673     4452     4321 
    4307     4479     4845     5312     5672     5761     5621     5298 
    4703     3848     2995     2506     2535     2845     3049     2940 
    2593     2223     1950     1745     1571     1432     1399     1644 
    2327     3379     4467     5285     5811     6161     6400     6559 
    6588     6357     5844     5186     4657     4436     4437     4487 
    4437     4220     3939     3765     3754     3824     3846     3754 
    3582     3349     2988     2515     2083     1779     1601     1563 
    1679     1937     2284     2613     2860     3024     3078     3036 
    3018     3153     3476     3931     4409     4827     5165     5394 
    5422     5166     4673     4067     3427     2760     2045     1352 
     820      499      342      301      317      353      400      492 
     689     1043     1606     2392     3330     4356     5350     6130 
    6567     6592     6231     5680     5155     4803     4649     4568 
    4456     4330     4229     4160     4124     4153     4274     4414 
    4438     4302     4113     4014     4039     4110     4122     3962 
    3581     3115     2789     2682     2747     2944     3249     3582 
    3874     4182     4553     4876     5005     4837     4274     3319 
    2155     1094      441      275      444      791     1260     1845 
    2474     3028     3456     3796     4050     4162     4097     3925 
    3773     3721     3798     4016     4317     4614     4873     5090 
    5182     5020     4602     4090     3670     3411     3302     3310 
    3364     3323     3099     2793     2674     2951     3574     4315 
    4884     5034     4738     4199     3627     3156     2874     2826 
    3006     3354     3763     4066     4112     3889     3510     3094 
    2728     2447     2212     2018     1964     2137     2560     3265 
    4178     5084     5764     6052     5860     5266     4492     3801 
    3360     3208     3296     3534     3831     4083     4149     3960 
    3608     3267     3076     3067     3144     3171     3100     2943 
    2720     2506     2403     2463     2710     3156     3778     4469 
    5065     5421     5467     5240     4895     4611     4464     4361 
    4175     3912     3662     3426     3092     2614     2180     2042 
    2292     2882     3682     4479     5080     5425     5513     5333 
    4927     4371     3728     3133     2732     2470     2149     1591 
     756     -211    -1086    -1695    -1929    -1783    -1366     -788 
    -151      438      913     1281     1599     1968     2431     2971 
    3566     4155     4665     5061     5296     5382     5436     5528 
    5653     5792     5876     5879     5832     5724     5566     5436 
    5389     5427     5451     5298     4969     4644     4500     4580 
    4749     4857     4920     5015     5107     5128     5074     4981 
    4876     4792     4811     4985     5239     5400     5304     4903 
    4271     3551     2894     2397     2087     1926     1867     1873 
    1922     1985     2039     2089     2168     2261     2250     1991 
    1474      835      249     -102      -37      499     1371     2335 
    3146     3684     3987     4151     4268     4425     4675     5039 
    5535     6143     6755     7179     7281     7103     6799     6453 
    6050     5597     5139     4707     4228     3605     2860     2154 
    1714     1652     1881     2243     2613     2938     3258     3653 
    4166     4776     5378     5802     5938     5795     5444     5034 
    4785     4808     4989     5107     4973     4548     3947     3308 
    2763     2477     2486     2601     2597     2389     1988     1448 
