Origin Time       2026/01/15 07:13:00
Lat.              42.7
Long.             145.4
Depth. (km)       30
Mag.              5.7
Station Code      HKD074
Station Lat.      43.3680
Station Long.     145.8026
Station Height(m) 16
Record Time       2026/01/15 07:13:31
Sampling Freq(Hz) 100Hz
Duration Time(s)  92
Dir.              E-W
Scale Factor      7845(gal)/8223790
Max. Acc. (gal)   38.560
Last Correction   2026/01/15 07:13:31
Memo.             
[...]
  -13027   -13026   -13024   -13026   -13026   -13026   -13026   -13026 
  -13026   -13027   -13027   -13027   -13026   -13028   -13030   -13024 
  -13023   -13028   -13027   -13026   -13028   -13028   -13027   -13028 
  -13028   -13024   -13024   -13026   -13027   -13028   -13028   -13028 
  -13030   -13030   -13028   -13030   -13027   -13027   -13030   -13026 
  -13024   -13030   -13028   -13026   -13030   -13026   -13023   -13028 
  -13031   -13030   -13027   -13027   -13028   -13027   -13028   -13030 
  -13027   -13024   -13026   -13026   -13027   -13031   -13032   -13028 
  -13028   -13031   -13027   -13024   -13027   -13028   -13026   -13024 
  -13026   -13027   -13027   -13027   -13027   -13028   -13027   -13026 
  -13030   -13030   -13024   -13026   -13031   -13028   -13023   -13028 
  -13031   -13027   -13024   -13026   -13026   -13027   -13030   -13027 
  -13027   -13031   -13030   -13024   -13024   -13030   -13031   -13027 
  -13024   -13026   -13027   -13026   -13028   -13028   -13027   -13030 
  -13030   -13028   -13024   -13024   -13027   -13027   -13026   -13028 
  -13027   -13026   -13026   -13027   -13027   -13027   -13028   -13028 
  -13028   -13027   -13024   -13023   -13024   -13027   -13027   -13026 
  -13027   -13027   -13027   -13028   -13028   -13027   -13027   -13028 
  -13027   -13026   -13023   -13024   -13026   -13024   -13027   -13031 
  -13027   -13026   -13028   -13026   -13026   -13027   -13024   -13024 
  -13024   -13027   -13030   -13028   -13027   -13028   -13028   -13028 
  -13027   -13024   -13024   -13028   -13027   -13026   -13027   -13027 
  -13026   -13024   -13027   -13028   -13024   -13027   -13031   -13024 
  -13023   -13031   -13031   -13023   -13024   -13030   -13027   -13024 
  -13027   -13028   -13027   -13024   -13027   -13027   -13024   -13028 
  -13031   -13027   -13024   -13026   -13027   -13027   -13024   -13024 
  -13027   -13027   -13026   -13026   -13024   -13026   -13026   -13027 
  -13026   -13026   -13028   -13026   -13022   -13023   -13026   -13024 
  -13026   -13028   -13028   -13027   -13028   -13028   -13023   -13023 
  -13028   -13028   -13026   -13026   -13027   -13028   -13028   -13027 
  -13026   -13024   -13028   -13031   -13028   -13028   -13031   -13028 
  -13024   -13024   -13027   -13028   -13027   -13026   -13027   -13030 
  -13026   -13022   -13027   -13031   -13028   -13027   -13028   -13027 
  -13027   -13027   -13024   -13026   -13028   -13026   -13027   -13030 
  -13028   -13027   -13027   -13027   -13027   -13024   -13024   -13028 
  -13028   -13027   -13028   -13030   -13027   -13026   -13027   -13028 
  -13031   -13032   -13027   -13026   -13030   -13028   -13026   -13030 
  -13027   -13023   -13028   -13031   -13026   -13026   -13030   -13030 
  -13026   -13026   -13028   -13030   -13027   -13027   -13027   -13026 
  -13026   -13027   -13027   -13026   -13026   -13027   -13028   -13028 
  -13027   -13026   -13024   -13027   -13028   -13026   -13024   -13024 
  -13026   -13027   -13026   -13026   -13028   -13027   -13024   -13027 
  -13028   -13028   -13027   -13028   -13027   -13027   -13028   -13026 
  -13026   -13028   -13024   -13023   -13028   -13031   -13027   -13027 
  -13027   -13026   -13027   -13028   -13027   -13028   -13028   -13027 
  -13028   -13030   -13027   -13027   -13030   -13027   -13026   -13026 
  -13026   -13026   -13026   -13027   -13027   -13024   -13028   -13031 
  -13028   -13027   -13027   -13024   -13026   -13026   -13023   -13020 
  -13022   -13020   -13022   -13018   -13014   -13012   -13011   -13011 
  -13012   -13016   -13026   -13041   -13057   -13070   -13076   -13068 
  -13043   -13008   -12981   -12977   -12993   -13015   -13026   -13028 
  -13032   -13038   -13041   -13035   -13026   -13028   -13054   -13086 
  -13105   -13108   -13088   -13047   -13012   -13001   -13009   -13016 
  -13005   -12985   -12988   -13024   -13077   -13108   -13100   -13073 
  -13049   -13026   -13015   -13016   -13015   -13000   -12989   -13043 
  -13197   -13351   -13331   -13061   -12726   -12644   -12912   -13257 
  -13306   -13014   -12694   -12621   -12750   -12891   -12942   -12916 
  -12934   -13157   -13486   -13630   -13455   -13089   -12807   -12738 
  -12719   -12584   -12453   -12615   -13139   -13713   -13922   -13572 
  -12868   -12298   -12187   -12476   -12914   -13317   -13517   -13242 
  -12665   -12557   -13177   -13841   -13896   -13371   -12820   -12841 
  -13394   -13726   -13236   -12256   -11736   -12205   -13165   -13621 
  -13231   -12731   -12858   -13365   -13628   -13466   -13081   -12852 
  -12988   -13231   -13248   -13076   -12993   -13154   -13340   -13257 
  -12849   -12355   -12125   -12148   -12298   -12811   -13572   -13841 
  -13329   -12737   -12856   -13547   -13938   -13458   -12610   -12449 
  -13126   -13734   -13599   -12965   -12486   -12349   -12337   -12407 
  -12668   -13038   -13150   -12935   -12999   -13525   -13865   -13660 
  -13201   -12823   -12525   -12291   -12394   -12970   -13702   -14077 
  -13887   -13354   -12771   -12333   -12198   -12397   -12780   -12916 
  -12550   -12294   -12787   -13587   -13965   -13872   -13744   -13957 
  -14195   -13659   -12571   -12058   -12426   -13011   -13181   -12834 
  -12410   -12361   -12629   -12825   -12692   -12402   -12361   -12703 
  -13316   -14048   -14535   -14424   -13856   -13275   -12996   -13213 
  -13759   -13802   -12901   -11799   -11354   -11680   -12322   -12583 
  -12237   -11974   -12496   -13591   -14528   -14740   -14160   -13397 
  -13170   -13378   -13371   -12966   -12449   -12108   -12190   -12627 
  -13016   -13057   -12784   -12653   -13062   -13768   -14116   -13649 
  -12614   -11881   -12071   -12900   -13552   -13629   -13432   -13347 
  -13378   -13225   -12807   -12580   -12766   -12849   -12580   -12480 
  -12864   -13248   -13111   -12606   -12340   -12811   -13805   -14357 
  -14025   -13441   -13207   -13149   -12846   -12332   -12085   -12441 
  -12985   -12991   -12619   -12580   -12919   -13285   -13514   -13462 
  -13171   -12951   -12880   -12988   -13470   -14096   -14301   -13883 
  -13184   -12692   -12463   -12193   -11785   -11492   -11707   -12451 
  -13263   -13770   -13949   -14007   -14073   -13964   -13545   -13072 
  -12787   -12642   -12618   -12818   -13119   -13290   -13278   -12962 
  -12189   -11354   -11275   -12096   -13246   -14216   -14400   -13759 
  -13490   -14014   -14204   -13481   -12503   -12073   -12426   -13150 
  -13379   -12775   -12348   -12883   -13429   -13209   -12595   -11857 
  -11533   -12158   -13011   -13473   -13790   -13996   -14139   -14337 
  -14361   -13981   -13215   -12374   -11719   -11460   -12029   -13205 
  -13960   -13641   -12475   -11558   -11925   -13178   -14021   -13813 
  -13159   -13088   -13594   -13748   -13167   -12378   -12140   -12825 
  -13840   -14022   -13092   -12059   -11908   -12555   -13257   -13516 
  -13370   -12949   -12263   -11560   -11331   -11975   -13533   -15194 
  -15712   -14986   -13855   -12611   -11477   -11169   -11897   -13053 
  -13764   -13482   -12509   -11839   -12294   -13498   -14354   -14447 
  -13845   -12869   -12320   -12688   -13667   -14432   -14292   -13396 
  -12488   -12136   -12245   -12312   -12202   -12206   -12479   -12927 
  -13285   -13365   -13325   -13383   -13458   -13335   -13068   -12964 
  -13333   -14219   -14894   -14328   -12661   -11206   -11001   -11894 
  -12771   -12918   -12658   -12382   -12140   -12172   -12893   -14173 
  -15049   -14620   -13194   -12066   -12143   -13244   -14409   -14554 
  -13401   -11878   -11230   -11893   -13123   -13640   -13196   -12691 
  -12523   -12456   -12799   -13894   -14970   -14976   -13765   -11897 
  -10527   -10844   -12744   -14939   -15952   -14960   -12650   -10737 
  -10443   -11731   -13493   -14432   -14067   -13041   -12293   -12094 
  -12267   -12638   -13134   -13763   -14110   -13535   -12231   -11364 
  -12135   -14214   -15630   -15001   -13053   -11761   -12210   -13435 
  -13775   -12953   -12172   -12263   -12754   -12954   -12769   -12598 
  -12928   -13714   -14239   -13964   -13242   -12823   -12919   -13154 
  -13173   -12951   -12636   -12353   -12143   -12221   -12980   -14141 
  -14659   -13828   -12220   -11299   -11792   -13068   -14080   -14280 
  -13702   -12595   -11437   -11032   -11854   -13587   -15048   -14867 
  -13273   -11830   -11457   -12244   -13545   -14114   -13549   -12568 
  -12100   -12461   -12993   -13254   -13501   -13578   -13263   -13015 
  -13278   -13972   -14519   -14164   -12942   -11794   -11396   -11665 
  -12341   -13239   -13932   -13890   -13101   -11962   -11084   -11565 
  -13603   -15333   -15155   -13743   -12775   -13157   -14233   -14451 
  -13203   -11484   -10748   -11435   -12753   -13533   -13262   -12631 
  -12665   -13248   -13311   -12567   -12172   -12966   -13979   -13914 
  -13119   -12868   -13589   -14218   -13401   -11577   -10689   -11817 
  -14247   -16216   -16414   -15121   -13468   -12306   -11755   -11281 
  -10814   -10962   -11786   -12799   -13487   -13435   -12861   -12503 
  -12675   -13077   -13348   -13458   -13663   -14045   -14172   -13656 
  -12856   -12295   -12048   -12148   -12784   -13786   -14503   -14346 
  -13413   -12563   -12560   -13213   -13721   -13532   -12791   -12079 
  -11758   -11797   -11986   -12140   -12313   -12688   -13355   -14177 
  -14632   -14264   -13547   -13536   -14350   -14894   -14353   -13045 
  -11765   -11191   -11524   -12048   -11774   -10893   -10604   -11593 
  -13289   -14354   -14193   -13756   -14081   -14929   -15337   -14986 
  -14597   -14602   -14231   -12742   -10693    -9574   -10152   -11379 
  -11693   -10908   -10222   -10773   -12428   -14292   -15762   -16536 
  -16548   -15947   -14917   -13932   -13475   -13362   -13122   -12757 
  -12480   -12220   -11929   -11588   -11032   -10659   -10997   -11730 
  -12488   -13301   -14075   -14546   -14532   -14166   -13743   -13639 
  -14054   -14250   -13456   -12191   -11483   -11750   -12486   -12950 
  -13231   -13579   -13567   -12985   -12386   -12364   -12993   -13799 
  -14215   -14143   -13845   -13505   -13116   -12604   -12210   -12395 
  -13080   -13653   -13653   -13127   -12556   -12255   -12166   -12190 
  -12244   -12193   -12001   -12028   -12742   -13856   -14451   -14199 
  -13613   -13120   -12826   -12745   -12819   -13113   -13559   -13747 
  -13489   -12885   -12181   -11789   -11823   -12124   -12752   -13568 
  -14058   -13973   -13498   -13086   -13072   -13332   -13738   -14067 
  -13721   -12665   -11696   -11489   -12008   -12626   -12903   -13124 
  -13660   -14223   -14208   -13483   -12634   -12440   -13000   -13672 
  -13884   -13664   -13379   -13178   -13107   -13312   -13531   -13304 
  -12559   -11562   -11130   -11904   -13262   -14040   -13605   -12486 
  -12094   -12904   -14027   -14430   -13697   -12486   -11815   -11897 
  -12378   -12810   -12860   -12672   -12592   -12784   -13293   -13864 
  -13953   -13441   -12883   -12772   -13077   -13385   -13235   -12694 
  -12317   -12347   -12548   -12775   -13115   -13500   -13720   -13760 
  -13705   -13501   -13150   -12825   -12669   -12845   -13371   -13740 
  -13343   -12190   -10980   -10613   -11423   -12857   -14065   -14565 
  -14304   -13674   -13460   -14067   -14864   -14970   -14183   -13008 
  -12232   -12016   -11797   -11335   -10852   -10639   -10999   -11848 
  -12915   -14037   -14847   -15039   -14789   -14534   -14503   -14621 
  -14801   -14731   -14077   -12923   -11412    -9950    -9256    -9486 
  -10397   -11784   -13143   -14007   -14484   -14818   -14960   -14926 
  -14816   -14450   -13814   -13321   -13136   -13011   -12870   -12891 
  -13072   -13049   -12434   -11460   -10956   -11411   -12307   -12822 
  -12847   -12951   -13524   -14197   -14288   -13782   -13261   -12955 
  -12776   -12765   -12667   -12166   -11801   -12295   -13404   -14358 
  -14550   -13837   -13027   -13155   -14017   -14526   -14085   -13084 
  -12302   -11955   -11727   -11538   -11558   -11770   -11936   -11996 
  -12318   -13120   -14162   -15020   -15147   -14381   -13266   -12429 
  -12152   -12478   -13108   -13300   -12538   -11114    -9810    -9637 
  -11244   -13930   -16135   -16757   -15735   -14098   -13055   -12918 
  -13176   -13151   -12691   -12299   -12386   -12899   -13428   -13446 
  -13014   -12545   -11951   -11319   -11210   -11630   -12067   -12164 
  -11826   -11361   -11361   -11827   -12002   -11699   -11634   -12069 
  -12463   -12424   -12158   -12090   -12398   -12621   -12155   -11387 
  -11188   -11746   -12623   -13131   -12953   -12553   -12368   -12461 
  -12911   -13728   -14870   -16474   -18598   -20849   -22515   -23064 
  -22542   -21463   -20268   -19129   -17845   -15958   -13473   -11118 
   -9859   -10002   -10723   -10976   -10413    -9377    -8525    -8106 
   -7750    -7213    -6524    -5633    -4677    -4197    -4666    -6303 
   -9170   -12753   -15857   -17383   -16981   -15236   -13522   -13221 
  -14890   -18141   -22063   -25616   -27642   -27274   -24599   -20152 
  -14301    -7871    -2384      502     -301    -4180    -8945   -12507 
  -13738   -12679   -10601    -9263   -10053   -13170   -17270   -20074 
  -19530   -15462    -9979    -5718    -4270    -5771    -9042   -12010 
  -12542   -10883   -10574   -14520   -21714   -28325   -30970   -29843 
  -28112   -28354   -29829   -28725   -21753    -9676     2755    10662 
   13385    14112    15363    16217    14081     8009     -175    -7655 
  -13959   -21795   -32941   -44898   -52857   -53449   -46966   -37033 
  -27585   -19741   -11765    -2258     7156    12927    13780    12226 
   10573     9078     7801     4915    -2826   -14521   -26295   -35716 
  -41588   -43498   -41008   -34234   -25068   -15778    -8806    -5135 
   -2636      680     4279     5779     2743    -4761   -13864   -21151 
  -24996   -26431   -27074   -27346   -27143   -25536   -21567   -15843 
   -9108    -2187     2463     2924      283    -2563    -3127    -1178 
     207    -3078   -11345   -19958   -24406   -24532   -23517   -24586 
  -27637   -28757   -24452   -15535    -6357    -1563    -3269    -9123 
  -13464   -12625    -8405    -5343    -6168    -9990   -13586   -14625 
  -13385   -11649   -11164   -12577   -15276   -18106   -19576   -18391 
  -14989   -11716   -11113   -13988   -18702   -22472   -23291   -20808 
  -16109   -10640    -5354     -751     2655     3784     1485    -3823 
  -10269   -15962   -19731   -21649   -22700   -23063   -21971   -19633 
  -17158   -14909   -12640   -10412    -8770    -8060    -7719    -6789 
   -5238    -4725    -7076   -11816   -16395   -18561   -18175   -16960 
  -16399   -16798   -17761   -18276   -17203   -14438   -11713   -11666 
  -14879   -18752   -19666   -15473    -7538     -729      340    -5063 
  -13724   -20773   -22716   -19699   -14985   -11630    -9944    -9005 
   -9547   -13020   -18111   -20981   -19708   -15790   -11592    -8472 
   -6447    -5405    -6226    -9306   -13462   -16958   -18149   -15620 
   -9327    -1632     3850     4283     -939    -9092   -15854   -19303 
  -20517   -21134   -21760   -21659   -20093   -17722   -15827   -15076 
  -15047   -14397   -11851    -7639    -4228    -4492    -9256   -17130 
  -25161   -29889   -29513   -24979   -18864   -13651   -10404    -8372 
   -6231    -3669    -1243      270      -17    -2135    -4591    -5988 
   -6690    -8451   -12756   -19309   -25801   -28921   -27372   -23872 
  -21686   -21424   -21994   -21527   -18744   -14547   -10967    -9313 
   -9632   -10963   -11816   -11110    -9067    -7001    -6365    -7939 
  -10989   -13440   -13525   -11022    -7630    -6012    -7045    -9139 
  -10667   -11384   -12440   -15233   -18886   -20630   -19079   -15190 
  -11415   -10322   -12459   -16175   -18924   -18457   -14766   -10293 
   -7697    -8152   -10629   -13011   -13825   -11970    -7194    -1715 
     811    -2130    -9855   -17891   -21550   -20640   -18879   -19059 
  -20108   -19195   -15581   -11476    -9828   -11453   -14335   -15912 
  -15468   -14600   -15307   -17267   -17973   -15498   -10385    -5134 
   -2176    -2582    -5917   -10061   -12282   -11685    -9747    -8694 
  -10551   -16572   -25639   -33381   -34447   -27356   -16305    -7078 
   -3180    -4483    -6906    -6421    -3315     -515     -662    -4430 
   -9535   -12796   -13086   -12194   -13602   -19163   -27008   -33458 
  -35793   -33485   -27896   -20877   -13979    -8257    -3996    -1051 
     708     1452     1591     1283     -477    -5151   -12515   -19746 
  -23139   -21254   -16788   -14939   -18277   -23711   -26044   -22940 
  -16467   -11155    -9390    -9964   -11083   -11793   -11774   -11034 
   -9602    -8023    -7024    -7130    -8880   -11827   -14100   -13745 
  -10523    -6652    -5042    -6729   -10397   -13566   -14318   -12951 
  -11921   -13633   -18208   -23137   -25091   -22677   -17440   -12583 
  -11051   -13302   -16641   -17697   -15109    -9904    -4263     -359 
     156    -3132    -9058   -15457   -19963   -21595   -21855   -22553 
  -23465   -23018   -19849   -14535    -9863    -8071    -8878    -9838 
   -8532    -5297    -2835    -3809    -8584   -14395   -18133   -19080 
  -17888   -15327   -12826   -11691   -11442   -11095   -10532    -9614 
   -9074   -10573   -13810   -16715   -17830   -17095   -15973   -16016 
  -16946   -17280   -15944   -13084    -9622    -6224    -3834    -3720 
   -5873    -9198   -12361   -13826   -13366   -13108   -15078   -18727 
  -22266   -24603   -25246   -24100   -21207   -16471   -10659    -6000 
   -4757    -6929    -9900   -10901    -9234    -6619    -5903    -8198 
  -11672   -13649   -13041   -10847    -8635    -7129    -6710    -7982 
  -11394   -16486   -21286   -23444   -22287   -19388   -17450   -18243 
  -21081   -22846   -20127   -12901    -4941     -182       82    -2334 
   -4860    -7084    -9945   -13478   -16893   -19631   -21834   -24008 
  -25832   -25875   -23222   -18763   -14635   -12469   -12190   -12341 
  -11149    -7422    -1684     3527     5562     3439    -1709    -6875 
   -9763   -11138   -13105   -16831   -21996   -27093   -30570   -31374 
  -28965   -23610   -16287    -9053    -4272    -2227    -1448    -1074 
   -1216    -2577    -5832   -10126   -13474   -15307   -17061   -19619 
  -21840   -22465   -21703   -20642   -20283   -20314   -18904   -15222 
  -11033    -8707    -9074   -10887   -11557    -9749    -7057    -6092 
   -7923   -11427   -14218   -14230   -11273    -7543    -5544    -5813 
   -7620   -10029   -12258   -14364   -16511   -18200   -18986   -18823 
  -18009   -17281   -17309   -17659   -16935   -14698   -12081   -10362 
  -10110   -10895   -11430   -11095   -10648   -10728   -11164   -11658 
  -11985   -12372   -13455   -14827   -14887   -13116   -11429   -12276 
  -15990   -20401   -22333   -20385   -16482   -13193   -11003    -9444 
   -8602    -8730    -9842   -11624   -12977   -12657   -11317   -11192 
  -13163   -15820   -16830   -14580   -10004    -6478    -6825   -10555 
  -14172   -14513   -11578    -8085    -7048    -9142   -12282   -14530 
  -15795   -16706   -17818   -18981   -19106   -17694   -15458   -13178 
  -11350   -10343    -9697    -8486    -7321    -8364   -12285   -16937 
  -19383   -18003   -14077   -11337   -11875   -14270   -16181   -16127 
  -14122   -11767   -10563   -10786   -11762   -12653   -13131   -13177 
