Origin Time       2026/01/15 07:13:00
Lat.              42.7
Long.             145.4
Depth. (km)       30
Mag.              5.7
Station Code      HKD064
Station Lat.      44.0202
Station Long.     145.1886
Station Height(m) 17
Record Time       2026/01/15 07:13:56
Sampling Freq(Hz) 100Hz
Duration Time(s)  71
Dir.              E-W
Scale Factor      7845(gal)/8223790
Max. Acc. (gal)   3.500
Last Correction   2026/01/15 07:13:56
Memo.             
[...]
    5086     5169     5312     5360     5336     5339     5390     5447 
    5433     5386     5389     5427     5456     5447     5390     5347 
    5309     5233     5221     5336     5481     5571     5629     5644 
    5529     5286     5074     5000     5039     5086     5050     4996 
    5031     5085     5069     4973     4838     4784     4831     4896 
    5026     5290     5589     5745     5736     5683     5634     5526 
    5375     5298     5325     5382     5416     5452     5499     5476 
    5379     5309     5340     5428     5440     5333     5155     4951 
    4868     4934     4953     4923     4986     5103     5202     5255 
    5314     5502     5694     5757     5730     5582     5436     5502 
    5667     5748     5751     5701     5570     5324     5028     4823 
    4769     4838     4924     4924     4915     5012     5167     5248 
    5190     5058     4961     4922     4953     5070     5188     5242 
    5258     5262     5244     5204     5219     5328     5452     5590 
    5749     5856     5890     5895     5881     5805     5671     5606 
    5640     5649     5584     5474     5381     5352     5324     5247 
    5186     5174     5181     5138     5005     4882     4849     4865 
    4907     4931     4905     4884     4909     4988     5049     5027 
    5023     5066     5090     5125     5181     5242     5300     5285 
    5242     5265     5313     5378     5456     5470     5458     5455 
    5447     5493     5551     5525     5451     5395     5409     5452 
    5495     5602     5742     5864     5917     5787     5576     5427 
    5283     5202     5238     5242     5196     5225     5327     5397 
    5386     5344     5313     5216     5063     4947     4845     4761 
    4768     4860     4984     5108     5193     5152     4989     4922 
    5074     5265     5356     5427     5547     5647     5595     5456 
    5414     5439     5464     5521     5572     5638     5724     5694 
    5510     5282     5189     5344     5590     5698     5637     5487 
    5336     5185     5019     4923     4914     4942     5011     5053 
    5055     5077     4990     4788     4706     4823     5036     5206 
    5247     5231     5274     5370     5401     5325     5310     5444 
    5607     5707     5751     5780     5788     5733     5665     5651 
    5652     5597     5451     5300     5260     5229     5132     5094 
    5162     5262     5279     5138     4959     4866     4857     4923 
    4990     5001     5016     5066     5170     5216     5066     4905 
    4908     5024     5233     5435     5548     5656     5688     5593 
    5514     5529     5602     5644     5539     5319     5158     5211 
    5439     5562     5479     5356     5301     5321     5328     5243 
    5186     5232     5302     5314     5262     5279     5398     5458 
    5420     5329     5224     5182     5192     5202     5209     5150 
    5055     5059     5158     5275     5386     5460     5435     5324 
    5271     5335     5410     5452     5489     5506     5503     5462 
    5418     5487     5589     5586     5509     5359     5182     5082 
    5081     5192     5313     5305     5228     5108     4973     4909 
    4820     4727     4812     4957     5015     5115     5313     5521 
    5613     5560     5497     5485     5427     5317     5281     5359 
    5406     5370     5436     5644     5771     5655     5362     5159 
    5194     5324     5414     5375     5175     4969     4893     4992 
    5221     5370     5336     5228     5134     5116     5152     5128 
    5086     5124     5198     5213     5090     4931     4938     5123 
    5382     5553     5526     5447     5390     5296     5252     5308 
    5359     5378     5425     5483     5472     5435     5499     5629 
    5691     5632     5460     5277     5209     5251     5320     5356 
    5377     5416     5404     5300     5206     5146     5057     5004 
    5031     5092     5159     5225     5275     5238     5148     5158 
    5206     5192     5212     5281     5293     5256     5232     5239 
    5266     5283     5255     5127     4919     4789     4860     5078 
    5250     5302     5405     5594     5741     5841     5910     5913 
    5876     5845     5864     5910     5887     5795     5725     5740 
    5836     5881     5771     5551     5277     4993     4777     4656 
    4606     4585     4585     4654     4746     4737     4626     4522 
    4529     4630     4758     4936     5098     5142     5171     5278 
    5427     5578     5705     5827     5887     5772     5594     5494 
    5452     5431     5400     5394     5535     5768     5914     5926 
    5857     5759     5597     5306     4966     4691     4552     4592 
    4764     5017     5232     5233     5119     5077     5103     5139 
    5117     5016     4970     5022     5104     5208     5300     5347 
    5340     5287     5290     5417     5586     5737     5873     5981 
    6002     5903     5768     5634     5425     5175     5076     5201 
    5390     5470     5491     5475     5298     5026     4820     4699 
    4656     4681     4747     4869     5031     5204     5332     5385 
    5422     5408     5298     5287     5467     5678     5779     5713 
    5512     5262     5009     4885     4962     5130     5348     5576 
    5697     5701     5610     5431     5235     5124     5186     5329 
    5333     5260     5270     5287     5265     5246     5285     5447 
    5664     5783     5763     5672     5544     5339     5155     5151 
    5227     5227     5131     4953     4795     4745     4757     4796 
    4834     4828     4797     4760     4761     4866     5057     5256 
    5368     5339     5215     5097     5103     5321     5670     5927 
    5987     5931     5898     5915     5911     5879     5868     5842 
    5684     5387     5135     5059     5067     5040     4974     4969 
    5120     5281     5235     5035     4803     4642     4658     4849 
    5130     5367     5481     5560     5667     5722     5730     5737 
    5763     5818     5810     5718     5624     5474     5252     5104 
    5084     5115     5116     5062     4950     4784     4665     4666 
    4710     4737     4801     4942     5101     5152     5108     5157 
    5335     5508     5603     5653     5721     5746     5598     5344 
    5219     5301     5408     5400     5405     5501     5610     5672 
    5599     5414     5341     5422     5514     5580     5611     5595 
    5528     5406     5312     5286     5260     5198     5152     5181 
    5212     5142     5061     5096     5181     5219     5152     4962 
    4733     4608     4669     4864     5061     5196     5252     5267 
    5306     5316     5278     5290     5321     5319     5346     5400 
    5516     5686     5751     5755     5796     5763     5694     5679 
    5629     5506     5351     5240     5219     5227     5252     5296 
    5292     5259     5282     5402     5518     5475     5347     5314 
    5329     5302     5266     5213     5169     5158     5109     4995 
    4839     4731     4792     4976     5188     5385     5475     5428 
    5320     5258     5277     5289     5259     5189     5023     4831 
    4725     4704     4730     4734     4722     4796     4982     5255 
    5528     5653     5611     5449     5255     5186     5300     5570 
    5904     6115     6192     6218     6162     6106     6099     6015 
    5867     5749     5680     5661     5582     5429     5377     5405 
    5393     5320     5202     5119     5098     5105     5136     5101 
    4986     4899     4795     4612     4438     4375     4437     4488 
    4473     4568     4808     5027     5157     5224     5242     5212 
    5155     5124     5165     5281     5458     5657     5807     5876 
    5884     5867     5814     5741     5757     5848     5894     5879 
    5833     5832     5917     5949     5823     5563     5224     4938 
    4779     4726     4799     4981     5171     5289     5331     5368 
    5427     5481     5514     5447     5220     4949     4789     4819 
    4974     5078     5077     5057     5077     5116     5026     4741 
    4436     4282     4310     4500     4781     5059     5227     5254 
    5270     5362     5482     5597     5628     5533     5455     5454 
    5487     5539     5579     5668     5863     6068     6196     6195 
    6050     5877     5719     5541     5433     5455     5551     5621 
    5571     5409     5252     5181     5159     5092     4969     4889 
    4885     4947     5061     5192     5355     5536     5638     5572 
    5350     5113     4953     4816     4702     4633     4608     4703 
    4918     5121     5232     5229     5138     5042     4993     5012 
    5074     5121     5202     5413     5667     5802     5795     5753 
    5749     5779     5788     5753     5734     5791     5898     5971 
    5967     5938     5896     5788     5643     5553     5553     5590 
    5601     5597     5595     5570     5560     5667     5865     6034 
    6114     6076     5945     5833     5817     5867     5922     5921 
    5821     5661     5528     5449     5359     5175     4954     4796 
    4704     4646     4627     4669     4729     4723     4661     4556 
    4374     4172     4025     3929     3866     3802     3726     3627 
    3524     3547     3744     3979     4172     4278     4284     4294 
    4322     4297     4255     4272     4417     4688     4922     4997 
    4955     4896     4915     5012     5138     5279     5402     5476 
    5466     5333     5174     5104     5196     5502     5884     6214 
    6593     7017     7348     7537     7555     7441     7295     7164 
    7055     6891     6678     6598     6615     6469     6112     5625 
    5085     4592     4278     4261     4488     4753     4878     4781 
    4623     4607     4722     4915     5130     5297     5422     5428 
    5248     4984     4742     4641     4731     4932     5219     5568 
    5910     6197     6308     6174     5942     5763     5709     5738 
    5710     5610     5454     5188     4885     4641     4446     4259 
    4020     3770     3631     3659     3906     4320     4765     5266 
    5765     6110     6278     6219     5917     5497     5073     4756 
    4598     4595     4793     5181     5718     6343     6825     6967 
    6795     6392     5834     5281     4955     4989     5235     5454 
    5548     5539     5482     5386     5194     4846     4345     3902 
    3732     3701     3661     3759     4140     4747     5400     5914 
    6293     6613     6814     6737     6318     5759     5374     5248 
    5329     5536     5737     5877     5973     5983     5849     5555 
    5159     4834     4677     4635     4649     4742     5019     5475 
    5857     5908     5622     5213     4915     4853     5062     5401 
    5690     5902     5950     5748     5402     5069     4927     5100 
    5398     5541     5389     4861     4104     3445     3156     3395 
    3997     4534     4834     5024     5229     5489     5790     6141 
    6473     6702     6914     7144     7404     7793     8233     8552 
    8621     8324     7690     6835     5845     4914     4216     3838 
    3881     4252     4617     4665     4322     3785     3244     2755 
    2454     2547     3115     4075     5155     6000     6384     6324 
    6143     6158     6280     6272     6046     5625     5138     4756 
    4595     4723     5058     5336     5289     4870     4249     3620 
    3154     3005     3142     3385     3599     3766     3978     4334 
    4760     5061     5134     5047     4989     5043     5193     5493 
    6014     6772     7655     8344     8607     8457     7911     6968 
    5887     5103     4791     4797     4947     5082     5101     5171 
    5464     5832     5998     5854     5491     4996     4413     3865 
    3431     3141     3132     3431     3909     4538     5327     6173 
    6863     7141     6991     6642     6284     6015     5837     5705 
    5721     5988     6438     6859     6986     6808     6563     6436 
    6509     6713     6837     6787     6575     6308     6172     6226 
    6439     6790     7087     7018     6380     5250     3998     3030 
    2542     2484     2628     2830     3117     3424     3643     3802 
    3994     4244     4402     4284     3986     3755     3670     3663 
    3719     3946     4332     4675     4877     4931     4808     4658 
    4714     5063     5610     6108     6403     6509     6443     6231 
    6015     5980     6214     6596     6921     7060     6929     6552 
    6106     5769     5593     5408     5020     4442     3746     3038 
    2566     2587     3121     3817     4257     4371     4330     4345 
    4595     5015     5422     5771     6019     6103     6069     6038 
    6133     6373     6627     6750     6744     6670     6493     6197 
    5931     5896     6076     6188     6029     5698     5332     4963 
    4660     4399     4044     3642     3381     3356     3507     3661 
    3739     3886     4201     4671     5251     5822     6254     6359 
    6034     5539     5215     5225     5638     6318     7017     7582 
    7900     7986     7911     7641     7250     6875     6574     6386 
    6255     6087     5863     5533     5170     4941     4803     4689 
    4612     4459     4237     4144     4272     4606     5003     5355 
    5718     6102     6430     6655     6724     6648     6484     6211 
    5795     5283     4788     4360     4006     3797     3746     3773 
    3863     4050     4239     4143     3541     2629     1871     1625 
    1983     2641     3187     3501     3619     3650     3831     4268 
    4857     5433     5894     6266     6469     6316     5904     5549 
    5486     5737     6091     6389     6563     6489     6253     6068 
    5961     5817     5570     5371     5413     5652     5960     6192 
    6235     6259     6482     6833     7076     6963     6493     5954 
    5611     5647     6057     6602     7078     7344     7294     7034 
    6737     6513     6448     6486     6490     6450     6385     6285 
    6087     5732     5360     5152     5058     4846     4290     3474 
    2782     2427     2355     2521     2949     3568     4160     4531 
    4671     4637     4452     4155     3854     3796     4139     4720 
    5305     5692     5718     5449     5124     4939     4977     5147 
    5364     5641     5915     6114     6289     6517     6817     7148 
    7438     7585     7456     7051     6566     6166     5927     5848 
    5798     5633     5343     5080     5009     5070     5022     4696 
    4113     3555     3296     3288     3356     3437     3572     3815 
    4143     4498     4773     4889     4972     5197     5544     5895 
    6187     6370     6309     5956     5462     4895     4241     3715 
    3527     3596     3665     3499     3086     2640     2416     2590 
    3106     3735     4329     4795     5076     5286     5564     5910 
    6262     6585     6841     6966     6988     7087     7306     7624 
    8083     8568     8842     8757     8293     7603     6920     6322 
    5779     5290     4900     4664     4538     4475     4523     4671 
    4888     5206     5571     5902     6143     6211     6095     5819 
    5417     5004     4672     4473     4477     4718     5127     5522 
    5778     5944     6079     6124     6012     5715     5297     4896 
    4610     4495     4517     4571     4598     4568     4510     4510 
    4576     4675     4801     4941     5073     5152     5204     5313 
    5455     5553     5598     5593     5572     5562     5540     5522 
    5485     5386     5273     5188     5190     5319     5482     5598 
    5663     5718     5841     5973     5988     5921     5807     5640 
    5481     5320     5111     4885     4638     4419     4329     4297 
    4212     4139     4233     4509     4761     4824     4718     4518 
    4324     4261     4405     4712     5032     5281     5459     5417 
    5053     4494     3878     3325     2940     2735     2745     3038 
    3570     4156     4550     4693     4714     4737     4872     5135 
    5459     5819     6176     6444     6575     6539     6440     6471 
    6637     6848     7068     7250     7372     7443     7423     7333 
    7319     7476     7701     7820     7815     7699     7406     7001 
    6635     6340     6084     5829     5555     5200     4739     4320 
    4074     3971     3986     4058     4062     3964     3790     3609 
    3496     3462     3565     3813     4072     4306     4529     4656 
    4657     4610     4614     4712     4857     5011     5105     5063 
    4988     5012     5115     5285     5543     5844     6097     6247 
    6327     6384     6446     6513     6513     6423     6311     6188 
    6097     6183     6447     6754     6966     7011     6903     6640 
    6242     5860     5597     5455     5435     5506     5641     5841 
    6076     6323     6493     6447     6147     5603     4881     4148 
    3551     3195     3099     3202     3491     3924     4364     4677 
    4774     4693     4594     4496     4284     3920     3488     3088 
    2716     2373     2153     2074     2184     2532     2957     3353 
    3773     4139     4351     4429     4468     4644     5000     5414 
    5800     6100     6305     6500     6732     6987     7234     7443 
    7604     7697     7730     7765     7830     7905     7928     7808 
    7596     7383     7171     6956     6731     6480     6223     5949 
    5651     5346     5067     4885     4800     4733     4595     4302 
    3881     3541     3437     3592     3989     4571     5242     5852 
    6291     6620     6924     7204     7426     7493     7372     7132 
    6852     6598     6367     6139     5953     5813     5683     5544 
    5347     5080     4773     4432     4097     3865     3774     3736 
    3619     3430     3254     3099     2972     2893     2802     2678 
    2627     2776     3153     3665     4225     4816     5413     5922 
    6266     6439     6493     6470     6411     6392     6382     6278 
    6129     6000     5859     5679     5468     5304     5275     5335 
    5406     5455     5471     5494     5547     5624     5706     5763 
    5791     5775     5682     5482     5171     4855     4652     4521 
    4403     4288     4216     4252     4318     4293     4228     4194 
    4189     4189     4158     4145     4256     4526     4941     5402 
    5776     6043     6242     6385     6435     6335     6192     6146 
    6183     6301     6463     6579     6659     6636     6438     6143 
    5806     5512     5351     5246     5189     5238     5327     5367 
    5316     5202     5115     5097     5200     5375     5497     5570 
    5563     5391     5215     5151     5140     5190     5273     5352 
    5498     5705     5931     6157     6346     6508     6633     6691 
    6702     6651     6524     6326     6043     5701     5289     4792 
    4313     3908     3572     3338     3194     3134     3187     3299 
    3445     3581     3611     3555     3476     3422     3483     3642 
    3852     4116     4384     4656     4989     5366     5724     5968 
    6060     6058     5968     5813     5707     5691     5751     5818 
    5807     5705     5495     5256     5171     5254     5405     5574 
    5694     5751     5755     5694     5628     5584     5560     5582 
