Origin Time       2026/01/15 07:13:00
Lat.              42.7
Long.             145.4
Depth. (km)       30
Mag.              5.7
Station Code      HKD081
Station Lat.      43.6427
Station Long.     144.3901
Station Height(m) 130
Record Time       2026/01/15 07:13:44
Sampling Freq(Hz) 100Hz
Duration Time(s)  77
Dir.              E-W
Scale Factor      7845(gal)/8223790
Max. Acc. (gal)   3.029
Last Correction   2026/01/15 07:13:45
Memo.             
[...]
  -10166   -10226   -10146   -10077   -10170   -10422   -10696   -10824 
  -10706   -10368    -9980    -9748    -9780   -10056   -10438   -10763 
  -10914   -10856   -10636   -10336   -10042    -9869    -9892   -10017 
  -10064    -9944    -9714    -9521    -9460    -9529    -9675    -9829 
   -9969   -10103   -10210   -10305   -10442   -10579   -10621   -10534 
  -10335   -10102    -9942    -9888    -9917   -10008   -10112   -10125 
  -10019    -9850    -9688    -9653    -9813   -10084   -10323   -10412 
  -10304   -10054    -9790    -9643    -9691    -9938   -10328   -10717 
  -10906   -10806   -10532   -10262   -10114   -10076   -10065   -10027 
   -9960    -9880    -9830    -9825    -9829    -9838    -9888    -9977 
  -10045   -10056   -10042   -10045   -10099   -10246   -10463   -10628 
  -10646   -10530   -10347   -10183   -10104   -10145   -10249   -10292 
  -10185    -9967    -9765    -9688    -9774    -9971   -10160   -10237 
  -10188   -10075    -9998   -10037   -10170   -10272   -10257   -10208 
  -10219   -10242   -10223   -10191   -10131    -9972    -9752    -9634 
   -9717    -9958   -10231   -10384   -10346   -10193   -10085   -10115 
  -10249   -10380   -10454   -10438   -10291   -10079    -9981   -10104 
  -10407   -10766   -11009   -10993   -10704   -10247    -9771    -9394 
   -9200    -9193    -9309    -9486    -9672    -9806    -9840    -9741 
   -9536    -9346    -9308    -9472    -9765   -10065   -10287   -10400 
  -10426   -10427   -10471   -10575   -10678   -10712   -10646   -10509 
  -10413   -10453   -10585   -10682   -10655   -10504   -10272   -10017 
   -9788    -9617    -9553    -9663    -9915   -10146   -10204   -10076 
   -9876    -9761    -9803    -9965   -10176   -10339   -10361   -10249 
  -10068    -9832    -9549    -9292    -9157    -9224    -9491    -9845 
  -10116   -10216   -10228   -10339   -10597   -10851   -10932   -10820 
  -10605   -10385   -10228   -10160   -10177   -10246   -10307   -10331 
  -10363   -10443   -10540   -10598   -10550   -10369   -10134    -9965 
   -9904    -9909    -9919    -9907    -9884    -9896    -9967   -10056 
  -10141   -10265   -10443   -10566   -10511   -10292   -10054    -9896 
   -9834    -9884   -10017   -10130   -10139   -10056    -9961    -9952 
  -10035   -10139   -10211   -10280   -10411   -10616   -10845   -11001 
  -10957   -10690   -10338   -10034    -9823    -9726    -9734    -9811 
   -9915    -9987    -9988    -9931    -9830    -9714    -9664    -9733 
   -9848    -9898    -9875    -9863    -9961   -10210   -10507   -10651 
  -10530   -10260   -10079   -10088   -10185   -10206   -10084    -9918 
   -9841    -9850    -9865    -9852    -9818    -9806    -9865   -10033 
  -10324   -10670   -10901   -10901   -10721   -10486   -10280   -10162 
  -10153   -10214   -10299   -10393   -10443   -10349   -10115    -9860 
   -9660    -9525    -9467    -9458    -9452    -9479    -9558    -9626 
   -9686    -9832   -10057   -10233   -10297   -10295   -10260   -10210 
  -10169   -10143   -10152   -10243   -10436   -10648   -10777   -10786 
  -10693   -10539   -10393   -10311   -10297   -10324   -10309   -10187 
   -9990    -9806    -9729    -9819   -10026   -10206   -10296   -10308 
  -10227   -10091   -10014   -10022   -10079   -10197   -10366   -10492 
  -10496   -10403   -10349   -10419   -10513   -10476   -10281   -10015 
   -9809    -9764    -9845    -9967   -10098   -10222   -10362   -10559 
  -10736   -10737   -10536   -10257   -10010    -9809    -9648    -9567 
   -9579    -9649    -9742    -9833    -9900    -9948    -9999   -10088 
  -10235   -10377   -10403   -10253    -9956    -9637    -9454    -9477 
   -9664    -9919   -10154   -10304   -10318   -10170    -9913    -9661 
   -9544    -9620    -9860   -10172   -10424   -10508   -10419   -10274 
  -10192   -10193   -10260   -10358   -10420   -10385   -10201    -9887 
   -9564    -9393    -9440    -9676   -10027   -10399   -10689   -10797 
  -10710   -10509   -10291   -10091    -9923    -9859    -9931   -10049 
  -10100   -10093   -10116   -10227   -10397   -10540   -10570   -10494 
  -10416   -10411   -10435   -10415   -10339   -10242   -10134   -10015 
   -9927    -9927   -10031   -10208   -10368   -10415   -10358   -10235 
  -10037    -9795    -9580    -9433    -9421    -9605    -9933   -10276 
  -10504   -10508   -10303   -10103   -10135   -10427   -10812   -11043 
  -10933   -10523   -10064    -9782    -9725    -9826    -9991   -10138 
  -10223   -10201   -10002    -9639    -9255    -9018    -9001    -9159 
   -9369    -9548    -9691    -9828    -9967   -10083   -10173   -10239 
  -10261   -10268   -10314   -10376   -10397   -10351   -10268   -10246 
  -10354   -10543   -10732   -10809   -10669   -10345   -10008    -9834 
   -9884   -10075   -10266   -10370   -10350   -10239   -10137   -10122 
  -10176   -10199   -10122    -9996    -9941   -10030   -10210   -10334 
  -10312   -10177   -10031    -9938    -9887    -9853    -9803    -9717 
   -9652    -9668    -9753    -9911   -10123   -10305   -10397   -10408 
  -10373   -10331   -10292   -10249   -10189   -10102   -10035   -10054 
  -10157   -10273   -10318   -10295   -10307   -10426   -10592   -10704 
  -10700   -10619   -10569   -10582   -10582   -10503   -10369   -10243 
  -10154   -10092   -10057   -10042   -10031   -10026   -10056   -10135 
  -10251   -10409   -10593   -10683   -10546   -10179    -9663    -9130 
   -8746    -8607    -8661    -8830    -9085    -9386    -9668    -9894 
  -10062   -10193   -10296   -10380   -10430   -10381   -10223   -10052 
   -9948    -9936   -10035   -10246   -10532   -10825   -11014   -11017 
  -10860   -10666   -10570   -10619   -10723   -10760   -10701   -10570 
  -10390   -10176    -9930    -9683    -9490    -9391    -9386    -9458 
   -9580    -9720    -9837    -9895    -9886    -9849    -9823    -9815 
   -9836    -9887    -9948    -9994   -10041   -10142   -10291   -10388 
  -10386   -10328   -10245   -10125    -9969    -9838    -9833    -9996 
  -10266   -10520   -10671   -10712   -10683   -10636   -10592   -10552 
  -10521   -10471   -10376   -10277   -10195   -10068    -9860    -9598 
   -9363    -9259    -9333    -9526    -9728    -9903   -10095   -10316 
  -10503   -10597   -10623   -10615   -10575   -10490   -10353   -10183 
  -10011    -9863    -9752    -9710    -9780    -9953   -10115   -10199 
  -10253   -10287   -10228   -10015    -9703    -9450    -9363    -9443 
   -9626    -9838   -10015   -10160   -10297   -10400   -10412   -10314 
  -10157   -10046   -10075   -10260   -10532   -10786   -10952   -11002 
  -10960   -10874   -10774   -10651   -10481   -10273   -10085    -9936 
   -9786    -9612    -9450    -9360    -9386    -9543    -9805   -10106 
  -10353   -10453   -10369   -10179   -10023    -9965    -9963    -9949 
   -9930    -9961   -10077   -10242   -10385   -10494   -10628   -10767 
  -10781   -10619   -10372   -10137    -9949    -9815    -9753    -9810 
  -10003   -10278   -10539   -10697   -10708   -10559   -10282    -9965 
   -9711    -9591    -9609    -9701    -9749    -9682    -9564    -9504 
   -9533    -9674    -9902   -10104   -10199   -10183   -10099    -9994 
   -9936   -10012   -10262   -10582   -10827   -10929   -10899   -10779 
  -10636   -10542   -10535   -10579   -10608   -10632   -10709   -10795 
  -10747   -10467   -10010    -9558    -9315    -9350    -9567    -9775 
   -9784    -9559    -9271    -9116    -9151    -9313    -9451    -9447 
   -9383    -9447    -9693   -10030   -10336   -10527   -10624   -10746 
  -10983   -11308   -11581   -11646   -11480   -11194   -10928   -10741 
  -10594   -10412   -10162    -9884    -9678    -9645    -9811   -10077 
  -10257   -10230   -10084    -9999   -10064   -10222   -10335   -10301 
  -10104    -9813    -9528    -9327    -9227    -9198    -9208    -9219 
   -9196    -9119    -9015    -8951    -8996    -9131    -9275    -9396 
   -9524    -9671    -9815    -9949   -10079   -10224   -10393   -10589 
  -10876   -11288   -11682   -11836   -11681   -11368   -11091   -10920 
  -10805   -10629   -10319    -9981    -9806    -9825    -9954   -10130 
  -10309   -10476   -10604   -10643   -10547   -10336   -10115    -9999 
  -10049   -10241   -10417   -10365   -10004    -9464    -8928    -8536 
   -8386    -8529    -8920    -9418    -9877   -10218   -10404   -10440 
  -10372   -10264   -10200   -10210   -10257   -10354   -10527   -10728 
  -10897   -11025   -11109   -11125   -11083   -11037   -10987   -10874 
  -10659   -10415   -10276   -10295   -10365   -10345   -10226   -10099 
  -10008    -9961    -9980   -10049   -10065    -9957    -9778    -9628 
   -9548    -9537    -9586    -9675    -9753    -9765    -9688    -9531 
   -9360    -9289    -9359    -9494    -9598    -9653    -9717    -9852 
  -10050   -10222   -10311   -10380   -10505   -10682   -10841   -10894 
  -10787   -10588   -10403   -10261   -10120    -9963    -9865    -9911 
  -10044   -10112   -10068    -9977    -9926    -9936    -9985   -10060 
  -10135   -10165   -10133   -10085   -10077   -10098   -10111   -10110 
  -10112   -10133   -10118   -10011    -9877    -9819    -9842    -9867 
   -9798    -9598    -9370    -9283    -9420    -9711   -10015   -10231 
  -10366   -10455   -10493   -10469   -10338   -10068    -9728    -9470 
   -9391    -9460    -9552    -9579    -9559    -9552    -9593    -9671 
   -9763    -9882   -10031   -10168   -10239   -10230   -10181   -10199 
  -10319   -10477   -10617   -10646   -10484   -10243   -10072    -9971 
   -9925    -9979   -10104   -10187   -10157   -10057    -9965    -9927 
   -9969   -10072   -10173   -10242   -10296   -10335   -10345   -10342 
  -10377   -10471   -10593   -10687   -10759   -10862   -11021   -11207 
  -11369   -11456   -11462   -11434   -11412   -11380   -11261   -11018 
  -10714   -10467   -10357   -10366   -10408   -10405   -10320   -10169 
  -10050   -10053   -10138   -10174   -10056    -9796    -9514    -9324 
   -9273    -9374    -9598    -9853   -10008   -10026   -10006   -10076 
  -10262   -10504   -10678   -10644   -10370    -9983    -9680    -9609 
   -9776   -10023   -10145   -10019    -9693    -9350    -9127    -9040 
   -9089    -9265    -9529    -9833   -10112   -10332   -10515   -10640 
  -10601   -10308    -9829    -9408    -9283    -9467    -9774   -10029 
  -10145   -10120   -10018    -9909    -9814    -9707    -9574    -9517 
   -9653    -9907   -10079   -10098   -10062   -10102   -10245   -10417 
  -10558   -10682   -10836   -11045   -11253   -11348   -11281   -11101 
  -10864   -10604   -10346   -10111    -9917    -9786    -9741    -9801 
   -9975   -10216   -10420   -10513   -10481   -10373   -10278   -10241 
  -10222   -10206   -10223   -10234   -10137    -9879    -9517    -9211 
   -9123    -9304    -9674   -10038   -10210   -10158   -10002    -9859 
   -9774    -9724    -9661    -9607    -9663    -9888   -10239   -10600 
  -10845   -10932   -10921   -10913   -10979   -11118   -11263   -11338 
  -11326   -11241   -11101   -10885   -10573   -10168    -9722    -9328 
   -9054    -8911    -8861    -8839    -8824    -8858    -8965    -9103 
   -9193    -9190    -9139    -9138    -9229    -9362    -9448    -9429 
   -9289    -9162    -9263    -9618   -10050   -10439   -10735   -10882 
  -10871   -10750   -10620   -10596   -10650   -10725   -10886   -11148 
  -11388   -11506   -11443   -11190   -10810   -10378    -9967    -9699 
   -9659    -9813   -10071   -10339   -10535   -10606   -10542   -10354 
  -10098    -9894    -9903   -10200   -10716   -11271   -11650   -11707 
  -11443   -10994   -10578   -10378   -10389   -10459   -10453   -10300 
  -10015    -9729    -9544    -9410    -9248    -9066    -8942    -8992 
   -9285    -9764   -10266   -10578   -10609   -10470   -10327   -10258 
  -10249   -10273   -10330   -10389   -10409   -10412   -10439   -10463 
  -10390   -10134    -9693    -9157    -8652    -8282    -8097    -8124 
   -8360    -8726    -9103    -9468    -9871   -10269   -10521   -10539 
  -10374   -10187   -10102   -10145   -10305   -10534   -10754   -10924 
  -11001   -10933   -10737   -10508   -10346   -10295   -10343   -10439 
  -10492   -10415   -10238   -10088   -10053   -10122   -10241   -10324 
  -10278   -10092    -9896    -9873   -10042   -10273   -10458   -10581 
  -10624   -10559   -10424   -10347   -10443   -10670   -10855   -10839 
  -10617   -10351   -10206   -10212   -10291   -10334   -10303   -10266 
  -10314   -10427   -10489   -10411   -10255   -10152   -10129   -10120 
  -10069    -9941    -9722    -9452    -9224    -9073    -8942    -8811 
   -8796    -8989    -9337    -9755   -10214   -10728   -11298   -11835 
  -12175   -12190   -11913   -11589   -11483   -11624   -11817   -11816 
  -11511   -10975   -10315    -9603    -8932    -8383    -7977    -7747 
   -7697    -7753    -7913    -8249    -8691    -9019    -9121    -9081 
   -9051    -9178    -9506    -9918   -10241   -10411   -10478   -10548 
  -10706   -10945   -11222   -11520   -11774   -11882   -11840   -11759 
  -11730   -11707   -11489   -10886    -9969    -9086    -8629    -8797 
   -9508   -10434   -11140   -11295   -10887   -10226    -9684    -9479 
   -9602    -9861   -10023   -10006    -9880    -9725    -9585    -9487 
   -9428    -9394    -9425    -9585    -9860   -10106   -10162   -10065 
   -9973    -9922    -9857    -9772    -9683    -9661    -9865   -10322 
  -10839   -11210   -11365   -11348   -11240   -11124   -11061   -11044 
  -11002   -10913   -10777   -10543   -10243    -9994    -9788    -9491 
   -9070    -8648    -8399    -8456    -8785    -9170    -9301    -8943 
   -8156    -7335    -6948    -7241    -8159    -9389   -10481   -11126 
  -11346   -11368   -11344   -11281   -11124   -10862   -10567   -10326 
  -10166   -10008    -9717    -9252    -8764    -8461    -8452    -8680 
   -8992    -9252    -9458    -9672    -9919   -10192   -10488   -10775 
  -10975   -11014   -10856   -10584   -10403   -10438   -10597   -10665 
  -10516   -10246   -10045   -10019   -10172   -10390   -10542   -10658 
  -10881   -11259   -11696   -12029   -12110   -11855   -11304   -10593 
   -9856    -9217    -8811    -8739    -9023    -9568   -10100   -10303 
  -10099    -9711    -9416    -9328    -9385    -9425    -9342    -9213 
   -9246    -9551    -9994   -10301   -10336   -10212   -10139   -10261 
  -10573   -10887   -10963   -10717   -10247    -9737    -9382    -9315 
   -9491    -9752   -10010   -10296   -10669   -11145   -11611   -11812 
  -11615   -11169   -10739   -10488   -10413   -10449   -10566   -10701 
  -10709   -10488   -10064    -9582    -9258    -9193    -9251    -9202 
   -8953    -8610    -8388    -8467    -8851    -9309    -9556    -9478 
   -9151    -8729    -8406    -8405    -8847    -9663   -10623   -11421 
  -11792   -11658   -11156   -10512    -9976    -9721    -9791   -10162 
  -10768   -11376   -11632   -11361   -10727   -10115    -9856    -9995 
  -10346   -10665   -10793   -10735   -10598   -10427   -10210   -10035 
  -10049   -10251   -10513   -10723   -10845   -10933   -11033   -11057 
  -10844   -10370    -9815    -9479    -9591   -10114   -10762   -11205 
  -11280   -11075   -10802   -10609   -10501   -10373   -10110    -9757 
   -9570    -9709   -10052   -10366   -10453   -10142    -9482    -8806 
   -8473    -8650    -9254   -10038   -10716   -11070   -11072   -10914 
  -10822   -10839   -10866   -10866   -10837   -10712   -10467   -10223 
  -10103   -10102   -10115   -10044    -9857    -9625    -9510    -9652 
  -10022   -10439   -10704   -10717   -10513   -10226    -9988    -9813 
   -9676    -9645    -9749    -9891    -9957    -9888    -9688    -9504 
   -9559    -9898   -10282   -10470   -10465   -10427   -10469   -10582 
  -10651   -10585   -10393   -10138    -9864    -9651    -9553    -9474 
   -9275    -8995    -8810    -8878    -9202    -9613    -9934   -10129 
  -10241   -10284   -10266   -10284   -10476   -10856   -11254   -11469 
  -11427   -11210   -10968   -10852   -10929   -11076   -11061   -10759 
  -10208    -9568    -9117    -9094    -9451    -9923   -10350   -10706 
  -10933   -10918   -10588    -9960    -9251    -8807    -8816    -9198 
   -9726   -10130   -10218   -10000    -9679    -9477    -9510    -9768 
  -10103   -10315   -10373   -10390   -10449   -10563   -10692   -10756 
  -10759   -10802   -11002   -11392   -11893   -12332   -12519   -12398 
  -12051   -11557   -10944   -10280    -9686    -9274    -9119    -9209 
   -9370    -9389    -9219    -8964    -8791    -8901    -9412   -10231 
  -11064   -11533   -11443   -10920   -10254    -9693    -9358    -9232 
   -9247    -9315    -9347    -9344    -9381    -9495    -9761   -10216 
  -10698   -10976   -10960   -10731   -10507   -10496   -10714   -10984 
  -11083   -10891   -10486   -10102    -9965   -10069   -10173   -10022 
   -9524    -8788    -8074    -7646    -7649    -8058    -8645    -9093 
   -9221    -9093    -8920    -8901    -9105    -9493    -9963   -10366 
  -10509   -10301    -9902    -9629    -9684   -10026   -10454   -10754 
  -10849   -10840   -10839   -10808   -10712   -10652   -10754   -10993 
  -11182   -11103   -10721   -10220    -9810    -9601    -9582    -9640 
   -9620    -9463    -9300    -9305    -9486    -9682    -9771    -9753 
   -9647    -9450    -9194    -8970    -8911    -9101    -9494    -9936 
  -10272   -10473   -10592   -10631   -10548   -10351   -10139   -10098 
  -10384   -10932   -11442   -11607   -11302   -10702   -10210   -10116 
  -10377   -10693   -10732   -10381    -9833    -9405    -9316    -9526 
   -9786    -9867    -9751    -9601    -9607    -9794   -10029   -10210 
  -10315   -10369   -10449   -10621   -10879   -11149   -11314   -11267 
  -10984   -10581   -10300   -10336   -10615   -10851   -10805   -10461 
  -10048    -9857    -9994   -10319   -10639   -10891   -11098   -11246 
  -11306   -11286   -11178   -10929   -10480    -9826    -9094    -8500 
   -8239    -8378    -8808    -9270    -9529    -9543    -9405    -9251 
   -9192    -9215    -9219    -9180    -9165    -9223    -9367    -9578 
   -9796    -9996   -10184   -10319   -10386   -10493   -10805   -11344 
  -11869   -12040   -11730   -11053   -10251    -9602    -9292    -9336 
   -9632    -9996   -10251   -10370   -10486   -10729   -11109   -11481 
  -11595   -11253   -10543    -9803    -9367    -9333    -9497    -9495 
   -9163    -8660    -8266    -8175    -8390    -8712    -8912    -8946 
   -8922    -8905    -8891    -8912    -9058    -9375    -9822   -10297 
  -10689   -10910   -10964   -10951   -10978   -11091   -11326   -11705 
  -12145   -12456   -12452   -12078   -11493   -11032   -10953   -11248 
  -11670   -11931   -11827   -11311   -10542    -9805    -9320    -9163 
   -9278    -9495    -9594    -9460    -9193    -9026    -9112    -9352 
   -9514    -9470    -9247    -8997    -8878    -8926    -9080    -9277 
   -9493    -9767   -10133   -10542   -10909   -11142   -11119   -10782 
  -10220    -9653    -9354    -9513   -10085   -10825   -11448   -11727 
  -11588   -11145   -10650   -10359   -10362   -10498   -10558   -10497 
  -10453   -10593   -10928   -11290   -11480   -11388   -11055   -10624 
  -10223    -9907    -9709    -9670    -9779    -9931    -9998    -9957 
   -9917   -10006   -10269   -10621   -10878   -10832   -10415    -9814 
   -9351    -9235    -9440    -9737    -9871    -9744    -9450    -9174 
   -9062    -9138    -9323    -9487    -9533    -9466    -9378    -9363 
   -9501    -9829   -10250   -10561   -10658   -10592   -10462   -10381 
