Origin Time       2026/01/15 07:13:00
Lat.              42.7
Long.             145.4
Depth. (km)       30
Mag.              5.7
Station Code      HKD067
Station Lat.      43.5550
Station Long.     144.9726
Station Height(m) 30
Record Time       2026/01/15 07:13:45
Sampling Freq(Hz) 100Hz
Duration Time(s)  68
Dir.              E-W
Scale Factor      7845(gal)/8223790
Max. Acc. (gal)   7.457
Last Correction   2026/01/15 07:13:46
Memo.             
[...]
    4318     4337     4356     4351     4325     4324     4338     4349 
    4355     4351     4347     4340     4329     4321     4322     4353 
    4382     4359     4315     4317     4336     4340     4338     4340 
    4352     4351     4326     4329     4348     4338     4341     4359 
    4332     4301     4326     4367     4364     4329     4311     4329 
    4349     4342     4317     4322     4356     4357     4334     4329 
    4338     4349     4355     4360     4348     4325     4334     4352 
    4344     4325     4315     4332     4349     4341     4330     4324 
    4332     4349     4342     4332     4340     4349     4342     4334 
    4334     4341     4347     4336     4328     4333     4334     4334 
    4336     4326     4326     4337     4342     4352     4349     4333 
    4324     4333     4349     4345     4342     4356     4345     4321 
    4336     4356     4329     4305     4326     4347     4342     4342 
    4348     4345     4324     4310     4328     4351     4355     4344 
    4333     4336     4333     4333     4360     4374     4341     4309 
    4314     4329     4345     4356     4352     4349     4330     4298 
    4317     4356     4352     4344     4340     4329     4345     4352 
    4330     4336     4349     4340     4330     4320     4321     4334 
    4334     4330     4329     4328     4338     4344     4337     4348 
    4344     4317     4330     4353     4347     4348     4342     4311 
    4315     4355     4386     4382     4309     4240     4294     4394 
    4422     4388     4345     4307     4280     4307     4386     4407 
    4360     4338     4310     4244     4270     4390     4422     4338 
    4297     4342     4349     4313     4328     4338     4307     4347 
    4407     4332     4236     4326     4453     4364     4228     4324 
    4472     4386     4234     4338     4558     4473     4110     3979 
    4311     4691     4641     4280     4095     4218     4390     4441 
    4387     4328     4342     4391     4336     4180     4156     4369 
    4556     4444     4193     4113     4217     4391     4510     4405 
    4205     4221     4338     4294     4278     4531     4714     4414 
    3986     4033     4391     4525     4441     4392     4353     4275 
    4276     4394     4472     4415     4302     4203     4190     4341 
    4534     4479     4178     4068     4357     4596     4423     4239 
    4484     4723     4406     3987     4043     4263     4356     4514 
    4568     4260     4035     4266     4569     4550     4380     4324 
    4309     4212     4156     4302     4514     4491     4225     4058 
    4229     4486     4374     4075     4236     4752     4812     4268 
    3960     4364     4716     4338     3867     4090     4625     4675 
    4295     4232     4658     4823     4388     4108     4357     4433 
    4104     4121     4621     4750     4284     3897     3812     3793 
    3990     4542     4874     4384     3689     3883     4594     4660 
    4167     3998     4290     4585     4673     4644     4480     4136 
    3931     4068     4203     4332     4764     5044     4693     4288 
    4386     4565     4341     3933     3882     4379     4938     4891 
    4298     3920     4164     4465     4259     3997     4237     4588 
    4529     4243     4104     4175     4240     4126     4033     4201 
    4359     4120     3748     3916     4541     4758     4361     4124 
    4369     4584     4550     4496     4414     4306     4463     4797 
    4729     4217     3947     4126     4229     4163     4411     4828 
    4769     4361     4122     4078     4203     4490     4565     4307 
    4075     4005     3927     3838     3952     4356     4708     4673 
    4477     4409     4295     4072     4160     4641     4820     4415 
    4159     4392     4433     4017     3805     4155     4644     4692 
    4315     4232     4698     4881     4351     3888     4060     4433 
    4545     4500     4557     4691     4569     4086     3785     4066 
    4399     4218     3896     4041     4567     4973     4900     4294 
    3601     3476     4082     4916     5100     4415     3901     4171 
    4337     3838     3505     4032     4880     5233     4984     4561 
    4380     4402     4311     4163     4160     4206     4309     4553 
    4669     4464     4303     4418     4349     3962     4056     4861 
    5212     4436     3589     3689     4275     4517     4477     4541 
    4519     4193     3981     4237     4494     4206     3746     3809 
    4271     4479     4456     4707     5017     4684     3809     3250 
    3395     3819     4205     4764     5400     5468     4912     4452 
    4392     4417     4363     4380     4498     4453     4191     4193 
    4548     4580     4175     4002     4185     4239     4121     4206 
    4494     4522     4167     3906     3937     3969     4087     4410 
    4449     4163     4248     4739     4862     4433     4164     4341 
    4390     4114     4135     4731     5112     4633     4016     4137 
    4600     4621     4434     4693     4928     4337     3568     3609 
    4101     4345     4442     4611     4654     4453     4222     4052 
    3843     3726     3919     4253     4471     4704     4978     4899 
    4432     4075     4225     4774     4985     4255     3246     3312 
    4372     4865     4409     4270     4793     5009     4702     4517 
    4606     4703     4747     4610     4087     3551     3605     4033 
    4099     3923     4180     4480     4082     3792     4545     5301 
    4862     3983     3824     4240     4545     4513     4325     4239 
    4313     4419     4540     4835     5061     4648     3894     3742 
    4186     4480     4588     4895     5088     4614     3835     3574 
    3794     3917     4039     4496     4876     4554     3892     3859 
    4494     4849     4506     4060     4021     4249     4521     4826 
    4985     4684     4097     3817     3983     4203     4349     4506 
    4492     4348     4495     4823     4730     4216     3873     3838 
    3790     3805     4212     4777     4955     4698     4332     4072 
    3977     4050     4293     4635     4753     4361     3908     4128 
    4650     4482     3831     3788     4414     4685     4321     4210 
    4635     4646     3919     3636     4410     5017     4614     4155 
    4374     4584     4249     3951     4255     4704     4661     4341 
    4275     4469     4544     4266     3885     3894     4294     4511 
    4341     4226     4322     4345     4320     4506     4791     4718 
    4256     4017     4336     4722     4534     3970     3883     4361 
    4710     4764     4708     4448     4136     4133     4279     4257 
    4205     4233     4139     3882     3732     3901     4266     4623 
    4861     4738     4143     3557     3565     4045     4415     4552 
    4727     4769     4348     3912     4085     4568     4812     4895 
    4972     4884     4523     4040     3817     4129     4688     4924 
    4710     4415     4388     4580     4606     4325     4124     4283 
    4472     4179     3573     3495     4072     4388     4114     4083 
    4737     5178     4611     3736     3512     3724     3755     3667 
    3929     4579     5032     4828     4321     4252     4625     4776 
    4568     4332     4064     3796     3875     4290     4654     4773 
    4594     4220     3970     3944     4089     4428     4774     4838 
    4625     4371     4403     4780     4926     4464     3978     4047 
    4353     4378     4248     4278     4317     4233     4272     4455 
    4549     4583     4590     4379     3913     3495     3454     3735 
    4005     4197     4476     4784     4846     4580     4141     3657 
    3368     3645     4288     4584     4453     4440     4544     4465 
    4541     5020     5265     4868     4499     4703     5015     4880 
    4568     4550     4510     3947     3327     3372     3867     4313 
    4731     5078     4887     4143     3696     4054     4521     4382 
    4124     4348     4634     4572     4438     4349     4101     3780 
    3740     4091     4495     4526     4156     3778     3829     4374 
    4962     4978     4252     3430     3381     4153     5015     5350 
    5055     4395     3847     3770     4043     4255     4314     4475 
    4857     5266     5414     5182     4688     4283     4295     4614 
    4839     4719     4320     4056     4280     4760     5044     4930 
    4487     4054     3867     3774     3601     3474     3626     4109 
    4639     4735     4337     4081     4321     4490     4176     3850 
    3942     4224     4330     4263     4205     4225     4306     4347 
    4293     4309     4406     4429     4523     4730     4600     4087 
    3889     4202     4411     4444     4818     5367     5391     4837 
    4361     4272     4322     4477     4706     4538     3955     3591 
    3612     3666     3721     3947     4136     4055     3960     4083 
    4114     3871     3782     4129     4599     4864     4945     4918 
    4739     4459     4274     4259     4344     4480     4642     4785 
    4806     4592     4212     3996     4225     4565     4519     4303 
    4341     4453     4314     4081     4024     4148     4345     4463 
    4330     3956     3726     3985     4321     4259     4179     4352 
    4398     4271     4422     4851     4930     4387     3840     3943 
    4422     4587     4456     4530     4707     4545     4226     4162 
    4137     3856     3740     4255     5009     5240     4808     4274 
    4128     4290     4390     4226     3979     4032     4475     4878 
    4811     4460     4295     4369     4459     4411     4085     3603 
    3431     3738     4190     4492     4523     4241     3932     4023 
    4468     4843     4926     4707     4283     3952     4037     4430 
    4634     4598     4842     5354     5348     4564     3743     3499 
    3572     3585     3757     4270     4688     4711     4685     4785 
    4672     4276     3996     4062     4253     4197     3834     3547 
    3666     3967     4033     3859     3784     3966     4183     4233 
    4295     4603     4962     5012     4847     4839     4932     4792 
    4572     4572     4595     4491     4565     4816     4704     4229 
    4113     4521     4646     4102     3821     4471     4990     4495 
    3951     4167     4399     4089     3780     3809     3750     3553 
    3877     4598     4652     4071     4024     4591     4723     4228 
    4027     4405     4513     4037     3823     4232     4448     3942 
    3368     3549     4428     5297     5586     5244     4599     4060 
    3897     4202     4884     5513     5502     4861     4341     4453 
    4919     5216     5109     4634     3923     3272     3146     3670 
    4347     4739     4899     4868     4461     3855     3591     3674 
    3649     3658     4114     4642     4776     4870     5158     5143 
    4519     3646     3132     3497     4695     5737     5452     3964 
    2810     3040     3919     4361     4557     4984     5119     4521 
    3893     4023     4557     4634     4347     4575     5320     5583 
    5026     4433     4348     4318     3981     3834     4151     4313 
    3983     3798     4148     4432     4158     3838     4171     4857 
    4961     4349     3898     4179     4618     4482     4167     4446 
    4885     4479     3572     3429     4156     4834     5103     5090 
    4664     3856     3365     3739     4348     4274     3794     3765 
    4243     4661     4671     4368     4128     4198     4444     4662 
    4854     5086     5244     4973     4291     3978     4483     5061 
    4938     4492     4355     4315     3948     3564     3662     4137 
    4564     4648     4380     4124     4162     4199     3852     3557 
    4089     5000     4900     3897     3670     4577     5298     5262 
    4997     4747     4399     4129     4175     4322     4224     4068 
    4160     4189     3877     3493     3165     2903     3084     3870 
    4783     5305     5344     5154     5124     5220     4807     3763 
    3169     3839     4857     5036     4878     5259     5545     4851 
    3788     3460     3769     3723     3194     3227     4194     4977 
    4681     3720     3110     3531     4548     5001     4638     4206 
    3983     3655     3360     3508     3954     4203     4027     3524 
    3107     3252     4047     5170     6022     5948     4984     4025 
    3736     3890     4090     4283     4361     4153     3808     3712 
    4224     5250     5942     5517     4375     3739     4203     5061 
    5333     5115     5154     5494     5649     5464     4912     4077 
    3576     3850     4449     4765     4784     4855     5076     5082 
    4533     3562     2803     2879     3636     4398     4874     5154 
    5319     5520     5879     6354     6771     6789     6308     5759 
    5293     4572     3809     3766     4476     5012     4737     4268 
    4615     5643     6539     7160     7669     7789     7202     6035 
    4691     3456     2544     2303     2853     3601     3713     3267 
    3199     3878     4538     4295     3095     1544      324      -31 
     477      999      700     -135     -326      965     3326     5517 
    6442     5759     4191     2903     2288     1850     1282     1054 
    1767     3117     3839     3267     2766     4097     6350     6866 
    5171     3342     2733     2789     2953     3545     4402     4591 
    3912     3258     3273     3595     3761     4306     6107     8880 
   11271    12154    11368     9459     7126     5232     4711     5521 
    6169     5559     4538     4101     3743     3061     2864     3549 
    4222     4195     3834     3456     2863     2191     1860     1819 
    1759     1802     2385     3501     4391     4487     4326     4727 
    5544     5944     5553     5086     5483     6434     6805     6480 
    6319     6397     5811     4342     3041     2808     3403     4299 
    5459     6635     7030     6208     4646     3233     2404     1857 
    1204      762     1266     2520     3154     2398     1225     1069 
    2230     4180     6547     8764     9522     7862     4669     2110 
    1499     2397     3684     4811     5571     5557     4895     4552 
    4945     5449     5761     6038     5765     4496     3154     2840 
    3119     2997     2636     2577     2512     2454     3303     5089 
    6415     6246     4752     2528      453     -263      819     2932 
    5107     6565     6664     5834     5595     6455     7005     6192 
    4986     4739     5343     5836     5830     5520     4957     4152 
    3426     2980     2674     2552     2967     4081     5617     6924 
    7149     5823     3613     2026     1917     2693     3379     3842 
    4326     4510     3985     3265     3454     4676     5431     4590 
    3370     3782     5815     7755     8702     8949     8329     6407 
    4126     3179     3669     4122     4105     4680     5724     5665 
    4441     3593     3275     2266      820      581     1911     3577 
    4793     5657     5841     4691     2749     1849     2913     4475 
    4878     4693     5055     5605     5890     6427     7176     6991 
    5289     3167     2408     3508     5131     5861     5545     4671 
    3681     2860     2322     2344     3234     4480     4949     4199 
    2932     2174     2436     3518     4855     5759     5865     5749 
    6156     6705     6350     4864     3022     1768     1833     3341 
    5300     6469     6797     6802     6237     4953     4039     4359 
    5201     5535     5165     4357     3352     2288     1493     1483 
    2369     3689     5023     6228     6960     6486     4758     3100 
    2833     3743     4788     5362     5182     4005     2218     1065 
    1665     3894     6493     8098     8118     6959     5495     4313 
    3707     3843     4369     4544     3977     3107     3040     4261 
    5613     5518     3981     2431     1895     2265     3137     4388 
    5817     6667     6091     4356     2710     1852     1595     1648 
    1949     2592     3582     4540     4931     4803     4765     5015 
    5360     6068     7244     7784     6354     3256      341     -900 
    -463      924     2871     5267     7565     8757     8112     5836 
    3171     1615     1891     3465     4996     5605     5544     5325 
    4860     3975     3123     2893     3207     3744     4683     6187 
    7534     7588     6177     4455     3285     2057      257     -820 
     448     3496     5998     6562     5509     3677     2022     1437 
    1907     2727     3477     4081     4753     6102     7963     8775 
    7472     4939     2768     1880     2505     4145     5562     5864 
    5432     5067     4831     4599     4818     5701     6601     6926 
    6879     6883     6867     6606     6200     5539     4144     2162 
     641      423     1517     3519     5794     7171     6563     4367 
    2322     1701     2451     3896     5460     6660     6774     5239 
    2836     1383     1584     2477     3262     3998     4533     4611 
    4731     5281     5633     5306     4753     4209     3530     3369 
    4330     5404     5475     5171     5254     4926     3543     2349 
    2724     4113     5036     4833     3659     2246     1899     3445 
    5896     7314     7101     6313     5876     5755     5691     5563 
    5144     4338     3420     2687     2317     2690     4175     6272 
    7570     7153     5429     3222     1082      -97      560     2421 
    3905     4568     5158     6049     6845     7172     7099     6797 
    6199     5266     4324     3732     3457     3342     3322     2988 
    1818      349       44     1328     2928     3607     3466     3256 
    3186     2787     2002     1821     3222     5875     8523    10118 
   10152     8556     5935     3747     3299     4221     5135     5628 
    6010     6089     5520     4376     2899     1568     1244     2381 
    4344     5838     6073     5601     5324     5065     4382     3624 
    3067     2539     2496     3815     6087     7469     6791     4868 
    3260     2543     2482     3100     4438     5647     5674     4835 
    4446     4918     5514     6057     7055     7996     7603     5837 
    3951     2880     2598     2720     3017     3329     3295     2705 
    2228     2713     3766     4453     4644     4428     3472     1960 
    1098     1738     3110     3701     3172     2565     2639     3277 
    4382     5726     6378     5713     4517     4268     5313     6390 
    6426     5653     4619     3771     3890     5240     6728     7238 
    7018     6783     6442     5661     4784     4298     4118     3902 
    3528     3078     2758     2744     2762     2299     1379      357 
    -649    -1350     -996      919     3960     6790     8073     7476 
    5587     3385     2004     2015     2978     4166     5159     5503 
    4734     3110     1601     1065     1807     3522     5287     6123 
    5721     4456     3051     2308     2567     3420     4390     5606 
    7157     8260     8225     7519     6639     5459     4496     4521 
    4693     3543     1556      789     2165     4637     6775     7927 
    7977     7209     6454     6577     7578     8559     8723     8297 
    8028     7700     6216     3636     1395      233     -162      318 
    1977     3913     4715     4391     3962     3727     3412     3308 
