Origin Time       2026/01/15 07:13:00
Lat.              42.7
Long.             145.4
Depth. (km)       30
Mag.              5.7
Station Code      HKD071
Station Lat.      43.2326
Station Long.     145.2604
Station Height(m) 38
Record Time       2026/01/15 07:13:35
Sampling Freq(Hz) 100Hz
Duration Time(s)  63
Dir.              U-D
Scale Factor      7845(gal)/8223790
Max. Acc. (gal)   8.952
Last Correction   2026/01/15 07:13:36
Memo.             
[...]
    5421     5416     5428     5432     5427     5435     5451     5447 
    5421     5410     5427     5432     5420     5421     5443     5448 
    5429     5420     5432     5439     5418     5408     5432     5451 
    5440     5428     5431     5432     5417     5409     5432     5454 
    5437     5418     5429     5449     5440     5413     5413     5437 
    5441     5420     5417     5443     5449     5427     5417     5432 
    5440     5425     5420     5437     5443     5421     5417     5436 
    5439     5421     5420     5441     5443     5420     5420     5449 
    5460     5429     5402     5410     5429     5431     5429     5447 
    5454     5428     5402     5417     5447     5441     5418     5428 
    5445     5432     5416     5427     5448     5440     5413     5410 
    5432     5439     5436     5445     5452     5429     5398     5401 
    5433     5456     5452     5439     5424     5404     5394     5428 
    5481     5481     5418     5378     5408     5449     5451     5437 
    5436     5429     5412     5412     5445     5468     5437     5404 
    5412     5429     5429     5429     5445     5454     5428     5401 
    5414     5435     5431     5424     5445     5467     5448     5409 
    5401     5422     5437     5439     5440     5435     5417     5404 
    5424     5459     5459     5425     5402     5412     5429     5445 
    5462     5456     5414     5379     5397     5448     5474     5449 
    5417     5417     5425     5421     5425     5447     5454     5431 
    5414     5424     5443     5436     5416     5417     5431     5428 
    5421     5437     5455     5440     5416     5427     5447     5433 
    5405     5404     5431     5454     5451     5439     5429     5414 
    5400     5413     5454     5467     5440     5418     5429     5440 
    5424     5409     5418     5436     5433     5422     5433     5454 
    5448     5427     5420     5418     5414     5425     5449     5452 
    5424     5404     5416     5439     5437     5427     5435     5443 
    5429     5421     5436     5451     5437     5405     5397     5424 
    5447     5449     5449     5444     5421     5402     5417     5445 
    5451     5433     5418     5428     5433     5424     5427     5435 
    5429     5422     5428     5447     5455     5433     5413     5425 
    5436     5420     5406     5421     5440     5451     5456     5445 
    5422     5404     5410     5443     5466     5448     5417     5402 
    5413     5432     5441     5440     5439     5432     5416     5414 
    5436     5449     5439     5427     5425     5427     5425     5420 
    5425     5433     5432     5435     5445     5447     5429     5422 
    5432     5435     5422     5406     5412     5443     5462     5449 
    5436     5429     5414     5405     5420     5448     5449     5418 
    5408     5436     5454     5443     5428     5422     5417     5418 
    5435     5455     5454     5428     5409     5418     5437     5435 
    5421     5427     5443     5441     5432     5431     5432     5427 
    5417     5424     5445     5447     5422     5414     5429     5436 
    5435     5436     5437     5432     5421     5425     5441     5440 
    5425     5421     5436     5440     5424     5420     5436     5439 
    5425     5427     5445     5439     5401     5395     5451     5490 
    5458     5409     5401     5417     5424     5420     5431     5444 
    5429     5416     5433     5448     5443     5431     5425     5431 
    5428     5414     5417     5436     5440     5429     5433     5443 
    5432     5410     5413     5435     5447     5439     5433     5444 
    5436     5406     5398     5420     5443     5439     5433     5448 
    5458     5433     5404     5413     5445     5440     5412     5413 
    5437     5445     5441     5447     5443     5417     5401     5417 
    5445     5448     5433     5439     5448     5428     5405     5416 
    5440     5436     5417     5422     5447     5451     5422     5412 
    5428     5431     5422     5435     5449     5444     5420     5412 
    5432     5447     5433     5424     5432     5428     5412     5418 
    5445     5451     5431     5418     5432     5445     5431     5417 
    5428     5443     5433     5414     5422     5436     5425     5409 
    5428     5462     5467     5436     5412     5414     5412     5414 
    5441     5460     5444     5413     5412     5435     5443     5427 
    5420     5432     5435     5429     5433     5440     5432     5410 
    5410     5440     5452     5428     5412     5425     5437     5435 
    5425     5429     5440     5432     5421     5431     5443     5427 
    5409     5418     5444     5452     5437     5424     5414     5409 
    5424     5454     5458     5417     5383     5414     5479     5490 
    5429     5383     5395     5424     5435     5441     5454     5454 
    5436     5416     5418     5432     5431     5427     5439     5447 
    5424     5404     5416     5441     5449     5440     5437     5435 
    5418     5406     5417     5436     5428     5390     5336     5281 
    5238     5242     5314     5368     5265     4976     4671     4600 
    4892     5425     5861     5815     5212     4523     4483     5296 
    6266     6458     5636     4527     4237     5236     6768     7487 
    6656     4793     3377     3530     4864     6069     6315     5697 
    4882     4752     5692     6953     7287     6154     4156     2647 
    2805     4526     6274     6721     5944     4712     3989     4553 
    5968     6880     6342     4820     3850     4291     5564     6270 
    5825     5483     6480     8245     8995     7666     5366     4348 
    5759     7935     7827     5328     3512     4229     6392     8164 
    8321     6370     3601     2475     4051     6883     8195     6542 
    3010      290      891     4549     8271     9126     6608     3264 
    2394     5058     8730     9234     5549     1512     1364     4773 
    8137     9181     7445     3604      805     2142     6369     9587 
    9578     7088     4153     2118     1853     3960     7033     8472 
    7685     5933     4568     4445     5098     5397     5386     5741 
    6335     6639     6405     5809     5194     4367     3345     3203 
    4839     7557     9092     8094     5725     3566     2226     1549 
    1394     2502     5147     7788     8461     7029     5215     3975 
    2639     1532     2617     6220     9406     9363     6883     4766 
    4482     5310     5719     5629     5964     6575     7167     7920 
    8221     7177     4510     1263      309     3370     8044     9730 
    6922     3680     4012     6243     6849     5687     4567     4606 
    5603     6355     6300     5736     4999     4446     4113     4496 
    6087     7570     7415     5748     3994     3576     4352     5559 
    6983     7773     6689     3937     1678     2151     5127     8306 
    9306     7356     4104     2043     2694     5540     7789     7007 
    3751     1232     2182     5684     8984    10647    10048     7130 
    3388     1135     1804     4997     8374     9117     6790     4093 
    3588     4569     4973     4529     4486     5707     7165     6845 
    4603     2747     3172     4851     5476     5012     5418     7214 
    8321     7042     4905     4128     4313     4409     4932     6575 
    8259     7886     5333     3169     3659     5836     6778     5541 
    3974     3987     5169     5586     4781     4001     3889     4270 
    4962     5863     7069     8128     7638     5246     3095     3504 
    5915     7727     7555     6359     5522     5437     5688     5840 
    6050     6215     5788     4673     3375     3086     4421     6311 
    7172     6215     4241     3127     3862     5506     6427     6141 
    5274     4645     4824     5532     5624     4621     3608     4060 
    6300     8583     8500     6232     4413     4527     5441     5614 
    5051     4625     5028     6181     6870     6149     4919     4766 
    6286     8440     8873     6536     3080     1143     2077     4378 
    5535     5208     4492     4284     5178     6859     8047     7724 
    6366     5616     5817     5364     3622     2344     3441     6485 
    8980     8726     5988     3260     2629     3919     5564     6272 
    5826     5206     5047     4568     3888     4737     7044     8131 
    6608     4797     5460     7661     8244     6139     3472     2727 
    3813     4980     5468     5648     5761     5788     5717     5788 
    6480     7403     7144     5024     2551     2401     4915     7014 
    5961     2928     2107     5648    10083    10071     5556     1931 
    2907     6508     8098     6134     3456     3051     5603     8977 
    9232     5360      999      568     5124    11028    13024     9177 
    2475    -1583      159     5271     8600     7527     3746     1436 
    3195     6930     8077     4988     1310     1610     5429     8968 
    9679     7360     4232     2890     3734     5240     5838     5871 
    6268     6255     5363     4936     6037     7882     8532     7044 
    4496     2454     2087     4037     7123     8711     7385     4263 
    2020     2733     6034     9197     9232     5590     1009     -503 
    2655     7673    10434     9832     7519     5086     2945     1563 
    1929     4198     7198     8903     7909     5189     3041     3165 
    5499     7807     8109     6955     6164     6184     5846     4953 
    4584     5278     6390     6372     4347     1512      626     3642 
    8526    10663     8073     2864     -819      207     5138    10125 
   11695     8675     3754     1871     4764     9077    10376     7504 
    3246     1309     2543     4716     5722     5671     5628     5597 
    4760     3149     2571     4510     7287     8245     6890     4271 
    2292     2658     5113     7877     9201     8561     6804     4897 
    3623     3846     5161     5903     5362     4680     5244     6523 
    7121     6789     5787     4383     3161     3113     5100     7909 
    8490     5649     1995     1405     4797     8657     8934     5949 
    3476     3900     6102     7453     6785     4951     3431     3287 
    4807     7616     9867     8885     4981     1645     1815     5217 
    8093     7450     4747     2987     3346     4959     5911     5227 
    3892     3442     4090     5278     7049     8758     8600     6255 
    3909     3877     6189     8347     7750     4762     2567     3458 
    5755     6227     4976     4519     5556     6601     6516     5697 
    5035     4611     3935     3485     4320     6328     8194     8325 
    6423     4267     3863     4919     5256     4234     3643     4846 
    6832     7330     5823     4471     5007     6524     6995     5764 
    4340     4510     6184     7688     7319     5017     2889     3160 
    5603     7585     7044     4972     3901     4723     6153     6674 
    6038     4999     4378     4542     5431     6531     6893     5985 
    4395     3210     3231     4837     7207     8116     6351     3454 
    2266     4135     7407     9120     7669     4325     2575     4226 
    7163     7811     5035     1674     1529     5051     8602     8380 
    5120     2809     3373     5512     7292     7317     5308     3041 
    2951     5358     8041     8652     6694     3674     2479     4189 
    5973     5437     4190     5123     8229    10197     8418     4344 
    1742     2475     4974     6793     7269     6724     5135     2943 
    1359     1873     5032     8603     9193     6304     3005     2542 
    5163     8453     9701     7784     4137     1917     2852     5408 
    7117     6980     5545     4469     5100     6663     7060     5778 
    4309     3727     3955     4743     5787     6542     6561     5818 
    4820     4440     4990     5759     6007     5806     5755     6149 
    6247     5067     3038     1871     2895     5787     8802    10057 
    8675     5487     2694     2263     4315     6856     7472     5624 
    3160     2654     4733     7221     7690     5849     3516     3330 
    5779     7678     6269     3285     2331     4212     6679     7695 
    7420     6902     6637     6389     5358     3252     1337     1906 
    5134     7636     7105     5435     5304     6644     7569     7196 
    6108     5238     5377     6386     7029     6434     5347     5240 
    6261     7387     7542     5887     3115     1296     1578     3672 
    6299     7932     7638     5636     3843     3522     3766     4305 
    5691     7337     8519     8789     7726     6085     4897     4283 
    4178     4479     5265     6201     6234     5316     3905     2196 
     699     -271      283     3501     7636     9749     9335     7408 
    5395     5271     6948     8482     9374     9146     6759     3291 
     503     -540     1351     5065     6671     4409      986      263 
    2693     5638     8419    11523    13213    12503     9796     5865 
    3554     4315     5879     6922     8401     9647     7418     1190 
   -3651    -1957     4696    10102     9998     6106     3846     5089 
    6339     5803     5779     7970    11348    12707     9755     4333 
     375       74     1829     2332     1910     3208     5170     4484 
    1017    -1971    -1291     3480     9779    13755    12964     8183 
    3129     2014     5489    10605    13162     9209      955    -3661 
   -1906     2370     5613     6303     5188     4946     6219     6149 
    3948     3264     6259    10930    13578    11446     5853     1070 
     -59     2963     8121    10878     7948      992    -3954    -1663 
    5838    11051    10565     7739     5940     5622     6428     6797 
    5040     2897     3080     4291     3916     2586     2724     5701 
    9528    10224     7503     4322     2847     4178     7430     9668 
    8970     6091     4018     5296     8745    10573     8298     3227 
    -687     -965     2088     6817    10115     9267     5422     1768 
     279     2227     6551     9879    11225    10964     9174     7794 
    7982     8194     6891     3784      307    -1066       25     1329 
    1490      930      232      819     3667     6700     7954     8290 
    8847    10161    11863    11523     7935     3489     1104     1548 
    3326     4418     4356     4295     5485     7298     8027     7754 
    7456     6602     4338     1663      384     1057     3566     7145 
    9597     9378     6763     3245      687     -287      795     4571 
    9369    12464    12621    10107     6421     3600     3107     5007 
    7253     6809     3218       33     1074     5679     9400     9240 
    5718     1938     1682     4598     6781     6735     5636     4746 
    4518     5086     7160     9998    11260    10246     8212     6631 
    5715     4263     1671     -985    -1918     -156     3262     6330 
    8144     8711     7877     5984     4602     5030     6750     8716 
   10022     9450     7010     4066     2008     1784     3010     4608 
    6180     7447     7998     7900     7820     8050     7796     6575 
    4785     2841     1408      899      978     1391     2092     3076 
    3969     4137     3632     2759     2701     5256     9238    11160 
    9791     7069     5783     7061     9686    11630    11673     9730 
    6399     3053     1687     3152     5823     6789     4707     1075 
   -1513     -739     3531     7477     7865     6305     6019     8183 
   10540     9344     4672        0    -2463    -2054     1069     5289 
    8596     9786     8729     6855     6162     7083     8310     8267 
    6309     3271      959      577     1819     3634     5054     5787 
    6177     6168     5880     6399     7931     9427    10309    10293 
    9155     7658     6311     4206     1475      425     2070     4425 
    5163     3780     1722     1124     2641     5286     8082    10538 
   12039    11655     8769     4467     1684     2247     4810     7009 
    7819     7375     6234     5312     5571     6571     6567     4896 
    2929     2686     4302     5393     4253     2006     1154     2871 
    5567     6885     6585     6039     5900     5848     6034     7079 
    8946    10238     9081     5719     2704     2192     4118     6033 
    5495     3172     1502     1725     3739     6447     8174     7942 
    6292     4924     4649     4750     4449     3303     1973     2120 
    3954     6160     7669     8021     7659     7581     7973     7919 
    6843     5432     4425     4070     4579     5143     4916     5074 
    6241     6683     5297     2956     1791     3574     7005     9053 
    8322     5363     2451     2482     5886     9829    11119     9147 
    5811     3088     1568     1008     1021     1528     2829     4884 
    7152     8615     8016     5788     4191     4153     5007     6451 
    7867     8637     8927     8372     7241     7238     8307     7944 
    4872     1495      774     2189     3697     4293     3765     3129 
    3222     3434     3383     3353     3867     5186     6517     6858 
    6335     6143     7287     9138     9721     8436     7052     6880 
    7099     6124     3790     2226     3237     5779     7044     5244 
    2226     1765     4699     8629    10450     8507     4779     2697 
    2955     4089     4922     5034     4594     4036     3570     3588 
    4656     6517     8155     8830     8607     7551     5526     3592 
    3181     4288     5949     6863     5701     2767      803     1894 
    4984     7931     9423     9485     9126     8409     6682     4348 
    2619     2403     3720     5655     6836     6825     6323     5451 
    4225     3430     3295     3628     4201     4428     4579     5277 
    5775     5489     5098     5270     6012     6608     6586     6238 
    5683     5302     5540     6156     7033     7734     7458     6234 
    4854     4531     5734     7125     7101     5528     3566     2670 
    3449     4795     4980     3778     2533     2617     3847     4753 
    4785     4766     5397     6777     8598     9780     9182     7425 
    6149     5769     5900     6400     6633     5583     3483     1957 
    2324     4264     6134     6701     6272     5737     5184     4372 
    3781     3893     4475     4936     4993     5143     5555     5324 
    4020     2814     3325     5262     6486     6119     5319     5289 
    6103     6478     5238     3329     3137     5910     9698    11133 
    9414     6516     4772     5324     7514     9502     9587     7539 
    4822     3106     3231     4865     5976     4635     1640     -342 
     642     4025     6862     7033     5782     5398     5995     6447 
    6361     6115     6234     6334     5566     4303     3562     3416 
    3393     3520     3924     4513     5568     6751     6732     5942 
    6172     7240     7857     7535     6605     6169     6525     6520 
    5660     4849     5159     6369     6988     6407     5373     4698 
    4676     4741     4256     3507     2835     2444     3003     4313 
    5040     4702     4070     4395     6540     9478    10705     9320 
    7098     5771     5391     5360     5077     4594     4660     5298 
    5899     6049     5482     4710     4816     6006     7273     7198 
    5206     2455     1070     2424     5657     8036     7722     5652 
    4286     4931     6330     6438     5080     3769     3755     4652 
    5093     4830     4811     5679     7310     8932     9512     8451 
