Origin Time       2026/01/15 07:13:00
Lat.              42.7
Long.             145.4
Depth. (km)       30
Mag.              5.7
Station Code      HKD098
Station Lat.      42.4985
Station Long.     143.2790
Station Height(m) 81
Record Time       2026/01/15 07:14:08
Sampling Freq(Hz) 100Hz
Duration Time(s)  81
Dir.              E-W
Scale Factor      7845(gal)/8223790
Max. Acc. (gal)   3.570
Last Correction   2026/01/15 07:14:08
Memo.             
[...]
    9691     9748     9763     9707     9622     9585     9589     9562 
    9517     9510     9518     9522     9529     9517     9501     9529 
    9593     9659     9742     9836     9877     9853     9815     9806 
    9811     9815     9832     9849     9817     9725     9607     9509 
    9454     9421     9369     9275     9167     9082     9030     9003 
    9000     9015     9034     9072     9139     9242     9375     9485 
    9529     9560     9628     9710     9771     9799     9778     9684 
    9544     9443     9410     9382     9320     9238     9116     8977 
    8915     8964     9062     9153     9227     9293     9343     9402 
    9497     9578     9582     9535     9486     9433     9379     9374 
    9396     9369     9313     9308     9356     9417     9487     9566 
    9621     9668     9717     9713     9649     9602     9587     9548 
    9505     9529     9616     9676     9701     9756     9836     9883 
    9913     9953     9963     9911     9859     9846     9818     9737 
    9647     9575     9486     9351     9208     9103     9026     8976 
    8985     9042     9085     9111     9171     9266     9352     9431 
    9525     9629     9705     9737     9761     9790     9794     9772 
    9749     9702     9624     9547     9467     9347     9208     9116 
    9070     9009     8924     8851     8810     8811     8876     9013 
    9204     9401     9570     9703     9802     9857     9890     9927 
    9963     9958     9890     9784     9702     9657     9640     9657 
    9702     9734     9740     9714     9652     9586     9560     9549 
    9513     9482     9497     9504     9437     9333     9273     9270 
    9277     9271     9279     9304     9315     9327     9362     9377 
    9348     9320     9310     9308     9315     9323     9309     9269 
    9240     9228     9197     9154     9130     9139     9192     9277 
    9362     9427     9475     9520     9585     9699     9867    10018 
   10069    10025     9967     9934     9915     9904     9890     9844 
    9763     9675     9601     9548     9537     9545     9513     9428 
    9348     9302     9279     9310     9418     9514     9528     9525 
    9580     9666     9715     9740     9757     9745     9690     9625 
    9558     9487     9432     9387     9320     9247     9224     9254 
    9283     9304     9333     9339     9292     9211     9112     9004 
    8931     8935     9003     9078     9132     9185     9246     9283 
    9320     9416     9555     9648     9667     9663     9684     9736 
    9787     9794     9749     9687     9641     9614     9580     9536 
    9491     9436     9393     9429     9526     9585     9598     9643 
    9725     9817     9926    10025    10052    10035    10050    10076 
   10071    10042    10000     9953     9909     9852     9794     9761 
    9724     9641     9537     9481     9494     9501     9431     9332 
    9273     9248     9235     9225     9212     9181     9138     9107 
    9086     9034     8934     8823     8743     8706     8729     8866 
    9099     9304     9427     9516     9595     9640     9655     9655 
    9641     9593     9506     9431     9406     9408     9398     9394 
    9416     9470     9544     9605     9637     9664     9690     9693 
    9680     9675     9683     9697     9709     9688     9626     9570 
    9559     9568     9570     9564     9539     9474     9387     9346 
    9377     9433     9470     9509     9590     9686     9763     9821 
    9833     9778     9684     9607     9547     9472     9414     9405 
    9408     9383     9347     9309     9270     9255     9261     9239 
    9186     9155     9181     9255     9347     9445     9558     9652 
    9678     9657     9634     9610     9568     9514     9463     9393 
    9262     9097     8964     8889     8887     8974     9120     9244 
    9317     9379     9463     9560     9648     9707     9701     9625 
    9548     9524     9532     9544     9560     9578     9585     9597 
    9639     9703     9749     9776     9809     9834     9859     9894 
    9909     9853     9742     9652     9603     9555     9513     9510 
    9498     9410     9319     9305     9323     9320     9329     9386 
    9475     9541     9564     9568     9532     9437     9370     9387 
    9450     9532     9616     9637     9579     9514     9475     9417 
    9331     9273     9252     9229     9207     9217     9258     9292 
    9304     9294     9266     9231     9213     9225     9269     9342 
    9433     9525     9595     9634     9670     9730     9778     9760 
    9686     9607     9553     9528     9531     9568     9622     9652 
    9633     9582     9531     9505     9529     9576     9594     9597 
    9636     9717     9828     9936     9971     9914     9846     9842 
    9887     9934     9950     9907     9796     9640     9478     9354 
    9286     9274     9283     9261     9189     9100     9012     8935 
    8895     8899     8915     8907     8878     8872     8928     9027 
    9103     9130     9132     9155     9229     9337     9447     9537 
    9599     9643     9675     9687     9691     9718     9747     9736 
    9699     9671     9643     9614     9602     9618     9674     9771 
    9869     9918     9910     9883     9876     9896     9906     9882 
    9830     9740     9629     9571     9583     9614     9634     9653 
    9675     9672     9617     9528     9443     9383     9370     9408 
    9455     9474     9466     9455     9454     9441     9410     9373 
    9331     9297     9275     9223     9135     9051     8955     8819 
    8689     8613     8591     8648     8815     9054     9278     9437 
    9566     9705     9825     9902     9963    10010    10029    10017 
    9990     9960     9919     9863     9801     9748     9714     9715 
    9721     9682     9606     9558     9563     9582     9586     9587 
    9597     9620     9656     9686     9687     9663     9633     9593 
    9504     9374     9273     9215     9169     9139     9155     9198 
    9235     9293     9410     9545     9657     9744     9792     9769 
    9668     9536     9398     9238     9063     8923     8851     8851 
    8927     9059     9201     9323     9404     9429     9437     9474 
    9505     9475     9423     9398     9366     9293     9225     9190 
    9167     9174     9262     9425     9594     9721     9826     9907 
    9925     9904     9909     9931     9925     9882     9836     9801 
    9779     9776     9803     9836     9842     9825     9788     9742 
    9734     9780     9814     9782     9690     9589     9516     9482 
    9486     9498     9493     9452     9367     9259     9163     9073 
    8988     8938     8932     8962     9042     9173     9310     9418 
    9491     9552     9605     9620     9582     9491     9359     9208 
    9067     8977     8957     8976     9001     9055     9132     9220 
    9352     9559     9779     9907     9907     9844     9784     9732 
    9690     9674     9679     9686     9668     9640     9634     9637 
    9624     9605     9605     9618     9605     9566     9580     9666 
    9725     9714     9666     9610     9579     9585     9603     9607 
    9583     9525     9454     9397     9367     9339     9275     9196 
    9174     9240     9343     9423     9447     9404     9297     9166 
    9070     9042     9057     9082     9111     9140     9166     9175 
    9186     9213     9211     9161     9108     9077     9070     9116 
    9209     9298     9359     9420     9487     9541     9576     9599 
    9601     9595     9625     9694     9778     9852     9884     9875 
    9894     9972    10038    10041    10014     9996     9973     9930 
    9857     9715     9504     9296     9153     9062     8995     8920 
    8841     8784     8768     8826     8970     9127     9223     9281 
    9351     9431     9509     9575     9583     9536     9531     9602 
    9683     9745     9801     9796     9703     9590     9526     9497 
    9471     9459     9470     9474     9452     9439     9456     9494 
    9556     9664     9815     9965    10058    10069    10026     9984 
    9976    10000     9999     9925     9813     9734     9687     9614 
    9501     9383     9296     9244     9235     9274     9328     9359 
    9371     9387     9409     9406     9381     9367     9364     9389 
    9467     9548     9567     9539     9478     9385     9282     9180 
    9073     8978     8918     8901     8914     8924     8950     9028 
    9117     9165     9193     9235     9286     9342     9374     9363 
    9362     9429     9540     9633     9674     9671     9655     9647 
    9675     9747     9834     9918     9996    10060    10091    10092 
   10065     9998     9890     9791     9725     9648     9524     9375 
    9248     9163     9103     9062     9067     9103     9140     9212 
    9312     9386     9428     9467     9474     9400     9266     9153 
    9112     9127     9161     9204     9254     9317     9423     9560 
    9655     9683     9705     9742     9767     9780     9791     9787 
    9769     9755     9737     9724     9714     9680     9583     9437 
    9332     9331     9409     9506     9570     9587     9583     9586 
    9633     9725     9801     9815     9799     9792     9790     9786 
    9792     9803     9802     9822     9907    10050    10207    10320 
   10332    10261    10165    10066     9994     9996    10061    10145 
   10223    10258    10204    10065     9868     9651     9451     9281 
    9170     9138     9154     9213     9352     9539     9682     9738 
    9721     9656     9566     9463     9367     9305     9278     9273 
    9271     9263     9262     9266     9229     9146     9077     9062 
    9072     9092     9120     9093     8970     8816     8699     8610 
    8556     8583     8684     8797     8910     9065     9277     9504 
    9714     9894    10010    10030     9983     9911     9811     9672 
    9514     9404     9397     9443     9454     9454     9486     9514 
    9555     9683     9873    10023    10102    10102    10010     9868 
    9774     9763     9767     9741     9744     9806     9883     9927 
    9917     9845     9745     9695     9749     9864     9952     9990 
   10022    10050    10033     9975     9906     9809     9706     9659 
    9636     9593     9575     9601     9614     9593     9564     9562 
    9593     9628     9625     9559     9441     9332     9297     9337 
    9390     9410     9398     9358     9320     9337     9390     9398 
    9362     9331     9281     9171     9046     8978     8986     9049 
    9136     9227     9279     9269     9224     9173     9084     8947 
    8826     8748     8652     8486     8284     8124     8025     7975 
    8009     8154     8348     8517     8640     8721     8784     8877 
    9018     9213     9462     9744    10023    10241    10357    10407 
   10465    10575    10727    10856    10910    10887    10828    10740 
   10593    10399    10176     9923     9653     9402     9220     9158 
    9180     9181     9109     8969     8779     8588     8463     8428 
    8464     8532     8579     8564     8500     8438     8429     8491 
    8617     8780     8945     9084     9204     9301     9339     9300 
    9192     9059     8951     8834     8665     8505     8440     8461 
    8483     8451     8344     8131     7848     7611     7537     7672 
    7950     8282     8608     8842     8954     9028     9108     9128 
    9057     8993     9066     9277     9543     9837    10154    10466 
   10771    11059    11279    11415    11507    11549    11485    11307 
   11074    10825    10543    10196     9814     9502     9337     9275 
    9236     9221     9278     9405     9567     9751     9973    10250 
   10557    10812    10933    10895    10716    10465    10247    10146 
   10153    10208    10270    10324    10380    10434    10469    10478 
   10484    10490    10484    10469    10432    10332    10195    10075 
    9963     9855     9763     9666     9586     9580     9614     9622 
    9576     9493     9433     9450     9510     9570     9632     9726 
    9873    10058    10228    10342    10373    10334    10304    10395 
   10617    10878    11056    11070    10910    10648    10378    10142 
    9922     9695     9432     9077     8648     8255     7939     7655 
    7406     7211     7017     6785     6550     6357     6230     6185 
    6251     6447     6737     7071     7425     7759     8028     8239 
    8444     8700     9066     9562    10116    10624    11061    11480 
   11905    12279    12483    12429    12106    11565    10905    10210 
    9474     8729     8117     7770     7674     7773     8027     8394 
    8829     9247     9549     9710     9788     9846     9910     9937 
    9883     9761     9630     9560     9570     9599     9587     9520 
    9375     9134     8858     8654     8561     8550     8607     8729 
    8905     9084     9213     9275     9238     9073     8804     8483 
    8135     7766     7381     6994     6643     6392     6303     6458 
    6914     7607     8394     9159     9859    10488    11043    11568 
   12081    12456    12623    12652    12564    12353    12043    11643 
   11175    10681    10212     9794     9433     9162     9007     8976 
    9051     9180     9328     9521     9787    10098    10366    10527 
   10567    10488    10328    10187    10114    10053     9952     9829 
    9747     9772     9987    10381    10828    11234    11596    11923 
   12221    12521    12834    13095    13231    13223    13085    12827 
   12441    11954    11439    10955    10504    10076     9668     9273 
    8877     8500     8141     7789     7500     7345     7314     7364 
    7453     7568     7734     7950     8186     8451     8804     9259 
    9741    10177    10546    10863    11155    11372    11438    11348 
   11121    10750    10253     9706     9204     8804     8479     8162 
    7840     7531     7260     7055     6895     6766     6706     6690 
    6602     6412     6234     6173     6200     6234     6235     6189 
    6124     6174     6461     6967     7605     8276     8880     9367 
    9768    10120    10419    10643    10808    10937    11034    11059 
   10932    10625    10246     9903     9575     9213     8850     8533 
    8283     8124     8077     8144     8282     8403     8484     8569 
    8669     8783     8927     9111     9348     9609     9799     9884 
    9929     9996    10075    10104    10048     9946     9883     9886 
    9915     9967    10098    10332    10655    11056    11488    11886 
   12225    12452    12491    12352    12094    11770    11425    11078 
   10714    10349     9996     9622     9174     8673     8198     7808 
    7534     7402     7433     7646     8024     8502     9030     9536 
    9904    10093    10162    10174    10173    10172    10152    10106 
   10041     9918     9710     9467     9255     9089     8958     8861 
    8791     8752     8764     8849     9019     9238     9470     9730 
    9987    10176    10314    10407    10395    10255    10018     9738 
    9491     9324     9277     9344     9440     9526     9661     9855 
   10039    10161    10230    10273    10277    10237    10206    10247 
   10390    10632    10922    11156    11222    11111    10930    10781 
   10706    10687    10635    10463    10184     9911     9784     9838 
    9948     9960     9860     9728     9622     9555     9506     9360 
    8982     8409     7823     7396     7192     7149     7153     7129 
    7061     6997     7014     7172     7454     7758     7967     8024 
    7974     7962     8093     8325     8537     8634     8615     8545 
    8475     8432     8436     8483     8556     8662     8784     8873 
    8954     9112     9364     9643     9919    10220    10534    10845 
   11179    11554    11932    12239    12451    12583    12626    12553 
   12388    12209    12055    11928    11788    11592    11354    11080 
   10690    10120     9427     8738     8122     7589     7182     6949 
    6824     6681     6517     6444     6552     6843     7252     7711 
    8185     8650     9067     9418     9721     9973    10137    10243 
   10395    10620    10866    11083    11222    11232    11092    10824 
   10458    10030     9568     9116     8731     8463     8322     8303 
    8384     8495     8559     8594     8675     8818     8986     9177 
    9397     9593     9659     9553     9335     9099     8912     8833 
    8880     8982     9073     9178     9332     9520     9741     9996 
   10230    10393    10485    10538    10579    10620    10685    10797 
   10909    10956    10935    10852    10721    10573    10417    10260 
   10126    10054     9999     9872     9667     9440     9219     9007 
    8835     8725     8656     8626     8671     8785     8922     9046 
    9135     9175     9186     9201     9232     9256     9236     9146 
    8981     8785     8627     8540     8564     8723     8950     9175 
    9418     9667     9826     9842     9761     9640     9478     9300 
    9198     9221     9323     9445     9575     9721     9867     9976 
   10062    10146    10177    10111     9981     9844     9705     9529 
    9301     9045     8804     8596     8418     8330     8399     8633 
    8986     9381     9725     9958    10092    10162    10199    10226 
   10251    10237    10169    10095    10037     9991     9991    10095 
   10319    10597    10829    10984    11052    10975    10713    10330 
    9934     9576     9265     9030     8885     8800     8737     8673 
    8596     8530     8527     8577     8591     8533     8467     8453 
    8514     8673     8892     9074     9208     9364     9555     9732 
    9859     9896     9840     9786     9821     9929    10061    10204 
   10359    10532    10704    10812    10777    10600    10362    10127 
    9923     9774     9674     9610     9580     9601     9659     9725 
    9798     9872     9899     9821     9605     9285     8954     8691 
    8507     8395     8384     8487     8676     8895     9069     9170 
    9234     9297     9364     9401     9379     9342     9339     9381 
    9463     9570     9660     9701     9651     9483     9229     8961 
    8707     8455     8240     8129     8140     8237     8359     8436 
    8429     8391     8418     8522     8625     8685     8734     8795 
    8838     8841     8830     8829     8799     8726     8662     8638 
    8652     8748     8932     9127     9251     9255     9128     8918 
    8715     8613     8623     8685     8745     8781     8775     8725 
    8688     8739     8872     8997     9055     9042     8992     8920 
    8822     8712     8613     8572     8623     8756     8951     9212 
    9528     9902    10324    10709    11013    11296    11581    11816 
   11994    12145    12255    12285    12240    12127    11939    11684 
   11381    11059    10746    10467    10219    10007     9879     9841 
    9834     9852     9927    10022    10065    10061    10081    10166 
   10288    10407    10489    10494    10382    10179     9965     9801 
    9699     9656     9622     9559     9487     9454     9450     9417 
    9321     9190     9072     9000     8974     8995     9082     9231 
    9431     9730    10134    10567    10955    11253    11445    11516 
   11469    11313    11057    10713    10284     9772     9238     8748 
