Origin Time       2026/01/15 07:13:00
Lat.              42.7
Long.             145.4
Depth. (km)       30
Mag.              5.7
Station Code      HKD063
Station Lat.      44.1060
Station Long.     145.2478
Station Height(m) 5
Record Time       2026/01/15 07:13:59
Sampling Freq(Hz) 100Hz
Duration Time(s)  60
Dir.              U-D
Scale Factor      7845(gal)/8223790
Max. Acc. (gal)   3.247
Last Correction   2026/01/15 07:14:00
Memo.             
[...]
  -15812   -15996   -16178   -16297   -16335   -16282   -16190   -16173 
  -16293   -16488   -16665   -16740   -16660   -16482   -16348   -16337 
  -16421   -16522   -16580   -16584   -16556   -16511   -16443   -16347 
  -16263   -16229   -16259   -16326   -16348   -16267   -16116   -15985 
  -15985   -16168   -16430   -16607   -16634   -16568   -16498   -16464 
  -16451   -16426   -16379   -16326   -16298   -16312   -16370   -16444 
  -16509   -16568   -16619   -16649   -16648   -16586   -16429   -16213 
  -16025   -15921   -15894   -15897   -15882   -15862   -15884   -15952 
  -16028   -16078   -16139   -16252   -16398   -16494   -16491   -16417 
  -16321   -16222   -16129   -16085   -16143   -16308   -16524   -16731 
  -16876   -16900   -16749   -16443   -16125   -15966   -16035   -16306 
  -16661   -16920   -16970   -16845   -16654   -16486   -16353   -16212 
  -16039   -15882   -15811   -15857   -16025   -16245   -16398   -16430 
  -16378   -16328   -16353   -16456   -16572   -16625   -16594   -16532 
  -16510   -16518   -16497   -16406   -16266   -16129   -16024   -15966 
  -15971   -16024   -16104   -16224   -16394   -16573   -16699   -16750 
  -16769   -16803   -16822   -16742   -16524   -16239   -16013   -15951 
  -16081   -16318   -16497   -16503   -16375   -16267   -16318   -16536 
  -16781   -16872   -16704   -16348   -16004   -15858   -15940   -16139 
  -16321   -16456   -16575   -16638   -16582   -16413   -16198   -16009 
  -15882   -15853   -15950   -16098   -16183   -16204   -16244   -16340 
  -16457   -16556   -16640   -16711   -16734   -16710   -16715   -16777 
  -16814   -16748   -16613   -16492   -16413   -16335   -16228   -16113 
  -16036   -16040   -16140   -16279   -16364   -16359   -16301   -16236 
  -16194   -16147   -16042   -15881   -15758   -15793   -15989   -16239 
  -16424   -16482   -16422   -16317   -16251   -16271   -16359   -16445 
  -16491   -16545   -16653   -16780   -16877   -16933   -16941   -16846 
  -16591   -16232   -15927   -15813   -15928   -16204   -16499   -16679 
  -16711   -16687   -16698   -16737   -16696   -16472   -16090   -15726 
  -15568   -15677   -15943   -16177   -16249   -16183   -16129   -16232 
  -16474   -16706   -16791   -16694   -16501   -16309   -16173   -16096 
  -16025   -15923   -15819   -15784   -15882   -16098   -16314   -16449 
  -16510   -16532   -16560   -16619   -16706   -16795   -16819   -16722 
  -16548   -16397   -16321   -16285   -16209   -16056   -15907   -15925 
  -16198   -16607   -16884   -16837   -16529   -16235   -16175   -16333 
  -16501   -16465   -16194   -15876   -15743   -15853   -16079   -16266 
  -16360   -16437   -16586   -16775   -16856   -16715   -16429   -16200 
  -16168   -16298   -16453   -16526   -16511   -16447   -16380   -16362 
  -16384   -16386   -16344   -16314   -16397   -16632   -16892   -16968 
  -16794   -16491   -16241   -16136   -16131   -16140   -16127   -16117 
  -16140   -16181   -16202   -16209   -16258   -16379   -16545   -16687 
  -16737   -16669   -16511   -16320   -16135   -15973   -15855   -15815 
  -15881   -16024   -16148   -16186   -16140   -16081   -16100   -16204 
  -16313   -16383   -16437   -16521   -16656   -16792   -16860   -16829 
  -16699   -16490   -16258   -16121   -16163   -16326   -16463   -16471 
  -16351   -16194   -16119   -16159   -16244   -16244   -16101   -15921 
  -15886   -16082   -16422   -16723   -16852   -16821   -16765   -16768 
  -16800   -16788   -16690   -16536   -16426   -16424   -16506   -16611 
  -16667   -16611   -16463   -16325   -16279   -16318   -16378   -16384 
  -16312   -16216   -16146   -16081   -15992   -15896   -15819   -15759 
  -15719   -15711   -15743   -15813   -15915   -16054   -16252   -16517 
  -16796   -16964   -16906   -16607   -16212   -15942   -15904   -16027 
  -16186   -16294   -16341   -16382   -16467   -16598   -16710   -16734 
  -16688   -16669   -16734   -16825   -16854   -16792   -16659   -16487 
  -16308   -16125   -15948   -15861   -15978   -16291   -16623   -16789 
  -16760   -16637   -16526   -16456   -16407   -16343   -16217   -16062 
  -15997   -16105   -16298   -16414   -16367   -16202   -16078   -16128 
  -16343   -16568   -16640   -16530   -16395   -16411   -16595   -16789 
  -16849   -16756   -16576   -16390   -16251   -16143   -16025   -15881 
  -15716   -15612   -15668   -15898   -16204   -16440   -16532   -16498 
  -16429   -16444   -16587   -16812   -17028   -17118   -17035   -16868 
  -16749   -16730   -16735   -16637   -16393   -16110   -15930   -15915 
  -16047   -16220   -16302   -16272   -16231   -16236   -16262   -16255 
  -16125   -15831   -15472   -15225   -15201   -15387   -15654   -15851 
  -15917   -15890   -15885   -16013   -16266   -16502   -16584   -16488 
  -16343   -16310   -16422   -16536   -16487   -16271   -16028   -15900 
  -15907   -15930   -15859   -15727   -15691   -15866   -16191   -16459 
  -16505   -16356   -16197   -16216   -16444   -16756   -16988   -17068 
  -17043   -17038   -17120   -17238   -17271   -17151   -16927   -16737 
  -16692   -16780   -16896   -16950   -16949   -16956   -17011   -17085 
  -17122   -17084   -16946   -16727   -16499   -16309   -16158   -16046 
  -15990   -16002   -16060   -16110   -16108   -16056   -16012   -16016 
  -16075   -16171   -16267   -16351   -16418   -16424   -16320   -16156 
  -16051   -16094   -16278   -16519   -16699   -16730   -16646   -16555 
  -16509   -16482   -16413   -16275   -16124   -16042   -16065   -16179 
  -16321   -16409   -16420   -16391   -16332   -16233   -16116   -15993 
  -15878   -15790   -15734   -15693   -15682   -15741   -15907   -16140 
  -16333   -16426   -16449   -16471   -16533   -16627   -16696   -16673 
  -16533   -16344   -16222   -16255   -16383   -16447   -16359   -16190 
  -16066   -16031   -16044   -16060   -16062   -16060   -16087   -16166 
  -16291   -16430   -16509   -16475   -16356   -16240   -16217   -16302 
  -16455   -16652   -16839   -16904   -16754   -16441   -16148   -16027 
  -16066   -16193   -16372   -16598   -16835   -17014   -17049   -16938 
  -16785   -16699   -16703   -16748   -16756   -16672   -16524   -16375 
  -16264   -16193   -16167   -16182   -16225   -16275   -16297   -16275 
  -16220   -16113   -15923   -15682   -15475   -15363   -15398   -15615 
  -15966   -16335   -16584   -16623   -16507   -16394   -16383   -16457 
  -16517   -16468   -16344   -16281   -16353   -16524   -16686   -16762 
  -16753   -16718   -16735   -16823   -16916   -16960   -16947   -16887 
  -16779   -16633   -16470   -16324   -16229   -16197   -16212   -16267 
  -16364   -16480   -16545   -16499   -16352   -16179   -16051   -15955 
  -15844   -15749   -15762   -15932   -16206   -16476   -16610   -16510 
  -16206   -15873   -15741   -15928   -16333   -16707   -16858   -16787 
  -16638   -16571   -16610   -16652   -16596   -16460   -16360   -16382 
  -16464   -16488   -16413   -16271   -16120   -16039   -16082   -16208 
  -16341   -16482   -16668   -16854   -16929   -16834   -16626   -16424 
  -16310   -16260   -16220   -16174   -16135   -16163   -16326   -16591 
  -16854   -17034   -17061   -16918   -16667   -16398   -16151   -15913 
  -15662   -15441   -15353   -15438   -15628   -15849   -16055   -16201 
  -16263   -16252   -16155   -15952   -15695   -15469   -15383   -15520 
  -15844   -16204   -16468   -16584   -16568   -16491   -16413   -16348 
  -16282   -16179   -16039   -15930   -15932   -16051   -16231   -16418 
  -16598   -16771   -16937   -17088   -17173   -17130   -16920   -16594 
  -16287   -16119   -16109   -16222   -16416   -16668   -16938   -17159 
  -17247   -17116   -16779   -16364   -15996   -15734   -15589   -15514 
  -15458   -15458   -15592   -15871   -16181   -16384   -16453   -16445 
  -16418   -16394   -16348   -16248   -16127   -16079   -16189   -16428 
  -16672   -16835   -16927   -16995   -17064   -17107   -17059   -16872 
  -16575   -16299   -16182   -16237   -16356   -16444   -16491   -16517 
  -16526   -16541   -16587   -16627   -16575   -16389   -16140   -15992 
  -16031   -16178   -16316   -16382   -16398   -16418   -16464   -16513 
  -16536   -16519   -16464   -16414   -16467   -16661   -16902   -17042 
  -17015   -16877   -16738   -16632   -16501   -16276   -15982   -15726 
  -15628   -15723   -15934   -16105   -16119   -15984   -15816   -15759 
  -15912   -16249   -16618   -16861   -16903   -16771   -16578   -16424 
  -16308   -16181   -16035   -15909   -15866   -15930   -16065   -16224 
  -16355   -16414   -16416   -16403   -16395   -16364   -16283   -16151 
  -15990   -15832   -15754   -15835   -16059   -16348   -16605   -16762 
  -16808   -16754   -16611   -16407   -16197   -16050   -16036   -16171 
  -16384   -16568   -16642   -16594   -16438   -16247   -16120   -16112 
  -16231   -16448   -16679   -16816   -16830   -16734   -16553   -16326 
  -16125   -16015   -16024   -16135   -16291   -16447   -16557   -16567 
  -16447   -16264   -16151   -16182   -16329   -16479   -16532   -16494 
  -16428   -16367   -16302   -16216   -16137   -16164   -16328   -16525 
  -16632   -16610   -16506   -16398   -16364   -16420   -16515   -16596 
  -16614   -16579   -16556   -16583   -16645   -16711   -16726   -16642 
  -16480   -16302   -16170   -16123   -16178   -16297   -16393   -16405 
  -16341   -16260   -16205   -16167   -16148   -16167   -16197   -16205 
  -16206   -16221   -16239   -16249   -16272   -16326   -16390   -16453 
  -16536   -16632   -16683   -16652   -16600   -16599   -16634   -16656 
  -16652   -16654   -16707   -16811   -16910   -16911   -16780   -16590 
  -16436   -16356   -16337   -16335   -16289   -16155   -15923   -15643 
  -15403   -15255   -15205   -15245   -15348   -15473   -15565   -15600 
  -15615   -15668   -15789   -15958   -16117   -16239   -16359   -16524 
  -16726   -16924   -17077   -17163   -17199   -17211   -17194   -17119 
  -16960   -16721   -16463   -16283   -16228   -16266   -16335   -16393 
  -16459   -16575   -16718   -16792   -16730   -16568   -16375   -16204 
  -16092   -16039   -16001   -15962   -15973   -16109   -16384   -16681 
  -16831   -16769   -16560   -16324   -16125   -15951   -15788   -15669 
  -15630   -15654   -15699   -15759   -15851   -15961   -16052   -16075 
  -15975   -15762   -15508   -15302   -15230   -15325   -15527   -15772 
  -16012   -16206   -16357   -16484   -16556   -16519   -16378   -16194 
  -16058   -16044   -16179   -16416   -16644   -16764   -16789   -16845 
  -17018   -17246   -17366   -17280   -17073   -16935   -16988   -17189 
  -17340   -17257   -16930   -16534   -16298   -16326   -16514   -16660 
  -16633   -16474   -16355   -16411   -16627   -16841   -16884   -16749 
  -16603   -16633   -16923   -17338   -17574   -17446   -17022   -16519 
  -16166   -16050   -16117   -16254   -16367   -16418   -16432   -16430 
  -16409   -16364   -16329   -16398   -16626   -16891   -17005   -16880 
  -16563   -16233   -16092   -16244   -16648   -17112   -17409   -17416 
  -17163   -16780   -16397   -16060   -15773   -15597   -15661   -16027 
  -16580   -17031   -17115   -16785   -16231   -15707   -15372   -15209 
  -15078   -14878   -14647   -14473   -14381   -14323   -14234   -14131 
  -14139   -14359   -14781   -15299   -15759   -16036   -16102   -15990 
  -15765   -15591   -15642   -15942   -16305   -16486   -16368   -16011 
  -15593   -15306   -15203   -15219   -15319   -15518   -15828   -16227 
  -16582   -16679   -16441   -16012   -15687   -15711   -16078   -16555 
  -16888   -17004   -17045   -17161   -17312   -17319   -17118   -16870 
  -16812   -17043   -17463   -17888   -18193   -18330   -18307   -18162 
  -17940   -17713   -17567   -17518   -17532   -17551   -17498   -17390 
  -17336   -17370   -17416   -17378   -17182   -16857   -16534   -16347 
  -16333   -16457   -16653   -16833   -16939   -16951   -16873   -16738 
  -16602   -16528   -16537   -16582   -16560   -16386   -16100   -15874 
  -15855   -16051   -16313   -16429   -16297   -15997   -15714   -15623 
  -15796   -16132   -16441   -16563   -16470   -16313   -16283   -16430 
  -16638   -16715   -16528   -16105   -15661   -15453   -15615   -16081 
  -16622   -16977   -17005   -16727   -16272   -15795   -15435   -15302 
  -15431   -15796   -16271   -16640   -16725   -16509   -16136   -15788 
  -15527   -15269   -14936   -14593   -14407   -14496   -14856   -15377 
  -15884   -16216   -16317   -16244   -16113   -16009   -15897   -15715 
  -15464   -15228   -15124   -15213   -15441   -15695   -15915   -16156 
  -16472   -16795   -17005   -17014   -16807   -16475   -16137   -15890 
  -15754   -15665   -15587   -15584   -15727   -16006   -16357   -16721 
  -17041   -17266   -17377   -17365   -17234   -17011   -16721   -16406 
  -16168   -16116   -16243   -16452   -16636   -16731   -16754   -16773 
  -16795   -16771   -16708   -16621   -16552   -16640   -16935   -17293 
  -17497   -17415   -17096   -16753   -16561   -16528   -16536   -16426 
  -16170   -15939   -15884   -16044   -16395   -16773   -17007   -17092 
  -17115   -17107   -17043   -16931   -16854   -16896   -17108   -17442 
  -17752   -17902   -17857   -17685   -17485   -17358   -17334   -17370 
  -17447   -17551   -17610   -17543   -17284   -16833   -16297   -15831 
  -15523   -15385   -15392   -15514   -15732   -16016   -16282   -16443 
  -16480   -16456   -16463   -16579   -16845   -17224   -17587   -17772 
  -17693   -17420   -17116   -16857   -16544   -16075   -15526   -15128 
  -15110   -15477   -15955   -16259   -16317   -16233   -16204   -16364 
  -16618   -16679   -16308   -15499   -14521   -13761   -13433   -13435 
  -13497   -13414   -13173   -12947   -12969   -13339   -13923   -14432 
  -14663   -14666   -14663   -14827   -15156   -15530   -15828   -16032 
  -16233   -16497   -16777   -16976   -17038   -16997   -16945   -16950 
  -17005   -17043   -17030   -17015   -17045   -17136   -17251   -17265 
  -17082   -16740   -16371   -16151   -16191   -16441   -16737   -16924 
  -16974   -16970   -17018   -17153   -17346   -17483   -17416   -17092 
  -16568   -15984   -15507   -15238   -15253   -15585   -16087   -16600 
  -17120   -17635   -18095   -18500   -18821   -19026   -19087   -18979 
  -18738   -18392   -17940   -17421   -16929   -16540   -16310   -16310 
  -16561   -16989   -17459   -17788   -17805   -17424   -16690   -15842 
  -15234   -15076   -15284   -15634   -15946   -16137   -16186   -16081 
  -15827   -15483   -15180   -15098   -15323   -15813   -16411   -16923 
  -17231   -17297   -17151   -16902   -16626   -16303   -15927   -15588 
  -15384   -15265   -15120   -14982   -14926   -14889   -14809   -14770 
  -14848   -15039   -15286   -15520   -15708   -15846   -15955   -16042 
  -16056   -15921   -15619   -15195   -14701   -14223   -13896   -13864 
  -14139   -14605   -15147   -15689   -16119   -16324   -16283   -16074 
  -15853   -15782   -15963   -16403   -17015   -17648   -18161   -18439 
  -18405   -18083   -17559   -16939   -16356   -15966   -15871   -16077 
  -16548   -17180   -17766   -18104   -18122   -17855   -17437   -17045 
  -16737   -16480   -16326   -16355   -16549   -16868   -17250   -17605 
  -17871   -18027   -18106   -18112   -17969   -17641   -17201   -16807 
  -16625   -16723   -17026   -17354   -17535   -17463   -17130   -16648 
  -16186   -15867   -15722   -15699   -15714   -15741   -15834   -16027 
  -16262   -16414   -16356   -16035   -15541   -15048   -14710   -14608 
  -14705   -14916   -15215   -15589   -15950   -16217   -16340   -16258 
  -15974   -15608   -15273   -15057   -15087   -15438   -16043   -16745 
  -17398   -17895   -18138   -18015   -17504   -16754   -15978   -15338 
  -14953   -14885   -15113   -15583   -16181   -16741   -17135   -17309 
  -17277   -17100   -16858   -16641   -16511   -16441   -16353   -16202 
  -15990   -15761   -15568   -15417   -15248   -15048   -14901   -14925 
  -15175   -15614   -16128   -16594   -16934   -17111   -17140   -17089 
  -17034   -17050   -17143   -17250   -17367   -17516   -17655   -17791 
  -17918   -17928   -17752   -17454   -17136   -16875   -16665   -16437 
  -16125   -15747   -15422   -15283   -15353   -15553   -15792   -16046 
  -16328   -16646   -16987   -17328   -17637   -17848   -17868   -17616 
  -17058   -16293   -15479   -14733   -14145   -13809   -13771   -14021 
  -14505   -15080   -15583   -15950   -16171   -16274   -16343   -16457 
  -16650   -16887   -17088   -17197   -17192   -17058   -16799   -16449 
  -16081   -15784   -15642   -15701   -15939   -16276   -16645   -16966 
  -17130   -17086   -16910   -16730   -16654   -16721   -16873   -17008 
  -17051   -16960   -16723   -16378   -15988   -15616   -15329   -15168 
  -15111   -15121   -15156   -15183   -15210   -15310   -15547   -15881 
  -16201   -16414   -16474   -16407   -16303   -16208   -16114   -16040 
  -16027   -16114   -16326   -16644   -16972   -17174   -17208   -17124 
  -16999   -16935   -16995   -17140   -17315   -17458   -17493   -17382 
  -17158   -16895   -16676   -16564   -16588   -16722   -16887   -16997 
  -17000   -16895   -16754   -16613   -16387   -16124   -16029   -16120 
  -16267   -16379   -16410   -16403   -16371   -16267   -16189   -16197 
  -16232   -16301   -16390   -16422   -16362   -16202   -15977   -15785 
  -15693   -15704   -15844   -16093   -16343   -16526   -16633   -16618 
  -16478   -16282   -16094   -15955   -15892   -15898   -15944   -15977 
  -15946   -15842   -15715   -15620   -15568   -15553   -15574   -15635 
  -15768   -16000   -16283   -16524   -16650   -16641   -16511   -16318 
  -16125   -15957   -15805   -15670   -15556   -15468   -15437   -15488 
  -15610   -15789   -15996   -16173   -16317   -16471   -16669   -16903 
  -17100   -17180   -17109   -16908   -16640   -16405   -16289   -16295 
  -16383   -16553   -16808   -17074   -17267   -17355   -17343   -17280 
  -17215   -17142   -17050   -16945   -16834   -16735   -16672   -16657 
  -16680   -16706   -16710   -16699   -16679   -16638   -16551   -16411 
  -16279   -16237   -16328   -16513   -16675   -16706   -16609   -16464 
  -16371   -16395   -16537   -16727   -16888   -16992   -17039   -17031 
  -16980   -16883   -16733   -16540   -16310   -16077   -15919   -15898 
  -16011   -16200   -16402   -16573   -16683   -16691   -16575   -16347 
  -16066   -15820   -15682   -15693   -15836   -16055   -16313   -16582 
  -16807   -16935   -16943   -16827   -16606   -16313   -15990   -15689 
  -15465   -15357   -15363   -15476   -15692   -15951   -16137   -16148 
  -15947   -15597   -15233   -14991   -14949   -15097   -15341   -15565 
  -15707   -15751   -15711   -15618   -15495   -15352   -15206   -15098 
  -15076   -15156   -15313   -15502   -15657   -15739   -15754   -15722 
  -15673   -15651   -15673   -15749   -15921   -16218   -16594   -16964 
  -17236   -17390   -17483   -17572   -17682   -17802   -17891   -17923 
  -17921   -17911   -17886   -17810   -17671   -17496   -17316   -17135 
  -16970   -16875   -16875   -16941   -16995   -16972   -16876   -16767 
  -16681   -16642   -16653   -16703   -16773   -16827   -16849   -16860 
  -16860   -16837   -16816   -16826   -16860   -16888   -16865   -16768 
  -16615   -16429   -16209   -15966   -15749   -15622   -15611   -15696 
  -15815   -15889   -15870   -15765   -15611   -15499   -15502   -15584 
  -15666   -15709   -15720   -15746   -15827   -15932   -16009   -16028 
  -16009   -16002   -16040   -16125   -16245   -16367   -16451   -16490 
  -16494   -16465   -16382   -16237   -16087   -16009   -16020   -16093 
