Origin Time       2026/01/15 07:13:00
Lat.              42.7
Long.             145.4
Depth. (km)       30
Mag.              5.7
Station Code      HKD085
Station Lat.      42.9581
Station Long.     144.0698
Station Height(m) 5
Record Time       2026/01/15 07:13:40
Sampling Freq(Hz) 100Hz
Duration Time(s)  114
Dir.              N-S
Scale Factor      7845(gal)/8223790
Max. Acc. (gal)   6.128
Last Correction   2026/01/15 07:13:41
Memo.             
[...]
    3144     2907     2679     2529     2467     2461     2481     2484 
    2430     2331     2230     2166     2178     2272     2412     2555 
    2673     2751     2770     2709     2586     2473     2442     2501 
    2602     2722     2860     2986     3071     3118     3142     3157 
    3157     3118     3061     3040     3032     2930     2706     2451 
    2274     2212     2246     2350     2484     2589     2625     2620 
    2629     2682     2776     2899     2971     2917     2760     2582 
    2440     2342     2278     2253     2277     2330     2359     2320 
    2228     2130     2054     2015     2053     2203     2454     2743 
    2992     3156     3246     3315     3377     3399     3368     3299 
    3186     3044     2936     2901     2922     2983     3082     3199 
    3298     3338     3302     3192     3033     2849     2666     2506 
    2385     2286     2178     2061     1968     1935     1981     2118 
    2355     2664     2955     3146     3219     3187     3060     2875 
    2706     2586     2502     2442     2407     2382     2355     2381 
    2529     2771     2992     3110     3137     3136     3122     3073 
    2976     2841     2704     2627     2646     2737     2840     2916 
    2964     2970     2913     2810     2691     2550     2377     2212 
    2101     2031     1992     2011     2091     2214     2393     2633 
    2859     2974     2936     2789     2639     2559     2550     2610 
    2754     2943     3115     3246     3343     3410     3445     3449 
    3388     3240     3048     2867     2725     2637     2587     2525 
    2436     2343     2270     2245     2259     2285     2311     2355 
    2428     2542     2685     2798     2824     2798     2810     2884 
    2980     3038     3007     2879     2708     2563     2477     2459 
    2504     2554     2577     2582     2574     2562     2600     2677 
    2740     2793     2880     2999     3098     3140     3136     3126 
    3145     3176     3181     3150     3090     3009     2916     2797 
    2628     2412     2176     1935     1713     1560     1503     1548 
    1709     1961     2243     2517     2759     2936     3021     2994 
    2866     2693     2527     2384     2282     2257     2308     2389 
    2477     2606     2776     2921     2992     2998     2982     2978 
    3002     3069     3200     3352     3429     3387     3257     3105 
    2964     2828     2701     2632     2636     2681     2731     2760 
    2762     2754     2751     2755     2766     2779     2775     2724 
    2648     2616     2639     2650     2596     2469     2272     2019 
    1771     1617     1625     1786     2043     2359     2702     3048 
    3396     3715     3944     4052     4014     3825     3542     3276 
    3107     3024     2952     2843     2716     2650     2697     2824 
    2960     3041     3038     2965     2853     2698     2512     2373 
    2367     2527     2802     3095     3269     3230     3010     2732 
    2501     2366     2323     2322     2276     2146     1991     1873 
    1784     1676     1540     1405     1308     1285     1381     1617 
    1942     2277     2596     2879     3046     3051     2943     2843 
    2856     3009     3207     3315     3267     3109     2940     2821 
    2737     2624     2439     2222     2084     2101     2263     2529 
    2860     3202     3492     3715     3900     4059     4151     4140 
    4058     3947     3794     3551     3217     2855     2565     2385 
    2288     2253     2323     2532     2830     3087     3214     3213 
    3122     2976     2799     2598     2407     2266     2172     2110 
    2115     2195     2303     2404     2505     2636     2828     3071 
    3271     3296     3090     2720     2334     2069     1948     1917 
    1948     2039     2187     2389     2637     2879     3032     3061 
    3029     3002     3005     3055     3119     3132     3072     2974 
    2884     2851     2871     2932     2995     2995     2899     2727 
    2529     2389     2359     2408     2497     2616     2768     2970 
    3194     3335     3284     3009     2583     2141     1777     1529 
    1401     1360     1386     1474     1586     1669     1705     1707 
    1711     1769     1922     2197     2593     3025     3330     3399 
    3215     2821     2317     1856     1555     1456     1579     1921 
    2417     2970     3515     4027     4476     4816     5009     5047 
    4953     4754     4455     4032     3508     2948     2431     2031 
    1815     1818     2025     2361     2710     2986     3168     3268 
    3306     3361     3499     3672     3784     3773     3592     3237 
    2772     2332     2053     1975     2035     2146     2243     2300 
    2323     2332     2358     2425     2569     2795     3042     3227 
    3353     3438     3445     3349     3175     2947     2655     2288 
    1908     1668     1660     1857     2162     2462     2683     2824 
    2914     2964     2963     2886     2701     2425     2124     1856 
    1634     1451     1355     1443     1741     2166     2594     2905 
    3024     2955     2775     2632     2646     2790     2929     2933 
    2762     2485     2238     2142     2239     2462     2679     2814 
    2916     3055     3242     3441     3591     3608     3456     3164 
    2797     2436     2158     1983     1849     1713     1591     1516 
    1497     1549     1680     1903     2227     2612     2999     3356 
    3650     3828     3832     3643     3284     2844     2471     2273 
    2250     2367     2612     2952     3326     3655     3873     3937 
    3852     3640     3319     2903     2467     2133     1969     1942 
    1961     1953     1903     1857     1902     2104     2439     2797 
    3045     3095     2948     2662     2295     1927     1675     1634 
    1827     2203     2685     3215     3750     4201     4471     4513 
    4361     4075     3703     3285     2864     2461     2116     1914 
    1939     2231     2727     3287     3767     4094     4283     4388 
    4441     4414     4222     3789     3096     2227     1367      733 
     473      616     1067     1626     2062     2281     2336     2290 
    2158     1944     1657     1368     1185     1190     1418     1849 
    2378     2857     3210     3424     3501     3464     3354     3215 
    3091     2992     2903     2828     2805     2870     3049     3370 
    3811     4305     4761     5044     5027     4679     4087     3402 
    2756     2228     1848     1626     1528     1512     1567     1667 
    1733     1730     1745     1931     2361     2948     3469     3707 
    3578     3150     2590     2096     1814     1768     1902     2107 
    2220     2165     2042     1993     2104     2411     2880     3385 
    3782     4012     4081     4044     3998     4025     4162     4413 
    4725     5000     5182     5273     5290     5278     5314     5410 
    5474     5385     5031     4378     3508     2565     1653      818 
      82     -525     -996    -1335    -1533    -1555    -1355     -908 
    -240      580     1467     2377     3314     4241     5042     5589 
    5809     5656     5136     4341     3465     2685     2026     1458 
    1039      859      942     1233     1586     1821     1873     1819 
    1790     1875     2069     2301     2450     2388     2095     1696 
    1397     1333     1501     1853     2362     2934     3429     3784 
    3990     4028     3886     3593     3223     2868     2573     2326 
    2120     1983     1962     2089     2309     2498     2540     2369 
    1973     1466     1090     1078     1503     2262     3142     3935 
    4542     4945     5108     5030     4773     4430     4143     4055 
    4159     4314     4364     4232     3951     3605     3284     3061 
    2938     2809     2528     1989     1170      191     -685    -1210 
   -1317    -1115     -751     -326      126      633     1259     2062 
    3001     3883     4469     4611     4341     3834     3312     2932 
    2727     2633     2551     2470     2448     2461     2385     2095 
    1579      963      472      345      719     1552     2713     4041 
    5302     6261     6799     6941     6768     6296     5447     4210 
    2775     1476      643      427      764     1468     2319     3114 
    3750     4270     4773     5321     5921     6548     7092     7353 
    7132     6331     5026     3430     1831      461     -561    -1175 
   -1368    -1251     -965     -596     -175      363     1096     1973 
    2889     3748     4436     4842     4881     4484     3697     2720 
    1807     1131      697      417      203       17     -103      -31 
     355     1048     1923     2797     3497     3882     3890     3618 
    3292     3094     3049     3145     3402     3778     4122     4297 
    4267     4040     3570     2817     1898     1075      576      481 
     762     1332     2039     2709     3248     3659     3978     4217 
    4411     4604     4815     4999     5019     4685     3856     2552 
     973     -579    -1763    -2268    -1945     -882      672     2409 
    4010     5198     5809     5875     5589     5192     4876     4738 
    4708     4572     4144     3424     2535     1630      859      332 
      62       -5       67      271      637     1183     1869     2594 
    3231     3678     3902     3936     3813     3541     3125     2613 
    2089     1652     1409     1435     1707     2137     2589     2933 
    3110     3119     3033     2998     3126     3424     3827     4253 
    4615     4901     5201     5593     6011     6262     6160     5678 
    4961     4222     3574     2974     2377     1827     1425     1294 
    1570     2268     3191     3990     4392     4374     4064     3585 
    3025     2459     1921     1402      918      549      411      561 
     942     1421     1885     2255     2448     2376     1995     1356 
     588     -151     -749    -1144    -1271    -1054     -444      549 
    1848     3299     4695     5825     6559     6876     6831     6513 
    6012     5440     4957     4671     4569     4573     4560     4374 
    3896     3171     2417     1868     1609     1588     1713     1910 
    2184     2567     3052     3572     4012     4276     4325     4124 
    3645     2906     1989     1000        6     -972    -1899    -2690 
   -3223    -3370    -3018    -2115     -764      824     2420     3781 
    4712     5146     5179     5055     5023     5167     5367     5391 
    5040     4256     3149     1975     1030      542      587     1073 
    1818     2586     3141     3330     3156     2718     2157     1576 
    1003      448       -2     -205      -54      448     1192     2027 
    2849     3649     4440     5146     5630     5811     5701     5381 
    4976     4591     4256     3940     3613     3348     3268     3415 
    3728     4112     4402     4398     3978     3161     2133     1188 
     567      373      580     1030     1510     1885     2168     2438 
    2748     3107     3445     3630     3569     3254     2729     2091 
    1501     1144     1140     1476     2027     2609     3056     3289 
    3350     3342     3343     3338     3244     3022     2756     2612 
    2731     3107     3591     3986     4153     4062     3780     3429 
    3127     2944     2868     2808     2670     2451     2254     2218 
    2384     2654     2867     2878     2624     2174     1653     1181 
     877      826     1027     1391     1800     2214     2706     3325 
    4012     4679     5255     5719     6084     6362     6558     6656 
    6624     6403     5892     5043     3956     2847     1935     1343 
    1039      901      819      742      666      588      494      363 
     163     -110     -410     -669     -824     -818     -643     -336 
      58      500      972     1448     1931     2465     3041     3572 
    3969     4185     4266     4338     4490     4719     4965     5136 
    5196     5163     5051     4847     4568     4297     4110     3997 
    3874     3653     3296     2835     2353     1949     1676     1537 
    1512     1557     1636     1734     1876     2092     2398     2787 
    3218     3623     3944     4132     4166     4064     3858     3591 
    3295     3005     2767     2617     2562     2610     2747     2879 
    2890     2721     2394     1937     1383      859      541      513 
     726     1075     1467     1844     2187     2485     2713     2871 
    2999     3169     3456     3871     4301     4588     4637     4415 
    3997     3524     3152     2992     3032     3130     3156     3033 
    2706     2161     1485      859      459      369      603     1081 
    1671     2215     2582     2727     2690     2536     2332     2133 
    1966     1848     1795     1795     1813     1825     1813     1787 
    1796     1869     1987     2107     2196     2220     2168     2045 
    1888     1763     1737     1833     2025     2272     2540     2789 
    3002     3202     3449     3782     4168     4517     4725     4722 
    4506     4148     3784     3570     3615     3902     4322     4739 
    5004     5009     4746     4324     3915     3635     3466     3298 
    3018     2582     2053     1564     1225     1061      990      905 
     742      540      405      410      562      873     1381     2111 
    3021     4033     5071     6050     6906     7607     8124     8442 
    8598     8629     8505     8160     7561     6718     5678     4499 
    3211     1846      483     -778    -1852    -2686    -3269    -3604 
   -3716    -3638    -3402    -3049    -2614    -2107    -1497     -751 
     114      994     1728     2196     2373     2338     2253     2274 
    2474     2817     3237     3657     3978     4124     4089     3897 
    3591     3241     2940     2763     2724     2801     2956     3138 
    3294     3354     3289     3136     2938     2725     2497     2241 
    1965     1734     1632     1707     1966     2432     3113     3969 
    4899     5764     6435     6816     6843     6507     5867     5031 
    4124     3238     2420     1715     1194      923      934     1217 
    1726     2344     2894     3235     3348     3314     3279     3349 
    3542     3824     4145     4423     4587     4648     4641     4563 
    4375     4052     3600     3045     2432     1811     1193      596 
     114     -125      -71      199      545      842     1027     1116 
    1227     1497     2015     2782     3647     4415     4965     5243 
    5271     5125     4828     4368     3781     3136     2440     1657 
     777     -133     -923    -1421    -1516    -1183     -521      257 
     943     1412     1610     1566     1412     1325     1409     1653 
    1985     2319     2581     2745     2871     3063     3368     3763 
    4203     4629     4985     5223     5282     5146     4861     4491 
    4116     3824     3634     3480     3288     3018     2673     2316 
    2042     1900     1871     1885     1896     1899     1917     1965 
    2074     2261     2542     2933     3437     4002     4530     4919 
    5124     5146     4992     4677     4245     3763     3287     2818 
    2355     1966     1702     1575     1601     1764     2012     2259 
    2408     2396     2218     1914     1568     1287     1152     1193 
    1404     1744     2133     2493     2786     3014     3200     3376 
    3538     3650     3659     3565     3418     3265     3118     2957 
    2779     2644     2625     2763     3061     3462     3871     4185 
    4310     4225     3954     3527     3018     2554     2241     2134 
    2223     2427     2647     2851     3026     3121     3067     2794 
    2255     1505      693      -18     -491     -638     -453       47 
     812     1733     2673     3528     4245     4785     5135     5298 
    5294     5147     4882     4510     4059     3608     3260     3079 
    3072     3180     3303     3392     3505     3712     4028     4406 
    4756     4957     4932     4683     4283     3824     3343     2845 
    2344     1884     1509     1231     1040      940      939     1019 
    1144     1297     1479     1661     1790     1837     1825     1813 
    1904     2173     2592     3068     3510     3816     3923     3839 
    3643     3435     3292     3217     3156     3068     2934     2754 
    2535     2300     2070     1830     1588     1378     1183      953 
     673      356       27     -265     -469     -533     -414     -116 
     340      936     1618     2268     2767     3057     3150     3105 
    2982     2818     2610     2373     2166     2060     2093     2239 
    2396     2474     2443     2334     2235     2247     2412     2678 
    2955     3199     3408     3550     3601     3550     3411     3254 
    3160     3163     3253     3399     3568     3735     3867     3913 
    3851     3713     3541     3376     3262     3195     3154     3123 
    3069     3028     3092     3310     3651     4016     4276     4344 
    4206     3923     3597     3343     3233     3249     3322     3362 
    3322     3237     3196     3252     3406     3603     3750     3751 
    3538     3127     2632     2172     1792     1452     1124      830 
     612      513      569      801     1186     1669     2205     2785 
    3364     3867     4222     4384     4340     4152     3927     3735 
    3607     3547     3523     3468     3330     3098     2786     2454 
    2195     2074     2054     2004     1810     1451      989      523 
     152      -41        2      294      777     1347     1880     2295 
    2555     2670     2678     2623     2517     2376     2236     2157 
    2173     2311     2581     2970     3424     3852     4175     4364 
    4428     4391     4283     4143     4017     3932     3890     3917 
    4054     4324     4696     5067     5306     5328     5157     4880 
    4560     4201     3781     3307     2853     2523     2384     2411 
    2486     2479     2323     2031     1665     1312     1034      855 
     773      770      803      803      730      622      533      503 
     521      526      494      496      633      923     1317     1741 
    2127     2392     2470     2385     2231     2124     2147     2299 
    2517     2729     2883     2964     2959     2856     2682     2501 
    2377     2353     2444     2623     2835     3017     3118     3130 
    3080     3007     2978     3044     3225     3538     3956     4402 
    4783     5016     5078     5022     4907     4776     4668     4573 
    4453     4301     4131     3960     3827     3770     3777     3801 
    3819     3832     3844     3852     3866     3897     3927     3901 
    3757     3446     2960     2338     1642      951      353      -94 
    -368     -459     -390     -202       93      518     1044     1586 
    2080     2504     2829     3037     3141     3157     3118     3052 
    2956     2844     2758     2714     2721     2778     2852     2899 
    2922     2948     2986     3036     3096     3167     3234     3304 
    3408     3554     3712     3834     3859     3753     3504     3134 
    2679     2176     1663     1182      766      441      243      207 
     334      561      815     1040     1204     1291     1323     1352 
    1474     1783     2320     3024     3746     4301     4584     4623 
    4530     4410     4328     4298     4295     4286     4252     4156 
    3991     3807     3673     3630     3658     3694     3678     3597 
