Origin Time       2026/01/15 07:13:00
Lat.              42.7
Long.             145.4
Depth. (km)       30
Mag.              5.7
Station Code      HKD068
Station Lat.      43.4108
Station Long.     144.7704
Station Height(m) 105
Record Time       2026/01/15 07:13:42
Sampling Freq(Hz) 100Hz
Duration Time(s)  79
Dir.              E-W
Scale Factor      7845(gal)/8223790
Max. Acc. (gal)   11.193
Last Correction   2026/01/15 07:13:42
Memo.             
[...]
  -12739   -12738   -12731   -12733   -12734   -12733   -12735   -12739 
  -12738   -12739   -12737   -12733   -12734   -12738   -12738   -12737 
  -12735   -12738   -12739   -12737   -12737   -12738   -12739   -12738 
  -12737   -12735   -12738   -12737   -12735   -12734   -12733   -12734 
  -12735   -12734   -12733   -12733   -12735   -12738   -12737   -12734 
  -12737   -12739   -12738   -12737   -12739   -12742   -12739   -12737 
  -12735   -12735   -12735   -12737   -12738   -12741   -12742   -12741 
  -12738   -12735   -12734   -12735   -12738   -12735   -12731   -12733 
  -12734   -12733   -12735   -12739   -12739   -12738   -12734   -12731 
  -12735   -12744   -12744   -12741   -12741   -12741   -12738   -12737 
  -12738   -12741   -12741   -12739   -12739   -12739   -12734   -12733 
  -12735   -12737   -12738   -12741   -12739   -12739   -12738   -12737 
  -12737   -12737   -12737   -12738   -12739   -12739   -12735   -12735 
  -12738   -12738   -12741   -12742   -12738   -12739   -12745   -12742 
  -12738   -12737   -12739   -12741   -12741   -12738   -12739   -12739 
  -12735   -12735   -12738   -12737   -12737   -12739   -12739   -12738 
  -12739   -12739   -12737   -12738   -12741   -12737   -12735   -12735 
  -12734   -12735   -12738   -12738   -12737   -12738   -12737   -12731 
  -12729   -12730   -12733   -12734   -12734   -12731   -12729   -12731 
  -12730   -12729   -12731   -12731   -12731   -12731   -12731   -12729 
  -12727   -12729   -12727   -12723   -12726   -12730   -12735   -12739 
  -12738   -12731   -12729   -12730   -12730   -12730   -12731   -12733 
  -12737   -12746   -12748   -12741   -12737   -12734   -12737   -12744 
  -12738   -12726   -12730   -12737   -12737   -12746   -12742   -12722 
  -12715   -12721   -12726   -12737   -12737   -12723   -12731   -12749 
  -12745   -12750   -12757   -12719   -12695   -12726   -12757   -12762 
  -12757   -12748   -12749   -12748   -12754   -12792   -12789   -12727 
  -12722   -12745   -12721   -12733   -12784   -12776   -12761   -12798 
  -12833   -12823   -12775   -12722   -12708   -12715   -12704   -12726 
  -12802   -12808   -12717   -12703   -12784   -12773   -12715   -12726 
  -12698   -12609   -12590   -12653   -12723   -12757   -12744   -12690 
  -12644   -12667   -12726   -12749   -12752   -12723   -12640   -12627 
  -12706   -12744   -12757   -12738   -12669   -12683   -12773   -12816 
  -12839   -12818   -12699   -12615   -12627   -12704   -12852   -12919 
  -12837   -12781   -12803   -12826   -12812   -12753   -12721   -12745 
  -12718   -12714   -12852   -12893   -12711   -12579   -12629   -12704 
  -12749   -12815   -12808   -12656   -12546   -12586   -12648   -12692 
  -12715   -12681   -12646   -12609   -12567   -12648   -12744   -12684 
  -12669   -12780   -12787   -12722   -12775   -12792   -12594   -12433 
  -12542   -12730   -12825   -12977   -13107   -12877   -12511   -12514 
  -12712   -12773   -12873   -12991   -12839   -12631   -12681   -12841 
  -12858   -12760   -12737   -12822   -12858   -12876   -12919   -12812 
  -12541   -12356   -12453   -12776   -12997   -12927   -12777   -12698 
  -12594   -12529   -12704   -12911   -12806   -12618   -12617   -12550 
  -12469   -12741   -13023   -12934   -12841   -12845   -12712   -12700 
  -12819   -12698   -12506   -12479   -12536   -12800   -13117   -13053 
  -12785   -12617   -12471   -12590   -13166   -13524   -13138   -12619 
  -12475   -12348   -12259   -12575   -12804   -12583   -12576   -12962 
  -13093   -12992   -13005   -12820   -12472   -12538   -12826   -12864 
  -12777   -12557   -12164   -12127   -12559   -12915   -13150   -13450 
  -13451   -13115   -12912   -12684   -12251   -12241   -12696   -12860 
  -12725   -12671   -12546   -12510   -12918   -13362   -13402   -13225 
  -12974   -12677   -12606   -12676   -12455   -12181   -12359   -12820 
  -13207   -13377   -13227   -12799   -12345   -12177   -12325   -12474 
  -12588   -12785   -12792   -12649   -12707   -12737   -12534   -12433 
  -12571   -12793   -12984   -12945   -12657   -12469   -12571   -12807 
  -13042   -13157   -12953   -12626   -12619   -12784   -12777   -12654 
  -12534   -12568   -12854   -13061   -12970   -12807   -12683   -12592 
  -12710   -13041   -13250   -13103   -12776   -12609   -12710   -12881 
  -12924   -12834   -12652   -12487   -12594   -12870   -12758   -12322 
  -12244   -12464   -12590   -12830   -13109   -12987   -12710   -12640 
  -12618   -12575   -12565   -12563   -12637   -12731   -12691   -12702 
  -12938   -13116   -13082   -13128   -13275   -13149   -12781   -12586 
  -12528   -12359   -12225   -12249   -12286   -12357   -12559   -12810 
  -13122   -13431   -13410   -13101   -12857   -12688   -12515   -12572 
  -12847   -12919   -12788   -12776   -12721   -12519   -12507   -12571 
  -12386   -12303   -12577   -12892   -13200   -13425   -13216   -12877 
  -12789   -12648   -12441   -12438   -12509   -12642   -12931   -13096 
  -13007   -12930   -12962   -12834   -12518   -12494   -12764   -12722 
  -12517   -12613   -12529   -12069   -11932   -12198   -12475   -12800 
  -13107   -13192   -13215   -13242   -13169   -13042   -12842   -12546 
  -12447   -12688   -12919   -12946   -13034   -13092   -12744   -12344 
  -12424   -12613   -12490   -12367   -12483   -12679   -12938   -13281 
  -13423   -13128   -12513   -11983   -11942   -12217   -12441   -12754 
  -13159   -13266   -13208   -13316   -13274   -12907   -12640   -12548 
  -12345   -12181   -12313   -12499   -12451   -12363   -12530   -12804 
  -12923   -13032   -13261   -13348   -13147   -12815   -12515   -12375 
  -12488   -12818   -13189   -13402   -13374   -13104   -12706   -12438 
  -12361   -12330   -12407   -12590   -12641   -12630   -12714   -12707 
  -12571   -12465   -12326   -12145   -12260   -12754   -13201   -13369 
  -13281   -12876   -12372   -12174   -12324   -12665   -12988   -12930 
  -12584   -12517   -12633   -12528   -12486   -12587   -12448   -12302 
  -12517   -12785   -12841   -12768   -12684   -12799   -13130   -13455 
  -13698   -13732   -13409   -12924   -12494   -12046   -11685   -11799 
  -12310   -12665   -12764   -12885   -13001   -13027   -13107   -13248 
  -13243   -13009   -12721   -12501   -12187   -11807   -11766   -12160 
  -12600   -12892   -13058   -12997   -12866   -12960   -13081   -12942 
  -12648   -12476   -12576   -12696   -12515   -12310   -12348   -12378 
  -12498   -12964   -13416   -13533   -13360   -13105   -13082   -13193 
  -13095   -12931   -12872   -12681   -12375   -12287   -12467   -12631 
  -12610   -12536   -12557   -12729   -13059   -13227   -12947   -12634 
  -12683   -12838   -12920   -13062   -13138   -12923   -12378   -11751 
  -11543   -11794   -12222   -12837   -13393   -13386   -12943   -12553 
  -12379   -12438   -12754   -13096   -13092   -12737   -12528   -12684 
  -12845   -12889   -13020   -13170   -13270   -13404   -13393   -13024 
  -12509   -12222   -12310   -12559   -12609   -12433   -12266   -12329 
  -12698   -13111   -13311   -13278   -13008   -12787   -12883   -12951 
  -12885   -12930   -12772   -12418   -12507   -12869   -12883   -12638 
  -12434   -12259   -12114   -12129   -12333   -12568   -12753   -12870 
  -12854   -12756   -12660   -12579   -12568   -12640   -12795   -13069 
  -13296   -13236   -13035   -12961   -12889   -12768   -12861   -13077 
  -13105   -12992   -12904   -12861   -12754   -12590   -12599   -12694 
  -12667   -12750   -12852   -12742   -12856   -13265   -13437   -13358 
  -13186   -12781   -12303   -12055   -11979   -11983   -12106   -12260 
  -12333   -12415   -12572   -12636   -12595   -12567   -12459   -12378 
  -12501   -12532   -12420   -12499   -12657   -12772   -13073   -13365 
  -13209   -12862   -12860   -13018   -12968   -12954   -13089   -13074 
  -12996   -13026   -13004   -12915   -12830   -12718   -12681   -12789 
  -12923   -12922   -12667   -12309   -12274   -12742   -13315   -13514 
  -13335   -12937   -12438   -12170   -12286   -12386   -12129   -11784 
  -11823   -12258   -12660   -12765   -12710   -12634   -12548   -12549 
  -12675   -12722   -12514   -12210   -12131   -12370   -12820   -13339 
  -13691   -13765   -13705   -13647   -13597   -13539   -13424   -13198 
  -12922   -12687   -12526   -12405   -12302   -12249   -12291   -12495 
  -12838   -13192   -13514   -13637   -13285   -12668   -12135   -11651 
  -11372   -11534   -11835   -12042   -12410   -12808   -12785   -12634 
  -12802   -12927   -12745   -12557   -12388   -12156   -12259   -12857 
  -13387   -13436   -13207   -12923   -12610   -12496   -12734   -13018 
  -13151   -13312   -13486   -13517   -13489   -13448   -13275   -12980 
  -12633   -12259   -11963   -11898   -12132   -12664   -13329   -13733 
  -13614   -13069   -12297   -11599   -11354   -11577   -11874   -12020 
  -12206   -12603   -12955   -12980   -12830   -12780   -12843   -12868 
  -12745   -12617   -12641   -12730   -12938   -13308   -13393   -12943 
  -12407   -12195   -12340   -12673   -12920   -13049   -13228   -13371 
  -13290   -12976   -12613   -12398   -12287   -12299   -12576   -12891 
  -12989   -13011   -13074   -13190   -13362   -13441   -13389   -13344 
  -13246   -12874   -12320   -11966   -11954   -12121   -12437   -12869 
  -13149   -13085   -12787   -12407   -11967   -11591   -11561   -11884 
  -12307   -12785   -13246   -13448   -13401   -13285   -13111   -12874 
  -12762   -12869   -12943   -12806   -12580   -12376   -12280   -12405 
  -12629   -12772   -12903   -13051   -13124   -13220   -13385   -13389 
  -13123   -12722   -12410   -12440   -12761   -12985   -13051   -13189 
  -13267   -13051   -12714   -12472   -12217   -11939   -11977   -12279 
  -12432   -12609   -13018   -13198   -12995   -12719   -12370   -12066 
  -12140   -12417   -12604   -12775   -12862   -12742   -12613   -12598 
  -12630   -12756   -12915   -12935   -12949   -13103   -13154   -12926 
  -12673   -12602   -12580   -12745   -13247   -13537   -13312   -13027 
  -12877   -12748   -12769   -12984   -12999   -12621   -12282   -12270 
  -12280   -12167   -12181   -12303   -12386   -12536   -12749   -12922 
  -13116   -13223   -13080   -12889   -12760   -12526   -12375   -12487 
  -12530   -12428   -12452   -12469   -12372   -12437   -12487   -12195 
  -12009   -12286   -12630   -12827   -13038   -13147   -13026   -12970 
  -13215   -13495   -13505   -13305   -13119   -12989   -12865   -12754 
  -12638   -12395   -12036   -11985   -12561   -13346   -13842   -14079 
  -14037   -13576   -13027   -12762   -12495   -11990   -11668   -11731 
  -11897   -12208   -12741   -13104   -13130   -13011   -12787   -12519 
  -12267   -11935   -11747   -11946   -12175   -12289   -12567   -12717 
  -12401   -12137   -12206   -12106   -11813   -11925   -12541   -13166 
  -13536   -13703   -13699   -13624   -13624   -13636   -13509   -13193 
  -12815   -12680   -12802   -12807   -12776   -13224   -13992   -14557 
  -14953   -15101   -14500   -13359   -12472   -11901   -11342   -11067 
  -11153   -11209   -11414   -12113   -12854   -13247   -13375   -13099 
  -12537   -12241   -12073   -11745   -11704   -11961   -11950   -11772 
  -11824   -12016   -12152   -12245   -12343   -12495   -12795   -13211 
  -13540   -13639   -13498   -13132   -12725   -12540   -12451   -12197 
  -11982   -12032   -12166   -12478   -13223   -13977   -14185   -14034 
  -13926   -13803   -13491   -13101   -12718   -12293   -11939   -11811 
  -11909   -12170   -12270   -11992   -11793   -11992   -12348   -12862 
  -13539   -13899   -13643   -13081   -12609   -12098   -11407   -10974 
  -11029   -11292   -11804   -12564   -12924   -12688   -12540   -12775 
  -13139   -13616   -14137   -14311   -13965   -13417   -13058   -12874 
  -12652   -12514   -12725   -13105   -13377   -13765   -14250   -14179 
  -13516   -12920   -12533   -12100   -11815   -12063   -12668   -13169 
  -13427   -13436   -13204   -12972   -12987   -13328   -14008   -14746 
  -14999   -14629   -14077   -13670   -13323   -13030   -12852   -12629 
  -12430   -12582   -12966   -13259   -13412   -13267   -12843   -12668 
  -12656   -12163   -11479   -11223   -11173   -11118   -11392   -11946 
  -12317   -12571   -12931   -13126   -13144   -13182   -12926   -12455 
  -12313   -12197   -11672   -11172   -10902   -10675   -10782   -11325 
  -11855   -12364   -13117   -13821   -14134   -14193   -14094   -13817 
  -13454   -12985   -12401   -11951   -11711   -11506   -11524   -12005 
  -12582   -12849   -12934   -12943   -12733   -12384   -12090   -11839 
  -11547   -11083   -10543   -10336   -10473   -10532   -10632   -11279 
  -12121   -12545   -13032   -14061   -15001   -15530   -16023   -16255 
  -15823   -15113   -14561   -14056   -13436   -12846   -12587   -12764 
  -13259   -13891   -14524   -15045   -15148   -14615   -13787   -13008 
  -12240   -11731   -11878   -12561   -13594   -14899   -16070   -16653 
  -16441   -15558   -14538   -13724   -13090   -12579   -11989   -11335 
  -10963   -10845   -10790   -10908   -11175   -11354   -11283   -10874 
  -10289    -9796    -9364    -9262   -10183   -12019   -14038   -16028 
  -17783   -18715   -18549   -17286   -15175   -12933   -11018    -9479 
   -8529    -8172    -8100    -8193    -8492    -9190   -10450   -11851 
  -12745   -13022   -12935   -12571   -12100   -11969   -12406   -13193 
  -13927   -14292   -14169   -13518   -12376   -11218   -10817   -11349 
  -12236   -13217   -14709   -16787   -18839   -20164   -19994   -17818 
  -14089    -9915    -6480    -4635    -4279    -4955    -6999   -10778 
  -15673   -20486   -23799   -24472   -22044   -16923   -11114    -6708 
   -4024    -2875    -2955    -3688    -5254    -7560    -9834   -11979 
  -13979   -15176   -15345   -15188   -15357   -15951   -16888   -17620 
  -17194   -15445   -13059   -10793    -9332    -8923    -9239   -10188 
  -11871   -14049   -16333   -18158   -18858   -18165   -16136   -13385 
  -11287   -10687   -11229   -12124   -12523   -11912   -10671    -9566 
   -8889    -8818    -9848   -12100   -15030   -18079   -20704   -22216 
  -22142   -20386   -17436   -14285   -11380    -8947    -7805    -8098 
   -8993   -10192   -11753   -12919   -12873   -12079   -11306   -10480 
   -9636    -9049    -8607    -8370    -8614    -9200    -9921   -10806 
  -11605   -12066   -12536   -13315   -14277   -15317   -16106   -16162 
  -15510   -14459   -13247   -12137   -11406   -11304   -11996   -13246 
  -14485   -15373   -15836   -15817   -15394   -14609   -13293   -11562 
  -10037    -9381    -9913   -11383   -13258   -15311   -17203   -18017 
  -17169   -14858   -11601    -8434    -6799    -7268    -9084   -11227 
  -13211   -14790   -15784   -16218   -15789   -13917   -10939    -7894 
   -5563    -4715    -5765    -8075   -10574   -12386   -13254   -13652 
  -13895   -13900   -13864   -14013   -14158   -14115   -14068   -14277 
  -14480   -14160   -13510   -13081   -13046   -13452   -14075   -14395 
  -14291   -13832   -12960   -12064   -11604   -11484   -11881   -13323 
  -15514   -17477   -18399   -17860   -16020   -13475   -10859    -9028 
   -8579    -8901    -9215    -9776   -10914   -12433   -14112   -15410 
  -15568   -14602   -13320   -12376   -12010   -12376   -13111   -13308 
  -12812   -12302   -12249   -12685   -13182   -13070   -12344   -11686 
  -11461   -11578   -11994   -12664   -13373   -13806   -13869   -13903 
  -14272   -14661   -14173   -12469   -10338    -8677    -7757    -7800 
   -8899   -10532   -12464   -14932   -17493   -19371   -20340   -20119 
  -18270   -15361   -12580   -10504    -9416    -9526   -10316   -11078 
  -11763   -12483   -13050   -13347   -13447   -13400   -13196   -12953 
  -12992   -13603   -14489   -14867   -14206   -12472   -10204    -8270 
   -7217    -7279    -8453   -10312   -12262   -13968   -15485   -16816 
  -17548   -17319   -16046   -13941   -11821   -10492    -9961    -9950 
  -10081   -10004   -10161   -11125   -12672   -14388   -15984   -16879 
  -16757   -16143   -15234   -13590   -11499    -9548    -7776    -6632 
   -6894    -8540   -10922   -13414   -15411   -16479   -17020   -17751 
  -18459   -18485   -17705   -16343   -14777   -13284   -11754   -10288 
   -9190    -8345    -7758    -7877    -8830   -10353   -12248   -14030 
  -14997   -14993   -14233   -12989   -11789   -11048   -10756   -10922 
  -11672   -12800   -14083   -15653   -17428   -18866   -19491   -18990 
  -17205   -14670   -12394   -10748    -9558    -8992    -9242    -9961 
  -10723   -11522   -12572   -13595   -13872   -13015   -11217    -9289 
   -8233    -8359    -9539   -11496   -13262   -13936   -13795   -13559 
  -13339   -12970   -12548   -12168   -11843   -11839   -12440   -13482 
  -14463   -14895   -14574   -13725   -12814   -12201   -12077   -12318 
  -12614   -13031   -13624   -14088   -14337   -14273   -13792   -13159 
  -12179   -10509    -8868    -8012    -7904    -8738   -10606   -12777 
  -14767   -16476   -17319   -17105   -16397   -15129   -13063   -11153 
  -10351   -10431   -10999   -11978   -13008   -13695   -14130   -14505 
  -14886   -15144   -14802   -13760   -12582   -11670   -11013   -10677 
  -10852   -11284   -11541   -11740   -12033   -12147   -12075   -12021 
  -11961   -11997   -12141   -12051   -11665   -11260   -11128   -11485 
  -12367   -13745   -15230   -15904   -15345   -14188   -13265   -12981 
  -13333   -13996   -14496   -14238   -12957   -11153    -9443    -8135 
   -7514    -7609    -8129    -9057   -10575   -12491   -14420   -16133 
  -17255   -17122   -15493   -13211   -11460   -10782   -11352   -13296 
  -16131   -18559   -19400   -18558   -16702   -14459   -12220   -10346 
   -9121    -8414    -8108    -8452    -9266    -9957   -10359   -10588 
  -10725   -11103   -12164   -13910   -15930   -17876   -19514   -20436 
  -20151   -18728   -16638   -13998   -10891    -7888    -5628    -4536 
   -4864    -6532    -9074   -11808   -13946   -14966   -15155   -15363 
  -16124   -17297   -18397   -18787   -17932   -16069   -14007   -12145 
  -10368    -8576    -7003    -6207    -6731    -8579   -11172   -13788 
  -15867   -17096   -17466   -17113   -16221   -14991   -13500   -11947 
  -10847   -10578   -11132   -12141   -12860   -12734   -12114   -11664 
  -11480   -11503   -11689   -11615   -11028   -10261    -9620    -9278 
   -9336    -9621   -10183   -11315   -12996   -15095   -17301   -18806 
  -19056   -18257   -16889   -15326   -13722   -12202   -11133   -10720 
  -10743   -11079   -11727   -12414   -12866   -13096   -13213   -13288 
  -13205   -12752   -12148   -11916   -11989   -11962   -11936   -12143 
  -12340   -12135   -11473   -10620    -9894    -9618   -10166   -11699 
  -13926   -16271   -17851   -17922   -16760   -15182   -13601   -12112 
  -10750    -9578    -8851    -8865    -9703   -11272   -13213   -14948 
  -15996   -16039   -15028   -13296   -11288    -9524    -8521    -8545 
   -9733   -11863   -14220   -16275   -17737   -18249   -17930   -17197 
  -16056   -14515   -12704   -10693    -8950    -8062    -7888    -7888 
   -7921    -8322    -9232   -10224   -11032   -11836   -12777   -14058 
  -15699   -17012   -17402   -16919   -15701   -14044   -12595   -11784 
  -11581   -11789   -12120   -12550   -13491   -14955   -16298   -16968 
  -16721   -15693   -14438   -13251   -12193   -11587   -11523   -11651 
  -11793   -11916   -12054   -12380   -12661   -12368   -11410   -10196 
   -9308    -9078    -9424   -10265   -11381   -12187   -12600   -13189 
