Origin Time       2026/01/15 07:13:00
Lat.              42.7
Long.             145.4
Depth. (km)       30
Mag.              5.7
Station Code      HKD096
Station Lat.      42.6977
Station Long.     143.1357
Station Height(m) 192
Record Time       2026/01/15 07:14:08
Sampling Freq(Hz) 100Hz
Duration Time(s)  60
Dir.              U-D
Scale Factor      7845(gal)/8223790
Max. Acc. (gal)   1.244
Last Correction   2026/01/15 07:14:09
Memo.             
[...]
    -942    -1090    -1146    -1069    -1019    -1062    -1104    -1128 
   -1190    -1262    -1293    -1267    -1152    -1008     -989    -1074 
   -1085     -986     -873     -818     -882    -1054    -1210    -1283 
   -1306    -1283    -1185    -1100    -1154    -1293    -1370    -1360 
   -1304    -1205    -1119    -1105    -1113    -1093    -1086    -1066 
    -984     -966    -1123    -1282    -1269    -1162    -1125    -1147 
   -1092     -990    -1024    -1179    -1243    -1125     -961     -864 
    -828     -803     -741     -665     -687     -839     -985    -1012 
    -966     -923     -912     -976    -1100    -1165    -1113    -1080 
   -1189    -1329    -1297    -1162    -1142    -1194    -1185    -1209 
   -1355    -1462    -1393    -1271    -1255    -1316    -1359    -1347 
   -1279    -1188    -1081    -1012    -1109    -1285    -1293    -1146 
   -1036    -1007     -989     -999    -1082    -1162    -1147    -1101 
   -1117    -1147    -1082    -1031    -1124    -1174    -1040     -950 
   -1026    -1073    -1050    -1082    -1105    -1023     -938     -930 
    -931     -926     -984    -1090    -1146    -1077     -951     -938 
   -1069    -1189    -1182    -1101    -1067    -1143    -1246    -1256 
   -1201    -1155    -1089     -982     -920     -950     -953     -891 
    -949    -1174    -1320    -1251    -1155    -1197    -1274    -1278 
   -1244    -1223    -1255    -1301    -1254    -1136    -1066    -1047 
   -1026    -1032    -1062     -999     -888     -927    -1146    -1301 
   -1190     -986     -982    -1092    -1081    -1012    -1043    -1116 
   -1120    -1065    -1004     -984    -1054    -1210    -1313    -1242 
   -1117    -1111    -1200    -1296    -1339    -1258    -1111    -1085 
   -1162    -1139    -1008     -966    -1032    -1054    -1024     -993 
    -953     -978    -1071    -1096    -1004     -916     -928     -947 
    -934     -999    -1084    -1061    -1046    -1108    -1100    -1043 
   -1173    -1414    -1428    -1227    -1082    -1073    -1151    -1274 
   -1310    -1170    -1016    -1019    -1070    -1061    -1074    -1175 
   -1264    -1250    -1178    -1148    -1167    -1194    -1186    -1111 
   -1043    -1071    -1135    -1136    -1094    -1084    -1107    -1113 
   -1104    -1120    -1158    -1156    -1100    -1111    -1242    -1318 
   -1243    -1162    -1152    -1116    -1027     -989    -1028    -1071 
   -1086    -1089    -1080    -1069    -1081    -1066     -965     -885 
    -972    -1109    -1082     -972    -1017    -1140    -1109     -984 
    -947    -1007    -1098    -1138    -1062     -973    -1000    -1043 
    -980     -950    -1080    -1201    -1193    -1179    -1235    -1305 
   -1356    -1377    -1362    -1305    -1190    -1090    -1112    -1167 
   -1135    -1097    -1084     -976     -862     -934    -1071    -1063 
   -1019    -1131    -1266    -1174     -985     -992    -1074     -986 
    -851     -845     -877     -874     -896     -926     -911     -891 
    -900     -891     -893    -1051    -1301    -1385    -1340    -1406 
   -1509    -1453    -1368    -1405    -1401    -1236    -1094    -1108 
   -1146    -1057     -901     -826     -811     -800     -911    -1096 
   -1093     -994    -1088    -1278    -1294    -1161    -1085    -1113 
   -1136    -1111    -1102    -1171    -1260    -1227    -1067     -980 
   -1053    -1109    -1069    -1125    -1282    -1269    -1078    -1024 
   -1154    -1192    -1077     -997    -1004    -1007    -1012    -1039 
   -1026    -1005    -1035     -985     -839     -870    -1107    -1242 
   -1239    -1294    -1332    -1224    -1169    -1286    -1375    -1343 
   -1252    -1128    -1085    -1209    -1289    -1128     -940     -973 
   -1053    -1020    -1012    -1070    -1067    -1042    -1115    -1209 
   -1171    -1050     -988     -996    -1051    -1150    -1201    -1181 
   -1192    -1229    -1197    -1177    -1263    -1289    -1120     -945 
    -931     -985    -1040    -1092    -1053     -911     -811     -851 
    -980    -1094    -1155    -1163    -1151    -1165    -1166    -1119 
   -1123    -1200    -1219    -1148    -1115    -1196    -1291    -1275 
   -1197    -1158    -1139    -1112    -1135    -1233    -1316    -1305 
   -1263    -1236    -1131     -954     -878     -931     -926     -811 
    -758     -815     -853     -855     -896     -950     -988    -1050 
   -1132    -1202    -1270    -1321    -1309    -1260    -1263    -1263 
   -1138     -978     -963    -1039    -1024     -973    -1059    -1159 
   -1075     -958    -1008    -1090    -1105    -1225    -1404    -1344 
   -1098     -982    -1007    -1012    -1035    -1146    -1215    -1142 
   -1080    -1143    -1197    -1167    -1166    -1189    -1109     -989 
   -1027    -1167    -1223    -1240    -1262    -1148     -981     -996 
   -1115    -1102    -1023    -1085    -1228    -1243    -1162    -1201 
   -1316    -1262    -1080     -959     -907     -938    -1088    -1200 
   -1129     -965     -878     -904     -993    -1123    -1227    -1247 
   -1204    -1147    -1119    -1120    -1143    -1150    -1036     -791 
    -627     -704     -905    -1054    -1100    -1071    -1015     -997 
   -1046    -1086    -1101    -1186    -1291    -1256    -1116    -1053 
   -1127    -1258    -1381    -1440    -1347    -1182    -1158    -1269 
   -1343    -1320    -1251    -1150     -994     -868     -888    -1007 
   -1105    -1154    -1144    -1078    -1044    -1111    -1215    -1221 
   -1104     -996     -967     -962     -988    -1077    -1129    -1074 
   -1023    -1032    -1026    -1035    -1144    -1244    -1197    -1120 
   -1142    -1175    -1155    -1129    -1104    -1043     -985     -977 
    -973     -981    -1047    -1059     -961     -967    -1165    -1264 
   -1161    -1158    -1309    -1320    -1213    -1247    -1316    -1173 
    -974    -1028    -1197    -1159    -1020    -1001     -990     -913 
    -927    -1058    -1152    -1189    -1243    -1283    -1279    -1278 
   -1293    -1294    -1242    -1146    -1125    -1190    -1181    -1121 
   -1120    -1084     -988     -974    -1044    -1065    -1026    -1023 
   -1032     -977     -950    -1012    -1000     -861     -801     -909 
   -1020    -1034    -1035    -1088    -1139    -1179    -1251    -1291 
   -1266    -1242    -1200    -1154    -1205    -1291    -1229    -1078 
   -1046    -1096    -1078    -1043    -1086    -1129    -1078    -1007 
   -1024    -1090    -1080    -1023    -1050    -1088    -1005     -940 
   -1008    -1057    -1003     -982    -1035    -1074    -1080    -1070 
   -1051    -1059    -1134    -1185    -1109     -996     -961    -1008 
   -1124    -1247    -1267    -1166    -1069    -1131    -1274    -1283 
   -1198    -1217    -1318    -1340    -1300    -1293    -1246    -1093 
    -954     -927     -936     -868     -768     -788     -901     -953 
    -953     -965     -945     -928     -999    -1094    -1119    -1120 
   -1186    -1251    -1243    -1248    -1293    -1269    -1210    -1251 
   -1309    -1231    -1158    -1264    -1402    -1381    -1263    -1190 
   -1190    -1240    -1290    -1282    -1240    -1210    -1147    -1061 
   -1090    -1205    -1190    -1046     -935     -905     -907     -920 
    -893     -810     -788     -845     -826     -739     -795    -1004 
   -1098     -993     -922     -966     -966     -932    -1042    -1200 
   -1183    -1127    -1210    -1263    -1158    -1093    -1159    -1185 
   -1112    -1081    -1129    -1177    -1251    -1383    -1433    -1336 
   -1225    -1159    -1120    -1189    -1348    -1389    -1290    -1232 
   -1202    -1127    -1097    -1084     -932     -764     -783     -880 
    -891     -880     -868     -747     -598     -610     -739     -814 
    -886    -1102    -1289    -1229    -1119    -1150    -1177    -1139 
   -1183    -1270    -1260    -1331    -1614    -1790    -1628    -1452 
   -1537    -1671    -1601    -1420    -1339    -1300    -1127     -958 
    -980    -1020     -943     -880     -865     -803     -751     -831 
    -992    -1109    -1120    -1038     -967     -994    -1088    -1163 
   -1113     -962     -904     -958     -989    -1055    -1183    -1175 
   -1012     -909     -976    -1121    -1244    -1316    -1302    -1190 
   -1107    -1194    -1382    -1447    -1314    -1125    -1036    -1105 
   -1239    -1260    -1169    -1104    -1090    -1092    -1128    -1186 
   -1242    -1297    -1340    -1327    -1220    -1123    -1169    -1270 
   -1267    -1170    -1030     -909     -935    -1054    -1039     -900 
    -814     -772     -706     -693     -764     -765     -688     -707 
    -839     -966    -1047    -1111    -1158    -1189    -1204    -1151 
   -1057    -1117    -1316    -1278     -984     -949    -1210    -1281 
   -1179    -1271    -1412    -1289    -1121    -1197    -1296    -1242 
   -1221    -1289    -1332    -1362    -1412    -1439    -1408    -1366 
   -1359    -1314    -1244    -1264    -1270    -1123     -969     -922 
    -866     -756     -720     -746     -734     -766     -859     -961 
   -1169    -1390    -1347    -1156    -1158    -1275    -1278    -1258 
   -1318    -1282    -1105    -1051    -1171    -1165     -922     -735 
    -787     -855     -778     -742     -816     -837     -846     -951 
   -1009     -986    -1032    -1074    -1021    -1020    -1074    -1016 
    -936    -1039    -1190    -1183    -1147    -1246    -1331    -1227 
   -1123    -1220    -1367    -1386    -1312    -1224    -1163    -1154 
   -1146    -1077     -976     -893     -811     -743     -862    -1174 
   -1339    -1202    -1020     -989    -1059    -1182    -1325    -1328 
   -1146    -1030    -1139    -1297    -1312    -1264    -1271    -1212 
   -1050    -1031    -1197    -1285    -1259    -1286    -1298    -1152 
   -1007    -1075    -1243    -1316    -1343    -1350    -1225    -1046 
    -985     -961     -877     -873     -931     -842     -734     -864 
   -1017     -959     -940    -1059    -1011     -827     -885    -1112 
   -1156    -1055     -973     -881     -820     -865     -889     -892 
   -1086    -1354    -1350    -1146    -1058    -1096    -1102    -1120 
   -1165    -1063     -922    -1054    -1313    -1352    -1266    -1262 
   -1228    -1146    -1240    -1413    -1358    -1210    -1216    -1212 
   -1102    -1097    -1179    -1158    -1096    -1120    -1170    -1216 
   -1318    -1382    -1294    -1201    -1270    -1378    -1300    -1125 
   -1070    -1046     -919     -818     -816     -770     -702     -754 
    -810     -774     -797     -832     -715     -634     -824    -1058 
   -1063     -980     -999    -1127    -1293    -1405    -1452    -1452 
   -1378    -1256    -1193    -1215    -1232    -1182    -1132    -1147 
   -1165    -1134    -1089    -1077    -1128    -1231    -1278    -1174 
   -1039    -1082    -1240    -1231    -1016     -873     -908     -942 
    -880     -812     -804     -812     -797     -797     -839     -891 
    -908     -911     -963    -1020     -969     -928    -1069    -1231 
   -1212    -1123    -1197    -1401    -1487    -1443    -1418    -1372 
   -1296    -1329    -1425    -1397    -1321    -1379    -1455    -1406 
   -1377    -1431    -1387    -1247    -1190    -1117     -889     -769 
    -904     -950     -800     -745     -780     -702     -602     -573 
    -541     -557     -712     -866     -881     -882     -985    -1077 
   -1078    -1113    -1228    -1262    -1183    -1165    -1228    -1236 
   -1190    -1196    -1201    -1173    -1223    -1312    -1321    -1318 
   -1306    -1177    -1077    -1162    -1235    -1165    -1140    -1224 
   -1236    -1163    -1192    -1274    -1193    -1042    -1024    -1053 
    -992     -905     -919    -1032    -1170    -1277    -1289    -1186 
   -1082    -1061    -1117    -1242    -1367    -1371    -1254    -1198 
   -1225    -1171    -1084    -1112    -1169    -1115    -1032    -1053 
   -1113    -1128    -1135    -1147    -1125    -1067    -1043    -1131 
   -1285    -1358    -1266    -1116    -1046    -1032    -1016    -1021 
   -1046    -1017     -957     -946    -1003    -1105    -1192    -1131 
    -912     -738     -737     -778     -808     -927    -1062    -1028 
    -901     -891    -1007    -1142    -1243    -1282    -1271    -1320 
   -1476    -1637    -1687    -1593    -1479    -1513    -1578    -1514 
   -1451    -1524    -1637    -1615    -1452    -1341    -1359    -1300 
   -1097    -1007    -1085    -1047     -876     -839     -928     -938 
    -822     -653     -565     -650     -795     -888    -1024    -1255 
   -1409    -1425    -1482    -1603    -1645    -1629    -1638    -1625 
   -1574    -1539    -1491    -1381    -1204     -976     -758     -665 
    -704     -772     -796     -764     -731     -751     -754     -710 
    -702     -696     -581     -453     -446     -475     -494     -569 
    -625     -614     -653     -724     -733     -714     -715     -778 
    -969    -1165    -1189    -1200    -1377    -1529    -1474    -1367 
   -1345    -1329    -1331    -1463    -1625    -1611    -1510    -1518 
   -1532    -1364    -1128    -1047    -1104    -1119    -1051     -961 
    -843     -773     -816     -769     -565     -504     -626     -654 
    -633     -770     -943    -1005    -1065    -1146    -1162    -1169 
   -1256    -1404    -1525    -1522    -1359    -1156    -1085    -1107 
   -1016     -795     -693     -831     -986     -993     -973    -1003 
    -969     -889     -881     -912    -1013    -1223    -1302    -1175 
   -1161    -1323    -1381    -1383    -1559    -1706    -1611    -1599 
   -1989    -2407    -2350    -2031    -1918    -1950    -1846    -1626 
   -1435    -1266    -1127    -1028     -808     -445     -220     -151 
      -8      106       24      -52       -5       -5      -99     -164 
    -199     -286     -450     -695     -931    -1039    -1059    -1154 
   -1331    -1404    -1363    -1391    -1480    -1540    -1613    -1688 
   -1728    -1807    -1948    -2030    -2022    -2015    -2007    -1927 
   -1852    -1864    -1885    -1825    -1686    -1580    -1580    -1564 
   -1472    -1439    -1445    -1305    -1047     -950    -1074    -1132 
    -976     -810     -800     -810     -758     -756     -749     -600 
    -441     -441     -526     -553     -506     -432     -314     -203 
    -240     -355     -384     -359     -333     -302     -314     -460 
    -697     -861     -920     -984    -1048    -1111    -1273    -1544 
   -1742    -1726    -1640    -1678    -1783    -1803    -1671    -1472 
   -1421    -1449    -1314    -1161    -1193    -1209    -1032     -855 
    -845     -892     -907     -942    -1054    -1206    -1285    -1250 
   -1219    -1304    -1440    -1478    -1356    -1208    -1223    -1347 
   -1368    -1255    -1120    -1030     -961     -874     -757     -648 
    -592     -657     -843    -1015    -1067    -1070    -1128    -1271 
   -1436    -1444    -1286    -1264    -1493    -1653    -1552    -1444 
   -1545    -1617    -1518    -1540    -1664    -1522    -1243    -1215 
   -1285    -1237    -1287    -1399    -1270    -1143    -1351    -1556 
   -1479    -1410    -1485    -1494    -1436    -1482    -1501    -1256 
    -962     -872     -797     -664     -719     -855     -838     -842 
    -823     -504     -252     -440     -616     -521     -541     -718 
    -741     -706     -807     -845     -723     -668     -677     -567 
    -361     -230     -251     -317     -307     -279     -349     -503 
    -691     -912    -1139    -1387    -1669    -1853    -1880    -1911 
   -2038    -2135    -2072    -1906    -1802    -1760    -1559    -1244 
   -1181    -1379    -1420    -1171     -963     -970     -963     -850 
    -785     -769     -666     -533     -510     -589     -718     -799 
    -735     -625     -627     -766     -966    -1121    -1178    -1186 
   -1190    -1154    -1129    -1259    -1467    -1552    -1501    -1424 
   -1355    -1283    -1225    -1217    -1273    -1275    -1148    -1071 
   -1154    -1202    -1152    -1219    -1395    -1359    -1094    -1016 
   -1235    -1412    -1414    -1426    -1464    -1421    -1371    -1432 
   -1526    -1490    -1312    -1135    -1069    -1013     -865     -758 
    -841    -1092    -1358    -1414    -1262    -1212    -1425    -1579 
   -1424    -1296    -1456    -1564    -1398    -1227    -1169    -1066 
    -965     -994     -997     -799     -580     -591     -765     -900 
    -946     -923     -805     -676     -726     -876     -855     -711 
    -673     -734     -733     -662     -658     -754     -811     -761 
    -753     -865     -989    -1071    -1148    -1173    -1161    -1262 
   -1447    -1533    -1520    -1474    -1390    -1386    -1555    -1684 
   -1552    -1332    -1271    -1347    -1464    -1510    -1378    -1179 
   -1112    -1174    -1216    -1204    -1220    -1263    -1251    -1186 
   -1169    -1217    -1235    -1175    -1119    -1093    -1020     -912 
    -909    -1040    -1132    -1075     -927     -834     -886     -919 
    -785     -724     -846     -907     -857     -827     -789     -673 
    -560     -541     -585     -662     -742     -792     -868     -988 
   -1109    -1174    -1155    -1161    -1236    -1246    -1183    -1159 
   -1193    -1291    -1432    -1501    -1498    -1486    -1433    -1332 
   -1290    -1381    -1521    -1557    -1482    -1440    -1425    -1337 
   -1275    -1321    -1324    -1250    -1229    -1279    -1325    -1300 
   -1188    -1112    -1125    -1066     -877     -750     -747     -710 
    -633     -648     -676     -611     -589     -716     -811     -768 
    -745     -820     -881     -861     -820     -788     -742     -741 
    -866    -1003    -1007     -977    -1050    -1146    -1162    -1146 
   -1170    -1254    -1347    -1355    -1317    -1359    -1460    -1557 
   -1642    -1657    -1625    -1659    -1756    -1823    -1769    -1617 
   -1497    -1404    -1297    -1267    -1201     -919     -707     -808 
    -880     -745     -699     -758     -707     -641     -658     -643 
    -641     -772     -899     -885     -870     -916     -861     -796 
    -959    -1113     -962     -793     -900    -1077    -1131    -1162 
   -1175    -1127    -1175    -1343    -1421    -1413    -1447    -1432 
   -1278    -1139    -1107    -1081    -1032     -976     -924     -939 
    -977     -974     -993    -1096    -1212    -1239    -1228    -1258 
   -1274    -1286    -1354    -1391    -1378    -1416    -1464    -1406 
   -1269    -1204    -1287    -1344    -1206    -1020     -999    -1051 
   -1000     -940     -961     -912     -785     -785     -901     -924 
    -842     -807     -828     -816     -768     -719     -707     -742 
    -780     -828     -931    -1023    -1054    -1075    -1104    -1152 
   -1273    -1397    -1452    -1506    -1599    -1632    -1593    -1621 
   -1711    -1683    -1539    -1460    -1444    -1377    -1304    -1329 
   -1448    -1536    -1490    -1401    -1382    -1370    -1273    -1134 
   -1024     -939     -838     -745     -711     -687     -634     -604 
    -614     -608     -606     -672     -795     -901     -954     -984 
   -1023    -1063    -1085    -1051     -992    -1024    -1147    -1213 
   -1200    -1242    -1344    -1378    -1351    -1336    -1308    -1263 
   -1248    -1262    -1283    -1309    -1279    -1156    -1046    -1070 
   -1117    -1035     -922     -897     -891     -831     -800     -832 
    -838     -797     -781     -796     -811     -835     -873     -889 
