Origin Time       2026/01/15 07:13:00
Lat.              42.7
Long.             145.4
Depth. (km)       30
Mag.              5.7
Station Code      HKD067
Station Lat.      43.5550
Station Long.     144.9726
Station Height(m) 30
Record Time       2026/01/15 07:13:45
Sampling Freq(Hz) 100Hz
Duration Time(s)  68
Dir.              N-S
Scale Factor      7845(gal)/8223790
Max. Acc. (gal)   6.834
Last Correction   2026/01/15 07:13:46
Memo.             
[...]
    2266     2539     2251     1765     1470     1433     1583     1788 
    1923     1929     1869     1833     1813     1701     1422     1237 
    1471     1892     1976     1768     1705     1761     1629     1351 
    1282     1624     1934     1637     1066      949     1339     1867 
    2281     2424     2204     1746     1263      899      903     1351 
    1792     1941     1933     1869     1853     1900     1814     1615 
    1533     1516     1482     1629     1865     1782     1561     1701 
    2023     2107     1958     1777     1752     1887     1850     1574 
    1425     1440     1399     1429     1578     1590     1555     1637 
    1597     1441     1447     1537     1578     1653     1746     1798 
    1783     1625     1387     1198     1039      996     1252     1710 
    2093     2209     2029     1688     1350     1166     1248     1510 
    1817     2116     2209     1857     1345     1198     1375     1583 
    1718     1741     1734     1757     1784     1937     2147     2033 
    1522     1053      967     1242     1725     2141     2269     2250 
    2147     1912     1730     1613     1432     1364     1459     1493 
    1402     1224     1073     1236     1680     1868     1572     1197 
    1069     1186     1483     1741     1860     1973     1993     1830 
    1683     1705     1826     1821     1653     1642     1902     2103 
    1987     1651     1377     1418     1848     2320     2330     1825 
    1138      692      839     1404     1817     1931     1961     1942 
    1814     1576     1317     1308     1682     2007     1827     1344 
    1044     1124     1505     1890     2039     2046     2068     2165 
    2315     2299     1944     1455     1248     1452     1679     1582 
    1355     1343     1547     1725     1706     1549     1414     1328 
    1321     1516     1745     1675     1422     1323     1399     1548 
    1645     1561     1391     1398     1584     1587     1343     1267 
    1517     1737     1682     1495     1317     1248     1472     1869 
    2064     1977     1821     1690     1534     1313     1074     1024 
    1308     1761     2074     2097     1918     1613     1244     1070 
    1154     1377     1796     2155     2092     1873     1860     2008 
    2184     2273     2122     1684     1200      988     1192     1688 
    1999     1875     1705     1730     1775     1741     1667     1686 
    1861     1873     1570     1455     1780     2080     2091     1998 
    1844     1598     1416     1414     1580     1912     2278     2380 
    2195     1925     1656     1497     1404     1192      978      969 
    1210     1636     1907     1713     1198      834      951     1328 
    1464     1355     1432     1827     2187     2207     1934     1586 
    1402     1517     1834     2130     2263     2258     2242     2224 
    1971     1432     1127     1440     2030     2390     2322     2041 
    1995     2101     1908     1490     1189     1073     1233     1653 
    1881     1638     1092      542      310      423      608      873 
    1302     1624     1647     1632     1752     1803     1644     1377 
    1209     1394     1877     2246     2438     2821     3370     3484 
    2872     2056     1609     1510     1529     1537     1459     1362 
    1363     1533     1865     2019     1620      996      726      803 
    1131     1763     2289     2231     1718     1192      985     1081 
    1229     1381     1564     1733     1969     2191     2120     1817 
    1582     1570     1714     1829     1854     1809     1517      915 
     546      912     1641     2092     2081     1714     1320     1297 
    1564     1759     1885     2064     2088     1873     1668     1576 
    1587     1645     1605     1607     1768     1730     1485     1514 
    1777     1760     1370     1028     1030     1163     1147     1074 
    1128     1331     1541     1572     1491     1525     1645     1732 
    1815     1892     1958     2046     2087     2047     2010     1915 
    1729     1694     1821     1726     1489     1630     1980     1922 
    1655     1800     2301     2605     2344     1671     1163     1112 
    1232     1286     1404     1663     1721     1246      619      496 
     777     1062     1491     1975     1929     1333      699      406 
     673     1362     1987     2336     2512     2421     1939     1466 
    1377     1383     1216     1144     1394     1768     1960     1884 
    1737     1601     1232      715      498      687     1193     1867 
    2288     2258     2039     1790     1443     1186     1351     1729 
    1790     1571     1441     1435     1545     1938     2448     2600 
    2215     1579     1181     1327     1732     1838     1552     1188 
     874      577      573     1019     1502     1883     2289     2407 
    2161     1860     1409      862      828     1444     2141     2506 
    2567     2492     2415     2227     1776     1409     1493     1744 
    1930     2172     2222     1825     1320     1066     1147     1507 
    1715     1398      962     1048     1638     2288     2790     3159 
    3310     3123     2648     2077     1769     1991     2388     2408 
    2165     2076     2047     1594      696      139      453     1069 
    1287     1200     1156     1352     1732     1840     1613     1640 
    1987     2053     1699     1448     1499     1374      859      503 
     847     1610     1946     1680     1393     1370     1597     2116 
    2744     3055     2763     2083     1618     1719     2097     2300 
    2332     2409     2528     2478     2037     1394     1058     1054 
    1026      990     1166     1512     1819     1917     1899     1980 
    2023     1803     1556     1691     2087     2277     2228     2135 
    1939     1653     1389     1170     1071     1081     1066     1136 
    1502     1991     2157     1980     1891     2034     2151     2114 
    2130     2401     2702     2509     1728     1065     1150     1771 
    2583     3472     4105     4422     4792     5157     5142     4726 
    4121     3518     2905     2178     1572     1440     1777     2316 
    2775     2902     2509     1680      653     -446    -1394    -1858 
   -1767    -1271     -502      494     1755     3230     4409     4585 
    3716     2301      776     -386     -961    -1352    -1753    -1777 
   -1289     -653     -247     -143      -43      405     1054     1274 
     827      395      588      959      845      405      116     -241 
   -1247    -2683    -3623    -3429    -2173     -371     1528     3321 
    4878     6022     6490     6119     4953     3129     1271      545 
    1537     3580     5516     6724     7059     6365     4737     2744 
    1030       72      201     1220     2201     2347     1645      365 
   -1120    -2120    -2126    -1351     -245     1046     2253     2809 
    2428     1165     -672    -2289    -2801    -1961      -81     2317 
    4411     5636     6177     6187     5537     4334     2818     1340 
     585      985     1991     2565     2323     1764     1493     1494 
    1224      506       44      423     1054     1073      433     -538 
   -1497    -1976    -1661     -592      789     1799     2281     2928 
    4170     5358     5545     4595     3242     2177     1343      676 
     708     1429     1871     1602     1262     1364     1759     2011 
    1590      338     -967    -1539    -1513    -1144     -367      530 
    1155     1647     2292     3033     3423     2890     1389     -446 
   -1890    -2374    -1540      396     2682     4669     6035     6558 
    6382     6123     6115     5881     4753     2826      972      -18 
     112     1020     1867     2085     1894     1614     1067       91 
    -963    -1583    -1480     -546     1028     2400     2521     1333 
      68       -2     1247     2997     4282     4388     3073      943 
    -706     -896      197     1583     2567     3098     3115     2517 
    1728     1460     2042     3006     3365     2700     1540      488 
    -125      -10      592      697     -191    -1148     -962      461 
    2397     3964     4604     4487     3831     2474      712     -649 
    -990      -85     1703     3427     4256     4051     3249     2276 
    1144      -85     -988    -1289    -1075     -599     -321     -699 
   -1521    -1804     -818     1074     2887     3874     3835     3183 
    2636     2519     2442     1950     1567     2180     3369     3990 
    3900     3626     3487     3777     4479     4900     4634     4098 
    3623     3056     2411     2065     2158     2305     2158     1813 
    1383      876      714     1354     2280     2355     1190     -495 
   -1717    -1818     -650     1232     2967     4078     4338     3604 
    2258     1134      793     1266     2008     1937      384    -1799 
   -2968    -2346     -507     1196     1548      595     -336     -162 
    1040     2613     3865     4306     3989     3213     2151     1197 
     766      773     1055     1744     2805     3739     3948     3329 
    2334     1537     1347     1906     2970     3834     3842     3190 
    2393     1510      650      193      195      421      832     1486 
    2085     2222     1875     1282      704      569     1358     2930 
    4212     4294     3626     3411     4029     4722     4882     4696 
    4176     3107     2031     1580     1520     1375      855     -178 
   -1402    -2150    -1918     -727      819     1954     2239     1733 
     722     -375     -945     -747        6     1246     2698     3584 
    3343     2168      769       64      704     2119     2681     1671 
      74     -834     -558      538     1655     2297     2452     2196 
    1574      811      310      117       -1      229     1097     2222 
    3312     4326     4920     4882     4418     3759     3125     2826 
    2884     2790     2114     1117      604     1193     2417     3045 
    2465     1051     -260     -481      546     1921     2727     2832 
    2423     1493      157    -1285    -2450    -2655    -1590      -31 
    1170     1971     2319     1831      783      174      626     1853 
    3017     3330     2722     1856     1267     1127     1630     2610 
    3242     2771     1282      -18      328     2181     3609     3233 
    1701      352     -194      175     1179     2096     2506     2701 
    3069     3447     3451     3072     2417     1556      830      446 
     237      191      318      349      114     -445    -1182    -1507 
   -1158     -465      444     1595     2579     2970     2860     2548 
    2241     2134     2177     2242     2633     3435     4041     4112 
    3869     3500     3229     3146     2695     1348     -384    -1360 
    -859     1011     3281     4457     3777     2010      471     -187 
    -199     -238     -630    -1209    -1873    -2366    -2089     -972 
     417     1784     3149     4403     5447     6034     5748     4815 
    4078     4000     4461     5042     5120     4469     3465     2284 
    1125      837     1736     2917     3451     3025     1782      519 
      43      113      224      494      811      600     -249    -1348 
   -2199    -2330    -1526       71     2127     3890     4480     4010 
    3500     3474     3541     3171     2446     2030     2292     2798 
    3034     3138     3523     4006     3904     3132     2417     2241 
    2342     2110      930    -1182    -3153    -3819    -3088    -1652 
    -414     -174     -918    -1876    -2412    -2344    -1871    -1318 
    -822     -388      125     1124     2752     4503     5574     5386 
    4059     2405     1317     1350     2602     4525     6154     6822 
    6299     4635     2255        8    -1036     -336     1537     3373 
    4248     4009     2960     1325     -510    -1688    -1507     -214 
    1144     1675     1398     1040     1124     1570     2038     2339 
    2504     2540     2330     1848     1260      773      703     1344 
    2497     3558     4058     3861     3122     2116     1040       51 
    -720    -1312    -1791    -2131    -2253    -1977    -1206     -101 
    1165     2403     3262     3613     3700     3766     4062     4908 
    6058     6621     6220     5433     4865     4523     4216     3847 
    3113     1695        1    -1090    -1181     -468      558     1161 
     900      191     -430    -1075    -2037    -3244    -4395    -5212 
   -5383    -4671    -3295    -1755     -282     1150     2531     3701 
    4455     4747     4774     4799     4785     4509     4128     4129 
    4644     5278     5632     5606     5343     5206     5393     5486 
    5013     3997     2535      726     -955    -1958    -2070    -1308 
     132     1695     2573     2216      769    -1092    -2636    -3442 
   -3554    -3214    -2536    -1614     -596      518     1761     2906 
    3804     4585     5124     5042     4353     3580     3288     3616 
    4293     4927     5071     4413     3127     1827      994      521 
      94     -270     -513     -693     -692     -363      207      853 
    1406     1718     1827     1969     2214     2392     2462     2455 
    2188     1568      897      581      766     1228     1525     1439 
    1125      783      533      568     1050     1945     3018     3807 
    3780     2743      978     -820    -1802    -1780    -1413    -1147 
    -723      380     2447     4984     6786     7175     6810     6697 
    6980     7113     6477     4881     2984     1718     1232     1243 
    1768     2582     3017     2793     2099     1135       89     -962 
   -2061    -3037    -3774    -4491    -5229    -5524    -4953    -3589 
   -1914     -634     -128       10      241      488      754     1290 
    2160     3339     4827     6277     7092     7020     6227     5047 
    3986     3485     3501     3655     3608     3168     2389     1611 
    1201     1393     2142     2998     3439     3132     1995      461 
    -789    -1474    -1644    -1374     -830     -148      758     1782 
    2377     2118     1119     -102     -873     -843     -295      440 
    1395     2498     3453     4031     4027     3275     2033     1048 
    1092     2362     4280     5691     5630     4121     1988      148 
    -746     -631      -18      649     1229     1671     2052     2392 
    2502     2319     1977     1571     1166      815      552      465 
     553      642      642      692     1008     1657     2520     3392 
    3912     3670     2785     1984     1771     1915     2027     2092 
    2273     2708     3454     4232     4542     4147     3099     1694 
     472     -140     -194     -108     -244     -646    -1189    -1737 
   -2047    -1908    -1354     -523      369     1008     1269     1260 
    1088      927     1011     1358     1804     2169     2371     2516 
    2822     3453     4280     4885     5007     4776     4476     4302 
    4187     3881     3500     3407     3414     3040     2290     1502 
     841      221     -436     -796     -518       44      379      534 
     741     1020     1431     2204     3315     4179     4268     3686 
    2876     2119     1424      697      -24     -549     -683     -491 
    -265     -220     -263      -37      676     1559     2095     2147 
    1860     1460     1339     1647     1973     2003     1966     2064 
    2072     1729     1075      575      838     1911     3238     4394 
    5142     5190     4623     3865     3061     2242     1629     1391 
    1605     2268     2975     3087     2442     1335      151     -558 
    -486      -67      144       22     -415     -874     -710      336 
    1752     2806     3057     2446     1274       87     -529     -217 
     907     2289     3365     3825     3595     2857     2045     1570 
    1580     1941     2413     2772     2782     2218     1146      155 
    -118      245      687      832      615      221       45      326 
     847     1271     1534     1701     1768     1869     2165     2523 
    2733     2853     2940     2878     2670     2403     2035     1632 
    1475     1688     2146     2725     3244     3488     3427     3121 
    2606     1962     1352     1058     1250     1707     2015     1941 
    1502      811       68     -341      -14      976     1884     2064 
    1676     1181      639      -95     -905    -1372    -1151     -211 
    1231     2870     4251     4785     4268     3122     1857      803 
     270      337      776     1370     2060     2781     3299     3443 
    3396     3365     3302     3060     2485     1505      379     -333 
    -245      486     1431     2236     2687     2774     2577     2138 
    1651     1312     1069      884      920     1231     1647     2122 
    2727     3356     3770     3794     3438     2972     2743     2810 
    2839     2528     2034     1620     1204      623      -87     -804 
   -1412    -1892    -2312    -2562    -2326    -1490     -287     1017 
    2257     3194     3595     3474     3055     2573     2135     1723 
    1356     1051      726      292     -175     -375      -98      429 
     845     1032     1119     1262     1501     1933     2646     3429 
    3896     3775     3153     2424     1813     1314      958      789 
     793      862     1013     1501     2263     2843     3045     2926 
    2448     1761     1202      911      872     1093     1629     2358 
    2860     2860     2517     2007     1371      876      724      583 
     183     -291     -706     -984     -886     -253      938     2558 
    4132     5128     5370     4919     3894     2535     1134      -47 
    -735     -795     -282      796     2304     3645     4245     4093 
    3369     2181      778     -468    -1278    -1479     -913      284 
    1466     2164     2531     2722     2740     2801     3109     3477 
    3658     3697     3612     3342     3042     2897     3001     3484 
    4295     4932     4922     4453     3940     3395     2671     1723 
     658     -287     -924    -1104     -828     -344       91      299 
     198     -106     -430     -523     -228      195      490      685 
     691      481      252      144      178      241      410      791 
    1035      978      992     1304     1877     2708     3603     4086 
    3960     3447     2836     2389     2170     2100     2200     2424 
    2583     2556     2415     2266     2128     2130     2381     2647 
    2654     2451     2139     1668     1140      761      432      -20 
    -411     -530     -344      102      623     1036     1351     1556 
    1580     1483     1354     1215     1155     1183     1088      769 
     504      625     1144     1811     2378     2704     2806     2853 
    2959     3084     3150     3181     3230     3183     2903     2448 
    2019     1800     1750     1647     1398     1020      529       -1 
    -504     -938    -1242    -1200     -700      -60      495      911 
     982      895     1178     1942     2862     3554     3753     3400 
    2697     1935     1316     1023     1132     1514     1933     2242 
    2578     3032     3306     3095     2539     1954     1345      695 
     288      270      440      595      657      573      318       29 
     -32      405     1312     2243     2897     3254     3393     3627 
    4190     4808     5139     5182     5047     4787     4557     4511 
    4557     4449     4040     3338     2403     1512     1089     1200 
    1591     2010     2223     2112     1663      908       71     -576 
