Origin Time       2026/01/15 07:13:00
Lat.              42.7
Long.             145.4
Depth. (km)       30
Mag.              5.7
Station Code      HKD059
Station Lat.      43.8574
Station Long.     144.4609
Station Height(m) 23
Record Time       2026/01/15 07:13:55
Sampling Freq(Hz) 100Hz
Duration Time(s)  73
Dir.              N-S
Scale Factor      7845(gal)/8223790
Max. Acc. (gal)   3.080
Last Correction   2026/01/15 07:13:56
Memo.             
[...]
   -4645    -4626    -4588    -4548    -4527    -4499    -4433    -4356 
   -4302    -4259    -4207    -4183    -4247    -4398    -4557    -4656 
   -4671    -4600    -4468    -4380    -4423    -4525    -4583    -4591 
   -4591    -4633    -4723    -4801    -4801    -4746    -4718    -4742 
   -4774    -4780    -4764    -4735    -4689    -4621    -4541    -4480 
   -4453    -4450    -4471    -4509    -4522    -4499    -4479    -4483 
   -4494    -4494    -4479    -4437    -4336    -4207    -4166    -4276 
   -4453    -4558    -4558    -4511    -4463    -4442    -4452    -4491 
   -4565    -4625    -4602    -4500    -4390    -4334    -4386    -4568 
   -4812    -4985    -5012    -4926    -4806    -4708    -4669    -4695 
   -4743    -4784    -4819    -4830    -4791    -4691    -4577    -4523 
   -4531    -4560    -4556    -4492    -4374    -4229    -4114    -4083 
   -4149    -4282    -4403    -4467    -4491    -4506    -4546    -4641 
   -4739    -4773    -4738    -4676    -4592    -4469    -4353    -4338 
   -4473    -4712    -4951    -5117    -5135    -4958    -4650    -4391 
   -4310    -4390    -4538    -4695    -4768    -4680    -4507    -4410 
   -4482    -4699    -4963    -5115    -5038    -4770    -4441    -4145 
   -3954    -3928    -4060    -4291    -4533    -4688    -4715    -4646 
   -4541    -4436    -4356    -4338    -4403    -4486    -4480    -4391 
   -4333    -4384    -4519    -4648    -4692    -4669    -4645    -4646 
   -4650    -4646    -4638    -4646    -4683    -4702    -4669    -4646 
   -4702    -4804    -4873    -4881    -4820    -4650    -4375    -4120 
   -4029    -4148    -4411    -4692    -4861    -4847    -4680    -4472 
   -4310    -4203    -4168    -4247    -4410    -4552    -4590    -4556 
   -4536    -4545    -4572    -4599    -4600    -4568    -4533    -4506 
   -4483    -4495    -4563    -4623    -4592    -4465    -4322    -4260 
   -4332    -4514    -4730    -4889    -4935    -4861    -4720    -4607 
   -4567    -4580    -4639    -4734    -4800    -4779    -4691    -4588 
   -4514    -4514    -4610    -4749    -4862    -4907    -4870    -4758 
   -4607    -4463    -4344    -4234    -4151    -4128    -4156    -4205 
   -4282    -4405    -4552    -4676    -4739    -4745    -4726    -4700 
   -4646    -4556    -4453    -4369    -4311    -4257    -4193    -4120 
   -4083    -4156    -4369    -4688    -5046    -5341    -5456    -5328 
   -5007    -4617    -4288    -4094    -4039    -4121    -4328    -4567 
   -4714    -4727    -4657    -4599    -4622    -4727    -4843    -4899 
   -4862    -4729    -4533    -4345    -4217    -4155    -4145    -4183 
   -4283    -4449    -4650    -4842    -4984    -5055    -5032    -4930 
   -4839    -4808    -4791    -4738    -4669    -4633    -4623    -4606 
   -4563    -4499    -4457    -4473    -4544    -4633    -4693    -4681 
   -4602    -4486    -4368    -4270    -4237    -4321    -4484    -4622 
   -4675    -4650    -4577    -4482    -4398    -4372    -4437    -4584 
   -4757    -4866    -4862    -4787    -4708    -4666    -4653    -4645 
   -4625    -4581    -4517    -4448    -4399    -4383    -4395    -4441 
   -4527    -4625    -4683    -4666    -4617    -4611    -4680    -4766 
   -4787    -4715    -4607    -4530    -4523    -4583    -4672    -4738 
   -4737    -4634    -4446    -4271    -4195    -4228    -4336    -4487 
   -4623    -4680    -4637    -4522    -4418    -4388    -4419    -4469 
   -4507    -4540    -4568    -4568    -4552    -4568    -4614    -4629 
   -4572    -4484    -4414    -4396    -4440    -4503    -4522    -4468 
   -4371    -4318    -4371    -4487    -4581    -4646    -4738    -4845 
   -4891    -4866    -4849    -4895    -4970    -4999    -4927    -4754 
   -4519    -4282    -4078    -3950    -3942    -4063    -4276    -4504 
   -4648    -4665    -4631    -4633    -4657    -4668    -4661    -4623 
   -4560    -4499    -4473    -4518    -4625    -4761    -4909    -5040 
   -5104    -5082    -4988    -4812    -4549    -4267    -4047    -3919 
   -3906    -4043    -4307    -4606    -4804    -4827    -4706    -4549 
   -4459    -4452    -4495    -4554    -4612    -4669    -4733    -4792 
   -4835    -4869    -4897    -4893    -4831    -4739    -4630    -4515 
   -4438    -4421    -4440    -4467    -4503    -4544    -4561    -4552 
   -4518    -4448    -4369    -4320    -4299    -4293    -4293    -4295 
   -4311    -4361    -4450    -4554    -4639    -4691    -4702    -4672 
   -4611    -4542    -4477    -4428    -4402    -4386    -4369    -4379 
   -4419    -4479    -4564    -4685    -4816    -4907    -4947    -4959 
   -4934    -4857    -4745    -4625    -4522    -4426    -4325    -4236 
   -4216    -4299    -4444    -4591    -4715    -4803    -4834    -4812 
   -4764    -4716    -4684    -4648    -4585    -4510    -4437    -4340 
   -4216    -4120    -4104    -4174    -4301    -4441    -4584    -4710 
   -4765    -4716    -4585    -4438    -4340    -4307    -4328    -4380 
   -4442    -4511    -4592    -4658    -4653    -4571    -4491    -4484 
   -4556    -4685    -4837    -4955    -4989    -4920    -4768    -4594 
   -4473    -4446    -4500    -4595    -4668    -4692    -4695    -4688 
   -4658    -4587    -4487    -4399    -4352    -4321    -4268    -4187 
   -4114    -4108    -4187    -4325    -4467    -4590    -4692    -4757 
   -4758    -4719    -4706    -4747    -4803    -4835    -4811    -4704 
   -4553    -4444    -4425    -4465    -4482    -4417    -4295    -4222 
   -4261    -4383    -4526    -4649    -4726    -4725    -4610    -4406 
   -4220    -4172    -4303    -4548    -4804    -4995    -5055    -4988 
   -4851    -4700    -4569    -4499    -4495    -4511    -4527    -4577 
   -4661    -4723    -4723    -4668    -4588    -4533    -4556    -4654 
   -4753    -4789    -4743    -4590    -4352    -4128    -4020    -4060 
   -4182    -4306    -4407    -4500    -4611    -4743    -4877    -4986 
   -5039    -5026    -4966    -4866    -4725    -4545    -4351    -4186 
   -4095    -4095    -4182    -4349    -4581    -4795    -4899    -4870 
   -4753    -4598    -4425    -4267    -4163    -4114    -4113    -4183 
   -4355    -4615    -4870    -5005    -4981    -4850    -4677    -4515 
   -4425    -4425    -4473    -4542    -4608    -4627    -4598    -4590 
   -4650    -4754    -4851    -4896    -4857    -4757    -4635    -4473 
   -4282    -4148    -4133    -4232    -4421    -4689    -4982    -5194 
   -5229    -5065    -4762    -4446    -4207    -4072    -4031    -4048 
   -4086    -4125    -4199    -4333    -4484    -4588    -4621    -4622 
   -4653    -4699    -4684    -4608    -4545    -4529    -4552    -4635 
   -4801    -4985    -5101    -5104    -4981    -4747    -4468    -4239 
   -4105    -4052    -4067    -4178    -4378    -4577    -4672    -4661 
   -4618    -4580    -4554    -4565    -4672    -4860    -5031    -5112 
   -5071    -4923    -4745    -4604    -4515    -4488    -4531    -4592 
   -4602    -4531    -4399    -4240    -4121    -4102    -4201    -4372 
   -4531    -4618    -4623    -4550    -4409    -4249    -4140    -4114 
   -4160    -4256    -4371    -4477    -4608    -4797    -5030    -5238 
   -5312    -5185    -4909    -4608    -4363    -4193    -4132    -4226 
   -4461    -4722    -4908    -4997    -4989    -4895    -4760    -4611 
   -4473    -4391    -4376    -4402    -4422    -4403    -4384    -4430 
   -4550    -4725    -4908    -5035    -5077    -5050    -4978    -4868 
   -4746    -4645    -4556    -4468    -4386    -4302    -4221    -4160 
   -4149    -4186    -4245    -4337    -4486    -4666    -4822    -4884 
   -4799    -4564    -4248    -3989    -3893    -3956    -4122    -4368 
   -4673    -4968    -5128    -5084    -4893    -4700    -4568    -4486 
   -4469    -4538    -4683    -4858    -4993    -5027    -4957    -4830 
   -4707    -4604    -4538    -4527    -4552    -4580    -4602    -4581 
   -4477    -4291    -4094    -3994    -4047    -4230    -4479    -4719 
   -4904    -4978    -4895    -4688    -4476    -4352    -4345    -4434 
   -4554    -4633    -4650    -4619    -4544    -4455    -4426    -4522 
   -4681    -4769    -4720    -4564    -4375    -4210    -4097    -4090 
   -4232    -4452    -4635    -4714    -4685    -4606    -4563    -4625 
   -4784    -4958    -5058    -5035    -4888    -4664    -4438    -4276 
   -4220    -4295    -4499    -4756    -4936    -4958    -4851    -4707 
   -4583    -4487    -4426    -4426    -4467    -4483    -4464    -4452 
   -4476    -4529    -4557    -4518    -4452    -4436    -4484    -4564 
   -4649    -4718    -4735    -4668    -4534    -4413    -4365    -4396 
   -4487    -4630    -4804    -4945    -4980    -4920    -4828    -4745 
   -4677    -4626    -4588    -4577    -4579    -4515    -4348    -4125 
   -3963    -3955    -4091    -4313    -4594    -4869    -5011    -4946 
   -4729    -4465    -4259    -4185    -4251    -4411    -4603    -4758 
   -4849    -4903    -4959    -4988    -4930    -4789    -4615    -4437 
   -4278    -4139    -4039    -4036    -4174    -4422    -4695    -4899 
   -5009    -5057    -5054    -4980    -4849    -4722    -4646    -4641 
   -4689    -4723    -4677    -4548    -4395    -4309    -4313    -4347 
   -4359    -4341    -4305    -4276    -4287    -4338    -4392    -4456 
   -4580    -4761    -4916    -4950    -4834    -4598    -4284    -3985 
   -3778    -3663    -3630    -3723    -3964    -4275    -4552    -4741 
   -4797    -4733    -4631    -4552    -4514    -4538    -4649    -4843 
   -5051    -5185    -5209    -5139    -5004    -4851    -4727    -4665 
   -4657    -4631    -4554    -4479    -4457    -4483    -4533    -4596 
   -4650    -4672    -4654    -4603    -4522    -4410    -4298    -4222 
   -4195    -4202    -4207    -4212    -4243    -4291    -4320    -4340 
   -4403    -4538    -4722    -4908    -5035    -5055    -4980    -4846 
   -4704    -4634    -4680    -4781    -4834    -4758    -4560    -4342 
   -4216    -4195    -4245    -4349    -4491    -4621    -4700    -4718 
   -4685    -4672    -4733    -4854    -4972    -5023    -4981    -4855 
   -4683    -4503    -4345    -4228    -4148    -4099    -4093    -4113 
   -4141    -4185    -4274    -4428    -4627    -4815    -4930    -4927 
   -4806    -4607    -4406    -4297    -4338    -4504    -4700    -4839 
   -4896    -4920    -4992    -5125    -5227    -5193    -5009    -4737 
   -4483    -4334    -4320    -4417    -4546    -4622    -4615    -4556 
   -4483    -4405    -4322    -4264    -4244    -4278    -4391    -4571 
   -4730    -4793    -4761    -4666    -4531    -4422    -4407    -4488 
   -4611    -4718    -4765    -4730    -4614    -4482    -4428    -4484 
   -4568    -4569    -4445    -4247    -4067    -3983    -4013    -4155 
   -4378    -4596    -4720    -4729    -4672    -4608    -4553    -4515 
   -4503    -4522    -4587    -4698    -4823    -4926    -4969    -4953 
   -4904    -4857    -4837    -4866    -4943    -5038    -5117    -5154 
   -5123    -5003    -4796    -4561    -4390    -4320    -4311    -4336 
   -4371    -4357    -4237    -4036    -3869    -3829    -3923    -4075 
   -4212    -4309    -4361    -4361    -4344    -4365    -4460    -4602 
   -4719    -4756    -4691    -4540    -4367    -4276    -4336    -4510 
   -4711    -4858    -4905    -4861    -4749    -4584    -4434    -4388 
   -4465    -4617    -4795    -4963    -5088    -5136    -5116    -5036 
   -4926    -4841    -4793    -4726    -4595    -4436    -4305    -4232 
   -4234    -4311    -4421    -4537    -4658    -4797    -4958    -5096 
   -5136    -5032    -4777    -4411    -4001    -3634    -3388    -3289 
   -3341    -3530    -3786    -4037    -4286    -4580    -4911    -5215 
   -5433    -5533    -5501    -5355    -5113    -4816    -4548    -4398 
   -4411    -4567    -4795    -5001    -5100    -5061    -4923    -4741 
   -4558    -4450    -4469    -4576    -4684    -4737    -4719    -4644 
   -4544    -4450    -4384    -4351    -4353    -4387    -4426    -4446 
   -4414    -4306    -4141    -3986    -3902    -3906    -3983    -4117 
   -4301    -4529    -4773    -4965    -5054    -5038    -4963    -4877 
   -4783    -4665    -4525    -4390    -4320    -4356    -4482    -4664 
   -4850    -4946    -4896    -4762    -4649    -4592    -4571    -4550 
   -4484    -4348    -4166    -3977    -3823    -3735    -3708    -3701 
   -3699    -3696    -3667    -3623    -3612    -3661    -3744    -3821 
   -3874    -3910    -3951    -4016    -4077    -4081    -4023    -3971 
   -4031    -4257    -4587    -4877    -5031    -5057    -5030    -5001 
   -4974    -4947    -4907    -4820    -4688    -4552    -4475    -4530 
   -4770    -5178    -5647    -6039    -6232    -6157    -5826    -5344 
   -4837    -4418    -4183    -4167    -4313    -4515    -4673    -4739 
   -4737    -4707    -4695    -4733    -4818    -4930    -5046    -5161 
   -5285    -5395    -5456    -5464    -5444    -5435    -5447    -5427 
   -5298    -5058    -4810    -4668    -4666    -4776    -4912    -4955 
   -4804    -4442    -3944    -3406    -2903    -2513    -2312    -2367 
   -2717    -3360    -4247    -5247    -6131    -6663    -6725    -6358 
   -5711    -4943    -4222    -3763    -3740    -4179    -4909    -5629 
   -6058    -6103    -5841    -5387    -4877    -4449    -4158    -3919 
   -3569    -3010    -2338    -1809    -1691    -2081    -2840    -3678 
   -4271    -4417    -4156    -3761    -3589    -3890    -4657    -5638 
   -6459    -6809    -6617    -6058    -5436    -5013    -4927    -5188 
   -5671    -6154    -6438    -6461    -6285    -5958    -5447    -4711 
   -3801    -2863    -2066    -1545    -1333    -1408    -1823    -2671 
   -3870    -5082    -5917    -6134    -5718    -4851    -3892    -3227 
   -3095    -3522    -4309    -5139    -5728    -5923    -5724    -5252 
   -4761    -4537    -4733    -5273    -5931    -6459    -6708    -6606 
   -6115    -5266    -4206    -3149    -2288    -1771    -1669    -1939 
   -2451    -3100    -3824    -4537    -5094    -5379    -5382    -5161 
   -4769    -4267    -3742    -3334    -3203    -3458    -4102    -5004 
   -5953    -6739    -7217    -7334    -7096    -6542    -5764    -4945 
   -4286    -3885    -3704    -3643    -3640    -3757    -4086    -4615 
   -5219    -5710    -5896    -5706    -5211    -4544    -3834    -3233 
   -2921    -3014    -3497    -4234    -5046    -5792    -6338    -6535 
   -6274    -5566    -4548    -3456    -2600    -2258    -2508    -3214 
   -4137    -5040    -5764    -6247    -6524    -6662    -6652    -6434 
   -6004    -5439    -4845    -4326    -3977    -3854    -3928    -4095 
   -4221    -4197    -3983    -3665    -3449    -3489    -3715    -3952 
   -4104    -4135    -3990    -3615    -3068    -2513    -2161    -2218 
   -2772    -3681    -4618    -5275    -5506    -5359    -5050    -4837 
   -4823    -4945    -5127    -5368    -5701    -6049    -6219    -6088 
   -5711    -5265    -4901    -4633    -4388    -4132    -3906    -3731 
   -3566    -3416    -3377    -3524    -3839    -4218    -4533    -4683 
   -4653    -4513    -4342    -4218    -4203    -4315    -4550    -4901 
   -5335    -5792    -6168    -6353    -6295    -6004    -5536    -4941 
   -4249    -3524    -2849    -2335    -2138    -2427    -3204    -4239 
   -5171    -5702    -5699    -5212    -4392    -3487    -2747    -2305 
   -2199    -2419    -2899    -3550    -4297    -5093    -5888    -6604 
   -7156    -7462    -7411    -6918    -6052    -5066    -4255    -3792 
   -3728    -3982    -4380    -4769    -5086    -5378    -5732    -6151 
   -6504    -6593    -6313    -5688    -4834    -3904    -3059    -2475 
   -2330    -2648    -3285    -4056    -4820    -5429    -5737    -5697 
   -5395    -4982    -4557    -4176    -3927    -3913    -4175    -4657 
   -5181    -5548    -5709    -5741    -5711    -5553    -5147    -4500 
   -3771    -3140    -2714    -2548    -2698    -3192    -3942    -4726 
   -5274    -5394    -5070    -4476    -3929    -3701    -3869    -4360 
   -4995    -5543    -5864    -5952    -5877    -5703    -5460    -5186 
   -4893    -4560    -4183    -3815    -3564    -3535    -3748    -4141 
   -4596    -4990    -5244    -5287    -5062    -4572    -3921    -3271 
   -2808    -2713    -3041    -3689    -4482    -5256    -5922    -6400 
   -6593    -6436    -5952    -5274    -4600    -4085    -3792    -3709 
   -3786    -3960    -4135    -4244    -4290    -4264    -4160    -3994 
   -3817    -3727    -3802    -3998    -4153    -4162    -4058    -3925 
   -3866    -3986    -4336    -4895    -5568    -6168    -6488    -6420 
   -6004    -5366    -4675    -4162    -4054    -4402    -5019    -5641 
   -6050    -6096    -5714    -4965    -4033    -3195    -2693    -2593 
   -2814    -3237    -3785    -4395    -4942    -5279    -5323    -5058 
   -4568    -4001    -3535    -3323    -3460    -3960    -4712    -5485 
   -6056    -6323    -6323    -6160    -5899    -5545    -5059    -4446 
   -3828    -3353    -3113    -3126    -3342    -3657    -3906    -3981 
   -3917    -3836    -3829    -3932    -4160    -4471    -4762    -4953 
   -5001    -4919    -4807    -4780    -4868    -5023    -5213    -5460 
   -5786    -6137    -6345    -6242    -5853    -5300    -4661    -4062 
   -3669    -3569    -3758    -4172    -4672    -5092    -5313    -5304 
   -5096    -4776    -4436    -4109    -3769    -3400    -3106    -3021 
   -3137    -3358    -3592    -3786    -3977    -4198    -4410    -4554 
   -4610    -4549    -4375    -4186    -4079    -4048    -4054    -4095 
   -4210    -4446    -4807    -5243    -5695    -6118    -6488    -6751 
   -6779    -6462    -5830    -5015    -4159    -3402    -2880    -2701 
   -2922    -3492    -4245    -5023    -5694    -6131    -6282    -6147 
   -5718    -5049    -4301    -3638    -3138    -2844    -2793    -2975 
   -3315    -3717    -4109    -4445    -4662    -4707    -4564    -4290 
   -3990    -3753    -3635    -3707    -4004    -4514    -5136    -5694 
   -6034    -6087    -5880    -5525    -5167    -4920    -4804    -4734 
   -4600    -4390    -4178    -4018    -3917    -3924    -4129    -4542 
   -5017    -5327    -5337    -5105    -4777    -4499    -4378    -4449 
   -4666    -4901    -5036    -5028    -4864    -4553    -4171    -3856 
   -3732    -3802    -3985    -4213    -4494    -4858    -5229    -5452 
   -5448    -5255    -4992    -4801    -4765    -4872    -5050    -5204 
   -5227    -5055    -4710    -4268    -3794    -3338    -2959    -2716 
   -2671    -2860    -3261    -3773    -4239    -4541    -4656    -4625 
   -4544    -4527    -4642    -4887    -5233    -5621    -5938    -6069 
   -5960    -5613    -5069    -4401    -3732    -3233    -3028    -3102 
   -3341    -3655    -3997    -4329    -4631    -4868    -5000    -5035 
   -5011    -4949    -4857    -4783    -4779    -4865    -5008    -5131 
   -5157    -5065    -4878    -4645    -4438    -4293    -4193    -4143 
   -4193    -4417    -4843    -5406    -5988    -6447    -6610    -6392 
   -5875    -5236    -4634    -4162    -3856    -3739    -3824    -4071 
   -4369    -4617    -4752    -4762    -4680    -4577    -4545    -4615 
   -4749    -4866    -4899    -4807    -4607    -4357    -4125    -3960 
   -3936    -4093    -4340    -4507    -4507    -4338    -4043    -3682 
   -3357    -3198    -3262    -3462    -3645    -3727    -3724    -3680 
   -3654    -3744    -4023    -4469    -4995    -5463    -5711    -5659 
   -5385    -5050    -4807    -4752    -4892    -5175    -5518    -5792 
