Origin Time       2026/01/15 07:13:00
Lat.              42.7
Long.             145.4
Depth. (km)       30
Mag.              5.7
Station Code      HKD038
Station Lat.      43.1666
Station Long.     142.5662
Station Height(m) 353
Record Time       2026/01/15 07:14:19
Sampling Freq(Hz) 100Hz
Duration Time(s)  60
Dir.              N-S
Scale Factor      7845(gal)/8223790
Max. Acc. (gal)   2.105
Last Correction   2026/01/15 07:14:19
Memo.             
[...]
  -13852   -13846   -13851   -13861   -13873   -13896   -13919   -13914 
  -13892   -13875   -13861   -13859   -13880   -13925   -13981   -14027 
  -14037   -14010   -13963   -13923   -13911   -13918   -13927   -13932 
  -13917   -13895   -13882   -13882   -13895   -13919   -13957   -14013 
  -14054   -14048   -14002   -13957   -13922   -13890   -13871   -13868 
  -13876   -13895   -13917   -13923   -13917   -13909   -13917   -13953 
  -14022   -14106   -14168   -14170   -14123   -14058   -14000   -13950 
  -13898   -13844   -13794   -13751   -13732   -13755   -13818   -13888 
  -13934   -13956   -13977   -14008   -14040   -14067   -14080   -14072 
  -14062   -14068   -14068   -14049   -14014   -13968   -13918   -13865 
  -13811   -13767   -13748   -13759   -13797   -13846   -13882   -13890 
  -13888   -13890   -13884   -13879   -13890   -13921   -13956   -13977 
  -13973   -13942   -13913   -13907   -13921   -13953   -13995   -14029 
  -14048   -14068   -14094   -14126   -14150   -14154   -14130   -14091 
  -14030   -13949   -13871   -13825   -13815   -13822   -13828   -13825 
  -13824   -13824   -13817   -13826   -13864   -13907   -13944   -13979 
  -14018   -14069   -14106   -14089   -14030   -13961   -13907   -13883 
  -13878   -13869   -13863   -13865   -13869   -13871   -13882   -13891 
  -13882   -13873   -13896   -13948   -14002   -14045   -14071   -14073 
  -14052   -14026   -14031   -14073   -14108   -14104   -14049   -13950 
  -13840   -13755   -13718   -13736   -13767   -13775   -13771   -13778 
  -13795   -13817   -13833   -13840   -13857   -13892   -13926   -13950 
  -13961   -13967   -13986   -14022   -14071   -14114   -14133   -14126 
  -14100   -14061   -14025   -13996   -13969   -13952   -13940   -13909 
  -13859   -13815   -13787   -13755   -13718   -13690   -13684   -13725 
  -13811   -13903   -13976   -14035   -14084   -14121   -14139   -14145 
  -14139   -14129   -14116   -14112   -14118   -14127   -14131   -14130 
  -14102   -14030   -13937   -13863   -13818   -13794   -13778   -13783 
  -13815   -13842   -13859   -13876   -13899   -13927   -13967   -14006 
  -14027   -14018   -13987   -13954   -13929   -13911   -13900   -13875 
  -13821   -13759   -13713   -13683   -13670   -13670   -13693   -13740 
  -13782   -13798   -13805   -13819   -13852   -13925   -14018   -14080 
  -14092   -14080   -14071   -14071   -14085   -14112   -14125   -14107 
  -14064   -14006   -13959   -13942   -13965   -14004   -14003   -13940 
  -13871   -13846   -13863   -13907   -13979   -14065   -14129   -14126 
  -14062   -13986   -13949   -13971   -14015   -14035   -14025   -14006 
  -13999   -14018   -14045   -14048   -14022   -13991   -13964   -13927 
  -13871   -13818   -13792   -13786   -13779   -13772   -13765   -13763 
  -13788   -13840   -13876   -13884   -13876   -13860   -13844   -13829 
  -13822   -13841   -13887   -13945   -14003   -14048   -14068   -14060 
  -14011   -13929   -13846   -13801   -13790   -13795   -13807   -13834 
  -13865   -13886   -13903   -13927   -13954   -13981   -13998   -13995 
  -13986   -13990   -14015   -14069   -14142   -14207   -14237   -14214 
  -14131   -14013   -13888   -13791   -13753   -13772   -13810   -13838 
  -13865   -13896   -13934   -13988   -14064   -14143   -14202   -14226 
  -14214   -14175   -14130   -14106   -14111   -14127   -14126   -14079 
  -13980   -13861   -13775   -13740   -13729   -13705   -13643   -13539 
  -13412   -13313   -13288   -13340   -13441   -13556   -13663   -13755 
  -13837   -13921   -14003   -14076   -14129   -14152   -14153   -14158 
  -14192   -14251   -14301   -14300   -14242   -14158   -14072   -14007 
  -13979   -13967   -13956   -13964   -13983   -13980   -13942   -13883 
  -13840   -13841   -13891   -13950   -13994   -14027   -14072   -14141 
  -14214   -14247   -14233   -14207   -14204   -14226   -14242   -14231 
  -14180   -14100   -14017   -13940   -13859   -13776   -13717   -13697 
  -13691   -13660   -13597   -13528   -13494   -13516   -13572   -13633 
  -13682   -13703   -13709   -13725   -13751   -13786   -13824   -13846 
  -13845   -13834   -13813   -13788   -13791   -13819   -13836   -13837 
  -13842   -13851   -13865   -13888   -13907   -13930   -13973   -14030 
  -14077   -14107   -14141   -14195   -14257   -14296   -14304   -14285 
  -14245   -14197   -14154   -14108   -14065   -14044   -14061   -14111 
  -14170   -14215   -14226   -14211   -14192   -14168   -14135   -14099 
  -14056   -14000   -13963   -13956   -13964   -13971   -13972   -13950 
  -13888   -13805   -13745   -13736   -13771   -13821   -13861   -13879 
  -13855   -13797   -13737   -13699   -13686   -13683   -13674   -13651 
  -13626   -13608   -13597   -13602   -13626   -13656   -13676   -13683 
  -13694   -13729   -13786   -13836   -13861   -13860   -13842   -13840 
  -13879   -13953   -14030   -14089   -14119   -14107   -14076   -14067 
  -14099   -14175   -14277   -14369   -14411   -14393   -14332   -14247 
  -14162   -14088   -14017   -13934   -13840   -13749   -13698   -13717 
  -13792   -13887   -13976   -14048   -14095   -14131   -14157   -14179 
  -14208   -14237   -14246   -14243   -14241   -14230   -14189   -14087 
  -13932   -13765   -13617   -13517   -13487   -13508   -13543   -13582 
  -13629   -13683   -13732   -13774   -13821   -13868   -13888   -13864 
  -13802   -13722   -13663   -13660   -13724   -13840   -13986   -14127 
  -14230   -14269   -14249   -14195   -14134   -14083   -14048   -14027 
  -14002   -13944   -13861   -13791   -13752   -13755   -13786   -13807 
  -13814   -13836   -13878   -13940   -14019   -14084   -14103   -14094 
  -14091   -14115   -14154   -14177   -14176   -14166   -14158   -14148 
  -14111   -14035   -13938   -13856   -13824   -13852   -13915   -13969 
  -13991   -13971   -13921   -13869   -13822   -13784   -13757   -13745 
  -13760   -13813   -13883   -13949   -13994   -13998   -13964   -13913 
  -13871   -13864   -13888   -13914   -13914   -13891   -13868   -13868 
  -13883   -13879   -13837   -13801   -13811   -13864   -13942   -14029 
  -14085   -14112   -14133   -14133   -14102   -14049   -13987   -13948 
  -13960   -14007   -14062   -14103   -14092   -14017   -13905   -13803 
  -13757   -13783   -13867   -13956   -13988   -13956   -13910   -13895 
  -13910   -13937   -13950   -13937   -13902   -13864   -13840   -13842 
  -13869   -13910   -13948   -13965   -13968   -13960   -13946   -13936 
  -13941   -13954   -13953   -13921   -13859   -13791   -13749   -13751 
  -13790   -13848   -13903   -13941   -13946   -13933   -13941   -13986 
  -14044   -14081   -14075   -14027   -13961   -13906   -13905   -13972 
  -14062   -14122   -14135   -14137   -14141   -14130   -14080   -13987 
  -13878   -13788   -13740   -13726   -13724   -13724   -13733   -13763 
  -13813   -13865   -13905   -13938   -13964   -13983   -14003   -14031 
  -14071   -14103   -14102   -14062   -14007   -13961   -13945   -13959 
  -13976   -13975   -13948   -13909   -13873   -13856   -13861   -13875 
  -13878   -13865   -13860   -13886   -13936   -13990   -14038   -14076 
  -14088   -14069   -14031   -14008   -14014   -14029   -14040   -14038 
  -14006   -13942   -13872   -13841   -13863   -13906   -13933   -13918 
  -13869   -13813   -13768   -13759   -13801   -13871   -13923   -13917 
  -13867   -13840   -13873   -13950   -14049   -14142   -14188   -14175 
  -14130   -14089   -14058   -14029   -13990   -13926   -13846   -13771 
  -13720   -13706   -13737   -13788   -13829   -13855   -13864   -13860 
  -13863   -13879   -13894   -13910   -13927   -13933   -13926   -13905 
  -13868   -13840   -13852   -13923   -14035   -14129   -14170   -14166 
  -14129   -14069   -14021   -13984   -13945   -13909   -13886   -13867 
  -13838   -13797   -13761   -13772   -13838   -13929   -14007   -14058 
  -14080   -14080   -14069   -14033   -13972   -13922   -13902   -13918 
  -13961   -13996   -13992   -13934   -13841   -13757   -13721   -13728 
  -13768   -13836   -13905   -13953   -13973   -13967   -13942   -13913 
  -13883   -13867   -13894   -13969   -14076   -14176   -14256   -14311 
  -14323   -14280   -14215   -14157   -14102   -14065   -14060   -14060 
  -14048   -14026   -13996   -13961   -13929   -13898   -13872   -13857 
  -13841   -13805   -13767   -13770   -13819   -13886   -13941   -13965 
  -13949   -13906   -13860   -13815   -13784   -13783   -13797   -13782 
  -13722   -13635   -13555   -13506   -13500   -13518   -13558   -13630 
  -13737   -13855   -13960   -14031   -14064   -14083   -14106   -14142 
  -14188   -14224   -14238   -14239   -14231   -14210   -14181   -14157 
  -14145   -14141   -14125   -14110   -14118   -14138   -14138   -14075 
  -13946   -13811   -13734   -13757   -13844   -13910   -13917   -13880 
  -13832   -13792   -13764   -13757   -13779   -13824   -13878   -13932 
  -13976   -14000   -13996   -13976   -13968   -13968   -13948   -13905 
  -13868   -13860   -13864   -13869   -13876   -13872   -13856   -13842 
  -13848   -13890   -13967   -14061   -14153   -14224   -14254   -14233 
  -14172   -14102   -14045   -14004   -13981   -13968   -13960   -13945 
  -13891   -13821   -13772   -13751   -13752   -13767   -13783   -13797 
  -13792   -13771   -13757   -13771   -13821   -13892   -13945   -13963 
  -13954   -13927   -13894   -13872   -13868   -13883   -13906   -13930 
  -13956   -13968   -13967   -13968   -13968   -13959   -13944   -13926 
  -13907   -13884   -13864   -13868   -13910   -13979   -14054   -14112 
  -14129   -14088   -14000   -13882   -13780   -13757   -13807   -13876 
  -13925   -13937   -13927   -13932   -13972   -14041   -14099   -14122 
  -14133   -14161   -14211   -14262   -14287   -14278   -14231   -14138 
  -13998   -13845   -13732   -13691   -13707   -13738   -13753   -13736 
  -13701   -13651   -13583   -13529   -13539   -13628   -13757   -13860 
  -13914   -13938   -13967   -14011   -14049   -14057   -14021   -13949 
  -13886   -13868   -13898   -13950   -13998   -14034   -14054   -14049 
  -14019   -13994   -13988   -13977   -13930   -13861   -13818   -13842 
  -13930   -14046   -14141   -14180   -14172   -14134   -14095   -14072 
  -14060   -14050   -14058   -14081   -14102   -14094   -14052   -13984 
  -13900   -13814   -13756   -13736   -13748   -13791   -13867   -13942 
  -13961   -13917   -13864   -13841   -13856   -13899   -13922   -13892 
  -13826   -13757   -13711   -13699   -13718   -13763   -13822   -13867 
  -13880   -13868   -13838   -13814   -13838   -13942   -14102   -14273 
  -14399   -14424   -14355   -14239   -14116   -14021   -13969   -13952 
  -13950   -13946   -13937   -13941   -13963   -13975   -13944   -13861 
  -13759   -13695   -13713   -13815   -13953   -14052   -14076   -14033 
  -13950   -13868   -13814   -13806   -13856   -13965   -14103   -14204 
  -14229   -14187   -14122   -14079   -14060   -14048   -14034   -14014 
  -13992   -13986   -14004   -14041   -14083   -14123   -14148   -14142 
  -14089   -13996   -13884   -13779   -13691   -13644   -13644   -13679 
  -13728   -13776   -13817   -13846   -13851   -13807   -13760   -13772 
  -13849   -13932   -13949   -13872   -13741   -13639   -13620   -13675 
  -13771   -13880   -13979   -14045   -14048   -13983   -13921   -13925 
  -13973   -13991   -13937   -13846   -13799   -13818   -13868   -13914 
  -13940   -13950   -13956   -13971   -13996   -14035   -14087   -14145 
  -14219   -14301   -14353   -14346   -14310   -14287   -14289   -14288 
  -14247   -14170   -14075   -13968   -13861   -13763   -13675   -13616 
  -13586   -13585   -13626   -13710   -13802   -13867   -13884   -13841 
  -13760   -13706   -13752   -13890   -14033   -14115   -14134   -14104 
  -14054   -14010   -13981   -13968   -13956   -13937   -13921   -13937 
  -13983   -14021   -14022   -14000   -13990   -13995   -14014   -14049 
  -14077   -14062   -13991   -13878   -13737   -13597   -13505   -13486 
  -13535   -13635   -13730   -13759   -13693   -13554   -13401   -13323 
  -13366   -13504   -13667   -13810   -13917   -13977   -14011   -14056 
  -14125   -14192   -14224   -14187   -14068   -13906   -13765   -13702 
  -13713   -13744   -13747   -13726   -13732   -13795   -13906   -14044 
  -14204   -14378   -14550   -14697   -14808   -14875   -14889   -14864 
  -14809   -14700   -14530   -14316   -14081   -13848   -13644   -13474 
  -13324   -13193   -13095   -13024   -12981   -12995   -13089   -13232 
  -13351   -13416   -13451   -13487   -13549   -13641   -13737   -13815 
  -13884   -13980   -14134   -14349   -14586   -14793   -14941   -15055 
  -15161   -15264   -15346   -15387   -15375   -15321   -15233   -15095 
  -14917   -14719   -14511   -14303   -14118   -13967   -13834   -13701 
  -13575   -13477   -13408   -13373   -13377   -13413   -13473   -13545 
  -13601   -13594   -13514   -13392   -13266   -13169   -13115   -13115 
  -13171   -13263   -13354   -13423   -13468   -13497   -13513   -13527 
  -13537   -13539   -13510   -13454   -13410   -13406   -13444   -13528 
  -13625   -13697   -13744   -13806   -13906   -14050   -14222   -14382 
  -14486   -14528   -14515   -14454   -14361   -14243   -14088   -13896 
  -13683   -13489   -13358   -13286   -13263   -13311   -13446   -13652 
  -13880   -14085   -14243   -14353   -14440   -14559   -14736   -14931 
  -15060   -15064   -14929   -14685   -14412   -14188   -14033   -13950 
  -13956   -14048   -14210   -14434   -14671   -14847   -14924   -14924 
  -14875   -14814   -14775   -14760   -14728   -14621   -14396   -14054 
  -13647   -13252   -12941   -12707   -12492   -12249   -11993   -11794 
  -11732   -11821   -12023   -12280   -12563   -12862   -13180   -13529 
  -13927   -14330   -14681   -14959   -15142   -15241   -15295   -15317 
  -15292   -15209   -15061   -14860   -14624   -14358   -14069   -13795 
  -13585   -13439   -13316   -13169   -12977   -12773   -12594   -12460 
  -12386   -12405   -12537   -12768   -13062   -13373   -13659   -13921 
  -14188   -14480   -14800   -15106   -15338   -15453   -15450   -15367 
  -15263   -15168   -15064   -14916   -14721   -14493   -14262   -14092 
  -14027   -14040   -14062   -14067   -14068   -14089   -14130   -14172 
  -14199   -14195   -14139   -14022   -13834   -13581   -13298   -13032 
  -12823   -12721   -12761   -12900   -13055   -13197   -13325   -13450 
  -13594   -13780   -14003   -14230   -14401   -14467   -14416   -14296 
  -14181   -14133   -14166   -14247   -14347   -14466   -14612   -14786 
  -14982   -15136   -15167   -15049   -14824   -14566   -14347   -14218 
  -14193   -14247   -14301   -14296   -14233   -14107   -13919   -13711 
  -13516   -13348   -13234   -13174   -13154   -13162   -13169   -13136 
  -13057   -12953   -12861   -12819   -12854   -12964   -13112   -13261 
  -13367   -13393   -13339   -13259   -13213   -13258   -13433   -13707 
  -13981   -14183   -14308   -14388   -14446   -14489   -14505   -14470 
  -14370   -14219   -14053   -13923   -13878   -13926   -14015   -14076 
  -14081   -14038   -13959   -13837   -13680   -13501   -13308   -13109 
  -12946   -12884   -12964   -13176   -13464   -13771   -14057   -14316 
  -14562   -14798   -15021   -15228   -15391   -15473   -15466   -15403 
  -15311   -15192   -15068   -14978   -14943   -14947   -14944   -14895 
  -14797   -14655   -14496   -14353   -14230   -14123   -14019   -13891 
  -13725   -13541   -13381   -13265   -13186   -13127   -13072   -13030 
  -13001   -12980   -12965   -12955   -12946   -12947   -12977   -13045 
  -13165   -13355   -13603   -13821   -13915   -13859   -13698   -13505 
  -13355   -13306   -13386   -13545   -13699   -13807   -13891   -13983 
  -14107   -14274   -14477   -14671   -14796   -14825   -14790   -14737 
  -14700   -14698   -14709   -14654   -14485   -14234   -13984   -13806 
  -13718   -13664   -13568   -13419   -13252   -13116   -13043   -13050 
  -13123   -13221   -13308   -13359   -13381   -13408   -13493   -13639 
  -13780   -13841   -13802   -13699   -13603   -13606   -13774   -14087 
  -14477   -14864   -15180   -15388   -15477   -15489   -15491   -15495 
  -15441   -15286   -15048   -14778   -14500   -14215   -13930   -13655 
  -13404   -13189   -13026   -12933   -12930   -13024   -13197   -13413 
  -13645   -13879   -14108   -14311   -14459   -14553   -14611   -14634 
  -14612   -14546   -14426   -14257   -14072   -13894   -13717   -13554 
  -13447   -13427   -13463   -13483   -13424   -13270   -13077   -12930 
  -12865   -12873   -12946   -13068   -13219   -13382   -13516   -13593 
  -13616   -13599   -13564   -13525   -13513   -13560   -13647   -13725 
  -13782   -13807   -13807   -13837   -13915   -14004   -14075   -14133 
  -14192   -14301   -14486   -14698   -14856   -14908   -14848   -14742 
  -14674   -14654   -14652   -14667   -14683   -14677   -14639   -14557 
  -14436   -14330   -14285   -14300   -14338   -14362   -14337   -14254 
  -14141   -14026   -13950   -13942   -13986   -14007   -13941   -13795 
  -13614   -13452   -13347   -13306   -13315   -13346   -13389   -13441 
  -13500   -13549   -13587   -13644   -13761   -13934   -14092   -14154 
  -14127   -14080   -14064   -14111   -14214   -14319   -14366   -14338 
  -14257   -14154   -14054   -13967   -13873   -13745   -13564   -13370 
  -13246   -13243   -13350   -13485   -13559   -13533   -13443   -13367 
  -13382   -13506   -13684   -13834   -13909   -13925   -13903   -13856 
  -13803   -13756   -13707   -13660   -13618   -13581   -13555   -13552 
  -13576   -13641   -13768   -13933   -14068   -14135   -14149   -14137 
  -14125   -14145   -14202   -14270   -14312   -14292   -14229   -14176 
  -14177   -14237   -14331   -14426   -14489   -14519   -14538   -14570 
  -14640   -14758   -14870   -14881   -14742   -14490   -14235   -14076 
  -14026   -14015   -13973   -13863   -13672   -13429   -13204   -13082 
  -13096   -13213   -13386   -13563   -13697   -13770   -13801   -13818 
  -13822   -13778   -13675   -13537   -13392   -13269   -13176   -13111 
  -13078   -13092   -13165   -13288   -13432   -13581   -13716   -13837 
  -13953   -14061   -14141   -14183   -14202   -14218   -14245   -14301 
  -14411   -14581   -14781   -14924   -14963   -14925   -14858   -14794 
  -14758   -14740   -14716   -14647   -14528   -14405   -14318   -14264 
  -14219   -14158   -14053   -13913   -13784   -13684   -13597   -13513 
  -13451   -13423   -13408   -13378   -13339   -13323   -13359   -13456 
  -13575   -13657   -13670   -13612   -13521   -13447   -13439   -13517 
  -13653   -13802   -13936   -14026   -14062   -14095   -14188   -14334 
  -14447   -14458   -14378   -14272   -14192   -14145   -14107   -14046 
  -13942   -13797   -13644   -13531   -13477   -13493   -13585   -13720 
  -13837   -13882   -13836   -13747   -13686   -13710   -13845   -14046 
  -14219   -14283   -14230   -14095   -13910   -13698   -13495   -13346 
  -13265   -13251   -13305   -13420   -13563   -13691   -13792   -13891 
  -13992   -14092   -14191   -14278   -14357   -14435   -14505   -14547 
  -14551   -14528   -14477   -14386   -14270   -14168   -14111   -14096 
  -14095   -14072   -13992   -13857   -13721   -13644   -13629   -13679 
  -13811   -13998   -14183   -14327   -14396   -14399   -14391   -14409 
  -14443   -14454   -14393   -14250   -14080   -13960   -13911   -13900 
  -13878   -13795   -13629   -13414   -13204   -13059   -13053   -13166 
  -13308   -13417   -13482   -13521   -13581   -13702   -13860   -13995 
  -14081   -14110   -14056   -13936   -13810   -13749   -13782   -13891 
