Origin Time       2026/01/15 07:13:00
Lat.              42.7
Long.             145.4
Depth. (km)       30
Mag.              5.7
Station Code      HKD065
Station Lat.      43.7938
Station Long.     145.0565
Station Height(m) 10
Record Time       2026/01/15 07:13:50
Sampling Freq(Hz) 100Hz
Duration Time(s)  69
Dir.              U-D
Scale Factor      7845(gal)/8223790
Max. Acc. (gal)   2.498
Last Correction   2026/01/15 07:13:51
Memo.             
[...]
     -43     -511     -403      170      935      787     -268     -741 
    -382     -440    -1383    -2241    -2214    -1644     -984     -251 
     124     -210     -511     -427     -510     -661     -510     -213 
    -346    -1192    -1671    -1038      -81      460      415      260 
     452      490      253      -16     -419     -391      265      611 
     367       76     -139     -222      217      741      340     -442 
    -333      280      380      178       70     -315     -918     -980 
    -278      579      776      292     -275     -858    -1196     -638 
     328      718      360     -243     -186      643     1007      148 
   -1166    -1584     -876     -562    -1161     -951      268      718 
     218     -318     -534     -130      282       48     -118     -427 
   -1482    -1925     -980       49      465      611      476      249 
     402      615      413      -21     -361     -383     -195      -85 
     198      726      847      477       49     -638    -1229     -561 
     715      916      243     -328     -514     -213      195       21 
    -660    -1128    -1081     -918     -800     -469      -76       60 
     -35     -307     -575     -438      -36      113       63      -74 
    -315     -144      333      253      -32      183      279     -147 
    -391     -315     -499     -747     -670     -506     -156      526 
    1036      924      260     -132      437      850       91     -610 
    -452       43      712      891      276       37        0     -702 
    -986     -395     -279     -880    -1188     -876     -502     -584 
    -866     -831     -437      166      764      905      310     -589 
   -1070     -888     -361     -102     -136      145      469      195 
    -207     -344     -390      -58      454      448      214       18 
    -255      -68      558      843      661      151     -567     -872 
    -402      224       79     -966    -1742    -1269     -325     -116 
    -487     -565     -298     -170      -13      184      -63     -318 
    -133     -272     -726     -445      174      113      -97       91 
     203      -22     -429     -484       21      317      179      -64 
    -560     -611      294      583      -47      261      988      463 
    -492     -884     -896     -619     -349     -224       90      282 
     -74     -390       58      862      911       99     -498     -426 
    -143      -52     -481     -962     -635     -105        8      124 
      90     -157     -264     -421     -444      -99       28     -114 
     -54      155      234       16     -216      -71      176      356 
     317     -148     -317      -39      -72      -91      133     -128 
    -800    -1148     -961     -348      387      522     -105     -469 
    -133       36     -203     -151       95     -267    -1023    -1193 
    -761     -287      168      523      679      729      392     -252 
    -492     -209      101       74     -205     -341     -238      -37 
      91     -109     -394     -329      -41      352      648      450 
     125     -153     -769     -990     -328      101       52      233 
     282     -157     -554     -588     -295       33     -152     -572 
    -454      -97      -94     -394     -947    -1313     -905     -311 
     -76      257      621      618      491      415      534      749 
      78    -1448    -2107    -1470     -935     -838     -392      291 
     622      472       70      -49      321      656      523      147 
    -137     -195     -120     -232     -287      199      607      317 
     152      631      730       68     -519     -781     -635     -241 
    -260     -288      -64     -340     -769     -706     -473     -118 
     236       54     -194      280     1043     1117      259     -751 
   -1158    -1078     -729     -244       68      172      -24     -523 
    -681     -303      105      346      182     -444     -784     -552 
    -226      -63     -121     -278     -203       25       62     -114 
    -311     -257      183      363     -280     -831     -437      163 
     255       78     -321     -849     -838     -274      194      422 
     561      541      168     -382     -483     -172       41      234 
     302      -59     -396     -248       68       66     -145       90 
     745      881      349     -299     -851     -845     -375     -423 
    -700     -515     -368     -241      -40     -214      -49      531 
     238     -310      -81      -59     -625     -928     -699      -82 
     487      383     -241     -598     -423      -44      396      675 
     410      -28      -54      113       72     -129     -410     -669 
    -652     -637     -895     -780     -153      176      -71     -442 
    -453     -278     -380     -426     -163      -95     -263     -348 
    -346      -20      583      715      214     -221     -182       71 
     229      291      126     -391     -769     -545       90      573 
     243     -472     -322      298      249     -222     -553     -487 
      16      297      114       41      -64     -569     -878     -587 
     -71      379      587      562      494       49     -768    -1050 
    -684     -319       44      334       97     -384     -421     -257 
    -627     -994     -685     -576     -939     -818     -271       51 
     307      675      824      738      676      511       43     -530 
    -789     -642     -560     -664     -471      -24      197      108 
     -81      -17      256      113     -345     -248      313      475 
     126     -363     -731     -653     -342     -248     -139     -108 
    -340     -360     -315     -395     -183        8       49      317 
     318      -10      132      396      -33     -557     -508     -311 
     -87      224      271      248      225       -1       59      180 
    -236     -475     -263     -109      129      199     -310     -634 
    -342       51      315      329       98      -81     -297     -446 
    -228     -195     -623     -704     -407     -438     -556     -378 
    -216      -87       99      -43     -442     -472     -197      -55 
     -68     -307     -526     -197      274      338      175     -112 
    -263      -76     -102     -382     -371     -172      -14        2 
    -259     -410     -222     -255     -576     -600     -333     -170 
    -164       13      635     1117      805      226      112      463 
     756      318     -502     -550       17      240      238      359 
     383      276       59     -345     -527     -195       25     -290 
    -681     -753     -743    -1061    -1383    -1175     -754     -430 
    -164     -141     -240     -317     -598     -658     -122      279 
     156     -205     -669     -768     -415     -292     -211      288 
     649      479       98     -141       35      467      450       14 
      37      280      -52     -356     -230     -276     -448     -461 
    -329       -6      234      236      214       58     -311     -307 
     141      213      -74     -193     -402     -507     -186     -360 
    -918     -378      648      637      261      195     -135     -561 
    -761     -760     -203      475      519      167     -264     -441 
     -82      207      -20     -290     -202     -105     -386     -670 
    -603     -399     -267     -166      -54     -116     -267      -90 
     120     -141     -361     -120       83      189      535      675 
     317      148      257      -10     -360     -336     -477     -801 
    -747     -506     -342     -172      -28      -33     -423     -920 
    -808     -407     -236      170      556      193     -302     -175 
     280      515      197     -365     -504     -453     -508     -224 
      40     -344     -643     -333      -39       29      175      357 
     423      346      232      276      264     -162     -488     -190 
     163      157       51      -55      -79      -67     -255     -414 
    -307     -252     -364     -305     -209     -654    -1306    -1094 
    -114      445      228     -157     -194      162      191     -484 
    -880     -677     -646     -598     -172       85       -2     -197 
    -395     -382     -261     -203       -8       31     -278     -376 
    -305     -417     -271      263      557      409      191       87 
      12       90      330      363      226      301      464      432 
     337      338      125     -409     -549      -79      162      -81 
    -236     -191     -168      -17      199      139       48      108 
    -218     -901    -1254    -1121     -679     -122      275      457 
     233     -467    -1032    -1090     -735      -45      440      179 
    -472     -831     -571      172      792      746      180     -369 
    -606     -531     -318      -98       81      226      398      382 
     141      133      251      -13     -475     -616     -438     -541 
    -824     -538     -290     -869    -1507    -1467     -739      249 
     733      625      276     -280     -689     -496       60      334 
    -120     -847     -859     -168      387      535      540      537 
     506      248     -221     -334      -95        2      137      290 
     244      414      603      376      417      865      908      604 
     342       13     -295     -526     -742     -687     -387     -162 
      17      216      344      360      183     -153     -274       10 
     133     -298     -669     -396      121      151     -230     -226 
      56     -217     -697     -592     -197       54       59     -222 
    -467     -552     -657     -661     -733    -1081    -1281    -1136 
    -747     -149      125     -268     -784     -958     -777     -298 
      62      -62     -359     -662    -1028    -1090     -778     -257 
     508      859      263     -284      -20      375      456      488 
     430      179      113      459      858      909      642      373 
     238       29     -348     -550     -210      330      400      157 
     -48     -402     -507     -110      -67     -503     -720     -765 
    -847     -861     -707     -375      -98     -121     -503    -1024 
   -1165     -900     -634     -403     -283     -488     -777     -795 
    -340      402      637      282      106      130      136      213 
      72     -198     -203     -156      -29      402      653      517 
     306       76      -54     -149     -360     -334     -233     -434 
    -440      -52       83     -295     -668     -537     -187     -168 
    -500     -733     -479      -67      -16     -155     -282     -391 
    -378     -383     -299      122      311      -41     -450     -648 
    -376      180      170       -8      575     1062      595       89 
     257      475      182     -164      -64       67      -39       -2 
      98        8     -116     -341     -666     -762     -758     -866 
    -919     -872     -656     -243      -40     -195     -230       35 
     170       29     -110     -180     -278     -380     -225      168 
     130     -255      -70      483      629      345       -8       62 
     379      336      359      561      191     -372     -283      332 
     882      819      361      167       91      -36       48       39 
    -260     -399     -410     -548     -615     -546     -507     -575 
    -652     -545     -317     -265     -356     -364     -449     -517 
    -253      -63      -55       71       28     -193     -332     -441 
    -283       74      -60     -527     -653     -706     -934     -954 
    -826     -627     -287     -233     -176      480      824      361 
     216      433      189     -126       71      403      172     -480 
    -730     -595     -440       93      810      888      363     -194 
    -526     -577     -337      -52     -236     -803     -861     -437 
    -498     -730     -384     -145     -218      162      499      128 
    -410     -754     -669      -67      198     -102     -261     -378 
    -599     -392       94      255      222      252      225      267 
     453      513      508      568      286     -151        8      292 
      14     -263     -390     -638     -486      -16       10     -162 
     -89      -39       41      248      221      203      346       28 
    -398     -267      -41      171      510      418       66      108 
     310      441      587      548      421      363      101      -87 
     105      -28     -572     -589      -83      318      530      395 
    -268     -924    -1016     -677     -220      170      310      147 
    -206     -552     -754     -940    -1228    -1453    -1410    -1156 
    -877     -658     -635     -864    -1182    -1360     -994     -163 
     263      203      429      756      608      382      480      606 
     572      321     -197     -496     -268      -79     -155      -66 
      17     -291     -621     -414      189      415       87      -68 
     -60     -529    -1189    -1516    -1437     -888     -291     -163 
     -78      355      768      882      760      388     -151     -587 
    -907    -1105     -972     -812     -884     -631      -41      287 
     391      363      176      186      388      473      426      214 
     -90     -318     -583     -697     -294      384      864      928 
     715      625      679      515      112     -313     -707    -1004 
   -1158    -1247    -1190     -811     -164      371      548      766 
    1196     1209      870     1061     1710     2057     1950     1563 
     962      406      324      638      733      375     -137     -500 
    -626     -988    -1973    -2754    -2689    -2508    -2409    -1863 
   -1167     -672     -348     -448     -839    -1005     -869     -507 
      40      603      994      832      -44     -576       83      650 
     137     -259     -121     -409    -1117    -1814    -2193    -1741 
    -972     -935    -1337    -1144     -287      166     -299     -683 
    -407     -186     -274     -241      -72     -140     -531     -691 
    -140      897     1856     2029     1374      885     1023     1328 
    1530     1391      650     -205     -481     -122      557      978 
     572     -319     -862     -978    -1128    -1344    -1412    -1306 
    -864     -132      265      253      387      523      303       99 
      10     -411     -843     -803     -839    -1113    -1080     -958 
    -931     -653     -295     -113     -143     -348     -245      187 
     348      441      810      970      950     1034      731      225 
     253      467      534      788     1034     1053     1165     1138 
     398     -662    -1217    -1247    -1143    -1035     -854     -453 
     -40       49       98      326      448      400      302       66 
    -317     -684     -904     -819     -386       -6       27      -90 
    -222     -278     -206     -257     -464     -576     -618     -642 
    -529     -371     -302     -256     -164       36      106     -380 
   -1023    -1125     -884     -534      -51      163       27     -197 
    -571     -799     -602     -448     -587     -762     -635       13 
     657      629      407      531      395     -326     -855     -788 
    -403      121      430      292      189      205      -20      -85 
     260      388      124     -156     -301     -297     -317     -390 
    -230      -95     -153      159      452       41     -133      268 
     153     -280     -378     -784    -1323    -1125     -822     -891 
    -869     -819     -639     -234     -160     -194       81      184 
     -13     -302     -619     -727     -778    -1007     -934     -429 
    -113      -85       76      232       39     -264     -484     -764 
    -919     -675     -180      186      207      234      598      861 
     854      919      931      760      584      325       85      315 
     823      939      930     1359     1684     1475     1144      691 
     -39     -702    -1009     -899     -530     -156      191      334 
      67     -168     -122     -243     -473     -521     -788    -1290 
   -1418    -1204    -1111    -1127     -934     -463       44      504 
    1021     1455     1537     1134      492      149       45     -183 
    -284     -144     -222     -561     -766     -723     -560     -391 
    -267     -210     -256     -410     -607     -757     -842     -839 
    -800     -931    -1143    -1104     -832     -427       76      452 
     658      805      855      876      892      769      461      -37 
    -549     -845    -1005    -1036     -827     -554     -379     -240 
     -52      198      387      394      206      -87     -264     -307 
    -409     -479     -413     -469     -711     -795     -616     -425 
    -302     -182     -118     -122     -148     -243     -346     -318 
    -153      195      695      913      634      264      113       52 
     -71     -311     -554     -610     -568     -589     -603     -599 
    -665     -723     -692     -600     -488     -427     -480     -473 
    -144      360      679      815      824      565      172      -76 
     -97       93      290      319      248       40     -228     -259 
    -184     -286     -405     -448     -602     -756     -669     -473 
    -287      -41      240      523      746      814      710      382 
    -172     -664     -692     -310      -43       20      264      518 
     457      440      630      585      322      234      176        0 
     -81     -211     -459     -430     -232     -126       -6        5 
    -118     -171     -198     -156      -36      -39      -18      108 
     109       40     -182     -799    -1264    -1062     -603     -270 
     -64       27      133      187      -12     -190     -233     -460 
    -749     -822     -853     -965    -1028    -1058    -1204    -1196 
    -681      -47      375      792     1015      749      345       85 
     -89      -74      -31     -302     -583     -581     -554     -527 
    -427     -301      -55       25     -341     -648     -521     -309 
    -112      217      302      -10     -263     -369     -413     -268 
    -175     -216      -59      217      356      418      430      372 
     274      130      121      311      348      252      459      857 
    1034      958      787      627      496      318       76     -112 
    -141     -167     -409     -553     -306      -97     -174     -216 
    -198     -364     -584     -531     -356     -417     -544     -619 
    -842    -1007     -911     -696     -406     -162     -118     -155 
    -109       18      105       83       67      156      410      765 
     939      897      787      587      414      326      -36     -723 
   -1204    -1231    -1089    -1090    -1256    -1409    -1451    -1372 
   -1152     -915     -760     -545     -298     -301     -495     -557 
    -529     -499     -198      309      545      378      106      110 
     321      264        1      -12       87       -9     -114     -136 
    -259     -486     -708     -822     -801     -769     -643     -368 
    -211     -187      -85      120      426      650      599      488 
     457      376      298      291      191      -21     -124      -18 
     201      396      442      373      333      224      -66     -202 
      32      280      315      302      307      319      376      371 
     207      -28     -206     -130      128      195       54     -145 
    -353     -368     -276     -325     -387     -379     -387     -456 
