Origin Time       2026/01/15 07:13:00
Lat.              42.7
Long.             145.4
Depth. (km)       30
Mag.              5.7
Station Code      HKD075
Station Lat.      43.1309
Station Long.     145.0288
Station Height(m) 43
Record Time       2026/01/15 07:13:28
Sampling Freq(Hz) 100Hz
Duration Time(s)  67
Dir.              N-S
Scale Factor      7845(gal)/8223790
Max. Acc. (gal)   19.947
Last Correction   2026/01/15 07:13:28
Memo.             
[...]
     545      542      544      545      541      537      538      537 
     538      544      542      541      542      538      538      544 
     537      535      545      546      541      540      537      538 
     544      545      541      535      537      545      544      542 
     549      544      531      537      541      538      542      548 
     546      545      542      537      533      535      542      546 
     548      546      542      540      538      534      537      542 
     541      542      549      544      534      534      537      541 
     546      546      538      535      540      540      535      538 
     550      550      540      537      535      534      541      545 
     544      545      540      533      540      542      538      540 
     544      544      538      534      541      542      541      546 
     548      540      538      538      538      541      540      538 
     544      546      541      534      538      544      541      535 
     534      538      549      552      537      534      542      538 
     537      546      546      537      534      540      545      542 
     537      540      545      546      540      531      537      546 
     540      538      545      540      534      541      545      541 
     540      538      540      540      537      535      538      545 
     545      540      540      544      537      537      542      540 
     538      542      545      546      541      530      534      544 
     541      538      540      544      541      538      544      541 
     531      542      556      542      529      531      540      548 
     546      538      540      542      540      537      538      538 
     537      535      541      542      537      537      538      541 
     546      542      537      541      538      530      535      546 
     546      544      546      544      531      525      535      549 
     548      544      545      544      540      534      530      538 
     544      540      544      549      542      534      538      545 
     538      530      540      550      544      535      535      541 
     542      537      531      540      548      541      537      540 
     541      541      542      542      538      534      538      542 
     538      538      540      541      541      535      535      544 
     545      541      541      538      530      533      544      548 
     544      540      542      544      537      533      533      537 
     545      548      542      540      540      538      535      538 
     538      535      541      546      540      535      535      537 
     541      548      546      541      540      535      534      540 
     541      540      544      545      538      534      535      534 
     535      542      546      544      541      542      538      540 
     542      535      535      546      546      537      537      544 
     545      542      538      537      540      542      542      541 
     542      544      544      544      538      535      538      544 
     545      544      545      541      534      535      540      541 
     542      540      538      538      541      542      538      538 
     545      544      540      540      535      533      542      546 
     542      544      545      540      533      534      537      540 
     546      550      546      542      538      534      537      538 
     534      540      549      548      541      538      533      533 
     540      546      548      544      538      535      538      544 
     541      537      541      548      544      538      537      537 
     538      545      546      542      542      544      542      535 
     533      538      542      542      542      541      544      548 
     540      533      540      541      538      540      540      538 
     541      544      544      540      535      535      537      537 
     537      541      545      544      537      537      546      545 
     540      542      544      535      530      533      542      550 
     549      542      542      541      529      526      542      550 
     544      542      550      546      535      531      534      540 
     546      545      545      546      540      534      537      541 
     538      540      546      545      534      533      542      544 
     544      548      546      544      537      531      540      546 
     541      537      546      553      542      531      538      541 
     531      531      548      554      546      538      538      541 
     538      535      541      544      540      534      540      545 
     542      538      541      542      540      535      535      538 
     540      538      542      546      544      537      538      542 
     541      537      538      541      537      537      545      548 
     541      538      540      540      538      533      535      546 
     548      540      540      541      537      534      538      542 
     541      540      542      542      538      535      534      538 
     545      542      538      541      541      534      537      546 
     546      541      541      541      534      530      541      549 
     546      541      537      534      538      538      537      544 
     544      542      542      541      537      537      542      546 
     545      537      537      540      541      542      541      538 
     540      540      541      545      542      537      538      542 
     544      542      538      535      538      541      538      538 
     544      546      541      540      541      531      519      513 
     495      460      441      467      500      457      326      186 
      82       68      340      841      985      409     -351     -525 
      78     1039     1456      648     -720    -1140     -108     1445 
    2258     1696      240     -777     -388      841     1398      768 
    -117     -275      434     1422     1898     1540      634     -136 
     -85      575      891      427     -518    -1158     -481     1077 
    1587      676      -13      163      430      333      -29     -221 
      86      310      -24     -175      232      477      437      881 
    1740     1848     1139      770      761      650      846     1016 
     469      268     1444     2610     2353     1588     1352     1196 
     827      707      795      634      394      449      832     1431 
    1780     1561     1237      919       36    -1097    -1231      -82 
    1135     1030     -456    -1769    -1687     -373     1588     2840 
    1890     -394    -1771    -1582     -580      445      572     -495 
    -980      832     3187     3029      758     -468      706     2475 
    2443      334    -1803    -2099     -453     1996     3474     3040 
    1741     1209     1753     2016      780     -967    -1421     -302 
    1478     2362     1123     -940    -1416     -396      352      618 
     772     -160    -1794    -1717      -59      630      -67     -490 
     278     1174      542    -1121    -1578      272     2724     2668 
      -4    -1750     -756     1044     1906     1999     1580      888 
     580      988     2141     3221     2303     -901    -3385    -1912 
    2662     5682     4550     1894      811      715      284     -174 
    -851    -1636    -1102      340     1381     2386     3055     1706 
   -1651    -3856    -1969     2074     3874     2412     -190    -1949 
   -2120    -1169      160     1452     2034     1308     -226    -1015 
     -39     1345     1142      121      453     1961     2650     1966 
    1125      758      475      166      -67      128     1263     2215 
    1563      541      743     1186      411     -791     -878     -288 
    -126      -48      251      279      201      380      415      309 
     496      610      198     -461    -1034    -1274     -878        2 
     901     1537     1609     1015      642     1339     1917      704 
   -1190    -1228      780     2575     2484     1216      373      267 
     444      737      912      916      766      160     -245      406 
    1078      695      -48     -616    -1467    -2215    -1120     2170 
    4893     4444     1853      -86     -452     -418    -1225    -2681 
   -2934     -765     1958     2682     1813      972      514      769 
    1800     2261     1485      279     -799    -1298     -920     -414 
     -58     1027     2755     3834     3595     2328      525    -1167 
   -1698     -658      726     1291     1494     1698     1282      560 
     467      383     -438     -953     -230     1016     1636     1127 
    -371    -1900    -1904     -267     1081     1140      739      340 
     310     1285     2373     2174      850     -750    -1944    -1896 
    -414     1300     2191     2425     2101     1243      584      396 
     132     -167      135      699      739      716     1212     1656 
    1366      414     -468     -612      -28      749     1233     1474 
    1502      962       60     -405      -86      545      542     -410 
   -1264    -1036     -237      442     1405     2897     3808     2737 
     102    -2066    -2772    -2581    -1922     -521     2007     4473 
    4340     1679     -395     -229      897     1146      -78    -1668 
   -1769       43     2258     3258     2829     1830      666     -568 
    -984     -113     1170     2012     2228     1773      685     -471 
   -1044    -1088     -835     -182      996     2322     2678     1610 
     297     -259     -328     -222      -21      -66     -217      164 
     893     1236     1148      807       21     -824     -820     -190 
     -12     -167      364     1594     2613     2720     1472     -737 
   -2085    -1413      187     1138     1077      824     1235     1864 
    1776     1088      417     -121     -392       40      986     1444 
     842     -144     -391      307     1224     1603     1112      -28 
   -1005     -897      318     1607     1875      905     -234     -356 
     193      334      -35      -89      816     2057     2085      565 
    -862     -685      623     1304      646      -59      479     1620 
    1837     1066      588      804      912      664      550      440 
    -118     -773     -697      297     1232     1387     1262      973 
     271     -209      -16      535     1109     1532     1844     1857 
    1032     -473    -1350     -448     1233     1513      355     -421 
      22     1256     2373     2170      392    -1448    -1831     -801 
     503      990      768      814     1298     1467      980      309 
    -203     -615     -643      112     1242     1644      958      174 
       9       78       56        6       98      650     1607     2169 
    1852     1196      554     -164     -504     -406     -463     -356 
     414     1385     2079     2196     1497      405     -388     -618 
    -625     -795     -688       87      920     1325     1632     1995 
    2107     1799     1003      -48     -495       -8      526      391 
     -20     -108      221      762     1008      916     1335     1853 
    1082     -221     -664     -893    -1478    -1649     -865      642 
    1900     2165     1750     1003      500     1015     1543      657 
    -737    -1007      -91     1032     1549     1459     1273     1123 
    1007     1227     1630     1524      957      556      252     -114 
      17      729     1078      610       75       66      140     -122 
    -492     -724     -773     -490      311     1447     2266     2139 
    1116       32     -464     -518     -291      299      824      773 
     469      182     -141      216     1621     2636     1869      346 
      75      737      633      -71     -226      103      371      348 
     -28      -55     1000     2138     2091     1201       47     -916 
    -700      529     1152      568     -282     -267     1185     3184 
    3518     1135    -2161    -3402    -1702      938     2548     2797 
    1733      136     -449      118      796     1007      661      207 
     588     1784     2397     1665      311     -703    -1069    -1075 
    -861     -135      997     1861     2031     1435      456       28 
     396      990     1517     1761     1522     1136      980      884 
     639      210     -552    -1055      -94     2087     3935     4425 
    3333     1135    -1094    -2631    -3150    -2307     -587      685 
    1171     1860     3119     4017     3593     1715     -643    -1895 
   -1227      611     2041     2092     1205      778     1435     2091 
    1638      592      305     1162     2346     2991     2921     2416 
    1379     -684    -3225    -4078    -1804     1663     2984     1765 
     403      284      831     1420     2177     3303     4245     3942 
    2110     -243    -1413     -893     -683    -2243    -3875    -3546 
   -1548      445     1000      432      529     1683     2214      959 
   -1266    -2631    -2438    -1949    -2007    -1354     1054     3985 
    5872     6712     6048     2605    -1979    -3994    -2683     -518 
      29    -1069    -1541       35     2478     3430     1140    -3905 
   -8301    -8872    -6280    -2901      788     5470    10214    11658 
    7268    -1008    -8505   -11997   -11007    -6883    -1382     4468 
   10440    15476    16819    12941     5275    -3758   -11416   -15630 
  -16657   -14620    -8468     1151    11495    18667    19381    14307 
    6829    -1467   -10538   -18335   -20370   -13582     -515    11213 
   15217    11855     5790      402    -3923    -8553   -12667   -11421 
   -2285     9844    17601    18408    14866     9130       89   -11095 
  -17693   -15079    -6376     2099     6673     8189     8581     6733 
    1904    -1760       31     5078     7231     3569    -3670    -9540 
   -9537    -3649     3358     7419     8043     6839     6434     7273 
    4814    -4334   -15172   -19144   -13439    -2296     7053    10457 
   10681    11476    10501     3279    -8599   -17428   -16582    -6388 
    5017     8976     5979     2718     2628     5008     7291     5772 
    -634    -8193   -11956    -9566    -2290     5259     7601     3991 
     592     2401     6681     8399     5580     -827    -6929    -8903 
   -7825    -7531    -7366    -2529     7110    15352    17460    14025 
    8077     1637    -4773    -9834   -10777    -6304      106     1814 
   -2705    -6386    -2999     5022    11356    12309     7479     -352 
   -7067   -11007   -11520    -7727    -2099     1799     4380     7221 
    9391     9752     9155     8718     7681     4633      259    -3264 
   -4810    -4615    -3073      205     5040     8388     7264     3474 
    1085      749      -49    -2110    -3017    -1452      313     -454 
   -3356    -5695    -6496    -6430    -4665     -488     4344     7469 
    7655     4900      171    -4911    -8317    -8901    -7622    -5134 
     359     8441    13531    11707     5640      155    -2579    -3240 
   -3443    -3416    -2120      295     2781     5161     7431     8974 
    9229     7788     4452     -174    -4845    -8287    -9779    -9251 
   -6663    -1842     4072     7865     7566     4857     1416    -3198 
   -8124   -10200    -7600    -1931     3107     4467     2168     -820 
   -1358      679     1838     -375    -3113    -2004     1929     3919 
    2473      811     1732     3599     3042      444     -170     2874 
    6150     6004     2469    -2238    -5335    -5175    -3215    -1601 
      40     2616     4897     5078     3424     1799      616    -1756 
   -5022    -6289    -4587    -1323     2103     5067     8201    11115 
   10817     5611    -1575    -6199    -7635    -8101    -7300    -3748 
    1588     6982    10974    11583     8310     3214    -1054    -2880 
   -3029    -3788    -5371    -5718    -3350      930     4099     3871 
    1275    -1101    -1931    -1491     -421      850     1958     2641 
    3299     4941     7099     7349     4232     -820    -4546    -5046 
   -3107       47     3387     5694     6836     6856     4491     -885 
   -7186   -11022   -10663    -6620     -290     6139     9771     8907 
    4526     -382    -3302    -4388    -5266    -5929    -4492     -696 
    2451     2839     2269     2897     4110     4625     4361     3642 
    3117     3032     1829    -1200    -3952    -4862    -4621    -3842 
   -1745     2259     6509     8066     5570      660    -2887    -3256 
   -2776    -3419    -3762    -2089     1077     3636     3680     1595 
    -287    -1335    -3292    -6523    -8623    -6677     -198     7175 
   10805     9956     7038     3501    -1246    -6952   -10287    -8329 
   -2367     4120     8345     9499     8862     7040     3150    -1895 
   -5211    -5580    -3821     -595     2922     4282     2702      895 
    1532     3944     5479     4199      616    -2474    -3100    -2328 
   -1379      510     2768     3311     2455     1613      927      537 
      37    -1183    -1598     -394      479      573      955     1154 
     765       41     -934    -1314     -970    -1251    -1437     1086 
    5310     6511     2980    -1972    -4803    -4841    -3260     -753 
    2899     6866     8679     6789     2725     -950    -3179    -3478 
   -1922      355     2722     4463     3773      359    -3271    -4598 
   -3958    -3793    -4777    -4608    -1976     1960     5551     6925 
    5667     3931     2598       -9    -4166    -7349    -7271    -4298 
    -556     2511     4796     6507     7797     8249     6436     1567 
   -4972   -10021   -10197    -5132     1648     6999    10341    11391 
    9197     3661    -3181    -8544   -10957    -9880    -5275      927 
    5563     7520     7507     5625     2342     -899    -3534    -5424 
   -5462    -2925     1004     3861     4124     3032     2421     1634 
    -513    -2608    -2382      153     3123     4185     1840    -1628 
   -1857     1062     2740     1028    -1289     -542     2744     4976 
    4317     1715    -1098    -2895    -3650    -3998    -3283     -230 
    3531     4315     1822     -380     -191      865      557     -967 
   -1507      -99     1678     2381     2338     2070     1745     1919 
    2442     2238     1566     1904     3013     2744      140    -3496 
   -5900    -5208    -1890     1698     4495     6430     6527     4383 
     967    -2808    -6216    -8340    -8403    -5379     1105     7965 
   10420     8068     4394     1030    -2245    -4368    -4056    -1702 
    1183     3083     3631     3789     4168     4050     2608      619 
    -318     -637    -2288    -4881    -5599    -3341     -101     1675 
    1359      356      400     1742     3237     3076      691    -1802 
   -2809    -3312    -3430    -1645     2015     5605     7014     5368 
    2137     -302    -1659    -3144    -4291    -3246     -148     2609 
    3547     3095     2058      994      469     1007     2479     3588 
    3126     1530      -37    -1017    -1206     -669      387     2025 
    3677     3881     2115     -538    -2874    -4271    -4348    -3037 
    -808     1688     4351     6747     6982     4001     -579    -4604 
   -6975    -7314    -5769    -3001      144     3311     6041     6980 
    5594     3199     1220      -70    -1125    -2197    -2868    -2478 
    -513     2882     6064     6841     5042     2619      719    -1333 
