Origin Time       2026/01/15 07:13:00
Lat.              42.7
Long.             145.4
Depth. (km)       30
Mag.              5.7
Station Code      HKD128
Station Lat.      42.7656
Station Long.     141.8219
Station Height(m) 31
Record Time       2026/01/15 07:14:36
Sampling Freq(Hz) 100Hz
Duration Time(s)  68
Dir.              U-D
Scale Factor      7845(gal)/8223790
Max. Acc. (gal)   1.118
Last Correction   2026/01/15 07:14:37
Memo.             
[...]
   -9084    -9076    -9051    -9008    -8959    -8916    -8878    -8849 
   -8822    -8783    -8733    -8676    -8617    -8580    -8576    -8602 
   -8664    -8756    -8858    -8957    -9035    -9080    -9090    -9076 
   -9050    -9020    -8995    -8977    -8959    -8938    -8918    -8904 
   -8892    -8881    -8878    -8880    -8880    -8874    -8858    -8831 
   -8802    -8783    -8783    -8812    -8865    -8916    -8955    -8978 
   -8978    -8955    -8916    -8866    -8797    -8718    -8642    -8583 
   -8565    -8591    -8638    -8694    -8742    -8780    -8807    -8826 
   -8849    -8897    -8966    -9024    -9047    -9027    -8970    -8905 
   -8849    -8814    -8811    -8838    -8872    -8900    -8920    -8926 
   -8916    -8895    -8878    -8881    -8904    -8938    -8965    -8970 
   -8949    -8910    -8861    -8812    -8779    -8768    -8776    -8793 
   -8810    -8810    -8785    -8749    -8715    -8685    -8664    -8660 
   -8669    -8707    -8768    -8837    -8907    -8964    -8989    -8992 
   -8981    -8968    -8947    -8924    -8911    -8901    -8881    -8850 
   -8808    -8768    -8738    -8718    -8707    -8712    -8733    -8764 
   -8811    -8873    -8941    -9005    -9057    -9085    -9090    -9070 
   -9024    -8970    -8932    -8924    -8941    -8958    -8957    -8931 
   -8876    -8791    -8718    -8677    -8657    -8653    -8657    -8658 
   -8656    -8652    -8654    -8667    -8684    -8707    -8738    -8770 
   -8811    -8868    -8928    -8969    -8982    -8972    -8942    -8920 
   -8924    -8959    -9018    -9078    -9115    -9108    -9055    -8978 
   -8907    -8860    -8846    -8872    -8905    -8918    -8910    -8885 
   -8853    -8826    -8810    -8802    -8797    -8791    -8777    -8762 
   -8749    -8741    -8749    -8758    -8758    -8761    -8775    -8802 
   -8849    -8911    -8966    -8988    -8974    -8939    -8900    -8880 
   -8895    -8937    -8980    -9004    -8995    -8957    -8922    -8912 
   -8934    -8976    -9015    -9030    -9013    -8972    -8924    -8892 
   -8877    -8877    -8881    -8887    -8896    -8907    -8907    -8904 
   -8903    -8897    -8881    -8860    -8838    -8820    -8803    -8784 
   -8758    -8722    -8683    -8646    -8610    -8576    -8550    -8538 
   -8545    -8576    -8630    -8696    -8769    -8839    -8896    -8945 
   -8981    -8997    -8997    -8993    -8992    -8996    -9009    -9027 
   -9036    -9016    -8969    -8911    -8861    -8822    -8792    -8777 
   -8779    -8795    -8822    -8857    -8899    -8932    -8950    -8945 
   -8916    -8883    -8860    -8845    -8826    -8791    -8731    -8653 
   -8577    -8526    -8511    -8526    -8554    -8588    -8627    -8665 
   -8695    -8723    -8753    -8787    -8824    -8862    -8891    -8911 
   -8924    -8937    -8959    -8991    -9026    -9063    -9096    -9109 
   -9103    -9082    -9051    -9012    -8981    -8962    -8962    -8976 
   -8976    -8946    -8891    -8819    -8750    -8710    -8711    -8752 
   -8810    -8866    -8911    -8931    -8927    -8910    -8889    -8870 
   -8858    -8860    -8872    -8887    -8903    -8920    -8946    -8978 
   -9007    -9018    -9003    -8964    -8916    -8884    -8872    -8877 
   -8887    -8884    -8858    -8808    -8745    -8691    -8667    -8681 
   -8722    -8758    -8781    -8793    -8795    -8784    -8769    -8766 
   -8785    -8820    -8856    -8888    -8924    -8965    -8992    -9012 
   -9047    -9089    -9116    -9124    -9119    -9107    -9084    -9054 
   -9035    -9028    -9031    -9022    -8981    -8905    -8808    -8712 
   -8629    -8568    -8545    -8565    -8607    -8649    -8692    -8734 
   -8770    -8796    -8816    -8837    -8862    -8891    -8908    -8911 
   -8901    -8888    -8873    -8862    -8869    -8896    -8937    -8981 
   -9024    -9045    -9032    -8991    -8922    -8837    -8758    -8694 
   -8648    -8623    -8608    -8591    -8564    -8533    -8514    -8510 
   -8523    -8561    -8627    -8721    -8833    -8954    -9063    -9144 
   -9186    -9193    -9177    -9150    -9134    -9140    -9169    -9201 
   -9202    -9153    -9067    -8965    -8873    -8816    -8800    -8807 
   -8812    -8787    -8723    -8631    -8530    -8445    -8390    -8368 
   -8374    -8402    -8459    -8541    -8627    -8699    -8743    -8764 
   -8775    -8788    -8816    -8873    -8951    -9032    -9097    -9132 
   -9136    -9123    -9101    -9073    -9050    -9036    -9019    -8973 
   -8903    -8812    -8706    -8607    -8541    -8519    -8559    -8657 
   -8792    -8941    -9076    -9170    -9211    -9192    -9128    -9036 
   -8939    -8853    -8789    -8749    -8723    -8704    -8694    -8688 
   -8684    -8687    -8700    -8723    -8761    -8810    -8865    -8924 
   -8976    -9026    -9081    -9130    -9153    -9140    -9094    -9004 
   -8883    -8766    -8679    -8630    -8635    -8675    -8719    -8748 
   -8754    -8742    -8748    -8797    -8888    -8995    -9081    -9121 
   -9117    -9072    -9013    -8974    -8959    -8969    -9001    -9027 
   -9012    -8961    -8900    -8846    -8806    -8779    -8762    -8748 
   -8727    -8716    -8725    -8742    -8762    -8781    -8785    -8784 
   -8791    -8820    -8870    -8930    -8992    -9049    -9088    -9105 
   -9119    -9135    -9142    -9131    -9105    -9066    -9016    -8962 
   -8910    -8860    -8812    -8768    -8719    -8654    -8581    -8521 
   -8491    -8496    -8534    -8603    -8687    -8753    -8793    -8816 
   -8826    -8838    -8862    -8892    -8924    -8962    -9000    -9035 
   -9076    -9120    -9162    -9181    -9177    -9163    -9142    -9115 
   -9097    -9101    -9126    -9144    -9126    -9059    -8965    -8862 
   -8772    -8704    -8665    -8638    -8602    -8549    -8495    -8460 
   -8453    -8469    -8490    -8505    -8507    -8499    -8490    -8502 
   -8545    -8621    -8719    -8814    -8895    -8968    -9024    -9072 
   -9126    -9177    -9213    -9220    -9190    -9128    -9049    -8947 
   -8827    -8700    -8577    -8476    -8411    -8401    -8444    -8515 
   -8596    -8677    -8742    -8787    -8814    -8834    -8862    -8907 
   -8969    -9045    -9128    -9213    -9297    -9370    -9425    -9454 
   -9450    -9412    -9333    -9209    -9057    -8911    -8793    -8704 
   -8648    -8615    -8587    -8544    -8479    -8401    -8333    -8298 
   -8309    -8364    -8453    -8556    -8661    -8764    -8868    -8974 
   -9077    -9166    -9234    -9277    -9293    -9279    -9256    -9235 
   -9215    -9200    -9185    -9165    -9150    -9143    -9134    -9113 
   -9080    -9028    -8957    -8869    -8765    -8646    -8517    -8397 
   -8302    -8236    -8199    -8199    -8237    -8307    -8401    -8507 
   -8618    -8730    -8850    -8986    -9144    -9313    -9468    -9585 
   -9651    -9664    -9624    -9543    -9436    -9310    -9180    -9053 
   -8931    -8808    -8684    -8572    -8488    -8444    -8434    -8451 
   -8482    -8514    -8538    -8560    -8587    -8629    -8683    -8739 
   -8787    -8822    -8849    -8865    -8876    -8903    -8950    -9004 
   -9040    -9046    -9007    -8934    -8856    -8783    -8718    -8673 
   -8645    -8621    -8591    -8557    -8523    -8498    -8499    -8546 
   -8629    -8722    -8812    -8887    -8935    -8959    -8968    -8976 
   -8984    -8993    -9015    -9050    -9099    -9153    -9204    -9252 
   -9292    -9302    -9265    -9173    -9036    -8868    -8685    -8515 
   -8376    -8272    -8201    -8170    -8179    -8209    -8248    -8303 
   -8374    -8459    -8577    -8737    -8914    -9090    -9251    -9374 
   -9440    -9437    -9359    -9231    -9096    -8981    -8915    -8905 
   -8947    -9024    -9124    -9238    -9342    -9406    -9420    -9385 
   -9315    -9217    -9108    -9009    -8934    -8888    -8860    -8824 
   -8770    -8696    -8606    -8518    -8448    -8395    -8360    -8344 
   -8347    -8370    -8421    -8499    -8591    -8695    -8815    -8943 
   -9063    -9167    -9251    -9319    -9383    -9447    -9493    -9510 
   -9482    -9387    -9242    -9074    -8918    -8804    -8737    -8712 
   -8722    -8753    -8791    -8838    -8901    -8978    -9051    -9113 
   -9161    -9182    -9174    -9138    -9070    -8969    -8847    -8729 
   -8622    -8537    -8490    -8483    -8496    -8506    -8496    -8468 
   -8417    -8353    -8293    -8247    -8220    -8228    -8271    -8330 
   -8406    -8499    -8602    -8707    -8810    -8919    -9038    -9158 
   -9262    -9327    -9344    -9321    -9267    -9197    -9134    -9094 
   -9080    -9084    -9100    -9126    -9142    -9132    -9097    -9032 
   -8938    -8826    -8702    -8575    -8456    -8347    -8257    -8202 
   -8191    -8224    -8291    -8380    -8472    -8541    -8584    -8611 
   -8626    -8644    -8677    -8719    -8757    -8785    -8807    -8819 
   -8822    -8827    -8839    -8873    -8949    -9070    -9225    -9381 
   -9497    -9560    -9575    -9548    -9504    -9467    -9436    -9391 
   -9328    -9238    -9108    -8951    -8799    -8672    -8581    -8521 
   -8476    -8438    -8402    -8364    -8334    -8332    -8360    -8403 
   -8460    -8541    -8654    -8789    -8939    -9088    -9211    -9296 
   -9344    -9371    -9389    -9398    -9394    -9370    -9310    -9211 
   -9070    -8910    -8762    -8657    -8603    -8594    -8600    -8584 
   -8542    -8488    -8441    -8433    -8490    -8613    -8788    -8984 
   -9155    -9261    -9292    -9281    -9275    -9290    -9320    -9351 
   -9373    -9373    -9333    -9251    -9134    -8997    -8851    -8707 
   -8581    -8488    -8426    -8384    -8348    -8313    -8283    -8262 
   -8255    -8274    -8325    -8403    -8500    -8614    -8737    -8857 
   -8974    -9082    -9181    -9256    -9293    -9288    -9244    -9173 
   -9097    -9039    -9001    -8991    -9009    -9032    -9031    -8991 
   -8914    -8812    -8715    -8640    -8595    -8588    -8618    -8657 
   -8691    -8722    -8749    -8762    -8770    -8784    -8803    -8826 
   -8851    -8884    -8928    -8976    -9005    -9009    -8985    -8945 
   -8899    -8862    -8842    -8833    -8826    -8819    -8802    -8752 
   -8667    -8563    -8456    -8357    -8284    -8245    -8241    -8264 
   -8306    -8364    -8430    -8503    -8584    -8677    -8779    -8893 
   -9026    -9180    -9358    -9545    -9718    -9849    -9911    -9890 
   -9792    -9648    -9505    -9398    -9327    -9269    -9213    -9148 
   -9049    -8907    -8739    -8564    -8405    -8290    -8222    -8195 
   -8203    -8239    -8290    -8349    -8418    -8498    -8580    -8653 
   -8716    -8770    -8806    -8815    -8806    -8787    -8766    -8752 
   -8753    -8784    -8831    -8885    -8937    -8969    -8976    -8964 
   -8938    -8928    -8959    -9031    -9120    -9201    -9269    -9325 
   -9373    -9421    -9477    -9518    -9512    -9445    -9325    -9167 
   -9012    -8900    -8845    -8842    -8868    -8885    -8880    -8850 
   -8819    -8812    -8837    -8876    -8908    -8918    -8903    -8876 
   -8845    -8819    -8800    -8765    -8687    -8559    -8399    -8252 
   -8147    -8091    -8089    -8118    -8162    -8214    -8267    -8330 
   -8437    -8595    -8789    -9001    -9196    -9348    -9448    -9495 
   -9513    -9526    -9548    -9585    -9613    -9617    -9595    -9540 
   -9452    -9347    -9228    -9103    -8970    -8826    -8680    -8556 
   -8460    -8397    -8364    -8352    -8348    -8337    -8317    -8305 
   -8325    -8388    -8483    -8591    -8691    -8766    -8811    -8830 
   -8833    -8819    -8800    -8783    -8775    -8784    -8811    -8860 
   -8923    -8985    -9042    -9085    -9100    -9093    -9074    -9046 
   -9008    -8955    -8873    -8764    -8644    -8541    -8480    -8471 
   -8510    -8586    -8675    -8754    -8808    -8833    -8835    -8820 
   -8799    -8787    -8791    -8806    -8819    -8826    -8834    -8849 
   -8889    -8972    -9084    -9205    -9323    -9420    -9482    -9509 
   -9505    -9471    -9416    -9342    -9240    -9113    -8964    -8792 
   -8613    -8451    -8322    -8239    -8197    -8186    -8203    -8247 
   -8310    -8395    -8492    -8591    -8687    -8781    -8864    -8937 
   -9018    -9105    -9188    -9255    -9298    -9319    -9313    -9288 
   -9254    -9223    -9193    -9157    -9109    -9057    -8985    -8878 
   -8735    -8577    -8438    -8337    -8297    -8328    -8424    -8556 
   -8676    -8753    -8788    -8807    -8843    -8922    -9045    -9202 
   -9378    -9549    -9682    -9745    -9740    -9675    -9560    -9416 
   -9263    -9100    -8928    -8758    -8592    -8437    -8293    -8163 
   -8054    -7973    -7917    -7886    -7877    -7882    -7898    -7946 
   -8029    -8151    -8311    -8499    -8700    -8907    -9112    -9300 
   -9458    -9583    -9682    -9749    -9784    -9784    -9753    -9691 
   -9606    -9501    -9377    -9232    -9073    -8911    -8766    -8661 
   -8602    -8576    -8575    -8594    -8625    -8665    -8714    -8773 
   -8849    -8947    -9066    -9188    -9288    -9335    -9317    -9240 
   -9111    -8950    -8797    -8662    -8538    -8419    -8297    -8174 
   -8058    -7948    -7866    -7835    -7861    -7931    -8032    -8154 
   -8293    -8449    -8623    -8812    -9007    -9202    -9394    -9566 
   -9707    -9814    -9883    -9909    -9895    -9850    -9775    -9666 
   -9529    -9375    -9209    -9027    -8831    -8626    -8418    -8225 
   -8064    -7939    -7850    -7801    -7789    -7823    -7909    -8039 
   -8202    -8397    -8606    -8824    -9053    -9282    -9499    -9701 
   -9868    -9980   -10031   -10027    -9965    -9861    -9725    -9555 
   -9364    -9157    -8927    -8681    -8436    -8221    -8056    -7935 
   -7848    -7797    -7774    -7785    -7831    -7921    -8066    -8247 
   -8442    -8645    -8841    -9013    -9157    -9262    -9332    -9371 
   -9394    -9408    -9409    -9410    -9416    -9414    -9405    -9391 
   -9371    -9336    -9282    -9204    -9107    -9004    -8900    -8803 
   -8731    -8692    -8688    -8707    -8727    -8743    -8765    -8785 
   -8803    -8822    -8838    -8837    -8822    -8796    -8756    -8712 
   -8677    -8660    -8676    -8715    -8761    -8797    -8808    -8788 
   -8745    -8685    -8631    -8603    -8603    -8618    -8635    -8653 
   -8668    -8688    -8721    -8773    -8865    -8989    -9120    -9248 
   -9358    -9424    -9454    -9455    -9437    -9421    -9409    -9400 
   -9398    -9405    -9401    -9377    -9327    -9244    -9126    -8973 
   -8795    -8615    -8456    -8328    -8247    -8214    -8209    -8229 
   -8267    -8311    -8364    -8430    -8506    -8583    -8661    -8723 
   -8757    -8765    -8749    -8708    -8654    -8603    -8573    -8569 
   -8590    -8642    -8718    -8800    -8873    -8930    -8974    -9011 
   -9051    -9107    -9181    -9262    -9336    -9397    -9441    -9464 
   -9470    -9470    -9472    -9479    -9489    -9486    -9450    -9363 
   -9236    -9086    -8934    -8788    -8650    -8511    -8378    -8255 
   -8148    -8066    -8019    -8006    -8025    -8070    -8137    -8218 
   -8306    -8391    -8473    -8561    -8661    -8776    -8905    -9042 
   -9169    -9278    -9362    -9408    -9412    -9378    -9316    -9232 
   -9139    -9045    -8951    -8856    -8765    -8684    -8606    -8530 
   -8476    -8452    -8460    -8514    -8607    -8722    -8856    -9011 
   -9171    -9323    -9464    -9597    -9710    -9794    -9838    -9840 
   -9798    -9701    -9549    -9358    -9132    -8885    -8633    -8392 
   -8172    -7977    -7828    -7734    -7692    -7699    -7747    -7827 
   -7928    -8052    -8197    -8353    -8514    -8665    -8791    -8880 
   -8937    -8966    -8982    -9007    -9040    -9080    -9111    -9126 
   -9126    -9111    -9082    -9051    -9027    -9007    -8989    -8969 
   -8954    -8959    -8980    -9012    -9049    -9085    -9116    -9144 
   -9159    -9151    -9128    -9093    -9042    -8977    -8919    -8874 
   -8837    -8799    -8762    -8727    -8677    -8603    -8523    -8451 
   -8399    -8383    -8403    -8442    -8484    -8521    -8549    -8573 
   -8602    -8638    -8692    -8772    -8870    -8974    -9073    -9169 
   -9266    -9351    -9416    -9460    -9479    -9464    -9406    -9313 
   -9198    -9073    -8950    -8846    -8765    -8699    -8646    -8611 
   -8583    -8567    -8564    -8573    -8610    -8672    -8750    -8837 
   -8930    -9022    -9094    -9139    -9173    -9198    -9207    -9212 
   -9224    -9240    -9247    -9242    -9216    -9150    -9040    -8907 
   -8766    -8630    -8506    -8401    -8311    -8239    -8182    -8141 
   -8121    -8132    -8174    -8251    -8359    -8491    -8650    -8826 
   -8996    -9150    -9278    -9377    -9448    -9493    -9506    -9491 
   -9455    -9398    -9323    -9227    -9112    -8997    -8892    -8806 
   -8742    -8706    -8698    -8708    -8715    -8712    -8698    -8671 
   -8634    -8600    -8591    -8617    -8668    -8742    -8822    -8891 
   -8949    -8992    -9031    -9074    -9120    -9166    -9202    -9227 
   -9232    -9207    -9148    -9057    -8938    -8806    -8669    -8536 
   -8428    -8361    -8338    -8352    -8398    -8460    -8522    -8587 
   -8650    -8704    -8762    -8824    -8884    -8935    -8968    -8984 
   -8986    -8980    -8974    -8974    -8980    -9001    -9038    -9076 
   -9108    -9130    -9136    -9121    -9081    -9026    -8974    -8935 
   -8907    -8878    -8845    -8807    -8752    -8681    -8608    -8544 
   -8496    -8471    -8465    -8492    -8553    -8635    -8733    -8834 
   -8930    -9023    -9109    -9182    -9239    -9288    -9328    -9366 
   -9404    -9441    -9472    -9486    -9471    -9417    -9317    -9178 
   -9009    -8814    -8604    -8401    -8224    -8082    -7985    -7946 
   -7962    -8025    -8124    -8247    -8387    -8532    -8671    -8799 
   -8920    -9040    -9148    -9238    -9312    -9369    -9394    -9386 
   -9355    -9309    -9262    -9217    -9171    -9123    -9077    -9022 
   -8950    -8872    -8793    -8718    -8649    -8581    -8517    -8469 
   -8451    -8468    -8514    -8577    -8660    -8745    -8804    -8842 
   -8862    -8866    -8853    -8829    -8800    -8773    -8753    -8746 
   -8753    -8768    -8773    -8764    -8756    -8752    -8764    -8797 
   -8843    -8893    -8938    -8964    -8958    -8924    -8883    -8842 
   -8814    -8807    -8814    -8833    -8851    -8857    -8861    -8877 
   -8897    -8914    -8918    -8908    -8897    -8889    -8891    -8905 
   -8931    -8961    -8986    -9000    -8999    -8992    -8982    -8973 
   -8968    -8964    -8959    -8951    -8931    -8895    -8850    -8806 
   -8772    -8760    -8772    -8807    -8860    -8918    -8976    -9030 
   -9069    -9088    -9090    -9085    -9073    -9049    -9015    -8981 
   -8946    -8918    -8901    -8895    -8896    -8903    -8910    -8912 
   -8905    -8887    -8861    -8834    -8803    -8765    -8722    -8679 
   -8648    -8626    -8611    -8611    -8623    -8641    -8660    -8691 
   -8735    -8791    -8857    -8932    -9013    -9093    -9162    -9215 
   -9255    -9275    -9275    -9252    -9207    -9146    -9074    -8991 
   -8896    -8793    -8687    -8576    -8464    -8370    -8309    -8282 
   -8287    -8322    -8383    -8464    -8564    -8672    -8777    -8868 
   -8941    -8988    -9012    -9013    -8997    -8977    -8961    -8947 
   -8939    -8937    -8934    -8928    -8922    -8911    -8893    -8870 
