Origin Time       2026/01/15 07:13:00
Lat.              42.7
Long.             145.4
Depth. (km)       30
Mag.              5.7
Station Code      HKD100
Station Lat.      42.2864
Station Long.     143.3120
Station Height(m) 36
Record Time       2026/01/15 07:14:09
Sampling Freq(Hz) 100Hz
Duration Time(s)  60
Dir.              N-S
Scale Factor      7845(gal)/8223790
Max. Acc. (gal)   7.610
Last Correction   2026/01/15 07:14:10
Memo.             
[...]
    -151     -128     -194     -355     -572     -774     -915     -973 
    -958     -911     -880     -891     -916     -916     -882     -835 
    -787     -714     -607     -511     -444     -371     -290     -256 
    -295     -383     -473     -534     -568     -610     -660     -689 
    -685     -660     -630     -619     -638     -670     -697     -716 
    -734     -764     -797     -777     -673     -541     -444     -414 
    -453     -529     -630     -762     -884     -930     -857     -689 
    -529     -457     -437     -403     -367     -372     -427     -511 
    -603     -700     -805     -908     -994    -1057    -1085    -1058 
    -984     -905     -845     -796     -746     -680     -591     -504 
    -445     -419     -444     -527     -643     -762     -869     -954 
   -1003     -992     -922     -808     -670     -527     -405     -322 
    -280     -267     -276     -310     -365     -436     -498     -556 
    -645     -788     -953    -1067    -1084    -1024     -934     -811 
    -646     -480     -379     -342     -348     -394     -465     -540 
    -615     -675     -718     -781     -868     -940     -985     -990 
    -951     -884     -795     -685     -583     -513     -477     -469 
    -475     -484     -498     -522     -556     -594     -634     -673 
    -693     -696     -683     -643     -588     -560     -604     -716 
    -851     -953     -992     -965     -870     -718     -549     -400 
    -288     -243     -287     -402     -538     -658     -754     -838 
    -892     -876     -818     -737     -625     -523     -486     -490 
    -490     -467     -441     -457     -537     -643     -723     -773 
    -823     -876     -897     -846     -741     -639     -577     -556 
    -565     -603     -666     -741     -811     -842     -822     -772 
    -722     -685     -660     -634     -616     -616     -625     -649 
    -700     -745     -762     -772     -793     -832     -861     -861 
    -822     -735     -595     -415     -237     -106      -58     -125 
    -309     -558     -818    -1034    -1166    -1200    -1140    -1011 
    -862     -729     -630     -583     -581     -592     -591     -577 
    -569     -591     -652     -706     -720     -724     -739     -745 
    -723     -673     -598     -518     -442     -359     -283     -253 
    -265     -291     -330     -384     -459     -581     -745     -907 
   -1059    -1190    -1263    -1258    -1171    -1013     -818     -631 
    -475     -368     -309     -270     -241     -224     -207     -216 
    -290     -434     -612     -796     -958    -1080    -1147    -1155 
   -1107    -1031     -980     -972     -977     -953     -881     -777 
    -665     -544     -392     -234     -103       -5       41        1 
    -101     -210     -313     -434     -598     -804    -1023    -1189 
   -1278    -1300    -1240    -1094     -916     -765     -658     -585 
    -533     -526     -603     -735     -834     -845     -785     -699 
    -596     -491     -396     -305     -206     -122      -87     -102 
    -144     -202     -284     -395     -538     -704     -885    -1069 
   -1228    -1327    -1347    -1332    -1325    -1308    -1255    -1165 
   -1039     -880     -706     -544     -395     -264     -168     -114 
    -105     -143     -207     -292     -425     -607     -793     -932 
    -992     -972     -916     -858     -797     -749     -737     -769 
    -838     -891     -886     -847     -783     -679     -542     -392 
    -245     -112       -8       45       31      -48     -184     -372 
    -588     -797     -972    -1104    -1204    -1286    -1354    -1371 
   -1313    -1194    -1036     -851     -649     -441     -259     -133 
     -82      -97     -140     -201     -325     -515     -716     -885 
    -984    -1000     -946     -830     -692     -585     -518     -484 
    -494     -542     -616     -697     -766     -789     -770     -735 
    -699     -660     -626     -610     -612     -633     -645     -615 
    -550     -500     -492     -511     -537     -583     -664     -751 
    -814     -845     -849     -819     -765     -719     -706     -730 
    -791     -870     -930     -945     -918     -850     -760     -679 
    -598     -481     -345     -240     -202     -228     -275     -319 
    -407     -558     -715     -815     -842     -811     -761     -726 
    -707     -680     -639     -604     -581     -589     -639     -715 
    -778     -827     -861     -865     -846     -807     -715     -568 
    -425     -356     -391     -510     -664     -820     -974    -1092 
   -1119    -1062     -970     -858     -711     -537     -386     -298 
    -274     -280     -284     -272     -284     -368     -508     -669 
    -832     -986    -1115    -1196    -1212    -1144    -1005     -837 
    -670     -534     -446     -379     -325     -299     -291     -315 
    -399     -530     -683     -828     -943    -1027    -1078    -1067 
    -974     -819     -649     -519     -442     -360     -270     -224 
    -248     -321     -422     -529     -616     -688     -754     -837 
    -946    -1031    -1055    -1044    -1017     -950     -835     -693 
    -557     -448     -364     -286     -218     -168     -149     -164 
    -226     -346     -506     -664     -818     -973    -1101    -1173 
   -1175    -1116    -1017     -904     -787     -689     -635     -622 
    -635     -656     -660     -643     -619     -594     -568     -535 
    -498     -477     -483     -503     -530     -549     -560     -572 
    -581     -602     -652     -730     -822     -907     -961     -963 
    -915     -824     -697     -544     -398     -315     -324     -410 
    -553     -723     -888    -1023    -1108    -1136    -1108    -1027 
    -897     -718     -481     -226      -29       74       93       44 
     -52     -209     -422     -648     -822     -922     -977    -1016 
   -1046    -1066    -1065    -1032     -988     -942     -880     -796 
    -704     -607     -508     -429     -386     -376     -375     -361 
    -360     -394     -459     -518     -544     -560     -602     -660 
    -729     -820     -935    -1066    -1178    -1229    -1215    -1162 
   -1094    -1009     -886     -737     -596     -499     -440     -383 
    -317     -256     -209     -170     -122      -78      -67      -91 
    -140     -205     -290     -399     -526     -646     -747     -851 
    -972    -1090    -1194    -1281    -1348    -1379    -1337    -1196 
    -953     -648     -317        2      261      425      504      507 
     411      207      -90     -452     -832    -1204    -1537    -1791 
   -1950    -2004    -1939    -1768    -1509    -1171     -793     -442 
    -180      -39       -2      -29     -109     -255     -468     -700 
    -895    -1021    -1047     -967     -824     -643     -442     -264 
    -148      -89      -82     -159     -341     -604     -888    -1150 
   -1368    -1514    -1549    -1470    -1309    -1115     -918     -712 
    -477     -237      -54       40       63       35      -52     -201 
    -388     -581     -739     -849     -897     -866     -787     -733 
    -712     -696     -704     -760     -847     -942    -1015    -1058 
   -1093    -1115    -1071     -932     -718     -484     -268      -86 
      44       82        8     -148     -367     -633     -880    -1051 
   -1136    -1139    -1085     -985     -842     -689     -554     -441 
    -365     -357     -433     -588     -781     -967    -1142    -1309 
   -1433    -1456    -1360    -1177     -936     -679     -436     -217 
     -35       94      159      130       10     -143     -306     -506 
    -749    -1003    -1224    -1391    -1489    -1503    -1428    -1258 
   -1020     -770     -554     -384     -268     -211     -209     -259 
    -357     -498     -675     -901    -1146    -1306    -1318    -1206 
   -1011     -761     -507     -279      -85       49       89       21 
    -128     -319     -511     -688     -846     -959     -984     -924 
    -838     -749     -634     -486     -345     -274     -298     -387 
    -494     -598     -692     -768     -846     -915     -932     -907 
    -877     -870     -880     -855     -793     -745     -747     -810 
    -920    -1036    -1098    -1066     -957     -810     -637     -444 
    -270     -159     -117     -117     -109      -68      -25      -25 
    -118     -333     -625     -934    -1208    -1364    -1358    -1209 
    -969     -696     -448     -229      -52       43       45       -6 
     -74     -156     -279     -440     -584     -683     -764     -873 
   -1011    -1132    -1193    -1202    -1205    -1217    -1208    -1147 
   -1054     -974     -909     -814     -642     -415     -201      -76 
     -51      -87     -163     -274     -425     -626     -895    -1206 
   -1502    -1715    -1783    -1690    -1491    -1244     -970     -657 
    -334      -89       43      108      141      133       82      -10 
    -148     -310     -499     -710     -889    -1012    -1066    -1023 
    -901     -749     -598     -465     -353     -255     -191     -202 
    -317     -521     -749     -947    -1128    -1308    -1475    -1602 
   -1652    -1607    -1479    -1298    -1098     -896     -715     -571 
    -442     -310     -189     -105      -64      -40      -28      -70 
    -187     -351     -517     -688     -880    -1048    -1142    -1173 
   -1205    -1287    -1387    -1391    -1248     -974     -587     -106 
     398      822     1085     1170     1090      884      615      344 
      76     -217     -554     -904    -1194    -1343    -1313    -1150 
    -900     -583     -270      -72      -33     -143     -367     -629 
    -854    -1035    -1181    -1290    -1370    -1429    -1460    -1453 
   -1390    -1263    -1066     -793     -491     -237      -78       -5 
      27       14      -95     -336     -650     -912     -999     -912 
    -753     -599     -465     -313     -113       64      126       70 
     -63     -247     -449     -638     -796     -924    -1048    -1186 
   -1278    -1219     -973     -611     -249       37      263      434 
     490      378       82     -361     -870    -1355    -1759    -2058 
   -2243    -2313    -2280    -2131    -1883    -1597    -1309    -1003 
    -660     -307       44      387      668      801      693      317 
    -229     -781    -1233    -1567    -1776    -1811    -1653    -1356 
   -1026     -762     -612     -531     -476     -472     -549     -688 
    -819     -896     -928     -884     -729     -540     -413     -340 
    -284     -255     -271     -348     -490     -681     -888    -1100 
   -1340    -1595    -1817    -1976    -2064    -2061    -1965    -1794 
   -1536    -1189     -791     -380       -1      280      403      386 
     302      186       52      -89     -226     -349     -463     -572 
    -693     -838     -974    -1053    -1059    -1040    -1044    -1042 
   -1001     -940     -919     -961    -1036    -1116    -1202    -1293 
   -1372    -1422    -1443    -1445    -1440    -1397    -1297    -1181 
   -1051     -819     -430       43      471      761      891      869 
     692      386       36     -311     -679    -1062    -1383    -1563 
   -1567    -1440    -1262    -1071     -866     -641     -417     -234 
     -75      116      334      519      643      738      855      980 
    1035     1017      978      919      785      503       29     -596 
   -1317    -2066    -2767    -3361    -3786    -3950    -3782    -3300 
   -2574    -1695     -750      195     1104     1902     2479     2724 
    2598     2160     1502      746        6     -648    -1171    -1493 
   -1540    -1304     -882     -432      -55      216      361      359 
     194     -135     -606    -1162    -1707    -2169    -2528    -2770 
   -2843    -2718    -2435    -2053    -1609    -1147     -710     -290 
      95      409      626      697      599      383       97     -252 
    -653    -1067    -1444    -1775    -2087    -2361    -2539    -2586 
   -2481    -2216    -1822    -1345     -882     -544     -386     -391 
    -484     -598     -704     -783     -812     -785     -656     -361 
      78      571     1046     1487     1877     2185     2336     2216 
    1737      931      -78    -1150    -2204    -3198    -4036    -4590 
   -4811    -4734    -4434    -3966    -3325    -2554    -1831    -1275 
    -864     -571     -380     -265     -238     -299     -409     -541 
    -688     -814     -861     -805     -672     -467     -199       72 
     314      564      827     1036     1173     1350     1669     2115 
    2600     3127     3744     4320     4704     4911     4905     4584 
    3893     2820     1436     -114    -1713    -3264    -4704    -5940 
   -6813    -7245    -7306    -7103    -6704    -6139    -5455    -4716 
   -3989    -3322    -2731    -2180    -1656    -1220     -942     -804 
    -704     -554     -325      -45      253      622     1100     1624 
    2096     2462     2731     2947     3148     3322     3420     3402 
    3246     2952     2554     2080     1539      935      303     -306 
    -850    -1308    -1699    -2081    -2481    -2870    -3192    -3403 
   -3497    -3520    -3516    -3524    -3569    -3653    -3794    -4017 
   -4286    -4510    -4611    -4530    -4229    -3724    -3060    -2245 
   -1294     -261      793     1776     2571     3137     3485     3605 
    3496     3238     2913     2577     2312     2164     2116     2147 
    2246     2407     2586     2658     2490     1989     1132      -17 
   -1433    -3095    -4858    -6489    -7763    -8510    -8635    -8106 
   -6943    -5255    -3176     -897     1260     2995     4172     4795 
    4873     4365     3302     1875      391     -841    -1656    -2057 
   -2026    -1549     -773      125      999     1587     1737     1506 
     923       24    -1073    -2261    -3430    -4490    -5377    -5965 
   -6087    -5676    -4815    -3620    -2197     -668      814     2062 
    2991     3611     3889     3778     3287     2528     1680      832 
     -10     -843    -1576    -2092    -2416    -2565    -2446    -2084 
   -1575    -1019     -610     -465     -514     -612     -658     -656 
    -661     -643     -535     -413     -441     -653     -928    -1213 
   -1579    -1968    -2211    -2236    -2007    -1487     -791      -85 
     540     1046     1439     1746     1908     1871     1706     1402 
     831      -10    -1082    -2284    -3414    -4351    -5031    -5339 
   -5193    -4649    -3828    -2821    -1718     -638      332     1121 
    1668     2004     2232     2381     2444     2384     2100     1613 
    1019      336     -421    -1193    -1902    -2462    -2843    -3048 
   -3053    -2895    -2702    -2529    -2316    -1989    -1516     -967 
    -488     -101      249      591      938     1202     1273     1161 
     922      588      189     -257     -738    -1124    -1223    -1009 
    -625     -186      260      670      970     1067      895      475 
     -94     -724    -1350    -1918    -2396    -2748    -2951    -2988 
   -2787    -2289    -1547     -660      283     1190     1957     2485 
    2712     2628     2231     1509      544     -506    -1510    -2358 
   -2974    -3366    -3572    -3565    -3287    -2712    -1877     -912 
     -13      661     1059     1161     1005      679      191     -427 
   -1063    -1609    -1985    -2164    -2170    -2002    -1614    -1027 
    -334      334      859     1182     1293     1173      826      294 
    -355    -1046    -1703    -2243    -2585    -2712    -2648    -2400 
   -2026    -1611    -1146     -637     -233      -49      -75     -276 
    -611     -993    -1377    -1728    -1973    -2097    -2127    -2057 
   -1864    -1497     -982     -398      180      642      908      989 
     951      859      685      395       47     -264     -461     -560 
    -675     -832     -923     -889     -753     -544     -311      -68 
     182      376      468      444      301       28     -356     -776 
   -1209    -1683    -2124    -2435    -2596    -2612    -2493    -2276 
   -2012    -1738    -1435    -1031     -527      -22      388      633 
     699      691      669      607      486      288       -8     -326 
    -549     -685     -781     -824     -800     -691     -519     -380 
    -337     -406     -581     -810    -1043    -1264    -1440    -1532 
   -1493    -1321    -1098     -878     -653     -430     -224      -58 
      31       78      141      233      342      440      488      460 
     332      125     -102     -288     -432     -545     -631     -707 
    -774     -837     -920     -981     -962     -903     -847     -803 
    -796     -827     -866     -923    -1008    -1104    -1206    -1336 
   -1533    -1814    -2176    -2613    -3021    -3250    -3237    -2979 
   -2540    -1973    -1244     -352      614     1529     2254     2700 
    2841     2674     2246     1626      892      153     -523    -1104 
   -1549    -1821    -1849    -1599    -1170     -712     -356     -160 
     -83     -102     -245     -535     -981    -1548    -2150    -2718 
   -3231    -3663    -3969    -4035    -3754    -3122    -2249    -1282 
    -356      430     1040     1489     1746     1780     1637     1371 
    1046      731      425      112     -213     -575     -920    -1155 
   -1221    -1073     -762     -417      -87      163      264      238 
     114     -118     -441     -810    -1175    -1485    -1714    -1881 
   -1977    -1938    -1698    -1233     -626      -40      418      750 
     951      939      646      109     -546    -1206    -1795    -2253 
   -2593    -2839    -2934    -2810    -2455    -1919    -1290     -638 
      -2      568     1009     1274     1371     1333     1170      913 
     615      290      -21     -238     -302     -236     -145      -95 
     -68      -85     -190     -371     -604     -865    -1075    -1204 
   -1294    -1389    -1487    -1545    -1556    -1540    -1470    -1367 
   -1291    -1225    -1128    -1011     -912     -822     -689     -541 
    -480     -542     -680     -859    -1042    -1193    -1282    -1266 
   -1181    -1115    -1090    -1090    -1088    -1043     -947     -834 
    -737     -669     -622     -579     -515     -427     -328     -218 
    -108      -10       70      126      140       81      -67     -272 
    -494     -739    -1005    -1235    -1386    -1471    -1512    -1495 
   -1417    -1273    -1058     -799     -540     -360     -306     -326 
    -342     -344     -341     -325     -284     -209     -113      -41 
     -25      -74     -148     -186     -174     -156     -145     -130 
    -120     -113     -114     -170     -310     -518     -764    -1000 
   -1194    -1356    -1501    -1617    -1664    -1597    -1420    -1158 
    -799     -364       52      383      592      649      556      311 
     -64     -488     -880    -1188    -1379    -1487    -1544    -1514 
   -1352    -1040     -610     -143      274      549      614      449 
      87     -391     -897    -1375    -1780    -2050    -2133    -2018 
   -1729    -1321     -854     -380       55      392      549      472 
     184     -247     -764    -1335    -1914    -2413    -2770    -2953 
   -2920    -2662    -2239    -1719    -1123     -442      248      824 
    1194     1320     1235      993      619      148     -355     -800 
   -1115    -1304    -1387    -1352    -1229    -1054     -824     -580 
