Origin Time       2026/01/15 07:13:00
Lat.              42.7
Long.             145.4
Depth. (km)       30
Mag.              5.7
Station Code      HKD128
Station Lat.      42.7656
Station Long.     141.8219
Station Height(m) 31
Record Time       2026/01/15 07:14:36
Sampling Freq(Hz) 100Hz
Duration Time(s)  68
Dir.              E-W
Scale Factor      7845(gal)/8223790
Max. Acc. (gal)   1.688
Last Correction   2026/01/15 07:14:37
Memo.             
[...]
    -565     -545     -525     -511     -510     -525     -552     -589 
    -629     -662     -691     -708     -714     -719     -733     -756 
    -787     -822     -864     -907     -947     -986    -1024    -1053 
   -1066    -1055    -1016     -958     -891     -820     -761     -715 
    -680     -657     -648     -639     -633     -633     -639     -656 
    -676     -696     -716     -734     -754     -789     -842     -908 
    -988    -1071    -1143    -1205    -1262    -1308    -1337    -1356 
   -1360    -1350    -1325    -1275    -1201    -1112    -1009     -907 
    -814     -729     -650     -576     -498     -422     -359     -307 
    -268     -243     -232     -236     -257     -290     -326     -365 
    -406     -440     -471     -496     -498     -479     -453     -427 
    -414     -419     -427     -429     -419     -399     -384     -386 
    -403     -448     -513     -589     -687     -796     -896     -980 
   -1043    -1081    -1111    -1140    -1173    -1204    -1217    -1215 
   -1202    -1181    -1150    -1115    -1086    -1075    -1085    -1112 
   -1142    -1162    -1167    -1154    -1125    -1086    -1043    -1005 
    -976     -942     -897     -847     -795     -738     -681     -625 
    -556     -472     -380     -283     -191     -113      -54      -13 
       9       13       -5      -47     -109     -195     -298     -409 
    -526     -648     -765     -877     -986    -1092    -1188    -1254 
   -1285    -1282    -1243    -1166    -1059     -935     -805     -689 
    -610     -567     -546     -545     -554     -573     -612     -670 
    -739     -824     -927    -1051    -1190    -1336    -1476    -1602 
   -1694    -1741    -1741    -1690    -1607    -1509    -1399    -1290 
   -1188    -1096    -1019     -954     -903     -862     -835     -814 
    -787     -754     -727     -707     -697     -707     -731     -769 
    -812     -837     -826     -773     -677     -553     -415     -280 
    -163      -66        6       51       71       68       48       16 
     -25      -71     -124     -189     -264     -353     -465     -594 
    -730     -880    -1039    -1202    -1367    -1528    -1672    -1794 
   -1890    -1956    -1992    -1998    -1972    -1908    -1810    -1691 
   -1568    -1455    -1348    -1240    -1125     -996     -845     -669 
    -479     -291     -112       48      176      275      352      414 
     464      502      525      534      526      498      453      388 
     307      216      112       -2     -118     -240     -373     -515 
    -661     -819     -989    -1158    -1318    -1467    -1595    -1701 
   -1784    -1844    -1879    -1890    -1869    -1813    -1713    -1578 
   -1429    -1286    -1165    -1071    -1004     -953     -907     -862 
    -819     -778     -742     -734     -751     -783     -820     -859 
    -892     -923     -961     -994    -1019    -1035    -1036    -1028 
   -1015     -992     -959     -918     -864     -800     -730     -639 
    -525     -400     -278     -170      -78        1       62       98 
      97       51      -27     -118     -214     -315     -421     -526 
    -630     -723     -801     -870     -926     -967    -1003    -1031 
   -1059    -1090    -1107    -1096    -1055     -996     -932     -882 
    -861     -873     -924    -1016    -1144    -1298    -1456    -1610 
   -1746    -1848    -1907    -1911    -1852    -1737    -1582    -1389 
   -1171     -940     -697     -457     -230      -18      171      325 
     432      494      511      479      406      306      183       45 
     -98     -243     -369     -464     -530     -568     -583     -588 
    -594     -599     -604     -616     -637     -665     -710     -774 
    -859     -966    -1101    -1251    -1404    -1557    -1696    -1799 
   -1860    -1877    -1845    -1776    -1688    -1576    -1433    -1269 
   -1094     -924     -777     -656     -568     -521     -514     -540 
    -588     -642     -697     -743     -769     -776     -768     -747 
    -714     -672     -629     -587     -545     -506     -471     -445 
    -425     -399     -372     -345     -319     -291     -264     -252 
    -255     -263     -283     -326     -395     -492     -623     -780 
    -935    -1070    -1173    -1235    -1266    -1279    -1290    -1304 
   -1318    -1339    -1370    -1406    -1443    -1462    -1448    -1401 
   -1329    -1243    -1152    -1067     -999     -951     -923     -909 
    -905     -897     -870     -820     -754     -676     -596     -527 
    -471     -430     -403     -386     -375     -361     -346     -334 
    -330     -337     -355     -379     -413     -457     -521     -606 
    -710     -828     -953    -1062    -1146    -1208    -1246    -1260 
   -1258    -1246    -1219    -1178    -1119    -1036     -932     -810 
    -679     -558     -463     -407     -398     -433     -498     -565 
    -622     -669     -706     -735     -764     -791     -804     -803 
    -781     -743     -689     -618     -527     -430     -330     -228 
    -137      -78      -49      -55     -102     -202     -353     -552 
    -778    -1007    -1217    -1405    -1566    -1690    -1771    -1804 
   -1779    -1695    -1557    -1366    -1131     -878     -631     -414 
    -233      -89       12       74       95       81       28      -60 
    -183     -334     -510     -697     -880    -1040    -1161    -1227 
   -1244    -1212    -1125     -996     -835     -652     -463     -291 
    -155      -62      -14      -16      -60     -140     -251     -398 
    -572     -764     -972    -1183    -1377    -1532    -1645    -1723 
   -1767    -1761    -1713    -1620    -1478    -1296    -1073     -812 
    -533     -255        2      216      372      468      495      454 
     348      176      -39     -283     -541     -789    -1015    -1208 
   -1362    -1471    -1537    -1575    -1601    -1615    -1621    -1611 
   -1582    -1532    -1455    -1354    -1242    -1150    -1092    -1070 
   -1089    -1146    -1227    -1310    -1387    -1455    -1505    -1514 
   -1471    -1378    -1244    -1086     -916     -741     -567     -390 
    -217      -47      113      247      345      409      426      388 
     297      157      -22     -238     -469     -695     -905    -1090 
   -1231    -1318    -1360    -1362    -1323    -1252    -1159    -1051 
    -932     -808     -689     -591     -515     -461     -430     -421 
    -437     -479     -560     -679     -820     -982    -1155    -1317 
   -1460    -1580    -1663    -1702    -1698    -1642    -1540    -1405 
   -1248    -1078     -911     -762     -630     -508     -398     -294 
    -198     -116      -60      -49      -86     -167     -290     -430 
    -560     -661     -722     -741     -737     -727     -722     -720 
    -723     -723     -715     -679     -615     -535     -456     -388 
    -345     -336     -360     -407     -475     -554     -633     -708 
    -777     -830     -876     -915     -946     -973    -1003    -1039 
   -1086    -1138    -1193    -1254    -1305    -1344    -1364    -1354 
   -1308    -1220    -1092     -934     -761     -599     -469     -375 
    -310     -278     -274     -290     -318     -352     -382     -394 
    -386     -368     -359     -363     -390     -444     -523     -623 
    -722     -805     -881     -950    -1019    -1102    -1183    -1250 
   -1297    -1327    -1345    -1345    -1313    -1247    -1154    -1040 
    -905     -754     -595     -440     -299     -183      -79       16 
      94      148      171      140       43     -108     -298     -503 
    -700     -893    -1086    -1278    -1464    -1634    -1772    -1860 
   -1896    -1885    -1826    -1736    -1634    -1529    -1421    -1312 
   -1198    -1085     -967     -854     -756     -680     -638     -631 
    -657     -697     -737     -764     -785     -800     -804     -795 
    -777     -742     -687     -619     -549     -488     -445     -419 
    -399     -369     -334     -301     -278     -272     -279     -294 
    -314     -337     -373     -430     -500     -569     -625     -669 
    -702     -724     -751     -787     -826     -873     -935    -1012 
   -1097    -1173    -1237    -1298    -1352    -1406    -1459    -1502 
   -1530    -1537    -1514    -1463    -1391    -1314    -1228    -1134 
   -1027     -904     -770     -622     -460     -298     -141       -4 
     105      183      229      243      234      206      172      132 
      70      -16     -122     -252     -396     -540     -673     -797 
    -916    -1026    -1128    -1231    -1332    -1418    -1490    -1532 
   -1536    -1505    -1441    -1355    -1260    -1158    -1046     -934 
    -830     -734     -648     -579     -531     -500     -486     -471 
    -453     -440     -433     -441     -479     -546     -639     -742 
    -843     -932    -1011    -1088    -1171    -1266    -1356    -1433 
   -1495    -1534    -1545    -1529    -1490    -1428    -1354    -1281 
   -1212    -1158    -1119    -1086    -1046     -986     -900     -791 
    -662     -510     -338     -162        9      153      252      313 
     336      319      275      218      152       75      -22     -151 
    -303     -473     -654     -830     -985    -1116    -1217    -1293 
   -1356    -1409    -1447    -1467    -1474    -1463    -1433    -1391 
   -1337    -1269    -1188    -1100    -1013     -932     -862     -799 
    -738     -685     -639     -595     -554     -518     -492     -484 
    -486     -488     -507     -548     -606     -673     -746     -816 
    -876     -920     -951     -962     -958     -943     -904     -834 
    -749     -652     -546     -450     -372     -313     -268     -228 
    -190     -147      -97      -48        1       44       68       75 
      62       27      -22      -85     -160     -257     -382     -531 
    -700     -880    -1059    -1231    -1385    -1518    -1644    -1764 
   -1869    -1958    -2038    -2100    -2141    -2155    -2143    -2114 
   -2061    -1979    -1877    -1752    -1599    -1428    -1248    -1066 
    -884     -700     -515     -318     -110       94      284      453 
     587      676      720      711      650      542      398      226 
      35     -172     -388     -611     -837    -1054    -1252    -1429 
   -1584    -1714    -1807    -1853    -1846    -1792    -1703    -1593 
   -1476    -1379    -1309    -1258    -1220    -1190    -1156    -1117 
   -1074    -1026     -967     -911     -857     -803     -756     -706 
    -645     -580     -521     -471     -438     -418     -409     -405 
    -399     -392     -382     -361     -332     -306     -292     -287 
    -287     -286     -267     -228     -171      -95      -10       59 
     101      118      117       91       37      -41     -147     -272 
    -415     -572     -746     -957    -1194    -1439    -1686    -1919 
   -2112    -2243    -2305    -2305    -2251    -2157    -2042    -1926 
   -1811    -1696    -1588    -1486    -1387    -1293    -1192    -1085 
    -978     -882     -805     -743     -692     -650     -602     -537 
    -464     -382     -291     -207     -132      -56       14       78 
     132      170      186      178      147      103       58        9 
     -49     -135     -241     -365     -503     -643     -783     -923 
   -1065    -1201    -1324    -1429    -1520    -1601    -1672    -1730 
   -1769    -1791    -1798    -1787    -1752    -1692    -1609    -1509 
   -1401    -1297    -1208    -1136    -1078    -1023     -958     -878 
    -784     -677     -565     -457     -359     -275     -202     -132 
     -72      -31       -6        1       -4      -17      -37      -60 
     -81     -101     -124     -145     -167     -194     -237     -297 
    -367     -440     -511     -579     -639     -696     -754     -814 
    -877     -953    -1040    -1128    -1200    -1248    -1266    -1251 
   -1216    -1167    -1105    -1027     -938     -861     -815     -799 
    -797     -808     -835     -877     -928     -988    -1042    -1084 
   -1116    -1132    -1128    -1101    -1044     -962     -866     -774 
    -696     -638     -596     -554     -507     -456     -405     -365 
    -344     -342     -360     -394     -432     -461     -477     -483 
    -480     -469     -453     -444     -449     -461     -484     -527 
    -588     -662     -754     -870    -1005    -1139    -1256    -1359 
   -1449    -1516    -1566    -1601    -1622    -1634    -1638    -1636 
   -1629    -1613    -1587    -1543    -1463    -1347    -1205    -1046 
    -874     -704     -546     -409     -291     -194     -108      -33 
      24       72      113      130      110       51      -41     -155 
    -270     -368     -444     -499     -542     -571     -602     -641 
    -677     -704     -720     -730     -749     -783     -847     -954 
   -1090    -1239    -1393    -1555    -1714    -1853    -1976    -2079 
   -2147    -2172    -2158    -2108    -2019    -1890    -1723    -1526 
   -1306    -1075     -839     -604     -387     -190       -4      162 
     306      422      495      526      515      463      380      282 
     176       83       13      -32      -56      -64      -58      -44 
     -28      -16      -17      -43     -102     -198     -330     -491 
    -677     -880    -1081    -1269    -1444    -1617    -1779    -1919 
   -2039    -2141    -2216    -2272    -2316    -2343    -2351    -2331 
   -2270    -2164    -2010    -1807    -1568    -1300    -1011     -707 
    -400     -108      166      403      594      745      859      938 
     982      993      970      905      799      664      517      360 
     193       20     -157     -337     -511     -673     -824     -970 
   -1115    -1266    -1425    -1588    -1742    -1877    -1999    -2093 
   -2151    -2176    -2173    -2154    -2122    -2064    -1980    -1873 
   -1746    -1603    -1452    -1301    -1151    -1003     -868     -750 
    -653     -573     -499     -427     -369     -325     -283     -238 
    -187     -137     -108      -97     -109     -148     -205     -265 
    -330     -388     -437     -481     -527     -568     -598     -619 
    -633     -646     -664     -684     -706     -729     -761     -795 
    -824     -855     -884     -908     -940     -977    -1013    -1063 
   -1125    -1198    -1283    -1366    -1436    -1490    -1524    -1536 
   -1524    -1490    -1433    -1350    -1242    -1111     -961     -797 
    -627     -450     -272      -99       62      190      268      292 
     264      191       90      -22     -141     -263     -380     -490 
    -589     -677     -753     -827     -901     -974    -1048    -1123 
   -1183    -1231    -1266    -1281    -1275    -1250    -1208    -1154 
   -1089    -1020     -955     -899     -845     -792     -746     -704 
    -661     -621     -583     -542     -500     -454     -403     -356 
    -325     -321     -340     -368     -396     -414     -417     -410 
    -395     -380     -383     -411     -461     -542     -656     -787 
    -930    -1071    -1198    -1305    -1402    -1491    -1572    -1642 
   -1695    -1733    -1752    -1738    -1698    -1630    -1532    -1408 
   -1271    -1129     -996     -882     -791     -718     -665     -623 
    -584     -546     -510     -469     -414     -342     -257     -167 
     -83      -21       21       44       52       45       27       -9 
     -75     -172     -291     -432     -584     -747     -923    -1092 
   -1250    -1394    -1521    -1621    -1696    -1742    -1753    -1737 
   -1695    -1628    -1533    -1412    -1264    -1107     -931     -746 
    -573     -417     -280     -178     -112      -79      -74      -93 
    -137     -202     -283     -376     -477     -572     -654     -722 
    -778     -826     -865     -904     -945     -974     -994    -1012 
   -1020    -1011     -980     -934     -877     -811     -742     -679 
    -630     -595     -573     -565     -571     -587     -614     -649 
    -693     -738     -776     -811     -841     -853     -846     -814 
    -758     -692     -630     -591     -591     -637     -722     -842 
    -984    -1127    -1254    -1356    -1433    -1485    -1513    -1521 
   -1510    -1479    -1425    -1354    -1262    -1148    -1015     -864 
    -710     -562     -427     -324     -253     -207     -191     -205 
    -238     -283     -332     -386     -445     -504     -565     -616 
    -645     -648     -625     -583     -531     -480     -430     -391 
    -367     -360     -369     -400     -454     -523     -600     -683 
    -768     -854     -934    -1004    -1063    -1108    -1139    -1156 
   -1154    -1129    -1090    -1031     -954     -872     -793     -722 
    -658     -604     -567     -549     -557     -595     -656     -730 
    -822     -930    -1038    -1144    -1242    -1314    -1359    -1375 
   -1363    -1328    -1275    -1209    -1129    -1039     -942     -832 
    -718     -606     -495     -395     -311     -238     -184     -147 
    -117     -102      -97      -91      -93     -103     -124     -157 
    -203     -257     -313     -376     -446     -510     -564     -623 
    -695     -772     -849     -927    -1001    -1063    -1113    -1154 
   -1186    -1205    -1215    -1217    -1219    -1233    -1267    -1316 
   -1379    -1451    -1520    -1572    -1605    -1613    -1588    -1537 
   -1458    -1345    -1206    -1054     -893     -738     -596     -473 
    -369     -279     -199     -132      -81      -54      -44      -44 
     -62      -98     -141     -191     -251     -317     -387     -454 
    -525     -595     -662     -729     -792     -855     -923     -996 
   -1073    -1152    -1229    -1301    -1352    -1377    -1375    -1344 
   -1283    -1210    -1129    -1038     -949     -868     -791     -724 
    -670     -623     -587     -571     -565     -577     -615     -665 
    -724     -801     -885     -972    -1053    -1113    -1154    -1178 
   -1179    -1159    -1123    -1075    -1021     -958     -886     -818 
    -747     -675     -602     -529     -450     -373     -298     -228 
    -164     -105      -51        4       59      108      148      179 
     193      186      153       93        8     -103     -236     -386 
    -549     -719     -892    -1067    -1240    -1404    -1551    -1674 
   -1771    -1854    -1929    -1985    -2030    -2058    -2060    -2034 
   -1984    -1902    -1787    -1645    -1483    -1310    -1138     -972 
    -815     -670     -541     -423     -310     -203     -106      -21 
      47       89      105       97       66       18      -41     -112 
    -182     -245     -299     -344     -384     -425     -465     -502 
    -540     -592     -664     -749     -847     -959    -1085    -1219 
   -1360    -1510    -1663    -1802    -1914    -1996    -2045    -2057 
   -2034    -1980    -1899    -1794    -1664    -1516    -1352    -1169 
    -970     -770     -576     -388     -222      -89       14       91 
     139      157      160      149      124       85       35      -20 
     -81     -147     -216     -278     -341     -409     -480     -552 
    -630     -718     -804     -880     -945    -1007    -1069    -1124 
   -1175    -1223    -1258    -1278    -1285    -1281    -1269    -1246 
   -1201    -1135    -1055     -962     -858     -761     -675     -602 
    -554     -526     -508     -499     -492     -486     -484     -491 
    -507     -537     -567     -589     -616     -643     -661     -666 
