Origin Time       2026/01/15 07:13:00
Lat.              42.7
Long.             145.4
Depth. (km)       30
Mag.              5.7
Station Code      HKD159
Station Lat.      41.7160
Station Long.     141.0046
Station Height(m) 23
Record Time       2026/01/15 07:15:07
Sampling Freq(Hz) 100Hz
Duration Time(s)  60
Dir.              N-S
Scale Factor      7845(gal)/8223790
Max. Acc. (gal)   1.073
Last Correction   2026/01/15 07:15:08
Memo.             
[...]
    5903     5832     5764     5678     5590     5532     5487     5427 
    5352     5275     5217     5194     5211     5270     5364     5481 
    5609     5738     5842     5919     5980     6034     6066     6077 
    6093     6116     6106     6029     5903     5778     5668     5568 
    5487     5433     5416     5451     5499     5503     5485     5494 
    5486     5441     5417     5425     5479     5591     5695     5752 
    5795     5852     5914     5948     5948     5930     5877     5803 
    5752     5718     5683     5653     5609     5541     5489     5460 
    5448     5449     5455     5455     5458     5487     5562     5657 
    5768     5906     6045     6130     6149     6116     6035     5926 
    5829     5740     5629     5533     5509     5516     5499     5466 
    5447     5456     5467     5471     5503     5555     5593     5638 
    5697     5732     5738     5765     5841     5935     6016     6058 
    6060     6037     6002     5967     5910     5784     5628     5520 
    5452     5378     5298     5229     5186     5202     5289     5409 
    5506     5567     5607     5663     5763     5875     5940     5957 
    5976     6015     6035     6016     5967     5888     5813     5791 
    5787     5737     5657     5590     5545     5501     5440     5377 
    5332     5324     5362     5409     5410     5397     5444     5530 
    5598     5649     5697     5761     5868     6006     6137     6218 
    6207     6154     6123     6093     6022     5913     5806     5707 
    5587     5468     5377     5304     5252     5240     5262     5290 
    5300     5319     5383     5497     5647     5790     5887     5940 
    5975     6007     6038     6066     6096     6099     6050     5962 
    5825     5636     5449     5312     5250     5259     5304     5355 
    5413     5491     5566     5606     5656     5749     5836     5872 
    5863     5832     5772     5694     5659     5676     5707     5753 
    5813     5860     5881     5881     5859     5805     5726     5634 
    5535     5428     5335     5277     5265     5302     5393     5517 
    5659     5800     5921     6027     6119     6176     6187     6150 
    6062     5944     5805     5640     5472     5344     5287     5301 
    5332     5337     5348     5397     5476     5571     5684     5802 
    5903     5985     6046     6064     6019     5926     5832     5767 
    5709     5624     5540     5489     5460     5448     5458     5472 
    5476     5485     5521     5572     5618     5667     5721     5760 
    5771     5761     5744     5726     5725     5756     5803     5841 
    5880     5918     5929     5922     5907     5849     5751     5664 
    5601     5529     5464     5420     5377     5350     5352     5373 
    5409     5454     5512     5607     5722     5834     5942     6035 
    6119     6181     6187     6127     6049     5980     5904     5807 
    5697     5574     5456     5373     5321     5274     5228     5206 
    5224     5293     5390     5478     5582     5733     5875     5971 
    6056     6137     6184     6192     6168     6083     5918     5728 
    5595     5536     5530     5551     5537     5479     5435     5420 
    5378     5308     5282     5309     5350     5421     5518     5591 
    5667     5780     5896     6003     6119     6212     6234     6177 
    6068     5938     5809     5687     5589     5524     5478     5422 
    5358     5317     5323     5364     5432     5502     5559     5614 
    5684     5752     5795     5830     5875     5896     5891     5894 
    5895     5875     5850     5838     5832     5834     5853     5884 
    5890     5853     5798     5722     5622     5539     5493     5449 
    5400     5343     5273     5206     5177     5185     5227     5298 
    5416     5579     5752     5913     6057     6165     6239     6297 
    6336     6339     6278     6138     5958     5786     5620     5451 
    5285     5151     5081     5059     5047     5062     5120     5200 
    5331     5510     5653     5759     5892     6030     6127     6216 
    6274     6246     6188     6137     6058     5953     5834     5690 
    5556     5451     5331     5209     5108     5030     5028     5100 
    5190     5302     5441     5594     5745     5877     6011     6153 
    6269     6339     6378     6386     6322     6178     6027     5887 
    5729     5540     5343     5189     5103     5051     5005     4990 
    5022     5082     5189     5337     5485     5626     5780     5929 
    6070     6189     6242     6239     6241     6239     6199     6111 
    5983     5846     5742     5659     5553     5431     5332     5260 
    5213     5213     5263     5337     5436     5555     5661     5749 
    5834     5915     5979     6037     6080     6087     6075     6056 
    6010     5935     5837     5707     5559     5424     5319     5244 
    5184     5135     5113     5131     5189     5283     5400     5535 
    5691     5842     5958     6057     6153     6216     6242     6246 
    6230     6183     6102     6000     5903     5811     5715     5614 
    5506     5414     5354     5301     5262     5229     5179     5151 
    5196     5289     5385     5499     5636     5736     5788     5841 
    5906     5975     6043     6097     6131     6138     6118     6080 
    6039     5983     5886     5768     5668     5575     5460     5344 
    5267     5228     5192     5177     5216     5313     5444     5574 
    5694     5821     5967     6102     6180     6192     6168     6116 
    6014     5867     5718     5587     5472     5371     5293     5250 
    5239     5242     5240     5247     5287     5355     5456     5578 
    5680     5769     5879     6007     6127     6211     6265     6300 
    6311     6269     6170     6050     5931     5784     5606     5439 
    5296     5144     5000     4928     4934     4958     5012     5146 
    5320     5493     5678     5869     6053     6214     6336     6442 
    6531     6556     6501     6393     6265     6104     5900     5680 
    5476     5294     5123     4962     4841     4774     4754     4812 
    4965     5161     5373     5616     5844     6019     6173     6327 
    6466     6554     6552     6493     6411     6268     6054     5827 
    5621     5418     5224     5065     4953     4868     4818     4835 
    4922     5061     5229     5420     5630     5841     6035     6211 
    6346     6447     6525     6561     6540     6471     6350     6181 
    5972     5730     5495     5296     5121     4958     4837     4781 
    4753     4752     4851     5022     5188     5368     5576     5771 
    5952     6124     6246     6336     6444     6516     6500     6435 
    6342     6201     6021     5805     5595     5429     5260     5082 
    4986     4959     4922     4920     5008     5128     5296     5525 
    5722     5871     6007     6106     6178     6228     6232     6231 
    6216     6143     6046     5941     5803     5649     5489     5319 
    5175     5089     5057     5084     5166     5287     5441     5645 
    5886     6089     6230     6335     6388     6370     6308     6196 
    6037     5859     5645     5410     5225     5127     5084     5066 
    5093     5162     5239     5341     5474     5599     5694     5759 
    5818     5886     5923     5948     5992     6008     5976     5946 
    5933     5929     5919     5873     5796     5756     5746     5686 
    5584     5536     5528     5497     5478     5490     5491     5498 
    5557     5617     5648     5699     5748     5761     5788     5833 
    5842     5834     5850     5892     5919     5900     5850     5786 
    5699     5614     5552     5490     5412     5348     5331     5348 
    5378     5406     5429     5472     5555     5647     5729     5819 
    5923     6008     6058     6083     6076     6030     5980     5940 
    5877     5800     5730     5643     5533     5448     5401     5375 
    5363     5375     5410     5443     5474     5521     5568     5620 
    5709     5810     5883     5931     5968     5979     5954     5913 
    5861     5779     5694     5648     5603     5514     5409     5331 
    5289     5277     5279     5292     5323     5382     5468     5563 
    5644     5744     5894     6034     6104     6134     6146     6111 
    6035     5960     5902     5838     5764     5686     5605     5517 
    5436     5373     5332     5320     5341     5402     5487     5576 
    5661     5752     5854     5954     6023     6068     6104     6122 
    6095     6023     5919     5790     5659     5543     5433     5312 
    5204     5157     5173     5215     5254     5294     5351     5433 
    5530     5626     5713     5790     5869     5971     6093     6207 
    6265     6281     6300     6316     6296     6222     6092     5914 
    5722     5549     5374     5192     5055     4996     5005     5051 
    5100     5157     5263     5425     5606     5794     6002     6197 
    6342     6427     6455     6420     6308     6142     5980     5819 
    5624     5417     5250     5119     5011     4939     4914     4927 
    4996     5134     5320     5518     5717     5899     6041     6141 
    6199     6216     6199     6160     6116     6073     6004     5908 
    5821     5755     5692     5643     5617     5607     5601     5603 
    5601     5548     5451     5378     5352     5350     5368     5418 
    5499     5594     5667     5695     5688     5682     5697     5728 
    5745     5734     5713     5688     5660     5614     5533     5444 
    5405     5437     5510     5582     5643     5698     5763     5838 
    5899     5929     5952     5992     6033     6049     6034     5985 
    5900     5806     5705     5572     5435     5341     5312     5316 
    5333     5363     5391     5413     5452     5517     5583     5641 
    5705     5784     5867     5934     5987     6012     6002     5975 
    5954     5942     5921     5877     5822     5767     5707     5641 
    5568     5489     5427     5409     5424     5445     5455     5459 
    5479     5514     5555     5613     5684     5769     5867     5949 
    6002     6042     6066     6065     6035     5976     5887     5784 
    5688     5601     5512     5417     5331     5269     5238     5231 
    5248     5294     5363     5449     5556     5683     5826     5958 
    6045     6089     6102     6096     6083     6052     5998     5927 
    5840     5736     5636     5548     5481     5441     5433     5443 
    5445     5441     5452     5466     5479     5502     5540     5594 
    5661     5730     5787     5830     5861     5880     5890     5902 
    5917     5921     5904     5864     5799     5726     5659     5583 
    5499     5427     5364     5313     5293     5313     5359     5429 
    5537     5671     5807     5935     6049     6138     6201     6239 
    6245     6210     6137     6026     5877     5699     5530     5398 
    5292     5208     5154     5134     5146     5196     5278     5367 
    5445     5528     5625     5742     5864     5960     6019     6050 
    6069     6087     6095     6093     6073     6026     5961     5876 
    5753     5595     5436     5306     5206     5136     5098     5076 
    5073     5109     5190     5312     5454     5614     5800     5992 
    6165     6308     6408     6462     6474     6455     6396     6280 
    6124     5956     5782     5605     5428     5247     5073     4928 
    4835     4795     4797     4849     4954     5105     5287     5489 
    5691     5873     6035     6178     6292     6373     6423     6423 
    6359     6249     6111     5954     5802     5657     5503     5352 
    5244     5179     5130     5090     5092     5142     5228     5344 
    5483     5618     5761     5931     6088     6196     6255     6292 
    6311     6281     6185     6031     5841     5636     5424     5228 
    5086     5003     4950     4931     4973     5069     5202     5374 
    5560     5744     5944     6127     6270     6403     6490     6502 
    6489     6435     6312     6184     6030     5826     5667     5526 
    5347     5200     5104     5042     5035     5078     5157     5242 
    5321     5439     5605     5756     5867     5972     6068     6149 
    6223     6251     6216     6149     6093     6053     5969     5845 
    5733     5620     5526     5468     5355     5227     5189     5167 
    5165     5244     5293     5290     5374     5560     5733     5837 
    5957     6080     6145     6224     6253     6124     5992     5931 
    5818     5705     5637     5458     5301     5351     5336     5182 
    5151     5224     5270     5337     5412     5428     5431     5475 
    5560     5640     5661     5687     5813     5942     5962     5960 
    6014     6069     6091     6120     6149     6118     6045     5973 
    5883     5752     5579     5400     5271     5192     5111     5046 
    5046     5113     5211     5344     5514     5659     5796     5972 
    6135     6265     6378     6467     6482     6421     6327     6168 
    5971     5803     5620     5414     5251     5093     4945     4914 
    4928     4884     4934     5080     5174     5317     5553     5767 
    5935     6100     6261     6369     6447     6536     6542     6448 
    6376     6301     6120     5879     5694     5517     5309     5173 
    5077     4923     4816     4855     4958     5009     5034     5142 
    5335     5572     5811     6006     6180     6365     6543     6658 
    6664     6619     6540     6397     6250     6092     5837     5543 
    5324     5162     4957     4752     4634     4557     4579     4780 
    4978     5081     5250     5509     5767     6016     6243     6421 
    6558     6664     6732     6693     6546     6411     6292     6081 
    5809     5567     5355     5130     4912     4766     4679     4604 
    4572     4625     4770     4993     5242     5491     5736     5976 
    6250     6498     6650     6744     6794     6786     6748     6660 
    6471     6166     5840     5580     5328     5085     4887     4680 
    4565     4642     4719     4730     4851     5071     5258     5481 
    5761     5999     6204     6446     6674     6750     6690     6637 
    6561     6390     6192     5967     5692     5462     5314     5174 
    4999     4843     4801     4851     4914     5034     5212     5374 
    5590     5853     6037     6168     6318     6457     6534     6536 
    6523     6459     6280     6085     5971     5825     5582     5359 
    5231     5107     4957     4884     4881     4891     4941     5042 
    5189     5355     5505     5675     5890     6069     6158     6215 
    6301     6386     6400     6326     6232     6156     6057     5956 
    5779     5499     5305     5177     5013     4924     4878     4841 
    4927     5081     5219     5358     5476     5622     5850     6068 
    6191     6268     6370     6451     6457     6421     6304     6100 
    5956     5837     5637     5445     5300     5131     4989     4939 
    4927     4889     4889     5028     5212     5348     5530     5718 
    5840     6031     6251     6359     6413     6457     6447     6397 
    6303     6146     5987     5830     5634     5464     5333     5188 
    5104     5105     5081     5058     5123     5227     5354     5514 
    5634     5753     5902     6000     6083     6146     6127     6123 
    6114     6041     5991     5922     5821     5761     5648     5486 
    5416     5363     5256     5215     5278     5312     5298     5371 
    5483     5555     5638     5706     5755     5814     5848     5899 
    5956     5962     5972     5954     5898     5865     5827     5792 
    5759     5702     5679     5667     5611     5570     5572     5586 
    5570     5549     5571     5614     5624     5580     5584     5665 
    5680     5675     5722     5734     5786     5894     5902     5876 
    5918     5934     5892     5827     5734     5659     5632     5586 
    5536     5516     5455     5385     5371     5373     5414     5503 
    5564     5609     5671     5729     5787     5823     5848     5884 
    5876     5868     5915     5910     5854     5842     5806     5725 
    5661     5607     5553     5522     5508     5459     5427     5487 
    5526     5490     5518     5583     5594     5655     5742     5744 
    5755     5829     5856     5850     5856     5846     5853     5875 
    5856     5810     5740     5648     5578     5532     5485     5435 
    5402     5382     5390     5449     5501     5533     5607     5691 
    5752     5859     5958     5972     6004     6048     6033     6062 
    6054     5898     5773     5715     5616     5536     5509     5482 
    5468     5497     5521     5517     5562     5634     5656     5679 
    5740     5826     5919     5902     5799     5768     5751     5707 
    5687     5609     5541     5568     5583     5589     5591     5525 
    5485     5547     5656     5742     5764     5765     5803     5821 
    5805     5798     5783     5753     5737     5725     5733     5752 
    5729     5683     5611     5564     5625     5676     5651     5671 
    5698     5679     5698     5706     5656     5648     5668     5671 
    5702     5749     5746     5705     5697     5733     5726     5653 
    5605     5620     5660     5684     5655     5593     5548     5543 
    5556     5551     5536     5556     5613     5680     5705     5686 
    5692     5733     5780     5818     5811     5783     5807     5852 
    5859     5825     5760     5719     5710     5674     5643     5629 
    5595     5582     5593     5575     5570     5605     5640     5675 
    5683     5652     5638     5630     5634     5664     5661     5644 
    5644     5640     5629     5626     5634     5644     5651     5675 
    5679     5641     5621     5628     5625     5634     5671     5705 
    5706     5706     5730     5745     5738     5734     5730     5729 
    5730     5733     5736     5709     5660     5638     5625     5594 
    5571     5582     5610     5628     5645     5687     5719     5722 
    5730     5730     5699     5683     5695     5686     5651     5618 
    5594     5567     5549     5574     5617     5653     5705     5788 
    5877     5908     5900     5917     5930     5922     5915     5879 
    5810     5761     5744     5717     5657     5589     5544     5524 
    5516     5539     5601     5664     5717     5751     5741     5728 
    5749     5779     5800     5834     5850     5833     5807     5771 
    5711     5643     5574     5516     5475     5449     5443     5441 
    5444     5474     5509     5532     5580     5661     5746     5822 
    5888     5962     6029     6053     6035     5984     5914     5859 
    5800     5711     5617     5540     5485     5440     5370     5286 
    5263     5331     5436     5520     5590     5667     5756     5867 
    5958     5985     5984     6004     6022     5985     5880     5740 
    5607     5498     5405     5335     5289     5262     5269     5317 
    5386     5456     5528     5611     5714     5827     5927     5992 
    6045     6102     6122     6072     5996     5921     5825     5715 
    5622     5518     5382     5267     5208     5157     5109     5115 
    5174     5270     5406     5574     5726     5822     5895     5996 
    6091     6127     6118     6102     6068     6008     5944     5863 
    5760     5670     5599     5532     5459     5395     5366     5375 
