Origin Time       2026/01/15 07:13:00
Lat.              42.7
Long.             145.4
Depth. (km)       30
Mag.              5.7
Station Code      HKD185
Station Lat.      42.7756
Station Long.     141.4016
Station Height(m) 266
Record Time       2026/01/15 07:14:41
Sampling Freq(Hz) 100Hz
Duration Time(s)  60
Dir.              N-S
Scale Factor      7845(gal)/8223790
Max. Acc. (gal)   1.598
Last Correction   2026/01/15 07:14:41
Memo.             
[...]
     986      912      915     1011     1007      945      994     1077 
    1026      939      994     1074     1013      954      993      970 
     864      845      897      854      750      768      850      814 
     757      858      970      966      996     1109     1139     1063 
    1050     1113     1081      959      951     1003      920      805 
     815      827      761      766      893      951      876      872 
     978      981      911      973     1067     1020      957     1015 
    1055      962      900      980     1015      934      931     1011 
     976      884      931     1042     1048     1040     1146     1228 
    1163     1124     1202     1197     1050      958      943      853 
     716      708      789      777      726      777      811      751 
     787      943     1005      940      928      994      970      873 
     901      984      922      835      878      923      878      876 
     966      974      862      855      993     1035      996     1078 
    1196     1165     1098     1128     1131     1005      928     1011 
    1046      935      892      949      915      846      928     1069 
    1078     1027     1062     1075      950      865      926      943 
     843      795      816      776      689      704      774      760 
     753      880      976      943      969     1109     1173     1113 
    1102     1165     1128     1017     1024     1073      988      901 
     934      918      792      745      831      877      830      854 
     949      913      834      928     1047      993      912      966 
    1030      970      926     1001     1030      951      965     1065 
    1042      954      986     1057     1003      919      966     1040 
     994      959     1016     1001      899      900     1005     1017 
     935      957     1075     1092     1043     1097     1148     1075 
    1035     1085     1044      899      859      936      903      753 
     712      758      707      630      665      726      714      723 
     812      843      784      830      984     1001      922      973 
    1078     1040      928      908      939      905      892      990 
    1034      957      982     1120     1138     1059     1084     1170 
    1143     1057     1092     1179     1156     1138     1212     1197 
    1057      999     1032      972      845      841      923      889 
     785      789      830      793      796      880      897      837 
     857      940      904      785      796      858      784      703 
     784      874      850      864      982     1034      969      985 
    1108     1125     1061     1115     1200     1142     1053     1058 
    1055      959      911     1008     1048      931      881      932 
     862      742      812      986     1032      980     1015     1102 
    1105     1102     1162     1116      959      913      967      918 
     791      780      850      816      734      770      827      791 
     807      936     1001      958      974     1070     1059      951 
     951     1003      916      826      899      978      932      903 
     997     1070     1021      993     1031      976      881      945 
    1055     1011      922      958     1035     1009      959      984 
     957      845      843      942      935      882      957     1059 
    1020      924      946     1008      946      901     1027     1120 
    1074     1080     1156     1134     1034     1016     1035      926 
     778      787      826      738      696      795      834      757 
     750      841      855      807      886     1039     1053     1003 
    1061     1113     1046      997     1044     1044      945      900 
     950      916      820      876      996      957      866      923 
    1005      962      940     1070     1163     1101     1075     1140 
    1108     1003     1000     1042      973      869      876      900 
     801      742      843      885      778      739      808      819 
     785      853      980     1007      985     1069     1143     1067 
    1009     1084     1108     1012      963      999      973      889 
     904      954      861      742      783      855      842      880 
    1027     1108     1055     1051     1143     1136     1046     1081 
    1158     1092     1000     1030     1055      965      899      959 
     970      847      803      882      888      832      888      984 
     953      873      911      967      909      885     1001     1054 
     959      912      949      927      876      926     1000      934 
     820      847      900      828      783      843      845      772 
     797      903      907      837      876      974      942      891 
     990     1080     1028     1011     1096     1097      973      930 
    1030     1077     1051     1120     1202     1124     1026     1074 
    1135     1082     1058     1152     1194     1102     1062     1092 
    1008      877      880      927      858      765      796      851 
     796      769      865      896      810      812      909      924 
     878      923     1001      953      865      901      931      830 
     774      841      847      747      711      792      839      810 
     854      959      962      936     1030     1115     1078     1061 
    1143     1185     1121     1101     1162     1112      962      942 
    1028     1032     1008     1093     1192     1175     1154     1224 
    1228     1078      980     1004      965      850      838      891 
     831      722      738      795      720      654      747      837 
     816      832      924      950      892      886      932      870 
     758      789      870      827      774      851      936      923 
     928     1016     1034      950      959     1044      993      872 
     891      972      957      940     1034     1117     1066     1011 
    1055     1051      989     1065     1217     1209     1107     1125 
    1215     1186     1112     1146     1155     1015      909      935 
     916      824      819      876      824      726      778      897 
     884      851      942      992      913      878      938      922 
     823      832      949      940      826      819      851      773 
     708      766      822      788      788      893      954      930 
    1017     1186     1193     1092     1102     1147     1070      973 
     989     1019      946      908      994     1026      955      988 
    1102     1092     1012     1038     1098     1047      978     1036 
    1071      957      899      986     1009      936      958     1050 
    1016      908      945     1075     1071     1004     1050     1065 
     935      857      909      895      765      722      799      785 
     685      710      808      795      760      834      897      843 
     805      877      909      837      834      926      911      832 
     885      961      905      849      932     1028     1005     1007 
    1120     1146     1047     1053     1150     1147     1100     1161 
    1252     1219     1139     1173     1205     1112     1062     1125 
    1105     1001     1003     1070     1011      873      857      908 
     834      729      768      822      776      796      934      986 
     903      866      924      897      793      800      855      784 
     697      742      791      735      699      764      791      738 
     778      904      905      831      881      985      980      951 
    1040     1146     1121     1107     1215     1259     1181     1186 
    1259     1220     1125     1139     1210     1173     1092     1134 
    1181     1090     1024     1061     1019      897      895     1001 
    1005      886      832      837      747      662      737      810 
     747      708      784      810      734      733      832      838 
     768      811      904      891      864      936      997      953 
     932     1013     1020      892      859      969     1008      989 
    1062     1140     1101     1055     1134     1201     1117     1040 
    1080     1051      934      932     1005      953      832      816 
     855      796      729      819      918      876      880     1001 
    1034      949      943     1034     1048      992     1030     1119 
    1085     1021     1081     1117     1023      963     1005      992 
     895      892     1000     1016      934      943      988      911 
     845      923      993      934      884      946      966      868 
     841      899      843      727      741      801      754      687 
     746      827      793      785      905      967      924      973 
    1096     1098     1039     1097     1200     1170     1102     1167 
    1215     1104     1027     1070     1053      967      978     1066 
    1057      970      986     1055      986      899      967     1032 
     959      905      949      943      843      818      892      866 
     756      761      822      784      747      823      884      834 
     831      950     1004      947      973     1078     1061      965 
     959      984      918      877      980     1059      982      924 
     993     1003      927      949     1034     1008      936      984 
    1067     1016      943     1009     1059      982      972     1074 
    1084      999     1003     1071     1024      889      862      892 
     801      716      791      855      804      814      931      969 
     895      882      959      955      884      924     1003      965 
     934     1017     1077     1028     1020     1119     1140     1035 
     993     1024      959      869      908      969      923      891 
     986     1054      977      931     1008     1004      901      923 
    1030     1013      915      901      912      801      687      720 
     757      685      699      845      901      838      849      951 
     959      873      903     1023     1044     1065     1220     1306 
    1202     1097     1089     1051      959      970     1088     1102 
    1028     1085     1194     1154     1073     1097     1105     1007 
     931      957      924      784      723      770      751      710 
     792      885      830      742      784      854      822      838 
     990     1070     1021     1044     1127     1092      984      986 
    1039      970      891      977     1067     1005      946      961 
     911      807      818      930      957      905      959     1051 
    1001      927      965      957      839      807      900      936 
     880      888      966      938      847      895      982      926 
     847      886      908      831      818      946     1017      945 
     928     1004      970      872      903      988      970      936 
    1012     1088     1055     1043     1120     1116     1030     1044 
    1121     1093     1020     1058     1127     1074     1003     1065 
    1101      989      931     1003      985      854      814      884 
     877      785      801      881      830      757      820      865 
     792      774      888      947      870      824      859      800 
     685      735      880      926      954     1073     1159     1131 
    1146     1271     1308     1194     1146     1185     1129     1055 
    1121     1198     1144     1084     1134     1166     1074     1011 
    1066     1066      973      978     1042      974      841      828 
     873      816      753      804      810      680      610      658 
     652      579      600      683      648      552      642      842 
     896      884      980     1038      966      962     1092     1147 
    1050     1001     1071     1063      981     1036     1139     1094 
    1035     1101     1152     1088     1030     1058     1028      889 
     841      911      889      807      851      953      970      992 
    1104     1178     1113     1069     1146     1167     1081     1082 
    1163     1142     1062     1071     1098      997      864      849 
     816      643      527      569      579      506      521      629 
     648      595      679      846      873      850      963     1073 
    1047     1030     1088     1077      985      994     1117     1128 
    1030     1048     1152     1189     1250     1404     1487     1424 
    1378     1439     1439     1318     1281     1325     1215     1004 
     903      835      675      519      473      426      279      174 
     213      243      220      322      527      634      672      781 
     874      834      800      934     1086     1111     1174     1351 
    1424     1367     1375     1441     1393     1271     1277     1375 
    1382     1383     1512     1602     1524     1437     1432     1354 
    1154     1019      994      885      708      654      641      503 
     361      332      303      191       94      126      203      244 
     379      581      610      504      490      525      494      504 
     652      818      901     1016     1231     1368     1383     1483 
    1663     1732     1730     1813     1907     1871     1783     1788 
    1760     1579     1443     1456     1421     1291     1259     1320 
    1270     1120     1078     1098      982      824      781      719 
     534      386      345      256       64      -55      -62     -144 
    -290     -284     -174     -139      -75      139      356      444 
     525      707      843      847      903     1073     1175     1231 
    1382     1547     1599     1652     1833     2043     2153     2272 
    2494     2627     2578     2529     2497     2312     2026     1806 
    1613     1309      990      834      733      541      402      400 
     356      222      174      197      103      -86     -171     -168 
    -247     -336     -284     -226     -284     -288     -143       -1 
      72      214      450      612      731     1001     1339     1552 
    1730     1977     2151     2162     2154     2231     2257     2166 
    2133     2155     2034     1818     1686     1561     1313     1046 
     903      804      631      522      583      627      584      621 
     714      673      534      463      434      319      203      240 
     282      183      125      201      224      166      206      344 
     409      410      511      666      708      720      845      954 
     961     1016     1163     1258     1291     1424     1652     1784 
    1841     2010     2215     2285     2305     2363     2326     2126 
    1935     1849     1713     1474     1320     1263     1105      865 
     695      523      257       31      -24      -20      -71      -32 
     176      336      351      391      442      344      187      156 
     194      186      234      456      681      780      930     1192 
    1350     1389     1526     1746     1849     1865     1968     2096 
    2062     1935     1845     1674     1371     1143     1048      913 
     708      610      621      550      433      457      545      544 
     575      735      869      872      881      977     1021      982 
    1036     1152     1108      976      932      886      750      660 
     707      747      676      652      751      769      653      602 
     606      535      491      615      795      874      951     1147 
    1301     1301     1345     1502     1575     1567     1638     1737 
    1701     1574     1513     1443     1220      994      932      882 
     745      692      773      797      724      730      818      791 
     656      576      495      292      114       90       86       17 
      25      175      291      302      367      486      500      519 
     720     1000     1201     1405     1696     1927     1969     1971 
    2019     1952     1783     1745     1814     1800     1745     1771 
    1788     1664     1507     1451     1344     1084      870      784 
     650      460      378      355      202      -33     -174     -252 
    -405     -500     -390     -244     -189      -51      222      464 
     641      907     1244     1441     1505     1634     1760     1710 
    1605     1590     1548     1402     1313     1366     1401     1359 
    1408     1536     1540     1468     1497     1525     1416     1302 
    1314     1312     1182     1098     1144     1116      972      911 
     923      822      642      537      464      309      175      194 
     205       97       85      237      356      440      660      966 
    1170     1281     1444     1605     1580     1456     1378     1215 
     911      681      623      592      556      645      839      947 
     989     1127     1264     1250     1233     1347     1432     1394 
    1370     1410     1375     1262     1252     1317     1247     1112 
    1105     1131     1053      989     1039     1039      877      720 
     660      533      338      260      268      214      171      268 
     414      441      432      534      615      576      638      866 
    1034     1116     1274     1472     1551     1534     1587     1645 
    1543     1425     1475     1518     1433     1393     1448     1414 
    1246     1124     1105     1017      855      797      783      662 
     591      695      788      741      691      723      711      614 
     589      643      594      476      460      472      380      297 
     363      465      467      502      685      865      969     1147 
    1378     1482     1497     1574     1642     1555     1408     1374 
    1354     1221     1152     1223     1228     1129     1097     1115 
    1016      837      774      801      741      692      812      943 
     959     1012     1161     1227     1138     1055     1013      847 
     606      525      552      491      452      572      699      700 
     695      764      769      676      670      778      812      810 
     972     1223     1378     1501     1723     1923     1968     1989 
    2053     1969     1728     1553     1448     1247     1013      905 
     851      714      600      643      683      584      533      607 
     623      548      519      506      349      114       27       54 
      12       -6      118      216      197      252      432      542 
     544      631      835      961     1026     1224     1470     1584 
    1676     1860     2000     2007     1998     2025     1949     1740 
    1593     1534     1390     1209     1166     1177     1094     1008 
    1026     1021      903      823      822      711      513      444 
     480      449      390      415      432      309      174      191 
     220      159      210      411      521      502      545      639 
     643      641      810     1050     1185     1345     1659     1925 
    2030     2131     2259     2250     2088     1957     1880     1692 
    1437     1301     1205     1031      919      943      938      818 
     731      734      657      461      348      310      155      -27 
     -37       25       28       86      291      495      599      754 
    1013     1183     1239     1381     1583     1655     1649     1709 
    1733     1601     1444     1410     1355     1173     1048     1043 
     980      855      828      854      764      616      602      658 
     627      638      828     1003     1026     1065     1179     1209 
    1132     1113     1148     1065      918      922      997      953 
     904      973     1007      915      850      915      976      950 
