Origin Time       2026/01/15 07:13:00
Lat.              42.7
Long.             145.4
Depth. (km)       30
Mag.              5.7
Station Code      HKD106
Station Lat.      42.3414
Station Long.     142.3688
Station Height(m) 5
Record Time       2026/01/15 07:14:28
Sampling Freq(Hz) 100Hz
Duration Time(s)  62
Dir.              N-S
Scale Factor      7845(gal)/8223790
Max. Acc. (gal)   2.001
Last Correction   2026/01/15 07:14:28
Memo.             
[...]
   -1733    -1733    -1744    -1764    -1787    -1810    -1838    -1877 
   -1922    -1966    -2000    -2010    -2006    -2010    -2018    -2023 
   -2020    -2012    -2003    -2010    -2038    -2087    -2139    -2178 
   -2204    -2224    -2245    -2274    -2312    -2346    -2377    -2396 
   -2398    -2389    -2380    -2365    -2347    -2340    -2339    -2336 
   -2332    -2323    -2311    -2303    -2297    -2299    -2309    -2320 
   -2326    -2332    -2344    -2358    -2373    -2393    -2407    -2408 
   -2405    -2405    -2396    -2369    -2340    -2327    -2319    -2309 
   -2288    -2250    -2204    -2151    -2092    -2033    -1976    -1922 
   -1880    -1854    -1845    -1845    -1854    -1871    -1898    -1949 
   -2016    -2087    -2161    -2234    -2300    -2367    -2439    -2505 
   -2573    -2640    -2698    -2741    -2781    -2820    -2857    -2887 
   -2897    -2878    -2820    -2717    -2586    -2457    -2334    -2207 
   -2076    -1945    -1821    -1717    -1633    -1559    -1489    -1428 
   -1385    -1362    -1355    -1363    -1390    -1433    -1493    -1578 
   -1686    -1811    -1938    -2056    -2168    -2284    -2400    -2511 
   -2612    -2704    -2786    -2856    -2914    -2959    -2991    -3010 
   -3013    -3006    -2992    -2971    -2937    -2887    -2825    -2758 
   -2690    -2619    -2533    -2424    -2285    -2120    -1946    -1769 
   -1591    -1416    -1258    -1128    -1030     -950     -895     -873 
    -880     -908     -957    -1021    -1102    -1206    -1332    -1467 
   -1597    -1722    -1846    -1979    -2133    -2304    -2488    -2660 
   -2806    -2937    -3051    -3150    -3241    -3310    -3353    -3365 
   -3353    -3318    -3267    -3214    -3161    -3106    -3040    -2955 
   -2845    -2717    -2579    -2425    -2247    -2053    -1856    -1667 
   -1494    -1347    -1235    -1158    -1090    -1011     -934     -882 
    -873     -909     -988    -1098    -1240    -1413    -1607    -1817 
   -2029    -2236    -2435    -2613    -2786    -2955    -3103    -3230 
   -3325    -3380    -3403    -3395    -3375    -3352    -3316    -3264 
   -3191    -3091    -2964    -2822    -2662    -2485    -2301    -2122 
   -1958    -1811    -1682    -1572    -1475    -1390    -1325    -1291 
   -1296    -1323    -1363    -1412    -1466    -1525    -1603    -1703 
   -1818    -1941    -2054    -2137    -2208    -2284    -2369    -2467 
   -2552    -2620    -2674    -2712    -2747    -2768    -2770    -2749 
   -2700    -2627    -2532    -2425    -2312    -2212    -2141    -2097 
   -2089    -2108    -2138    -2166    -2200    -2247    -2304    -2371 
   -2452    -2533    -2586    -2623    -2660    -2686    -2670    -2620 
   -2566    -2501    -2419    -2323    -2215    -2108    -2012    -1944 
   -1911    -1887    -1869    -1868    -1865    -1865    -1881    -1888 
   -1869    -1823    -1760    -1691    -1626    -1576    -1552    -1548 
   -1561    -1591    -1642    -1709    -1779    -1846    -1908    -1969 
   -2043    -2133    -2230    -2327    -2412    -2475    -2525    -2581 
   -2651    -2714    -2749    -2767    -2782    -2793    -2794    -2793 
   -2790    -2778    -2751    -2704    -2636    -2554    -2455    -2344 
   -2234    -2138    -2058    -1999    -1968    -1958    -1958    -1966 
   -1971    -1972    -1973    -1976    -1980    -1981    -1968    -1946 
   -1930    -1917    -1904    -1898    -1892    -1885    -1875    -1861 
   -1863    -1877    -1898    -1929    -1972    -2034    -2119    -2226 
   -2349    -2475    -2610    -2758    -2907    -3051    -3175    -3272 
   -3339    -3383    -3410    -3404    -3354    -3262    -3130    -2968 
   -2797    -2624    -2458    -2301    -2162    -2035    -1912    -1788 
   -1665    -1545    -1431    -1331    -1255    -1202    -1170    -1155 
   -1165    -1197    -1250    -1312    -1377    -1445    -1516    -1594 
   -1686    -1796    -1941    -2112    -2289    -2467    -2637    -2794 
   -2932    -3051    -3159    -3237    -3285    -3308    -3298    -3250 
   -3169    -3068    -2956    -2847    -2752    -2674    -2613    -2571 
   -2542    -2513    -2479    -2432    -2363    -2274    -2165    -2033 
   -1879    -1714    -1555    -1412    -1278    -1159    -1055     -961 
    -884     -823     -777     -746     -737     -756     -799     -870 
    -973    -1094    -1231    -1381    -1551    -1726    -1895    -2060 
   -2211    -2353    -2479    -2585    -2673    -2736    -2775    -2795 
   -2799    -2783    -2743    -2687    -2619    -2540    -2462    -2388 
   -2315    -2249    -2191    -2142    -2106    -2084    -2069    -2054 
   -2035    -2014    -1988    -1957    -1929    -1902    -1871    -1834 
   -1791    -1755    -1730    -1710    -1695    -1690    -1692    -1707 
   -1736    -1775    -1818    -1864    -1923    -2002    -2096    -2207 
   -2327    -2462    -2617    -2778    -2934    -3072    -3184    -3287 
   -3380    -3462    -3534    -3596    -3632    -3634    -3597    -3518 
   -3402    -3256    -3083    -2886    -2691    -2515    -2346    -2185 
   -2037    -1894    -1763    -1660    -1590    -1547    -1530    -1540 
   -1566    -1597    -1641    -1698    -1757    -1815    -1860    -1898 
   -1939    -1993    -2076    -2189    -2315    -2439    -2551    -2667 
   -2795    -2916    -2999    -3040    -3069    -3099    -3125    -3148 
   -3153    -3154    -3157    -3145    -3111    -3052    -2978    -2897 
   -2816    -2736    -2652    -2558    -2452    -2336    -2208    -2084 
   -1977    -1885    -1811    -1764    -1730    -1699    -1669    -1633 
   -1591    -1552    -1528    -1529    -1551    -1593    -1649    -1703 
   -1750    -1790    -1830    -1871    -1894    -1895    -1881    -1852 
   -1819    -1796    -1783    -1763    -1737    -1714    -1696    -1690 
   -1695    -1705    -1719    -1755    -1799    -1831    -1853    -1873 
   -1895    -1915    -1939    -1980    -2025    -2066    -2112    -2164 
   -2211    -2239    -2250    -2249    -2228    -2197    -2166    -2133 
   -2095    -2052    -2004    -1958    -1912    -1875    -1854    -1848 
   -1848    -1860    -1880    -1907    -1939    -1979    -2027    -2091 
   -2172    -2270    -2362    -2425    -2461    -2470    -2466    -2462 
   -2457    -2439    -2400    -2332    -2246    -2165    -2104    -2060 
   -2026    -1995    -1971    -1957    -1960    -1984    -2026    -2073 
   -2115    -2153    -2203    -2270    -2339    -2398    -2447    -2490 
   -2540    -2596    -2644    -2689    -2731    -2763    -2776    -2771 
   -2744    -2694    -2625    -2546    -2473    -2417    -2376    -2343 
   -2315    -2286    -2272    -2272    -2284    -2304    -2319    -2323 
   -2313    -2289    -2250    -2199    -2145    -2095    -2053    -2012 
   -1979    -1946    -1917    -1898    -1891    -1890    -1892    -1892 
   -1898    -1918    -1945    -1977    -2018    -2073    -2149    -2253 
   -2388    -2539    -2675    -2782    -2864    -2930    -2992    -3053 
   -3102    -3132    -3136    -3109    -3064    -3013    -2938    -2826 
   -2678    -2492    -2281    -2076    -1884    -1695    -1498    -1309 
   -1144    -1011     -916     -861     -835     -835     -869     -945 
   -1062    -1208    -1372    -1537    -1694    -1853    -2023    -2200 
   -2380    -2536    -2673    -2798    -2903    -3003    -3088    -3142 
   -3171    -3169    -3152    -3125    -3088    -3045    -3003    -2957 
   -2899    -2837    -2759    -2670    -2592    -2512    -2428    -2351 
   -2293    -2257    -2239    -2238    -2238    -2224    -2204    -2196 
   -2187    -2160    -2112    -2037    -1939    -1844    -1756    -1684 
   -1621    -1540    -1453    -1382    -1328    -1306    -1323    -1374 
   -1441    -1509    -1570    -1638    -1737    -1871    -2030    -2196 
   -2351    -2494    -2635    -2785    -2934    -3049    -3121    -3169 
   -3223    -3289    -3348    -3354    -3294    -3186    -3057    -2943 
   -2857    -2772    -2660    -2525    -2385    -2255    -2145    -2037 
   -1919    -1811    -1721    -1642    -1572    -1499    -1428    -1359 
   -1291    -1235    -1197    -1185    -1209    -1252    -1282    -1287 
   -1301    -1355    -1456    -1587    -1711    -1795    -1846    -1900 
   -1979    -2093    -2222    -2316    -2369    -2403    -2447    -2500 
   -2529    -2521    -2477    -2425    -2381    -2334    -2266    -2155 
   -2008    -1856    -1729    -1637    -1566    -1499    -1435    -1375 
   -1345    -1362    -1416    -1480    -1543    -1607    -1687    -1780 
   -1868    -1933    -1980    -2027    -2092    -2165    -2231    -2296 
   -2353    -2400    -2440    -2467    -2481    -2479    -2470    -2457 
   -2417    -2371    -2340    -2317    -2297    -2276    -2263    -2261 
   -2259    -2254    -2241    -2227    -2224    -2239    -2270    -2331 
   -2431    -2570    -2728    -2891    -3055    -3217    -3373    -3530 
   -3674    -3796    -3893    -3973    -4032    -4055    -4035    -3969 
   -3858    -3708    -3527    -3315    -3075    -2816    -2548    -2274 
   -2010    -1775    -1571    -1386    -1212    -1055     -927     -828 
    -762     -730     -731     -769     -839     -930    -1030    -1142 
   -1264    -1374    -1467    -1560    -1655    -1759    -1867    -1969 
   -2074    -2170    -2268    -2393    -2535    -2689    -2847    -2999 
   -3142    -3262    -3353    -3406    -3423    -3416    -3393    -3366 
   -3335    -3291    -3222    -3133    -3048    -2960    -2855    -2728 
   -2570    -2388    -2177    -1946    -1710    -1468    -1237    -1028 
    -839     -676     -538     -436     -372     -342     -346     -399 
    -496     -625     -781     -953    -1142    -1354    -1563    -1771 
   -1976    -2165    -2347    -2515    -2673    -2830    -2975    -3110 
   -3213    -3288    -3366    -3437    -3488    -3520    -3524    -3508 
   -3473    -3424    -3357    -3269    -3168    -3068    -2964    -2857 
   -2768    -2693    -2628    -2585    -2550    -2523    -2492    -2439 
   -2374    -2300    -2209    -2116    -2012    -1896    -1773    -1640 
   -1499    -1370    -1260    -1182    -1135    -1108    -1116    -1146 
   -1188    -1263    -1359    -1456    -1559    -1652    -1740    -1825 
   -1898    -1973    -2045    -2115    -2209    -2303    -2369    -2419 
   -2444    -2455    -2463    -2447    -2413    -2362    -2286    -2195 
   -2084    -1952    -1818    -1695    -1601    -1541    -1507    -1494 
   -1502    -1533    -1597    -1691    -1804    -1941    -2085    -2219 
   -2340    -2444    -2525    -2577    -2587    -2574    -2544    -2497 
   -2442    -2393    -2343    -2290    -2250    -2224    -2200    -2178 
   -2166    -2155    -2141    -2133    -2130    -2120    -2103    -2074 
   -2033    -1992    -1972    -1985    -2025    -2070    -2138    -2234 
   -2357    -2492    -2624    -2739    -2813    -2852    -2876    -2876 
   -2849    -2798    -2722    -2625    -2521    -2423    -2326    -2219 
   -2116    -2023    -1938    -1867    -1800    -1740    -1688    -1640 
   -1598    -1583    -1602    -1645    -1710    -1788    -1880    -1980 
   -2084    -2192    -2284    -2354    -2411    -2452    -2486    -2532 
   -2581    -2613    -2609    -2570    -2511    -2436    -2355    -2280 
   -2205    -2146    -2112    -2107    -2126    -2160    -2207    -2280 
   -2377    -2498    -2644    -2799    -2951    -3082    -3180    -3260 
   -3327    -3368    -3380    -3370    -3342    -3296    -3229    -3138 
   -3021    -2889    -2752    -2604    -2436    -2262    -2093    -1927 
   -1772    -1622    -1479    -1348    -1237    -1165    -1136    -1143 
   -1177    -1231    -1291    -1362    -1443    -1526    -1605    -1676 
   -1746    -1815    -1879    -1935    -1973    -1988    -1991    -1987 
   -1979    -1975    -1972    -1976    -1993    -2020    -2049    -2084 
   -2138    -2197    -2253    -2309    -2361    -2397    -2428    -2457 
   -2493    -2535    -2567    -2587    -2604    -2616    -2609    -2563 
   -2470    -2332    -2158    -1971    -1787    -1606    -1425    -1263 
   -1139    -1058    -1012    -1003    -1035    -1117    -1250    -1421 
   -1621    -1848    -2085    -2320    -2547    -2763    -2961    -3141 
   -3291    -3410    -3496    -3554    -3595    -3620    -3616    -3585 
   -3531    -3462    -3380    -3275    -3159    -3042    -2929    -2835 
   -2754    -2673    -2602    -2544    -2497    -2458    -2439    -2447 
   -2469    -2484    -2492    -2484    -2457    -2409    -2336    -2231 
   -2100    -1945    -1768    -1582    -1398    -1223    -1071     -955 
    -877     -847     -862     -907     -976    -1057    -1139    -1225 
   -1327    -1429    -1524    -1617    -1713    -1809    -1906    -1996 
   -2080    -2161    -2236    -2304    -2359    -2392    -2403    -2397 
   -2381    -2357    -2327    -2295    -2257    -2223    -2195    -2162 
   -2127    -2100    -2088    -2092    -2114    -2149    -2193    -2254 
   -2327    -2398    -2466    -2529    -2581    -2610    -2619    -2606 
   -2571    -2512    -2439    -2357    -2265    -2166    -2064    -1954 
   -1848    -1759    -1696    -1674    -1691    -1734    -1804    -1904 
   -2018    -2139    -2263    -2380    -2478    -2565    -2640    -2702 
   -2752    -2791    -2821    -2843    -2855    -2855    -2841    -2809 
   -2756    -2690    -2606    -2500    -2376    -2243    -2101    -1949 
   -1796    -1649    -1502    -1350    -1205    -1071     -954     -858 
    -792     -762     -766     -800     -874     -992    -1148    -1340 
   -1559    -1792    -2030    -2268    -2498    -2724    -2945    -3160 
   -3366    -3558    -3731    -3886    -4025    -4140    -4222    -4275 
   -4295    -4280    -4237    -4163    -4055    -3910    -3735    -3532 
   -3307    -3061    -2802    -2529    -2249    -1977    -1725    -1483 
   -1260    -1067     -905     -766     -648     -552     -473     -409 
    -363     -346     -353     -380     -438     -513     -596     -699 
    -819     -963    -1117    -1293    -1501    -1707    -1919    -2138 
   -2346    -2543    -2714    -2856    -2972    -3055    -3110    -3134 
   -3115    -3067    -3006    -2943    -2875    -2795    -2710    -2627 
   -2550    -2490    -2438    -2384    -2327    -2263    -2199    -2153 
   -2116    -2080    -2042    -2004    -1972    -1958    -1977    -2018 
   -2053    -2080    -2104    -2135    -2164    -2187    -2228    -2280 
   -2301    -2297    -2284    -2270    -2251    -2219    -2169    -2114 
   -2072    -2038    -2004    -1975    -1954    -1949    -1957    -1976 
   -2011    -2065    -2128    -2191    -2255    -2315    -2367    -2427 
   -2500    -2573    -2639    -2705    -2758    -2783    -2794    -2806 
   -2812    -2794    -2758    -2714    -2659    -2594    -2532    -2471 
   -2413    -2366    -2342    -2326    -2309    -2296    -2286    -2286 
   -2288    -2284    -2289    -2301    -2311    -2309    -2299    -2282 
   -2268    -2253    -2239    -2234    -2239    -2247    -2253    -2261 
   -2265    -2261    -2250    -2236    -2211    -2174    -2137    -2093 
   -2054    -2011    -1966    -1935    -1911    -1879    -1850    -1827 
   -1796    -1761    -1733    -1717    -1710    -1715    -1722    -1726 
   -1736    -1748    -1756    -1761    -1767    -1771    -1769    -1764 
   -1760    -1757    -1756    -1755    -1756    -1765    -1791    -1852 
   -1950    -2072    -2203    -2344    -2485    -2612    -2731    -2837 
   -2925    -2998    -3068    -3130    -3179    -3214    -3240    -3249 
   -3240    -3217    -3177    -3122    -3057    -2978    -2879    -2770 
   -2660    -2548    -2427    -2309    -2209    -2122    -2043    -1984 
   -1945    -1919    -1898    -1883    -1877    -1879    -1880    -1876 
   -1869    -1867    -1868    -1873    -1872    -1865    -1861    -1860 
   -1863    -1873    -1891    -1912    -1937    -1960    -1984    -2004 
   -2015    -2018    -2022    -2023    -2016    -2007    -1998    -1993 
   -1999    -2007    -2015    -2023    -2026    -2015    -1988    -1948 
   -1906    -1864    -1811    -1752    -1694    -1636    -1586    -1547 
   -1525    -1517    -1524    -1547    -1591    -1655    -1734    -1823 
   -1906    -1972    -2035    -2103    -2169    -2232    -2293    -2357 
   -2425    -2497    -2562    -2613    -2656    -2690    -2712    -2721 
   -2714    -2689    -2650    -2608    -2567    -2527    -2477    -2419 
   -2358    -2295    -2235    -2181    -2131    -2097    -2087    -2096 
   -2115    -2137    -2169    -2209    -2247    -2285    -2327    -2369 
   -2411    -2450    -2482    -2513    -2552    -2592    -2617    -2633 
   -2648    -2663    -2679    -2694    -2705    -2706    -2701    -2691 
   -2667    -2617    -2551    -2475    -2396    -2317    -2242    -2181 
   -2127    -2079    -2043    -2018    -1995    -1983    -1984    -1991 
   -1999    -2008    -2012    -2015    -2015    -2011    -2003    -1981 
   -1949    -1908    -1868    -1842    -1834    -1836    -1838    -1846 
   -1869    -1906    -1953    -2014    -2089    -2173    -2253    -2334 
   -2411    -2482    -2547    -2601    -2643    -2667    -2674    -2662 
   -2625    -2565    -2492    -2411    -2320    -2226    -2139    -2060 
   -1993    -1949    -1918    -1891    -1872    -1853    -1831    -1817 
   -1806    -1800    -1810    -1831    -1858    -1895    -1937    -1979 
   -2018    -2049    -2072    -2091    -2099    -2085    -2057    -2022 
   -1985    -1958    -1942    -1938    -1948    -1971    -2004    -2045 
   -2092    -2142    -2192    -2245    -2297    -2340    -2376    -2405 
   -2434    -2467    -2506    -2550    -2598    -2641    -2668    -2686 
   -2690    -2681    -2658    -2623    -2578    -2531    -2486    -2443 
   -2401    -2363    -2339    -2326    -2315    -2308    -2309    -2320 
   -2335    -2346    -2350    -2349    -2350    -2346    -2336    -2338 
   -2343    -2343    -2340    -2330    -2307    -2277    -2239    -2189 
   -2135    -2080    -2029    -1988    -1949    -1910    -1879    -1858 
   -1849    -1854    -1871    -1903    -1954    -2012    -2080    -2160 
   -2236    -2307    -2369    -2412    -2440    -2452    -2446    -2417 
   -2373    -2320    -2262    -2205    -2162    -2130    -2104    -2076 
   -2050    -2031    -2014    -1998    -1985    -1988    -2007    -2034 
   -2065    -2093    -2119    -2143    -2172    -2208    -2249    -2296 
   -2349    -2400    -2443    -2475    -2493    -2494    -2477    -2443 
   -2397    -2338    -2272    -2197    -2119    -2039    -1969    -1917 
   -1881    -1850    -1819    -1784    -1753    -1741    -1750    -1775 
   -1811    -1850    -1896    -1956    -2030    -2110    -2191    -2266 
   -2338    -2405    -2466    -2524    -2586    -2639    -2670    -2685 
   -2691    -2683    -2655    -2609    -2554    -2494    -2439    -2384 
   -2330    -2280    -2232    -2188    -2145    -2099    -2053    -2006 
   -1952    -1902    -1871    -1845    -1810    -1771    -1734    -1705 
   -1688    -1686    -1688    -1688    -1682    -1678    -1682    -1690 
   -1709    -1740    -1767    -1802    -1849    -1903    -1969    -2038 
   -2091    -2138    -2196    -2254    -2303    -2354    -2408    -2463 
   -2525    -2596    -2658    -2701    -2727    -2740    -2745    -2743 
   -2721    -2677    -2621    -2555    -2479    -2396    -2307    -2219 
   -2139    -2069    -2015    -1983    -1972    -1972    -1973    -1980 
   -2003    -2039    -2076    -2106    -2127    -2149    -2170    -2189 
   -2201    -2209    -2219    -2241    -2263    -2274    -2277    -2276 
   -2259    -2232    -2193    -2146    -2101    -2068    -2046    -2038 
