Origin Time       2026/01/15 07:13:00
Lat.              42.7
Long.             145.4
Depth. (km)       30
Mag.              5.7
Station Code      HKD103
Station Lat.      42.7275
Station Long.     142.2973
Station Height(m) 86
Record Time       2026/01/15 07:14:25
Sampling Freq(Hz) 100Hz
Duration Time(s)  60
Dir.              N-S
Scale Factor      7845(gal)/8223790
Max. Acc. (gal)   1.397
Last Correction   2026/01/15 07:14:26
Memo.             
[...]
   -3354    -3318    -3276    -3227    -3175    -3130    -3096    -3078 
   -3082    -3103    -3130    -3154    -3172    -3175    -3160    -3132 
   -3096    -3063    -3038    -3026    -3025    -3025    -3022    -3017 
   -3011    -3009    -3010    -3017    -3037    -3069    -3109    -3148 
   -3180    -3204    -3223    -3245    -3268    -3291    -3312    -3329 
   -3339    -3345    -3337    -3314    -3281    -3241    -3199    -3160 
   -3133    -3122    -3127    -3142    -3163    -3183    -3200    -3208 
   -3208    -3207    -3202    -3195    -3190    -3187    -3183    -3187 
   -3204    -3227    -3250    -3271    -3281    -3281    -3268    -3238 
   -3198    -3150    -3105    -3065    -3032    -3001    -2976    -2959 
   -2948    -2944    -2951    -2974    -3013    -3060    -3106    -3157 
   -3213    -3264    -3315    -3370    -3427    -3478    -3524    -3564 
   -3588    -3593    -3588    -3578    -3562    -3534    -3499    -3460 
   -3410    -3356    -3300    -3245    -3196    -3154    -3122    -3096 
   -3075    -3063    -3057    -3051    -3044    -3042    -3040    -3044 
   -3055    -3073    -3103    -3144    -3186    -3227    -3264    -3291 
   -3303    -3306    -3308    -3306    -3300    -3296    -3288    -3269 
   -3244    -3214    -3187    -3164    -3142    -3123    -3105    -3083 
   -3063    -3046    -3036    -3034    -3048    -3069    -3098    -3132 
   -3163    -3188    -3214    -3240    -3262    -3285    -3308    -3322 
   -3326    -3327    -3330    -3330    -3329    -3327    -3322    -3316 
   -3311    -3299    -3275    -3246    -3213    -3176    -3145    -3117 
   -3092    -3075    -3061    -3051    -3042    -3038    -3042    -3056 
   -3073    -3091    -3102    -3106    -3118    -3138    -3163    -3186 
   -3211    -3238    -3268    -3303    -3348    -3395    -3438    -3478 
   -3511    -3532    -3545    -3545    -3528    -3492    -3438    -3381 
   -3326    -3271    -3223    -3184    -3152    -3134    -3130    -3132 
   -3142    -3164    -3190    -3210    -3218    -3207    -3183    -3153 
   -3126    -3111    -3113    -3132    -3169    -3217    -3262    -3300 
   -3326    -3335    -3333    -3321    -3304    -3289    -3277    -3265 
   -3257    -3254    -3253    -3249    -3240    -3223    -3202    -3184 
   -3172    -3157    -3142    -3145    -3164    -3190    -3218    -3246 
   -3269    -3288    -3308    -3323    -3327    -3326    -3319    -3312 
   -3310    -3312    -3316    -3316    -3307    -3291    -3264    -3222 
   -3175    -3132    -3084    -3034    -2990    -2953    -2924    -2895 
   -2870    -2844    -2824    -2814    -2824    -2859    -2913    -2976 
   -3049    -3123    -3192    -3252    -3284    -3287    -3268    -3227 
   -3167    -3095    -3021    -2952    -2898    -2867    -2855    -2857 
   -2878    -2916    -2963    -3007    -3046    -3075    -3090    -3094 
   -3088    -3064    -3025    -2976    -2926    -2879    -2833    -2790 
   -2758    -2739    -2740    -2763    -2808    -2878    -2968    -3080 
   -3214    -3360    -3511    -3663    -3813    -3956    -4091    -4212 
   -4305    -4353    -4357    -4317    -4237    -4129    -3998    -3847 
   -3677    -3495    -3314    -3145    -2995    -2879    -2802    -2760 
   -2756    -2787    -2835    -2887    -2943    -3006    -3073    -3142 
   -3213    -3287    -3366    -3454    -3551    -3650    -3746    -3834 
   -3904    -3956    -3989    -3989    -3950    -3878    -3780    -3665 
   -3549    -3434    -3331    -3242    -3164    -3091    -3026    -2971 
   -2924    -2872    -2824    -2790    -2764    -2739    -2720    -2709 
   -2706    -2717    -2748    -2797    -2863    -2943    -3033    -3138 
   -3268    -3414    -3562    -3707    -3840    -3956    -4052    -4112 
   -4124    -4099    -4043    -3947    -3815    -3653    -3465    -3254 
   -3036    -2817    -2605    -2415    -2255    -2135    -2066    -2052 
   -2080    -2153    -2269    -2415    -2585    -2763    -2933    -3088 
   -3223    -3342    -3450    -3549    -3636    -3716    -3786    -3842 
   -3878    -3894    -3877    -3808    -3701    -3566    -3407    -3231 
   -3059    -2903    -2781    -2689    -2627    -2587    -2567    -2563 
   -2579    -2614    -2666    -2728    -2797    -2872    -2961    -3071 
   -3188    -3295    -3380    -3453    -3512    -3551    -3566    -3546 
   -3501    -3450    -3402    -3361    -3335    -3329    -3342    -3381 
   -3435    -3485    -3518    -3527    -3514    -3477    -3416    -3330 
   -3225    -3111    -3009    -2921    -2844    -2776    -2731    -2725 
   -2768    -2848    -2956    -3084    -3226    -3370    -3512    -3642 
   -3759    -3861    -3946    -4016    -4066    -4079    -4047    -3974 
   -3866    -3734    -3576    -3402    -3225    -3060    -2920    -2810 
   -2722    -2644    -2583    -2543    -2524    -2529    -2556    -2604 
   -2687    -2809    -2955    -3117    -3298    -3497    -3709    -3916 
   -4090    -4218    -4293    -4303    -4243    -4117    -3944    -3736 
   -3501    -3252    -3010    -2799    -2632    -2497    -2386    -2307 
   -2266    -2272    -2312    -2371    -2443    -2529    -2628    -2735 
   -2828    -2898    -2951    -2998    -3037    -3065    -3092    -3134 
   -3186    -3230    -3267    -3298    -3314    -3311    -3292    -3264 
   -3246    -3252    -3272    -3302    -3339    -3381    -3416    -3445 
   -3466    -3477    -3485    -3500    -3512    -3512    -3505    -3492 
   -3472    -3442    -3400    -3349    -3292    -3223    -3140    -3046 
   -2952    -2863    -2790    -2741    -2718    -2720    -2747    -2797 
   -2866    -2953    -3041    -3114    -3168    -3221    -3283    -3352 
   -3419    -3474    -3514    -3545    -3566    -3574    -3562    -3528 
   -3477    -3420    -3372    -3327    -3294    -3269    -3238    -3202 
   -3175    -3164    -3167    -3177    -3196    -3234    -3291    -3356 
   -3404    -3420    -3408    -3381    -3339    -3280    -3217    -3169 
   -3152    -3157    -3169    -3184    -3194    -3199    -3207    -3215 
   -3226    -3252    -3288    -3321    -3341    -3352    -3346    -3321 
   -3275    -3198    -3094    -2991    -2905    -2841    -2798    -2776 
   -2776    -2799    -2835    -2876    -2920    -2955    -2980    -3010 
   -3057    -3125    -3207    -3295    -3377    -3446    -3500    -3538 
   -3555    -3551    -3535    -3516    -3504    -3504    -3516    -3527 
   -3535    -3539    -3538    -3530    -3518    -3491    -3461    -3435 
   -3410    -3385    -3366    -3348    -3323    -3285    -3234    -3172 
   -3105    -3030    -2961    -2902    -2853    -2822    -2808    -2806 
   -2822    -2856    -2898    -2941    -2994    -3064    -3153    -3249 
   -3353    -3451    -3530    -3585    -3623    -3642    -3650    -3653 
   -3646    -3620    -3580    -3539    -3504    -3470    -3434    -3384 
   -3318    -3253    -3195    -3129    -3056    -2988    -2930    -2880 
   -2845    -2835    -2848    -2884    -2944    -3006    -3055    -3084 
   -3091    -3072    -3017    -2924    -2810    -2687    -2581    -2515 
   -2497    -2533    -2620    -2743    -2895    -3069    -3244    -3392 
   -3492    -3546    -3564    -3559    -3545    -3535    -3541    -3565 
   -3596    -3618    -3630    -3628    -3605    -3574    -3535    -3472 
   -3387    -3296    -3218    -3156    -3117    -3107    -3122    -3152 
   -3188    -3230    -3262    -3276    -3272    -3254    -3227    -3203 
   -3192    -3200    -3225    -3260    -3304    -3353    -3392    -3408 
   -3399    -3376    -3343    -3310    -3275    -3237    -3200    -3167 
   -3140    -3117    -3090    -3059    -3034    -3024    -3030    -3052 
   -3091    -3140    -3195    -3250    -3300    -3339    -3376    -3411 
   -3443    -3465    -3472    -3470    -3465    -3457    -3437    -3404 
   -3383    -3375    -3372    -3379    -3392    -3399    -3402    -3393 
   -3370    -3338    -3299    -3250    -3186    -3098    -3002    -2920 
   -2857    -2806    -2766    -2737    -2721    -2710    -2706    -2710 
   -2727    -2748    -2764    -2783    -2835    -2926    -3045    -3175 
   -3302    -3414    -3512    -3596    -3662    -3720    -3778    -3834 
   -3877    -3896    -3878    -3838    -3782    -3700    -3582    -3430 
   -3262    -3111    -2992    -2898    -2825    -2778    -2764    -2779 
   -2824    -2893    -2972    -3060    -3156    -3254    -3350    -3438 
   -3508    -3553    -3565    -3530    -3441    -3318    -3176    -3029 
   -2899    -2799    -2713    -2639    -2582    -2538    -2519    -2544 
   -2594    -2637    -2675    -2731    -2818    -2913    -2990    -3061 
   -3137    -3222    -3321    -3414    -3489    -3549    -3605    -3663 
   -3709    -3720    -3686    -3620    -3546    -3469    -3364    -3231 
   -3106    -3002    -2899    -2813    -2779    -2790    -2822    -2870 
   -2929    -3009    -3107    -3208    -3312    -3402    -3451    -3480 
   -3519    -3572    -3615    -3636    -3651    -3680    -3717    -3727 
   -3689    -3630    -3580    -3532    -3465    -3388    -3307    -3198 
   -3083    -2999    -2922    -2841    -2783    -2754    -2745    -2760 
   -2810    -2899    -3014    -3118    -3190    -3245    -3307    -3375 
   -3439    -3492    -3538    -3577    -3609    -3642    -3661    -3642 
   -3577    -3474    -3353    -3223    -3087    -2960    -2864    -2790 
   -2728    -2704    -2724    -2762    -2803    -2859    -2937    -3028 
   -3109    -3191    -3281    -3361    -3418    -3460    -3481    -3480 
   -3478    -3472    -3456    -3438    -3423    -3389    -3339    -3284 
   -3230    -3172    -3126    -3099    -3073    -3046    -3029    -3026 
   -3041    -3065    -3095    -3134    -3177    -3213    -3233    -3237 
   -3225    -3191    -3138    -3078    -3010    -2944    -2897    -2876 
   -2878    -2895    -2937    -2995    -3049    -3103    -3156    -3188 
   -3203    -3225    -3257    -3269    -3250    -3229    -3215    -3213 
   -3235    -3285    -3348    -3420    -3503    -3576    -3616    -3611 
   -3551    -3437    -3285    -3117    -2938    -2772    -2640    -2535 
   -2458    -2438    -2485    -2573    -2677    -2818    -2994    -3173 
   -3350    -3526    -3682    -3796    -3859    -3885    -3874    -3832 
   -3755    -3662    -3565    -3450    -3333    -3248    -3190    -3153 
   -3154    -3190    -3249    -3333    -3433    -3535    -3624    -3689 
   -3727    -3739    -3724    -3680    -3599    -3508    -3422    -3327 
   -3244    -3188    -3160    -3146    -3145    -3164    -3200    -3233 
   -3268    -3314    -3356    -3388    -3399    -3375    -3321    -3250 
   -3190    -3134    -3079    -3046    -3041    -3059    -3109    -3168 
   -3222    -3275    -3308    -3322    -3311    -3267    -3207    -3145 
   -3067    -2994    -2947    -2917    -2909    -2918    -2941    -2991 
   -3059    -3127    -3195    -3271    -3357    -3434    -3488    -3528 
   -3558    -3578    -3588    -3573    -3527    -3458    -3381    -3306 
   -3227    -3130    -3010    -2871    -2739    -2633    -2548    -2479 
   -2446    -2459    -2516    -2604    -2689    -2748    -2797    -2863 
   -2951    -3037    -3103    -3154    -3207    -3262    -3325    -3375 
   -3387    -3356    -3308    -3267    -3226    -3187    -3153    -3121 
   -3115    -3156    -3229    -3316    -3408    -3501    -3605    -3711 
   -3807    -3878    -3898    -3881    -3847    -3790    -3709    -3611 
   -3499    -3395    -3302    -3204    -3110    -3009    -2897    -2798 
   -2720    -2674    -2664    -2666    -2671    -2697    -2747    -2825 
   -2938    -3068    -3191    -3311    -3438    -3564    -3674    -3763 
   -3832    -3889    -3929    -3950    -3944    -3901    -3821    -3727 
   -3620    -3496    -3353    -3199    -3065    -2956    -2849    -2760 
   -2706    -2677    -2667    -2685    -2720    -2778    -2875    -3002 
   -3118    -3213    -3303    -3393    -3487    -3566    -3604    -3626 
   -3654    -3658    -3638    -3608    -3543    -3453    -3388    -3342 
   -3281    -3230    -3194    -3165    -3152    -3123    -3055    -2971 
   -2893    -2809    -2735    -2685    -2647    -2635    -2660    -2695 
   -2736    -2790    -2845    -2920    -3026    -3130    -3221    -3302 
   -3370    -3423    -3446    -3446    -3429    -3387    -3345    -3312 
   -3285    -3271    -3222    -3149    -3098    -3045    -2986    -2943 
   -2895    -2862    -2856    -2828    -2787    -2774    -2747    -2714 
   -2702    -2698    -2713    -2741    -2791    -2932    -3098    -3188 
   -3271    -3406    -3515    -3562    -3593    -3605    -3561    -3478 
   -3416    -3379    -3322    -3230    -3133    -3071    -3048    -3019 
   -2979    -2979    -3009    -3022    -3065    -3179    -3335    -3472 
   -3557    -3636    -3758    -3896    -3994    -4020    -3998    -3974 
   -3946    -3919    -3869    -3757    -3605    -3470    -3384    -3314 
   -3229    -3180    -3163    -3109    -3056    -3053    -3090    -3154 
   -3173    -3113    -3048    -3029    -3053    -3109    -3175    -3245 
   -3289    -3316    -3373    -3419    -3414    -3399    -3352    -3237 
   -3133    -3072    -3037    -3011    -2953    -2878    -2817    -2802 
   -2840    -2864    -2902    -3002    -3072    -3102    -3167    -3254 
   -3269    -3171    -3099    -3159    -3199    -3134    -3087    -3150 
   -3267    -3342    -3397    -3492    -3601    -3707    -3801    -3859 
   -3921    -4002    -3986    -3846    -3708    -3646    -3572    -3385 
   -3117    -2883    -2725    -2579    -2411    -2284    -2236    -2203 
   -2142    -2079    -2070    -2177    -2278    -2224    -2170    -2255 
   -2361    -2431    -2533    -2718    -2961    -3167    -3334    -3530 
   -3736    -3966    -4205    -4345    -4440    -4592    -4681    -4625 
   -4536    -4496    -4494    -4421    -4195    -3942    -3782    -3672 
   -3532    -3372    -3240    -3142    -3052    -2976    -2925    -2893 
   -2867    -2832    -2786    -2733    -2662    -2579    -2562    -2619 
   -2656    -2658    -2678    -2741    -2836    -2961    -3153    -3319 
   -3314    -3249    -3292    -3348    -3329    -3357    -3439    -3411 
   -3307    -3280    -3315    -3377    -3460    -3528    -3564    -3528 
   -3518    -3603    -3615    -3519    -3462    -3395    -3272    -3241 
   -3269    -3210    -3099    -2994    -2929    -2890    -2806    -2754 
   -2762    -2724    -2717    -2813    -2860    -2882    -2964    -3024 
   -3088    -3230    -3354    -3392    -3365    -3357    -3426    -3508 
   -3570    -3634    -3654    -3643    -3670    -3727    -3744    -3688 
   -3586    -3477    -3380    -3306    -3198    -3033    -2894    -2845 
   -2817    -2743    -2731    -2816    -2880    -2951    -3057    -3126 
   -3164    -3208    -3229    -3225    -3230    -3238    -3235    -3202 
   -3121    -3051    -3037    -3021    -2983    -2959    -2910    -2843 
   -2848    -2936    -3007    -3024    -3073    -3175    -3246    -3312 
   -3375    -3411    -3451    -3473    -3460    -3430    -3418    -3442 
   -3388    -3235    -3119    -3080    -3109    -3188    -3214    -3169 
   -3172    -3248    -3341    -3419    -3420    -3361    -3335    -3312 
   -3289    -3311    -3252    -3099    -3055    -3073    -3003    -2929 
   -2911    -2893    -2907    -2968    -2995    -2994    -3026    -3094 
   -3150    -3190    -3225    -3226    -3191    -3138    -3090    -3117 
   -3190    -3179    -3125    -3122    -3156    -3215    -3268    -3268 
   -3280    -3341    -3414    -3503    -3566    -3574    -3576    -3562 
   -3518    -3489    -3423    -3252    -3088    -3029    -2994    -2924 
   -2863    -2840    -2841    -2835    -2818    -2833    -2849    -2849 
   -2895    -2987    -3091    -3213    -3322    -3422    -3543    -3655 
   -3734    -3792    -3835    -3859    -3846    -3797    -3758    -3735 
   -3689    -3613    -3537    -3495    -3504    -3507    -3449    -3420 
   -3485    -3565    -3600    -3616    -3635    -3624    -3618    -3645 
   -3636    -3577    -3503    -3388    -3271    -3203    -3121    -3024 
   -2934    -2825    -2767    -2805    -2836    -2840    -2860    -2868 
   -2848    -2852    -2910    -2953    -2952    -2980    -3034    -3095 
   -3213    -3345    -3437    -3510    -3586    -3650    -3694    -3719 
   -3673    -3609    -3597    -3522    -3387    -3318    -3285    -3213 
   -3082    -3006    -3032    -2960    -2852    -2825    -2776    -2764 
   -2782    -2755    -2735    -2708    -2670    -2654    -2629    -2575 
   -2558    -2578    -2578    -2614    -2693    -2725    -2747    -2820 
   -2882    -2905    -2889    -2884    -3001    -3048    -2936    -2987 
   -3154    -3208    -3227    -3258    -3271    -3279    -3348    -3478 
   -3547    -3530    -3523    -3595    -3667    -3631    -3596    -3613 
   -3596    -3578    -3616    -3669    -3643    -3543    -3487    -3474 
   -3400    -3296    -3249    -3204    -3115    -3040    -3040    -3107 
   -3141    -3096    -3045    -3019    -3032    -3087    -3076    -2975 
   -2948    -2961    -2924    -2925    -2933    -2953    -3041    -3110 
   -3168    -3291    -3451    -3589    -3663    -3731    -3856    -3947 
   -3925    -3866    -3797    -3726    -3670    -3565    -3412    -3267 
   -3125    -3028    -2948    -2839    -2797    -2790    -2728    -2745 
   -2844    -2848    -2835    -2934    -3048    -3103    -3156    -3204 
   -3241    -3310    -3350    -3306    -3257    -3246    -3225    -3186 
   -3127    -3030    -2947    -2930    -2932    -2926    -2947    -2998 
   -3037    -3061    -3138    -3235    -3307    -3411    -3535    -3604 
   -3649    -3692    -3669    -3619    -3619    -3600    -3508    -3414 
   -3379    -3389    -3412    -3415    -3396    -3393    -3418    -3420 
   -3392    -3366    -3341    -3326    -3322    -3294    -3269    -3279 
   -3261    -3218    -3206    -3221    -3222    -3187    -3133    -3103 
   -3110    -3110    -3076    -3048    -3042    -3014    -2963    -2917 
   -2871    -2841    -2837    -2805    -2764    -2790    -2849    -2903 
   -2970    -3038    -3099    -3177    -3267    -3356    -3443    -3522 
   -3580    -3645    -3715    -3735    -3705    -3670    -3611    -3492 
   -3335    -3169    -3005    -2862    -2763    -2710    -2697    -2710 
   -2744    -2806    -2895    -3005    -3130    -3252    -3369    -3488 
   -3584    -3657    -3711    -3736    -3777    -3827    -3804    -3712 
   -3632    -3572    -3487    -3379    -3257    -3125    -3003    -2914 
   -2867    -2835    -2776    -2729    -2728    -2729    -2745    -2813 
   -2871    -2913    -3014    -3138    -3199    -3242    -3333    -3456 
   -3555    -3599    -3595    -3581    -3576    -3565    -3537    -3495 
   -3445    -3396    -3354    -3304    -3245    -3221    -3230    -3196 
   -3125    -3086    -3083    -3092    -3115    -3145    -3172    -3179 
   -3176    -3179    -3181    -3188    -3206    -3190    -3127    -3095 
   -3119    -3148    -3164    -3177    -3213    -3276    -3319    -3350 
   -3389    -3385    -3370    -3395    -3375    -3294    -3252    -3253 
   -3250    -3245    -3225    -3184    -3146    -3114    -3078    -3051 
   -3026    -2988    -2963    -2952    -2948    -2949    -2948    -2955 
   -2964    -2959    -2987    -3046    -3082    -3125    -3199    -3253 
   -3275    -3283    -3288    -3276    -3233    -3191    -3180    -3150 
   -3082    -3028    -2995    -2978    -2979    -2972    -2943    -2913 
   -2895    -2901    -2932    -2964    -3002    -3041    -3073    -3107 
   -3134    -3160    -3194    -3208    -3203    -3221    -3276    -3353 
   -3435    -3492    -3518    -3549    -3586    -3585    -3542    -3485 
