Origin Time       2026/01/15 07:13:00
Lat.              42.7
Long.             145.4
Depth. (km)       30
Mag.              5.7
Station Code      HKD125
Station Lat.      42.7609
Station Long.     142.1344
Station Height(m) 69
Record Time       2026/01/15 07:14:30
Sampling Freq(Hz) 100Hz
Duration Time(s)  65
Dir.              N-S
Scale Factor      7845(gal)/8223790
Max. Acc. (gal)   2.216
Last Correction   2026/01/15 07:14:30
Memo.             
[...]
   -3100    -3113    -3122    -3133    -3144    -3148    -3153    -3167 
   -3184    -3204    -3226    -3252    -3281    -3312    -3337    -3357 
   -3370    -3375    -3375    -3368    -3354    -3337    -3311    -3275 
   -3235    -3192    -3148    -3107    -3075    -3051    -3038    -3034 
   -3038    -3048    -3055    -3060    -3068    -3073    -3075    -3075 
   -3071    -3064    -3059    -3053    -3051    -3051    -3052    -3051 
   -3049    -3045    -3040    -3033    -3030    -3037    -3053    -3072 
   -3091    -3114    -3141    -3160    -3173    -3188    -3198    -3196 
   -3191    -3176    -3160    -3146    -3136    -3134    -3145    -3159 
   -3173    -3190    -3198    -3202    -3196    -3180    -3161    -3145 
   -3136    -3134    -3146    -3163    -3175    -3181    -3181    -3179 
   -3180    -3183    -3187    -3194    -3199    -3196    -3190    -3186 
   -3186    -3188    -3198    -3211    -3221    -3223    -3214    -3196 
   -3171    -3138    -3102    -3063    -3028    -2998    -2968    -2941 
   -2922    -2916    -2924    -2944    -2972    -3009    -3052    -3096 
   -3146    -3198    -3246    -3295    -3335    -3357    -3361    -3352 
   -3330    -3300    -3267    -3231    -3195    -3161    -3127    -3096 
   -3069    -3046    -3028    -3018    -3015    -3017    -3022    -3037 
   -3060    -3090    -3121    -3152    -3180    -3200    -3210    -3217 
   -3223    -3221    -3215    -3211    -3203    -3190    -3176    -3159 
   -3137    -3111    -3082    -3049    -3017    -2988    -2960    -2933 
   -2914    -2899    -2890    -2890    -2901    -2926    -2970    -3024 
   -3087    -3159    -3229    -3299    -3364    -3416    -3456    -3480 
   -3481    -3456    -3408    -3341    -3261    -3177    -3098    -3026 
   -2968    -2922    -2889    -2867    -2857    -2855    -2855    -2868 
   -2901    -2951    -3013    -3090    -3180    -3272    -3357    -3431 
   -3488    -3531    -3551    -3542    -3504    -3445    -3370    -3291 
   -3207    -3127    -3063    -3010    -2971    -2938    -2917    -2906 
   -2898    -2895    -2902    -2911    -2932    -2964    -3002    -3048 
   -3099    -3149    -3199    -3248    -3288    -3326    -3364    -3393 
   -3412    -3420    -3415    -3395    -3362    -3323    -3277    -3221 
   -3163    -3113    -3064    -3014    -2976    -2952    -2936    -2932 
   -2937    -2949    -2974    -3006    -3048    -3091    -3133    -3177 
   -3223    -3264    -3294    -3312    -3319    -3315    -3296    -3268 
   -3233    -3194    -3153    -3113    -3075    -3046    -3028    -3009 
   -2997    -2986    -2971    -2960    -2959    -2963    -2974    -2992 
   -3013    -3040    -3075    -3115    -3160    -3207    -3249    -3281 
   -3303    -3312    -3310    -3298    -3277    -3248    -3210    -3163 
   -3114    -3067    -3028    -2994    -2963    -2944    -2938    -2941 
   -2947    -2960    -2983    -3005    -3025    -3053    -3086    -3109 
   -3127    -3148    -3171    -3192    -3217    -3242    -3268    -3292 
   -3310    -3323    -3331    -3334    -3327    -3314    -3298    -3275 
   -3245    -3214    -3186    -3160    -3141    -3126    -3119    -3121 
   -3125    -3132    -3142    -3153    -3167    -3180    -3196    -3215 
   -3229    -3234    -3235    -3233    -3222    -3206    -3186    -3165 
   -3144    -3123    -3113    -3113    -3114    -3114    -3117    -3113 
   -3095    -3069    -3037    -2998    -2957    -2924    -2899    -2884 
   -2884    -2897    -2916    -2940    -2970    -3007    -3055    -3111 
   -3173    -3237    -3294    -3341    -3376    -3395    -3400    -3399 
   -3389    -3370    -3345    -3311    -3275    -3230    -3184    -3141 
   -3092    -3045    -3007    -2972    -2941    -2921    -2913    -2914 
   -2925    -2944    -2972    -3006    -3044    -3084    -3122    -3154 
   -3181    -3202    -3217    -3231    -3248    -3260    -3272    -3283 
   -3284    -3276    -3256    -3226    -3191    -3153    -3113    -3073 
   -3040    -3015    -3001    -2994    -2994    -3007    -3029    -3049 
   -3068    -3090    -3111    -3132    -3153    -3183    -3217    -3252 
   -3288    -3322    -3342    -3352    -3352    -3337    -3310    -3275 
   -3237    -3206    -3180    -3159    -3149    -3153    -3160    -3171 
   -3177    -3173    -3163    -3149    -3126    -3106    -3091    -3075 
   -3063    -3056    -3053    -3056    -3061    -3072    -3080    -3075 
   -3056    -3030    -3001    -2970    -2945    -2932    -2929    -2940 
   -2964    -2995    -3026    -3064    -3100    -3132    -3154    -3168 
   -3173    -3173    -3175    -3173    -3173    -3177    -3186    -3192 
   -3200    -3211    -3225    -3235    -3244    -3245    -3240    -3233 
   -3219    -3204    -3191    -3181    -3171    -3167    -3168    -3172 
   -3176    -3181    -3188    -3196    -3202    -3206    -3208    -3206 
   -3196    -3187    -3175    -3159    -3136    -3110    -3083    -3057 
   -3034    -3022    -3019    -3021    -3029    -3042    -3053    -3060 
   -3065    -3071    -3075    -3083    -3096    -3114    -3132    -3150 
   -3163    -3165    -3164    -3164    -3161    -3159    -3161    -3169 
   -3184    -3198    -3204    -3207    -3203    -3188    -3168    -3144 
   -3117    -3094    -3078    -3069    -3068    -3073    -3083    -3094 
   -3106    -3117    -3130    -3150    -3173    -3196    -3222    -3244 
   -3258    -3268    -3271    -3262    -3246    -3226    -3206    -3186 
   -3161    -3132    -3100    -3063    -3025    -2994    -2968    -2952 
   -2951    -2963    -2984    -3017    -3057    -3096    -3133    -3167 
   -3196    -3215    -3231    -3242    -3253    -3262    -3271    -3277 
   -3281    -3279    -3269    -3249    -3222    -3191    -3153    -3114 
   -3082    -3048    -3015    -2990    -2965    -2940    -2921    -2910 
   -2913    -2924    -2948    -2983    -3026    -3067    -3103    -3137 
   -3164    -3187    -3210    -3231    -3246    -3257    -3261    -3258 
   -3254    -3254    -3256    -3258    -3256    -3250    -3244    -3235 
   -3227    -3227    -3233    -3237    -3231    -3218    -3196    -3165 
   -3129    -3095    -3069    -3049    -3038    -3040    -3042    -3046 
   -3056    -3067    -3076    -3082    -3084    -3088    -3096    -3105 
   -3111    -3113    -3107    -3094    -3073    -3052    -3033    -3024 
   -3025    -3038    -3063    -3091    -3127    -3172    -3215    -3253 
   -3291    -3325    -3346    -3360    -3362    -3354    -3334    -3310 
   -3276    -3234    -3198    -3164    -3126    -3094    -3073    -3059 
   -3052    -3052    -3052    -3053    -3056    -3055    -3049    -3045 
   -3042    -3044    -3049    -3056    -3063    -3065    -3065    -3067 
   -3065    -3061    -3059    -3053    -3046    -3038    -3026    -3018 
   -3018    -3022    -3034    -3053    -3073    -3098    -3127    -3163 
   -3200    -3245    -3287    -3322    -3348    -3358    -3358    -3356 
   -3346    -3333    -3323    -3316    -3310    -3300    -3291    -3277 
   -3256    -3231    -3206    -3176    -3148    -3121    -3091    -3059 
   -3032    -3001    -2965    -2932    -2898    -2870    -2841    -2816 
   -2805    -2810    -2825    -2853    -2895    -2948    -3003    -3053 
   -3100    -3145    -3181    -3206    -3225    -3245    -3269    -3296 
   -3325    -3350    -3364    -3372    -3375    -3373    -3370    -3366 
   -3361    -3353    -3345    -3334    -3318    -3299    -3280    -3260 
   -3245    -3230    -3215    -3203    -3191    -3169    -3140    -3103 
   -3061    -3015    -2965    -2921    -2886    -2862    -2853    -2856 
   -2864    -2882    -2902    -2921    -2941    -2970    -3006    -3052 
   -3110    -3175    -3244    -3315    -3377    -3429    -3465    -3484 
   -3491    -3488    -3477    -3460    -3439    -3414    -3381    -3341 
   -3289    -3233    -3179    -3123    -3068    -3018    -2975    -2934 
   -2897    -2868    -2856    -2852    -2853    -2867    -2886    -2910 
   -2941    -2975    -3007    -3040    -3064    -3082    -3098    -3110 
   -3122    -3137    -3156    -3177    -3198    -3215    -3229    -3237 
   -3238    -3234    -3221    -3207    -3199    -3191    -3186    -3188 
   -3194    -3206    -3226    -3250    -3276    -3304    -3331    -3354 
   -3370    -3381    -3377    -3357    -3325    -3281    -3226    -3161 
   -3088    -3010    -2933    -2860    -2793    -2737    -2695    -2668 
   -2663    -2678    -2704    -2744    -2795    -2860    -2933    -3013 
   -3095    -3179    -3250    -3310    -3364    -3407    -3438    -3461 
   -3474    -3478    -3480    -3472    -3454    -3426    -3389    -3345 
   -3298    -3250    -3203    -3156    -3107    -3060    -3019    -2990 
   -2967    -2949    -2944    -2947    -2952    -2961    -2976    -2990 
   -2999    -3017    -3032    -3042    -3056    -3071    -3079    -3087 
   -3099    -3114    -3134    -3160    -3191    -3223    -3253    -3281 
   -3303    -3318    -3326    -3329    -3327    -3321    -3318    -3319 
   -3319    -3316    -3314    -3306    -3292    -3275    -3250    -3223 
   -3192    -3156    -3117    -3072    -3028    -2986    -2947    -2917 
   -2903    -2901    -2901    -2906    -2921    -2941    -2965    -2991 
   -3017    -3041    -3068    -3094    -3113    -3127    -3140    -3145 
   -3149    -3153    -3156    -3157    -3157    -3159    -3159    -3157 
   -3156    -3154    -3150    -3144    -3136    -3123    -3110    -3103 
   -3107    -3118    -3138    -3164    -3187    -3206    -3215    -3214 
   -3210    -3199    -3183    -3175    -3172    -3171    -3171    -3169 
   -3165    -3152    -3129    -3107    -3084    -3057    -3041    -3041 
   -3052    -3071    -3100    -3127    -3144    -3153    -3157    -3156 
   -3157    -3161    -3165    -3167    -3171    -3181    -3191    -3199 
   -3206    -3208    -3206    -3196    -3186    -3169    -3156    -3149 
   -3145    -3145    -3154    -3165    -3183    -3203    -3219    -3231 
   -3238    -3235    -3227    -3214    -3196    -3181    -3168    -3157 
   -3150    -3140    -3126    -3114    -3098    -3080    -3064    -3051 
   -3045    -3049    -3063    -3084    -3111    -3140    -3171    -3204 
   -3227    -3245    -3260    -3265    -3260    -3252    -3244    -3233 
   -3222    -3210    -3203    -3206    -3210    -3210    -3211    -3210 
   -3202    -3191    -3186    -3183    -3181    -3187    -3194    -3196 
   -3191    -3175    -3152    -3126    -3102    -3078    -3059    -3042 
   -3030    -3014    -2991    -2964    -2934    -2903    -2878    -2867 
   -2867    -2876    -2897    -2924    -2945    -2964    -2979    -2986 
   -2987    -2984    -2983    -2988    -3005    -3029    -3055    -3083 
   -3113    -3141    -3165    -3181    -3187    -3188    -3188    -3187 
   -3191    -3200    -3211    -3226    -3240    -3246    -3250    -3249 
   -3245    -3241    -3235    -3222    -3208    -3200    -3190    -3181 
   -3177    -3176    -3169    -3154    -3134    -3111    -3083    -3059 
   -3041    -3019    -3001    -2988    -2979    -2976    -2986    -3005 
   -3028    -3053    -3079    -3103    -3126    -3145    -3157    -3163 
   -3171    -3186    -3204    -3233    -3269    -3304    -3337    -3366 
   -3385    -3396    -3399    -3389    -3366    -3333    -3291    -3244 
   -3200    -3164    -3132    -3100    -3072    -3040    -3005    -2974 
   -2948    -2926    -2917    -2918    -2933    -2959    -2994    -3033 
   -3071    -3103    -3129    -3149    -3159    -3159    -3157    -3152 
   -3146    -3134    -3119    -3107    -3096    -3084    -3072    -3060 
   -3055    -3061    -3080    -3110    -3146    -3192    -3238    -3276 
   -3314    -3346    -3368    -3384    -3391    -3381    -3361    -3329 
   -3284    -3227    -3164    -3099    -3042    -2998    -2965    -2948 
   -2943    -2947    -2957    -2976    -3001    -3024    -3045    -3065 
   -3079    -3088    -3099    -3119    -3152    -3191    -3231    -3269 
   -3298    -3314    -3319    -3310    -3287    -3261    -3231    -3198 
   -3171    -3156    -3146    -3146    -3154    -3167    -3183    -3204 
   -3226    -3246    -3265    -3281    -3289    -3288    -3277    -3254 
   -3221    -3180    -3133    -3075    -3010    -2945    -2884    -2828 
   -2783    -2754    -2739    -2736    -2747    -2774    -2820    -2884 
   -2964    -3049    -3134    -3215    -3287    -3349    -3400    -3443 
   -3481    -3511    -3534    -3554    -3564    -3566    -3558    -3532 
   -3491    -3430    -3345    -3244    -3134    -3024    -2918    -2826 
   -2756    -2709    -2685    -2686    -2716    -2776    -2859    -2963 
   -3084    -3211    -3341    -3468    -3584    -3685    -3769    -3825 
   -3859    -3873    -3859    -3824    -3789    -3748    -3699    -3646 
   -3586    -3514    -3434    -3346    -3245    -3132    -3007    -2876 
   -2748    -2625    -2516    -2428    -2361    -2309    -2273    -2246 
   -2230    -2227    -2242    -2272    -2326    -2405    -2505    -2617 
   -2737    -2853    -2952    -3032    -3092    -3140    -3179    -3215 
   -3254    -3289    -3319    -3341    -3353    -3357    -3353    -3339 
   -3321    -3295    -3264    -3226    -3179    -3129    -3084    -3041 
   -3003    -2979    -2963    -2953    -2955    -2960    -2965    -2968 
   -2967    -2960    -2951    -2933    -2909    -2880    -2851    -2825 
   -2803    -2794    -2797    -2812    -2839    -2872    -2916    -2968 
   -3028    -3096    -3176    -3267    -3375    -3499    -3631    -3774 
   -3927    -4075    -4216    -4340    -4440    -4506    -4540    -4540 
   -4504    -4437    -4341    -4213    -4051    -3847    -3603    -3323 
   -3014    -2682    -2343    -2014    -1705    -1422    -1181     -994 
    -868     -815     -839     -936    -1104    -1333    -1614    -1933 
   -2278    -2637    -2994    -3338    -3655    -3936    -4178    -4379 
   -4542    -4668    -4758    -4816    -4839    -4831    -4804    -4766 
   -4712    -4610    -4461    -4328    -4203    -4056    -3921    -3800 
   -3672    -3547    -3422    -3289    -3156    -3013    -2876    -2748 
   -2619    -2500    -2397    -2312    -2245    -2191    -2149    -2123 
   -2118    -2128    -2157    -2205    -2268    -2336    -2416    -2501 
   -2585    -2674    -2772    -2879    -2990    -3113    -3244    -3381 
   -3523    -3666    -3805    -3933    -4050    -4153    -4247    -4324 
   -4383    -4418    -4428    -4421    -4379    -4244    -4051    -3854 
   -3607    -3304    -3007    -2705    -2400    -2131    -1891    -1688 
   -1539    -1441    -1416    -1470    -1593    -1783    -2029    -2308 
   -2606    -2901    -3177    -3431    -3646    -3815    -3936    -4008 
   -4029    -4005    -3932    -3823    -3692    -3535    -3365    -3191 
   -3014    -2852    -2724    -2619    -2539    -2501    -2504    -2539 
   -2609    -2716    -2844    -2983    -3125    -3260    -3387    -3507 
   -3616    -3704    -3770    -3809    -3816    -3789    -3735    -3655 
   -3551    -3437    -3325    -3219    -3132    -3065    -3021    -2995 
   -2988    -2990    -3002    -3022    -3044    -3067    -3090    -3109 
   -3118    -3123    -3119    -3107    -3087    -3060    -3032    -3003 
   -2979    -2965    -2956    -2947    -2943    -2938    -2930    -2929 
   -2930    -2930    -2934    -2941    -2952    -2975    -3011    -3059 
   -3115    -3179    -3244    -3312    -3384    -3456    -3528    -3597 
   -3653    -3688    -3699    -3678    -3627    -3549    -3453    -3346 
   -3235    -3130    -3030    -2934    -2848    -2770    -2698    -2641 
   -2604    -2582    -2581    -2606    -2652    -2713    -2787    -2864 
   -2938    -3010    -3072    -3127    -3179    -3229    -3283    -3339 
   -3396    -3451    -3500    -3535    -3559    -3574    -3582    -3591 
   -3600    -3604    -3604    -3596    -3574    -3538    -3484    -3410 
   -3322    -3222    -3111    -2994    -2870    -2739    -2612    -2497 
   -2401    -2330    -2288    -2278    -2303    -2354    -2428    -2521 
   -2629    -2747    -2872    -2997    -3111    -3219    -3310    -3380 
   -3438    -3476    -3489    -3485    -3464    -3420    -3370    -3316 
   -3257    -3202    -3157    -3117    -3080    -3051    -3026    -3007 
   -2994    -2991    -3003    -3033    -3082    -3146    -3227    -3321 
   -3416    -3508    -3589    -3655    -3701    -3724    -3728    -3713 
   -3678    -3626    -3562    -3489    -3411    -3334    -3252    -3167 
   -3086    -3001    -2905    -2805    -2704    -2604    -2516    -2450 
   -2412    -2408    -2440    -2511    -2613    -2740    -2884    -3038 
   -3204    -3372    -3535    -3688    -3828    -3951    -4043    -4097 
   -4116    -4104    -4055    -3981    -3892    -3782    -3663    -3547 
   -3429    -3312    -3207    -3100    -2991    -2887    -2785    -2689 
   -2601    -2521    -2450    -2389    -2335    -2290    -2261    -2247 
   -2250    -2272    -2308    -2363    -2446    -2551    -2673    -2808 
   -2952    -3094    -3226    -3350    -3462    -3554    -3628    -3685 
   -3723    -3748    -3767    -3782    -3798    -3817    -3835    -3842 
   -3834    -3809    -3765    -3704    -3627    -3538    -3437    -3329 
   -3218    -3110    -3006    -2903    -2805    -2708    -2609    -2509 
   -2408    -2311    -2228    -2170    -2141    -2146    -2185    -2251 
   -2344    -2452    -2569    -2693    -2821    -2955    -3098    -3248 
   -3408    -3576    -3739    -3885    -4002    -4087    -4125    -4110 
   -4050    -3956    -3832    -3685    -3522    -3352    -3180    -3010 
   -2851    -2710    -2596    -2511    -2461    -2442    -2448    -2469 
   -2490    -2516    -2538    -2556    -2587    -2629    -2685    -2762 
   -2859    -2967    -3080    -3195    -3303    -3400    -3485    -3568 
   -3649    -3732    -3817    -3900    -3978    -4048    -4097    -4118 
   -4106    -4058    -3975    -3865    -3736    -3596    -3450    -3304 
   -3159    -3021    -2898    -2789    -2694    -2614    -2548    -2496 
   -2461    -2455    -2484    -2538    -2614    -2706    -2798    -2889 
   -2972    -3040    -3086    -3117    -3132    -3127    -3115    -3102 
   -3088    -3080    -3080    -3091    -3110    -3132    -3159    -3184 
   -3204    -3219    -3231    -3237    -3246    -3258    -3265    -3269 
   -3269    -3264    -3250    -3227    -3202    -3180    -3156    -3123 
   -3088    -3053    -3018    -2983    -2956    -2930    -2907    -2897 
   -2893    -2897    -2910    -2934    -2970    -3010    -3055    -3102 
   -3138    -3167    -3186    -3191    -3196    -3208    -3222    -3246 
   -3285    -3335    -3389    -3443    -3491    -3530    -3559    -3569 
   -3559    -3531    -3481    -3414    -3341    -3265    -3192    -3127 
   -3068    -3014    -2970    -2934    -2911    -2905    -2916    -2938 
   -2971    -3010    -3049    -3078    -3086    -3075    -3051    -3010 
   -2952    -2887    -2820    -2752    -2694    -2652    -2631    -2629 
   -2644    -2673    -2708    -2751    -2802    -2860    -2921    -2987 
   -3060    -3130    -3200    -3272    -3338    -3393    -3438    -3472 
   -3484    -3476    -3453    -3418    -3375    -3333    -3302    -3281 
   -3273    -3281    -3303    -3337    -3379    -3429    -3487    -3547 
   -3609    -3669    -3719    -3753    -3765    -3751    -3709    -3635 
   -3537    -3420    -3296    -3167    -3040    -2917    -2799    -2694 
   -2606    -2538    -2488    -2459    -2447    -2451    -2475    -2520 
   -2582    -2664    -2762    -2872    -2984    -3087    -3181    -3268 
   -3337    -3384    -3415    -3431    -3438    -3439    -3433    -3422 
   -3414    -3407    -3399    -3393    -3392    -3395    -3399    -3408 
