Origin Time       2026/01/15 07:13:00
Lat.              42.7
Long.             145.4
Depth. (km)       30
Mag.              5.7
Station Code      HKD100
Station Lat.      42.2864
Station Long.     143.3120
Station Height(m) 36
Record Time       2026/01/15 07:14:09
Sampling Freq(Hz) 100Hz
Duration Time(s)  60
Dir.              U-D
Scale Factor      7845(gal)/8223790
Max. Acc. (gal)   1.436
Last Correction   2026/01/15 07:14:10
Memo.             
[...]
    3581     3720     3919     4162     4329     4360     4284     4151 
    4044     4018     4029     4045     4062     4058     4068     4109 
    4071     3954     3910     3951     3986     4047     4166     4248 
    4241     4233     4293     4363     4347     4214     4008     3805 
    3672     3640     3685     3748     3856     4027     4167     4224 
    4233     4159     3991     3852     3800     3748     3665     3634 
    3700     3820     3974     4124     4194     4190     4160     4126 
    4086     4005     3901     3844     3867     3946     4037     4109 
    4160     4178     4139     4086     4045     3946     3835     3869 
    3981     4025     4074     4191     4261     4195     4002     3739 
    3562     3569     3601     3539     3496     3558     3711     3944 
    4203     4379     4421     4351     4212     4060     3951     3892 
    3850     3812     3821     3919     4082     4229     4279     4209 
    4075     3942     3852     3821     3835     3874     3962     4120 
    4274     4298     4163     3927     3715     3639     3659     3662 
    3684     3808     3996     4199     4383     4418     4264     4104 
    4036     3956     3805     3646     3545     3537     3657     3928 
    4257     4429     4341     4136     4001     3963     3954     3942 
    3946     3989     4094     4216     4232     4120     3960     3780 
    3642     3672     3859     4054     4135     4097     3998     3877 
    3736     3631     3631     3720     3885     4120     4313     4347 
    4245     4109     4014     3985     3987     3989     3989     3951 
    3866     3789     3746     3785     3974     4255     4486     4619 
    4669     4603     4365     4051     3875     3882     3881     3773 
    3684     3713     3794     3825     3823     3847     3879     3852 
    3790     3748     3715     3708     3793     3971     4183     4337 
    4340     4203     4051     3950     3859     3774     3701     3600 
    3526     3591     3767     3948     4075     4147     4201     4259 
    4270     4195     4104     4039     3946     3842     3866     4012 
    4055     3917     3773     3728     3765     3893     4086     4257 
    4368     4436     4445     4333     4120     3955     3908     3940 
    4047     4168     4171     4082     4064     4122     4098     3989 
    3958     4025     4077     4094     4112     4095     4004     3862 
    3773     3819     3936     3981     3937     3932     3996     4012 
    3950     3882     3832     3786     3788     3883     4008     4051 
    4016     3990     4032     4125     4168     4105     4001     3913 
    3817     3720     3678     3690     3712     3755     3847     3951 
    4047     4139     4176     4143     4105     4090     4055     3998 
    3958     3955     3973     3989     4032     4126     4175     4079 
    3928     3835     3778     3742     3770     3861     3969     4062 
    4159     4282     4345     4218     3951     3739     3647     3585 
    3519     3492     3545     3699     3909     4079     4187     4318 
    4487     4583     4546     4438     4263     3998     3758     3655 
    3645     3662     3709     3794     3947     4168     4349     4353 
    4217     4099     4055     4018     3975     3979     4017     4021 
    4008     4016     3975     3829     3657     3530     3438     3377 
    3385     3457     3572     3757     4010     4251     4417     4530 
    4569     4452     4240     4083     3987     3881     3804     3831 
    3943     4055     4129     4186     4226     4232     4207     4176 
    4140     4093     4027     3974     4012     4151     4317     4415 
    4378     4226     4081     4000     3908     3726     3522     3439 
    3488     3569     3635     3720     3854     4024     4194     4293 
    4234     4056     3936     3944     3986     3983     3951     3944 
    3987     4018     3969     3885     3850     3836     3782     3724 
    3748     3892     4068     4144     4122     4110     4155     4232 
    4301     4303     4225     4117     4028     3954     3851     3732 
    3699     3773     3865     3921     3960     3979     3948     3888 
    3856     3869     3912     3973     3989     3935     3883     3917 
    4040     4187     4251     4194     4129     4152     4214     4212 
    4132     4054     4055     4143     4257     4284     4152     3909 
    3727     3727     3823     3846     3763     3682     3690     3778 
    3921     4075     4135     4032     3875     3811     3846     3867 
    3792     3693     3721     3893     4082     4197     4225     4168 
    4078     4060     4149     4260     4295     4214     4067     3986 
    4014     4067     4079     4013     3867     3797     3935     4148 
    4202     4043     3798     3662     3734     3910     4016     4000 
    3931     3882     3885     3927     3948     3909     3865     3892 
    4012     4163     4217     4120     3994     3955     3981     4005 
    3978     3865     3723     3696     3815     3943     3981     3963 
    3952     3966     4018     4109     4160     4117     4052     4058 
    4155     4293     4363     4290     4121     3991     3959     3954 
    3901     3824     3800     3839     3855     3819     3788     3816 
    3877     3904     3909     3906     3851     3771     3766     3861 
    3994     4101     4168     4228     4287     4298     4253     4236 
    4255     4236     4160     4024     3813     3603     3524     3599 
    3724     3829     3910     3966     4010     4055     4064     4031 
    4017     4044     4050     4005     3958     3975     4060     4125 
    4145     4213     4305     4260     4104     4028     4043     3998 
    3866     3765     3759     3784     3798     3827     3846     3865 
    3931     3997     3982     3959     4044     4186     4261     4213 
    4081     3959     3909     3882     3821     3804     3905     4001 
    3989     3935     3863     3761     3726     3798     3875     3900 
    3916     3955     3979     3936     3836     3747     3693     3657 
    3689     3846     4037     4122     4089     4027     4013     4063 
    4132     4198     4267     4267     4139     3975     3901     3923 
    4001     4097     4155     4152     4129     4089     4013     3962 
    3959     3942     3925     4000     4110     4101     3977     3871 
    3808     3771     3801     3873     3886     3829     3800     3862 
    3944     3940     3829     3686     3642     3732     3870     3989 
    4087     4172     4253     4298     4287     4294     4306     4232 
    4109     4033     3975     3877     3781     3765     3809     3842 
    3852     3896     4004     4172     4345     4433     4402     4306 
    4180     4004     3804     3682     3673     3709     3761     3875 
    4029     4129     4186     4230     4182     4010     3839     3767 
    3770     3801     3817     3801     3807     3842     3811     3743 
    3812     3990     4090     4139     4264     4360     4299     4201 
    4172     4139     4094     4124     4166     4102     3973     3866 
    3819     3852     3909     3883     3807     3781     3813     3827 
    3802     3816     3900     4018     4149     4268     4333     4315 
    4220     4091     3985     3927     3929     4000     4114     4193 
    4191     4178     4180     4106     3946     3846     3873     3917 
    3931     3932     3861     3721     3649     3699     3851     4047 
    4155     4128     4068     4037     4006     3985     4002     4035 
    4072     4129     4163     4131     4070     4041     4093     4232 
    4365     4365     4229     4075     3986     3931     3840     3701 
    3565     3491     3505     3607     3775     3979     4140     4199 
    4209     4220     4174     4045     3932     3904     3920     3956 
    4048     4132     4110     4041     4029     4060     4071     4014 
    3870     3709     3662     3740     3807     3824     3874     3948 
    4018     4135     4311     4445     4422     4290     4187     4149 
    4085     3959     3854     3808     3793     3809     3900     4054 
    4156     4094     3944     3889     3959     4025     3975     3834 
    3703     3635     3620     3645     3689     3771     3936     4094 
    4141     4163     4212     4183     4079     4052     4145     4251 
    4299     4334     4426     4545     4542     4318     3973     3674 
    3477     3387     3446     3676     3944     4067     4029     3973 
    3959     3904     3755     3632     3678     3870     4087     4234 
    4276     4224     4151     4145     4198     4263     4320     4302 
    4195     4089     4032     4016     4021     4017     3971     3912 
    3900     3936     3951     3920     3952     4113     4293     4349 
    4230     3974     3703     3555     3539     3555     3573     3607 
    3646     3694     3769     3854     3958     4101     4275     4402 
    4368     4202     4045     3950     3883     3831     3781     3731 
    3715     3771     3859     3917     4006     4183     4365     4475 
    4514     4445     4241     3987     3793     3709     3715     3759 
    3847     3964     4039     4058     4079     4087     4010     3874 
    3774     3780     3915     4074     4094     3964     3831     3797 
    3846     3904     3927     3897     3838     3846     4001     4209 
    4310     4307     4324     4379     4355     4203     4043     3947 
    3866     3819     3882     4018     4102     4066     3947     3834 
    3786     3775     3762     3807     3971     4191     4355     4440 
    4449     4337     4133     3936     3778     3657     3601     3609 
    3651     3709     3766     3842     3928     3940     3809     3622 
    3549     3628     3728     3800     3935     4105     4136     3959 
    3755     3717     3819     3929     4010     4045     4025     3974 
    3920     3875     3867     3897     3901     3847     3809     3867 
    3962     3991     3977     4004     4102     4260     4426     4490 
    4402     4264     4197     4199     4175     4095     4027     3962 
    3866     3808     3829     3836     3758     3684     3750     3928 
    4032     3966     3816     3715     3705     3778     3936     4118 
    4198     4136     4035     4027     4133     4232     4197     4037 
    3870     3848     4012     4206     4270     4194     4050     3971 
    4040     4109     4024     3829     3626     3499     3519     3616 
    3635     3534     3420     3426     3593     3854     4070     4132 
    4083     4104     4283     4490     4563     4486     4314     4132 
    4029     4010     4005     4025     4105     4185     4213     4229 
    4206     4077     3931     3901     3951     3974     3966     3962 
    3964     3994     4067     4120     4110     4117     4182     4234 
    4241     4245     4320     4479     4587     4488     4240     4016 
    3836     3612     3383     3311     3426     3561     3640     3763 
    3986     4233     4376     4329     4159     4024     3947     3859 
    3821     3933     4105     4198     4248     4338     4425     4396 
    4228     4012     3842     3748     3701     3685     3732     3804 
    3788     3716     3726     3794     3796     3723     3712     3854 
    4045     4106     4021     3921     3916     4028     4187     4280 
    4267     4190     4093     4006     3987     4052     4105     4054 
    3948     3875     3821     3763     3734     3728     3735     3838 
    4055     4229     4271     4248     4151     3971     3827     3769 
    3782     3896     4072     4206     4251     4270     4321     4357 
    4367     4402     4418     4369     4306     4264     4210     4094 
    3897     3723     3785     4058     4232     4213     4163     4159 
    4206     4241     4136     3935     3758     3620     3539     3516 
    3499     3460     3430     3453     3510     3543     3578     3701 
    3959     4294     4571     4662     4572     4388     4171     3982 
    3916     3994     4152     4311     4442     4585     4711     4700 
    4575     4486     4453     4352     4125     3892     3804     3882 
    4010     4104     4131     3991     3649     3306     3176     3194 
    3183     3115     3041     2952     2830     2712     2643     2687 
    2871     3067     3133     3144     3231     3368     3489     3661 
    3921     4178     4382     4558     4653     4603     4486     4434 
    4468     4502     4494     4452     4361     4253     4178     4059 
    3823     3572     3450     3496     3684     3985     4317     4580 
    4739     4854     4936     4866     4633     4422     4303     4185 
    4014     3765     3449     3129     2839     2633     2585     2658 
    2760     2856     2974     3167     3445     3771     4067     4251 
    4351     4450     4504     4448     4365     4349     4394     4514 
    4687     4793     4780     4752     4842     4999     5074     5104 
    5186     5269     5325     5297     5063     4730     4413     4075 
    3805     3667     3535     3383     3333     3397     3484     3534 
    3549     3576     3647     3697     3694     3738     3885     4059 
    4102     3897     3562     3387     3437     3520     3623     3859 
    4128     4251     4218     4118     4012     3952     3986     4097 
    4205     4253     4213     4074     3956     3991     4067     4052 
    4016     4001     3951     3883     3888     3977     4081     4172 
    4243     4220     4122     4160     4390     4603     4661     4583 
    4411     4239     4136     4029     3874     3703     3461     3191 
    3042     2903     2655     2479     2556     2906     3460     4025 
    4359     4372     4268     4280     4399     4463     4382     4228 
    4108     4044     4082     4267     4441     4438     4352     4264 
    4102     3897     3804     3862     3948     4010     4140     4342 
    4475     4491     4433     4315     4168     4031     3886     3739 
    3624     3535     3468     3465     3553     3663     3693     3623 
    3539     3568     3712     3802     3781     3817     4028     4303 
    4437     4356     4159     3901     3596     3375     3312     3315 
    3285     3241     3268     3443     3739     3987     4086     4112 
    4118     4129     4232     4411     4506     4434     4351     4437 
    4668     4899     5024     4999     4877     4815     4877     4905 
    4768     4604     4557     4507     4332     4070     3780     3566 
    3588     3804     3991     4020     3862     3604     3447     3418 
    3400     3416     3510     3685     3978     4291     4409     4282 
    4063     3905     3890     4016     4199     4332     4369     4334 
    4290     4255     4176     3985     3689     3400     3218     3095 
    2987     2983     3111     3306     3581     3905     4147     4252 
    4276     4294     4329     4330     4266     4176     4135     4168 
    4213     4171     4099     4117     4186     4153     3955     3700 
    3505     3403     3433     3584     3747     3867     3969     4074 
    4183     4257     4276     4299     4371     4475     4581     4622 
    4515     4303     4108     3970     3859     3794     3763     3681 
    3593     3623     3699     3655     3522     3480     3608     3805 
    3935     3943     3885     3862     3944     4110     4259     4286 
    4178     4025     3946     3954     3955     3889     3744     3543 
    3410     3449     3591     3730     3825     3874     3917     3978 
    3989     3915     3809     3717     3661     3689     3828     4001 
    4108     4151     4202     4315     4495     4673     4762     4764 
    4683     4499     4255     4020     3840     3739     3673     3603 
    3591     3681     3793     3852     3889     3958     4077     4214 
    4342     4487     4610     4627     4590     4618     4684     4684 
    4606     4484     4317     4059     3735     3491     3460     3592 
    3735     3797     3816     3821     3751     3655     3662     3711 
    3693     3658     3663     3680     3645     3511     3377     3406 
    3584     3771     3897     3970     4001     3983     3917     3852 
    3858     3923     3978     4051     4175     4283     4333     4341 
    4325     4340     4428     4518     4507     4394     4297     4260 
    4226     4191     4139     4036     3982     4037     4091     4072 
    4004     3901     3820     3812     3855     3874     3794     3630 
    3462     3346     3298     3295     3312     3357     3427     3496 
    3541     3555     3597     3730     3913     4048     4067     3958 
    3778     3613     3507     3483     3570     3743     3927     4054 
    4095     4097     4106     4112     4117     4164     4282     4461 
    4661     4843     4962     4931     4770     4629     4541     4418 
    4279     4166     4031     3875     3775     3769     3812     3886 
    3993     4051     3993     3881     3740     3588     3574     3763 
    4012     4171     4218     4237     4267     4245     4155     4090 
    4102     4155     4207     4217     4158     4048     3920     3805 
    3746     3773     3840     3842     3797     3821     3900     3969 
    4041     4094     4074     3989     3921     3933     3991     4064 
    4148     4170     4132     4118     4139     4182     4245     4290 
    4334     4379     4338     4222     4133     4081     4028     4012 
    4056     4117     4156     4159     4116     4063     3990     3844 
    3662     3499     3389     3389     3497     3655     3848     4032 
    4117     4097     4047     4013     3986     3985     3994     3925 
    3747     3582     3577     3681     3750     3774     3815     3898 
    3990     4002     3913     3816     3786     3823     3906     4016 
    4083     4047     3986     4009     4067     4089     4067     4013 
    3969     3951     3929     3920     3923     3906     3896     3943 
    4005     3974     3821     3666     3631     3720     3850     3935 
    3975     4025     4122     4257     4387     4464     4432     4295 
    4124     3975     3913     3977     4108     4241     4371     4452 
    4421     4290     4108     3933     3846     3852     3881     3900 
    3928     3962     3987     4006     4039     4105     4193     4275 
    4313     4261     4139     4001     3896     3870     3917     3942 
    3896     3846     3805     3731     3657     3631     3634     3654 
    3709     3813     3940     4028     4062     4093     4133     4148 
    4124     4081     4051     4048     4054     4063     4105     4139 
    4108     4051     3978     3869     3761     3673     3624     3636 
    3650     3639     3646     3713     3867     4039     4104     4089 
    4128     4213     4251     4260     4261     4178     4016     3863 
    3712     3528     3373     3312     3360     3473     3578     3653 
    3720     3805     3870     3889     3912     3959     4025     4156 
    4333     4459     4511     4538     4560     4585     4629     4646 
    4581     4449     4338     4287     4240     4172     4114     4033 
    3951     3973     4085     4163     4118     3952     3757     3640 
    3618     3639     3666     3693     3724     3735     3713     3649 
    3524     3402     3348     3350     3407     3532     3669     3777 
    3900     4068     4221     4283     4283     4280     4264     4225 
    4199     4194     4178     4137     4081     4017     3946     3885 
    3904     3998     4055     4051     4064     4099     4126     4140 
