Origin Time       2026/01/15 07:13:00
Lat.              42.7
Long.             145.4
Depth. (km)       30
Mag.              5.7
Station Code      HKD109
Station Lat.      42.1678
Station Long.     142.7673
Station Height(m) 4
Record Time       2026/01/15 07:14:27
Sampling Freq(Hz) 100Hz
Duration Time(s)  60
Dir.              E-W
Scale Factor      7845(gal)/8223790
Max. Acc. (gal)   1.808
Last Correction   2026/01/15 07:14:28
Memo.             
[...]
   -3283    -3289    -3289    -3287    -3285    -3280    -3279    -3289 
   -3310    -3342    -3380    -3407    -3416    -3412    -3402    -3392 
   -3387    -3393    -3414    -3438    -3458    -3470    -3476    -3478 
   -3484    -3484    -3474    -3449    -3412    -3376    -3346    -3330 
   -3329    -3322    -3306    -3292    -3271    -3245    -3222    -3199 
   -3168    -3149    -3150    -3159    -3161    -3173    -3195    -3222 
   -3249    -3272    -3283    -3284    -3279    -3269    -3258    -3258 
   -3269    -3267    -3253    -3246    -3245    -3250    -3269    -3294 
   -3325    -3366    -3412    -3445    -3457    -3453    -3434    -3402 
   -3364    -3325    -3292    -3277    -3275    -3277    -3288    -3299 
   -3304    -3307    -3319    -3345    -3375    -3399    -3424    -3451 
   -3474    -3493    -3505    -3503    -3478    -3442    -3391    -3322 
   -3246    -3169    -3098    -3042    -3005    -2988    -2999    -3033 
   -3072    -3115    -3167    -3226    -3279    -3311    -3330    -3350 
   -3384    -3430    -3476    -3507    -3519    -3511    -3492    -3457 
   -3410    -3376    -3357    -3333    -3311    -3308    -3321    -3342 
   -3358    -3353    -3334    -3310    -3277    -3245    -3219    -3198 
   -3187    -3186    -3188    -3202    -3225    -3253    -3285    -3326 
   -3376    -3422    -3461    -3492    -3510    -3512    -3512    -3511 
   -3493    -3468    -3441    -3414    -3389    -3380    -3384    -3395 
   -3406    -3414    -3412    -3397    -3376    -3350    -3322    -3281 
   -3222    -3153    -3096    -3065    -3057    -3052    -3044    -3038 
   -3034    -3038    -3064    -3107    -3154    -3195    -3223    -3264 
   -3318    -3368    -3404    -3422    -3419    -3411    -3395    -3369 
   -3346    -3323    -3295    -3264    -3238    -3229    -3245    -3288 
   -3341    -3406    -3495    -3589    -3658    -3685    -3682    -3672 
   -3650    -3605    -3546    -3478    -3395    -3300    -3207    -3125 
   -3060    -3009    -2971    -2956    -2975    -3030    -3106    -3172 
   -3231    -3294    -3352    -3407    -3454    -3481    -3499    -3526 
   -3557    -3578    -3592    -3603    -3600    -3572    -3534    -3499 
   -3456    -3393    -3323    -3262    -3223    -3207    -3200    -3203 
   -3222    -3257    -3307    -3364    -3420    -3473    -3504    -3514 
   -3515    -3518    -3524    -3530    -3528    -3524    -3519    -3508 
   -3492    -3476    -3466    -3450    -3429    -3411    -3402    -3400 
   -3399    -3395    -3391    -3387    -3380    -3373    -3370    -3370 
   -3370    -3375    -3373    -3364    -3345    -3316    -3285    -3257 
   -3229    -3196    -3163    -3132    -3110    -3107    -3126    -3167 
   -3227    -3295    -3356    -3408    -3461    -3516    -3562    -3591 
   -3597    -3591    -3568    -3511    -3429    -3343    -3271    -3211 
   -3177    -3169    -3181    -3202    -3226    -3261    -3310    -3370 
   -3430    -3468    -3478    -3466    -3433    -3395    -3362    -3329 
   -3280    -3225    -3171    -3123    -3094    -3080    -3073    -3079 
   -3102    -3141    -3196    -3252    -3291    -3310    -3327    -3358 
   -3377    -3376    -3358    -3330    -3298    -3271    -3245    -3211 
   -3168    -3115    -3063    -3030    -3017    -3022    -3057    -3114 
   -3173    -3233    -3289    -3331    -3352    -3358    -3358    -3353 
   -3345    -3337    -3334    -3349    -3373    -3392    -3407    -3423 
   -3450    -3488    -3522    -3545    -3564    -3568    -3550    -3527 
   -3507    -3481    -3447    -3400    -3338    -3276    -3227    -3187 
   -3152    -3127    -3117    -3122    -3152    -3204    -3267    -3315 
   -3338    -3343    -3343    -3350    -3361    -3357    -3334    -3315 
   -3311    -3303    -3287    -3276    -3262    -3240    -3217    -3198 
   -3181    -3172    -3172    -3191    -3219    -3249    -3287    -3330 
   -3365    -3395    -3406    -3393    -3366    -3322    -3265    -3226 
   -3215    -3208    -3208    -3231    -3264    -3285    -3299    -3310 
   -3322    -3339    -3360    -3376    -3384    -3389    -3387    -3361 
   -3334    -3335    -3342    -3329    -3296    -3254    -3207    -3167 
   -3132    -3096    -3065    -3048    -3051    -3076    -3132    -3207 
   -3289    -3366    -3438    -3507    -3570    -3622    -3647    -3649 
   -3638    -3613    -3582    -3542    -3489    -3433    -3369    -3304 
   -3257    -3221    -3191    -3176    -3176    -3176    -3157    -3126 
   -3102    -3091    -3105    -3140    -3184    -3222    -3249    -3260 
   -3249    -3218    -3171    -3121    -3080    -3051    -3038    -3045 
   -3063    -3076    -3083    -3109    -3156    -3213    -3285    -3373 
   -3461    -3541    -3619    -3686    -3732    -3757    -3758    -3726 
   -3667    -3609    -3570    -3530    -3484    -3445    -3412    -3385 
   -3365    -3342    -3315    -3295    -3285    -3285    -3303    -3326 
   -3330    -3311    -3279    -3240    -3210    -3200    -3207    -3226 
   -3253    -3280    -3306    -3335    -3369    -3400    -3418    -3410 
   -3385    -3357    -3319    -3273    -3230    -3184    -3134    -3096 
   -3080    -3075    -3091    -3118    -3142    -3176    -3226    -3276 
   -3335    -3402    -3468    -3538    -3604    -3647    -3666    -3673 
   -3666    -3645    -3626    -3613    -3603    -3589    -3565    -3535 
   -3508    -3488    -3483    -3487    -3496    -3505    -3511    -3510 
   -3489    -3449    -3412    -3377    -3333    -3289    -3257    -3235 
   -3214    -3180    -3140    -3100    -3059    -3015    -2974    -2929 
   -2887    -2856    -2833    -2832    -2848    -2867    -2886    -2905 
   -2933    -2984    -3059    -3148    -3242    -3319    -3373    -3424 
   -3480    -3534    -3595    -3645    -3674    -3692    -3705    -3716 
   -3732    -3750    -3751    -3726    -3688    -3643    -3588    -3523 
   -3446    -3362    -3273    -3181    -3094    -3024    -2983    -2964 
   -2938    -2913    -2907    -2936    -2987    -3038    -3078    -3110 
   -3146    -3191    -3244    -3299    -3357    -3414    -3450    -3462 
   -3473    -3491    -3510    -3514    -3499    -3470    -3435    -3402 
   -3380    -3373    -3379    -3389    -3400    -3426    -3493    -3597 
   -3701    -3792    -3869    -3921    -3942    -3920    -3844    -3703 
   -3519    -3330    -3148    -2980    -2847    -2763    -2728    -2733 
   -2772    -2852    -2964    -3090    -3207    -3308    -3392    -3453 
   -3488    -3501    -3496    -3466    -3426    -3396    -3369    -3346 
   -3338    -3337    -3343    -3362    -3388    -3423    -3464    -3488 
   -3495    -3501    -3508    -3501    -3480    -3435    -3368    -3289 
   -3208    -3136    -3071    -3019    -3003    -3028    -3078    -3149 
   -3237    -3322    -3404    -3483    -3551    -3597    -3611    -3596 
   -3573    -3535    -3470    -3385    -3306    -3254    -3231    -3231 
   -3265    -3321    -3372    -3415    -3456    -3501    -3554    -3611 
   -3655    -3681    -3682    -3659    -3623    -3572    -3492    -3384 
   -3254    -3118    -2983    -2855    -2748    -2682    -2662    -2678 
   -2727    -2808    -2913    -3036    -3172    -3308    -3430    -3523 
   -3588    -3626    -3635    -3632    -3628    -3622    -3603    -3570 
   -3530    -3487    -3437    -3377    -3304    -3221    -3145    -3092 
   -3067    -3061    -3076    -3103    -3138    -3186    -3235    -3279 
   -3329    -3411    -3528    -3651    -3754    -3831    -3870    -3870 
   -3847    -3815    -3775    -3720    -3630    -3522    -3412    -3312 
   -3221    -3118    -3005    -2898    -2806    -2732    -2697    -2710 
   -2766    -2855    -2972    -3107    -3254    -3395    -3500    -3566 
   -3601    -3620    -3638    -3642    -3615    -3562    -3483    -3375 
   -3246    -3111    -2995    -2911    -2841    -2775    -2728    -2705 
   -2702    -2735    -2829    -2972    -3121    -3269    -3430    -3608 
   -3792    -3956    -4091    -4191    -4236    -4214    -4137    -4033 
   -3904    -3746    -3578    -3427    -3312    -3231    -3180    -3169 
   -3186    -3202    -3219    -3250    -3300    -3360    -3412    -3454 
   -3492    -3505    -3468    -3395    -3300    -3188    -3063    -2944 
   -2859    -2813    -2794    -2802    -2845    -2925    -3025    -3123 
   -3219    -3316    -3404    -3447    -3429    -3357    -3248    -3114 
   -2980    -2864    -2783    -2736    -2713    -2725    -2798    -2934 
   -3121    -3339    -3568    -3781    -3960    -4108    -4229    -4310 
   -4340    -4311    -4222    -4087    -3927    -3736    -3511    -3260 
   -3003    -2762    -2551    -2385    -2274    -2226    -2236    -2299 
   -2401    -2543    -2717    -2914    -3115    -3296    -3450    -3580 
   -3689    -3769    -3802    -3786    -3731    -3639    -3510    -3365 
   -3241    -3132    -3037    -2965    -2907    -2856    -2818    -2791 
   -2775    -2774    -2787    -2830    -2913    -3028    -3168    -3331 
   -3493    -3623    -3705    -3751    -3774    -3789    -3800    -3815 
   -3836    -3866    -3890    -3901    -3908    -3904    -3874    -3807 
   -3694    -3537    -3349    -3154    -2965    -2786    -2635    -2521 
   -2454    -2440    -2493    -2610    -2766    -2932    -3092    -3240 
   -3360    -3450    -3511    -3543    -3547    -3522    -3474    -3433 
   -3416    -3422    -3443    -3483    -3528    -3580    -3632    -3685 
   -3728    -3748    -3754    -3753    -3732    -3682    -3613    -3534 
   -3450    -3362    -3269    -3176    -3091    -3026    -2990    -2997 
   -3068    -3198    -3362    -3543    -3726    -3897    -4043    -4141 
   -4185    -4172    -4110    -4017    -3912    -3807    -3709    -3609 
   -3499    -3385    -3288    -3208    -3140    -3079    -3032    -3009 
   -3019    -3056    -3105    -3172    -3262    -3364    -3464    -3565 
   -3662    -3738    -3780    -3790    -3774    -3731    -3649    -3534 
   -3402    -3260    -3102    -2933    -2764    -2613    -2498    -2438 
   -2435    -2486    -2589    -2721    -2864    -3006    -3142    -3268 
   -3403    -3555    -3693    -3777    -3809    -3802    -3775    -3748 
   -3727    -3708    -3700    -3704    -3720    -3754    -3794    -3835 
   -3856    -3834    -3765    -3672    -3570    -3464    -3349    -3226 
   -3091    -2944    -2785    -2636    -2506    -2403    -2357    -2380 
   -2458    -2581    -2743    -2921    -3088    -3231    -3349    -3438 
   -3492    -3512    -3508    -3489    -3454    -3400    -3333    -3262 
   -3181    -3079    -2978    -2898    -2840    -2808    -2816    -2879 
   -2990    -3138    -3314    -3505    -3697    -3879    -4029    -4131 
   -4191    -4214    -4187    -4131    -4051    -3925    -3750    -3550 
   -3339    -3140    -2976    -2859    -2781    -2751    -2759    -2783 
   -2814    -2868    -2934    -2987    -3028    -3061    -3092    -3117 
   -3127    -3126    -3127    -3133    -3140    -3145    -3137    -3114 
   -3088    -3072    -3067    -3083    -3136    -3210    -3295    -3388 
   -3483    -3568    -3647    -3730    -3797    -3843    -3867    -3865 
   -3827    -3757    -3670    -3573    -3469    -3361    -3256    -3161 
   -3082    -3015    -2974    -2970    -3001    -3067    -3149    -3233 
   -3318    -3402    -3478    -3550    -3609    -3636    -3624    -3576 
   -3496    -3397    -3291    -3186    -3095    -3030    -2987    -2941 
   -2882    -2825    -2790    -2794    -2845    -2922    -3001    -3061 
   -3107    -3152    -3188    -3208    -3210    -3190    -3152    -3115 
   -3083    -3055    -3052    -3099    -3202    -3349    -3537    -3751 
   -3960    -4152    -4318    -4442    -4513    -4540    -4515    -4428 
   -4287    -4110    -3917    -3739    -3589    -3457    -3337    -3238 
   -3183    -3169    -3186    -3233    -3308    -3399    -3489    -3574 
   -3643    -3688    -3694    -3659    -3593    -3500    -3391    -3267 
   -3129    -2991    -2867    -2754    -2651    -2577    -2554    -2592 
   -2682    -2810    -2952    -3113    -3302    -3508    -3713    -3900 
   -4040    -4113    -4128    -4104    -4050    -3966    -3855    -3720 
   -3564    -3399    -3249    -3122    -3022    -2961    -2938    -2947 
   -2980    -3051    -3163    -3303    -3457    -3601    -3707    -3754 
   -3747    -3711    -3651    -3562    -3441    -3296    -3133    -2956 
   -2781    -2621    -2498    -2417    -2371    -2358    -2384    -2443 
   -2532    -2647    -2779    -2922    -3057    -3160    -3234    -3294 
   -3325    -3335    -3339    -3334    -3314    -3298    -3291    -3288 
   -3291    -3303    -3323    -3354    -3393    -3431    -3470    -3524 
   -3592    -3657    -3719    -3784    -3847    -3904    -3942    -3946 
   -3908    -3829    -3726    -3603    -3464    -3302    -3115    -2934 
   -2774    -2619    -2466    -2331    -2232    -2187    -2188    -2215 
   -2263    -2339    -2444    -2569    -2706    -2863    -3034    -3202 
   -3361    -3514    -3651    -3770    -3877    -3959    -4001    -4013 
   -4000    -3958    -3892    -3815    -3728    -3634    -3531    -3423 
   -3308    -3200    -3107    -3029    -2983    -2971    -2984    -3025 
   -3088    -3173    -3285    -3414    -3543    -3677    -3816    -3935 
   -4018    -4067    -4078    -4055    -3996    -3890    -3740    -3565 
   -3396    -3246    -3114    -2999    -2914    -2875    -2887    -2944 
   -3048    -3188    -3331    -3458    -3559    -3616    -3623    -3593 
   -3531    -3429    -3294    -3141    -2976    -2802    -2636    -2498 
   -2411    -2371    -2378    -2420    -2497    -2632    -2829    -3067 
   -3334    -3628    -3939    -4241    -4527    -4793    -5016    -5166 
   -5219    -5161    -4996    -4743    -4425    -4056    -3662    -3264 
   -2889    -2554    -2266    -2053    -1923    -1853    -1841    -1902 
   -2038    -2241    -2494    -2775    -3055    -3310    -3524    -3699 
   -3840    -3963    -4059    -4118    -4132    -4097    -4021    -3924 
   -3808    -3677    -3538    -3393    -3271    -3181    -3115    -3080 
   -3078    -3084    -3084    -3092    -3119    -3173    -3252    -3339 
   -3418    -3473    -3505    -3511    -3491    -3446    -3384    -3304 
   -3204    -3090    -2975    -2867    -2774    -2709    -2663    -2627 
   -2609    -2617    -2658    -2736    -2841    -2963    -3107    -3281 
   -3473    -3680    -3881    -4050    -4170    -4228    -4228    -4187 
   -4113    -4009    -3897    -3775    -3643    -3523    -3435    -3384 
   -3364    -3369    -3389    -3414    -3439    -3466    -3489    -3493 
   -3485    -3472    -3446    -3411    -3375    -3341    -3323    -3326 
   -3337    -3358    -3397    -3457    -3539    -3636    -3735    -3819 
   -3870    -3877    -3851    -3808    -3738    -3643    -3534    -3415 
   -3298    -3186    -3076    -2968    -2870    -2790    -2722    -2668 
   -2637    -2629    -2637    -2666    -2693    -2708    -2721    -2731 
   -2732    -2740    -2770    -2809    -2849    -2891    -2940    -3005 
   -3084    -3171    -3262    -3356    -3424    -3461    -3473    -3466 
   -3447    -3424    -3396    -3356    -3315    -3279    -3245    -3213 
   -3184    -3169    -3175    -3195    -3227    -3264    -3289    -3303 
   -3307    -3315    -3337    -3369    -3406    -3434    -3447    -3443 
   -3427    -3408    -3403    -3406    -3408    -3420    -3447    -3481 
   -3523    -3586    -3663    -3739    -3811    -3886    -3971    -4051 
   -4110    -4149    -4167    -4163    -4139    -4091    -4027    -3954 
   -3877    -3790    -3697    -3596    -3483    -3352    -3223    -3115 
   -3024    -2949    -2905    -2882    -2870    -2870    -2879    -2887 
   -2899    -2920    -2938    -2951    -2957    -2965    -2987    -3025 
   -3080    -3150    -3231    -3322    -3423    -3526    -3612    -3672 
   -3690    -3673    -3624    -3547    -3446    -3343    -3245    -3153 
   -3071    -3013    -2988    -2984    -2991    -3009    -3038    -3072 
   -3095    -3099    -3088    -3060    -3022    -2986    -2961    -2949 
   -2943    -2936    -2943    -2963    -2988    -3036    -3109    -3192 
   -3288    -3391    -3491    -3592    -3689    -3762    -3800    -3792 
   -3751    -3689    -3603    -3497    -3392    -3295    -3211    -3133 
   -3057    -2983    -2901    -2817    -2744    -2679    -2621    -2569 
   -2523    -2493    -2489    -2515    -2575    -2651    -2731    -2825 
   -2926    -3032    -3157    -3304    -3454    -3589    -3701    -3792 
   -3863    -3908    -3917    -3901    -3861    -3801    -3730    -3653 
   -3580    -3522    -3483    -3457    -3441    -3434    -3438    -3442 
   -3430    -3391    -3331    -3265    -3207    -3171    -3164    -3187 
   -3226    -3273    -3338    -3426    -3518    -3597    -3669    -3730 
   -3773    -3813    -3855    -3883    -3896    -3906    -3915    -3921 
   -3925    -3909    -3877    -3844    -3811    -3775    -3740    -3697 
   -3645    -3570    -3470    -3346    -3206    -3059    -2913    -2775 
   -2647    -2533    -2450    -2403    -2392    -2409    -2438    -2467 
   -2498    -2535    -2573    -2613    -2659    -2704    -2748    -2801 
   -2860    -2924    -2998    -3071    -3129    -3180    -3229    -3275 
   -3323    -3379    -3443    -3514    -3580    -3639    -3681    -3711 
   -3731    -3736    -3732    -3728    -3723    -3716    -3701    -3677 
   -3663    -3657    -3650    -3645    -3630    -3601    -3573    -3543 
   -3510    -3481    -3456    -3429    -3408    -3395    -3389    -3396 
   -3408    -3418    -3434    -3465    -3510    -3558    -3607    -3639 
   -3647    -3642    -3623    -3581    -3526    -3470    -3435    -3426 
   -3431    -3454    -3493    -3538    -3586    -3635    -3686    -3750 
   -3817    -3882    -3955    -4023    -4075    -4113    -4122    -4102 
   -4055    -3971    -3852    -3713    -3564    -3410    -3267    -3146 
   -3073    -3048    -3059    -3110    -3188    -3273    -3354    -3422 
   -3473    -3501    -3503    -3487    -3443    -3375    -3285    -3176 
   -3055    -2936    -2829    -2735    -2644    -2574    -2533    -2516 
   -2513    -2527    -2559    -2610    -2674    -2741    -2817    -2897 
   -2975    -3046    -3111    -3165    -3206    -3226    -3223    -3207 
   -3181    -3145    -3102    -3057    -3022    -2994    -2960    -2932 
   -2925    -2928    -2936    -2965    -3009    -3061    -3126    -3194 
   -3262    -3335    -3404    -3476    -3555    -3634    -3704    -3761 
   -3801    -3816    -3804    -3769    -3709    -3632    -3551    -3473 
   -3410    -3369    -3360    -3383    -3435    -3508    -3592    -3684 
   -3770    -3843    -3896    -3920    -3916    -3896    -3856    -3794 
   -3709    -3607    -3492    -3376    -3271    -3175    -3087    -3011 
   -2945    -2889    -2839    -2808    -2790    -2774    -2764    -2774 
   -2797    -2829    -2876    -2928    -2972    -3021    -3083    -3156 
   -3230    -3304    -3385    -3466    -3535    -3592    -3634    -3661 
   -3670    -3655    -3615    -3562    -3500    -3429    -3352    -3279 
   -3217    -3163    -3125    -3103    -3090    -3094    -3130    -3188 
   -3258    -3338    -3412    -3472    -3522    -3554    -3561    -3550 
   -3523    -3489    -3460    -3442    -3442    -3451    -3465    -3484 
   -3512    -3547    -3578    -3603    -3619    -3622    -3601    -3564 
   -3523    -3470    -3393    -3294    -3179    -3055    -2922    -2795 
   -2698    -2640    -2612    -2620    -2671    -2755    -2864    -2999 
   -3138    -3272    -3408    -3541    -3669    -3790    -3886    -3955 
   -3997    -3996    -3958    -3894    -3816    -3739    -3659    -3580 
