Origin Time       2026/01/15 07:13:00
Lat.              42.7
Long.             145.4
Depth. (km)       30
Mag.              5.7
Station Code      HKD110
Station Lat.      42.1310
Station Long.     142.9354
Station Height(m) 4
Record Time       2026/01/15 07:14:25
Sampling Freq(Hz) 100Hz
Duration Time(s)  61
Dir.              U-D
Scale Factor      7845(gal)/8223790
Max. Acc. (gal)   0.698
Last Correction   2026/01/15 07:14:26
Memo.             
[...]
   -6056    -6041    -6056    -6089    -6129    -6160    -6177    -6178 
   -6153    -6112    -6092    -6114    -6161    -6200    -6197    -6153 
   -6099    -6058    -6043    -6054    -6060    -6046    -6034    -6035 
   -6043    -6069    -6099    -6103    -6084    -6081    -6100    -6106 
   -6089    -6076    -6073    -6068    -6057    -6054    -6069    -6093 
   -6112    -6116    -6115    -6126    -6154    -6183    -6192    -6176 
   -6151    -6138    -6137    -6131    -6126    -6134    -6153    -6160 
   -6149    -6142    -6147    -6157    -6158    -6165    -6178    -6174 
   -6149    -6124    -6112    -6106    -6100    -6096    -6088    -6081 
   -6084    -6095    -6100    -6097    -6092    -6088    -6085    -6076 
   -6053    -6027    -6014    -6008    -6004    -6010    -6029    -6050 
   -6068    -6085    -6096    -6100    -6110    -6123    -6122    -6107 
   -6088    -6053    -6016    -6019    -6060    -6104    -6127    -6126 
   -6120    -6116    -6102    -6088    -6091    -6104    -6111    -6106 
   -6085    -6050    -6022    -6019    -6030    -6033    -6012    -5981 
   -5968    -5971    -5961    -5952    -5968    -5994    -6007    -6016 
   -6049    -6108    -6149    -6149    -6123    -6084    -6056    -6058 
   -6080    -6088    -6083    -6076    -6068    -6062    -6056    -6048 
   -6053    -6069    -6075    -6062    -6057    -6058    -6049    -6029 
   -6011    -6018    -6046    -6073    -6110    -6146    -6151    -6137 
   -6119    -6088    -6058    -6050    -6053    -6058    -6061    -6053 
   -6048    -6069    -6112    -6162    -6220    -6276    -6303    -6297 
   -6274    -6232    -6174    -6133    -6126    -6131    -6126    -6114 
   -6114    -6115    -6103    -6097    -6116    -6133    -6129    -6130 
   -6135    -6120    -6100    -6097    -6102    -6100    -6100    -6102 
   -6106    -6124    -6147    -6146    -6126    -6112    -6107    -6103 
   -6106    -6114    -6124    -6130    -6114    -6083    -6054    -6049 
   -6073    -6099    -6104    -6095    -6080    -6061    -6035    -6000 
   -5973    -5967    -5981    -6010    -6038    -6054    -6048    -6023 
   -6012    -6019    -6031    -6048    -6064    -6075    -6087    -6097 
   -6112    -6137    -6135    -6100    -6068    -6049    -6033    -6026 
   -6034    -6048    -6064    -6070    -6054    -6035    -6038    -6048 
   -6048    -6050    -6060    -6058    -6039    -6025    -6033    -6065 
   -6106    -6131    -6145    -6172    -6199    -6196    -6173    -6147 
   -6124    -6112    -6112    -6124    -6147    -6158    -6146    -6130 
   -6122    -6115    -6107    -6106    -6106    -6085    -6041    -5991 
   -5956    -5940    -5935    -5945    -5969    -5980    -5961    -5945 
   -5945    -5949    -5964    -5985    -6002    -6027    -6064    -6079 
   -6070    -6068    -6066    -6052    -6037    -6022    -5995    -5969 
   -5953    -5946    -5949    -5958    -5967    -5968    -5961    -5967 
   -5987    -5995    -5987    -5983    -5995    -6027    -6061    -6075 
   -6077    -6085    -6079    -6060    -6060    -6077    -6092    -6095 
   -6081    -6064    -6058    -6052    -6029    -6014    -6022    -6031 
   -6037    -6042    -6030    -5999    -5964    -5923    -5880    -5849 
   -5833    -5823    -5830    -5861    -5892    -5911    -5926    -5942 
   -5962    -5987    -6016    -6048    -6053    -6041    -6060    -6092 
   -6099    -6087    -6075    -6060    -6039    -6025    -6018    -6023 
   -6030    -6026    -6018    -6012    -6026    -6062    -6093    -6108 
   -6122    -6122    -6104    -6091    -6083    -6065    -6049    -6043 
   -6060    -6085    -6096    -6099    -6107    -6100    -6064    -6022 
   -6006    -6007    -6016    -6045    -6079    -6093    -6099    -6110 
   -6116    -6111    -6103    -6102    -6095    -6073    -6053    -6050 
   -6061    -6080    -6112    -6141    -6137    -6124    -6127    -6129 
   -6131    -6151    -6189    -6235    -6268    -6268    -6239    -6212 
   -6201    -6200    -6207    -6230    -6261    -6276    -6262    -6226 
   -6195    -6172    -6151    -6137    -6120    -6093    -6079    -6084 
   -6091    -6106    -6129    -6141    -6139    -6139    -6147    -6165 
   -6191    -6215    -6231    -6234    -6228    -6226    -6223    -6218 
   -6210    -6191    -6165    -6150    -6153    -6176    -6210    -6231 
   -6239    -6227    -6199    -6172    -6157    -6145    -6139    -6141 
   -6126    -6104    -6092    -6068    -6035    -6019    -6010    -5994 
   -5985    -5985    -5994    -6015    -6034    -6038    -6041    -6034 
   -6011    -6003    -6022    -6043    -6049    -6052    -6054    -6058 
   -6069    -6072    -6065    -6058    -6054    -6046    -6045    -6057 
   -6072    -6083    -6100    -6115    -6129    -6156    -6191    -6219 
   -6237    -6239    -6231    -6211    -6180    -6168    -6177    -6178 
   -6166    -6154    -6138    -6107    -6087    -6096    -6114    -6133 
   -6161    -6181    -6178    -6156    -6124    -6099    -6073    -6046 
   -6033    -6029    -6019    -6015    -6026    -6033    -6016    -6004 
   -6018    -6035    -6030    -6006    -5973    -5927    -5873    -5848 
   -5861    -5895    -5931    -5952    -5964    -5981    -5991    -5994 
   -6019    -6062    -6111    -6172    -6210    -6200    -6180    -6170 
   -6170    -6185    -6216    -6237    -6237    -6232    -6220    -6192 
   -6166    -6161    -6162    -6165    -6165    -6168    -6187    -6197 
   -6189    -6193    -6200    -6176    -6135    -6095    -6038    -5988 
   -5967    -5954    -5944    -5927    -5906    -5906    -5930    -5960 
   -5991    -6011    -6014    -6012    -6018    -6035    -6056    -6075 
   -6092    -6092    -6084    -6085    -6089    -6092    -6091    -6073 
   -6048    -6048    -6072    -6089    -6099    -6115    -6141    -6157 
   -6157    -6168    -6183    -6184    -6189    -6200    -6201    -6193 
   -6178    -6164    -6169    -6199    -6231    -6245    -6242    -6237 
   -6232    -6220    -6216    -6242    -6262    -6234    -6185    -6151 
   -6126    -6100    -6075    -6046    -6008    -5975    -5960    -5953 
   -5946    -5953    -5964    -5969    -5985    -6004    -5996    -5992 
   -6015    -6027    -6015    -5992    -5953    -5910    -5886    -5895 
   -5925    -5954    -5971    -5983    -6006    -6035    -6073    -6114 
   -6151    -6174    -6165    -6122    -6069    -6022    -5994    -6000 
   -6029    -6042    -6029    -6012    -5995    -5977    -5975    -5989 
   -6000    -5991    -5962    -5919    -5875    -5867    -5892    -5919 
   -5945    -5962    -5964    -5958    -5961    -5981    -6015    -6037 
   -6058    -6084    -6081    -6049    -6010    -5981    -5977    -5992 
   -6015    -6039    -6058    -6064    -6060    -6043    -6027    -6035 
   -6066    -6089    -6092    -6093    -6103    -6118    -6135    -6158 
   -6187    -6212    -6234    -6243    -6231    -6200    -6178    -6174 
   -6165    -6142    -6124    -6110    -6103    -6112    -6110    -6100 
   -6107    -6116    -6110    -6100    -6116    -6153    -6168    -6154 
   -6139    -6133    -6127    -6120    -6112    -6122    -6149    -6169 
   -6176    -6169    -6154    -6150    -6158    -6151    -6135    -6131 
   -6123    -6096    -6058    -6025    -6014    -6025    -6037    -6048 
   -6056    -6061    -6061    -6054    -6042    -6018    -5975    -5949 
   -5950    -5956    -5975    -5995    -5985    -5977    -5995    -6007 
   -6014    -6038    -6075    -6112    -6135    -6124    -6093    -6062 
   -6025    -5996    -6006    -6022    -5994    -5923    -5846    -5790 
   -5767    -5767    -5782    -5822    -5872    -5895    -5899    -5918 
   -5952    -5991    -6030    -6050    -6046    -6039    -6033    -6023 
   -6026    -6049    -6083    -6114    -6138    -6158    -6174    -6191 
   -6218    -6251    -6274    -6277    -6270    -6258    -6245    -6237 
   -6215    -6173    -6127    -6093    -6069    -6043    -6034    -6054 
   -6065    -6065    -6077    -6095    -6112    -6150    -6195    -6216 
   -6227    -6243    -6255    -6265    -6278    -6274    -6245    -6210 
   -6191    -6188    -6176    -6168    -6183    -6195    -6174    -6139 
   -6095    -6043    -6003    -5973    -5954    -5956    -5965    -5973 
   -5984    -6003    -6045    -6104    -6165    -6219    -6264    -6281 
   -6270    -6246    -6222    -6205    -6192    -6192    -6223    -6266 
   -6293    -6322    -6357    -6384    -6404    -6416    -6421    -6419 
   -6407    -6394    -6390    -6388    -6370    -6334    -6288    -6241 
   -6184    -6130    -6100    -6079    -6039    -5991    -5958    -5941 
   -5922    -5904    -5895    -5895    -5886    -5873    -5875    -5886 
   -5910    -5944    -5954    -5935    -5911    -5898    -5886    -5875 
   -5887    -5925    -5965    -5998    -6025    -6027    -6004    -5980 
   -5965    -5961    -5976    -6000    -6023    -6046    -6062    -6076 
   -6096    -6108    -6097    -6079    -6058    -6035    -6008    -5985 
   -5975    -5975    -5967    -5954    -5964    -5988    -6003    -6003 
   -5999    -5985    -5969    -5968    -5980    -5994    -5998    -5994 
   -5984    -5973    -5967    -5973    -5999    -6037    -6066    -6092 
   -6123    -6161    -6188    -6192    -6191    -6210    -6239    -6266 
   -6295    -6328    -6361    -6373    -6363    -6350    -6340    -6336 
   -6336    -6340    -6346    -6330    -6297    -6269    -6243    -6214 
   -6197    -6200    -6199    -6178    -6143    -6111    -6084    -6053 
   -6030    -6033    -6050    -6064    -6073    -6092    -6122    -6145 
   -6147    -6131    -6102    -6079    -6075    -6068    -6056    -6039 
   -6003    -5956    -5915    -5877    -5845    -5829    -5830    -5844 
   -5867    -5881    -5872    -5850    -5837    -5825    -5822    -5848 
   -5896    -5941    -5971    -5984    -5988    -5999    -6019    -6041 
   -6053    -6046    -6033    -6031    -6033    -6033    -6038    -6042 
   -6035    -6021    -6004    -5983    -5969    -5977    -5989    -5994 
   -6002    -6014    -6010    -5992    -5976    -5965    -5957    -5952 
   -5949    -5935    -5913    -5891    -5876    -5865    -5861    -5863 
   -5865    -5868    -5863    -5845    -5832    -5838    -5854    -5854 
   -5846    -5871    -5925    -5968    -5987    -5992    -5988    -5989 
   -6008    -6041    -6085    -6124    -6149    -6161    -6166    -6168 
   -6168    -6156    -6142    -6149    -6166    -6172    -6181    -6212 
   -6264    -6318    -6367    -6416    -6469    -6515    -6539    -6534 
   -6515    -6500    -6493    -6478    -6447    -6416    -6394    -6366 
   -6323    -6274    -6228    -6187    -6156    -6135    -6120    -6107 
   -6096    -6097    -6096    -6079    -6061    -6042    -6014    -6000 
   -6011    -6027    -6054    -6095    -6133    -6172    -6220    -6280 
   -6350    -6415    -6457    -6477    -6471    -6430    -6378    -6345 
   -6315    -6276    -6239    -6204    -6158    -6107    -6061    -6026 
   -6004    -5989    -5979    -5971    -5956    -5933    -5919    -5925 
   -5937    -5946    -5952    -5948    -5927    -5903    -5896    -5906 
   -5917    -5935    -5962    -5981    -5991    -5999    -6000    -6000 
   -6000    -5998    -5994    -5992    -5998    -6011    -6023    -6030 
   -6034    -6033    -6018    -5996    -5983    -5977    -5967    -5946 
   -5930    -5918    -5906    -5891    -5865    -5838    -5818    -5800 
   -5776    -5751    -5729    -5722    -5738    -5761    -5768    -5769 
   -5779    -5796    -5819    -5844    -5856    -5859    -5860    -5869 
   -5890    -5910    -5927    -5952    -5973    -5979    -5979    -5994 
   -6019    -6049    -6076    -6095    -6108    -6119    -6131    -6141 
   -6145    -6164    -6199    -6230    -6259    -6308    -6357    -6389 
   -6413    -6438    -6455    -6450    -6427    -6393    -6343    -6268 
   -6191    -6134    -6088    -6048    -6031    -6039    -6054    -6070 
   -6087    -6096    -6102    -6120    -6158    -6196    -6224    -6249 
   -6268    -6278    -6295    -6304    -6307    -6326    -6355    -6380 
   -6388    -6377    -6367    -6361    -6340    -6308    -6278    -6261 
   -6253    -6249    -6245    -6250    -6268    -6291    -6309    -6316 
   -6319    -6328    -6346    -6351    -6340    -6323    -6299    -6266 
   -6223    -6183    -6161    -6147    -6126    -6091    -6064    -6058 
   -6069    -6091    -6104    -6081    -6037    -5988    -5926    -5857 
   -5794    -5749    -5722    -5688    -5632    -5578    -5552    -5559 
   -5584    -5613    -5647    -5690    -5734    -5769    -5802    -5825 
   -5826    -5813    -5806    -5794    -5772    -5761    -5764    -5763 
   -5741    -5705    -5671    -5664    -5695    -5744    -5791    -5844 
   -5903    -5956    -5999    -6043    -6084    -6115    -6139    -6149 
   -6145    -6149    -6168    -6180    -6185    -6188    -6193    -6201 
   -6205    -6197    -6191    -6201    -6223    -6243    -6255    -6261 
   -6270    -6278    -6274    -6284    -6315    -6339    -6359    -6389 
   -6409    -6411    -6405    -6397    -6388    -6384    -6376    -6349 
   -6308    -6270    -6243    -6224    -6215    -6212    -6227    -6262 
   -6291    -6316    -6359    -6409    -6455    -6496    -6532    -6552 
   -6559    -6556    -6536    -6493    -6448    -6420    -6396    -6374 
   -6358    -6340    -6315    -6289    -6280    -6288    -6295    -6288 
   -6286    -6296    -6286    -6253    -6227    -6201    -6162    -6118 
   -6057    -5976    -5903    -5852    -5802    -5751    -5690    -5618 
   -5567    -5551    -5544    -5548    -5566    -5576    -5595    -5624 
   -5636    -5632    -5620    -5599    -5570    -5521    -5460    -5424 
   -5408    -5379    -5354    -5348    -5360    -5385    -5416    -5439 
   -5449    -5466    -5505    -5559    -5610    -5668    -5725    -5768 
   -5807    -5846    -5875    -5903    -5935    -5968    -6003    -6042 
   -6080    -6126    -6181    -6230    -6273    -6311    -6331    -6345 
   -6378    -6432    -6488    -6520    -6532    -6544    -6559    -6571 
   -6585    -6593    -6597    -6604    -6605    -6596    -6585    -6579 
   -6583    -6597    -6602    -6590    -6565    -6538    -6508    -6477 
   -6440    -6393    -6346    -6300    -6255    -6218    -6204    -6226 
   -6258    -6289    -6328    -6361    -6380    -6390    -6378    -6361 
   -6351    -6336    -6316    -6292    -6262    -6242    -6237    -6230 
   -6224    -6227    -6227    -6224    -6216    -6197    -6170    -6147 
   -6129    -6099    -6041    -5953    -5863    -5791    -5719    -5636 
   -5571    -5537    -5518    -5508    -5506    -5502    -5491    -5498 
   -5525    -5540    -5544    -5557    -5578    -5589    -5589    -5586 
   -5584    -5586    -5590    -5593    -5598    -5613    -5641    -5683 
   -5741    -5798    -5845    -5896    -5962    -6035    -6107    -6173 
   -6230    -6270    -6301    -6327    -6334    -6326    -6307    -6274 
   -6242    -6215    -6183    -6157    -6149    -6143    -6133    -6130 
   -6134    -6143    -6165    -6195    -6222    -6241    -6257    -6258 
   -6246    -6239    -6245    -6247    -6251    -6255    -6262    -6286 
   -6323    -6357    -6397    -6451    -6492    -6508    -6511    -6500 
   -6466    -6419    -6363    -6307    -6251    -6193    -6130    -6075 
   -6042    -6026    -6022    -6029    -6035    -6030    -6031    -6045 
   -6056    -6065    -6072    -6057    -6026    -5991    -5954    -5921 
   -5891    -5863    -5836    -5822    -5830    -5842    -5854    -5872 
   -5876    -5854    -5821    -5796    -5784    -5769    -5755    -5759 
   -5771    -5776    -5783    -5803    -5844    -5898    -5956    -6011 
   -6061    -6112    -6169    -6226    -6281    -6340    -6403    -6463 
   -6519    -6559    -6570    -6559    -6548    -6547    -6550    -6548 
   -6540    -6535    -6524    -6500    -6477    -6465    -6455    -6440 
   -6407    -6354    -6296    -6237    -6183    -6143    -6108    -6072 
   -6039    -6015    -6002    -5991    -5984    -5987    -5988    -5976 
   -5954    -5933    -5921    -5906    -5888    -5880    -5871    -5854 
   -5846    -5854    -5868    -5887    -5918    -5950    -5965    -5961 
   -5960    -5964    -5968    -5979    -5992    -5991    -5975    -5946 
   -5923    -5917    -5918    -5917    -5911    -5898    -5875    -5845 
   -5811    -5791    -5792    -5799    -5799    -5795    -5783    -5764 
   -5753    -5745    -5733    -5730    -5734    -5724    -5688    -5649 
   -5621    -5593    -5568    -5559    -5559    -5566    -5578    -5593 
   -5629    -5697    -5780    -5867    -5942    -6006    -6061    -6104 
   -6143    -6177    -6199    -6222    -6251    -6276    -6281    -6266 
   -6255    -6266    -6285    -6299    -6324    -6362    -6392    -6409 
   -6428    -6451    -6480    -6509    -6538    -6563    -6579    -6583 
   -6585    -6597    -6616    -6621    -6627    -6640    -6639    -6619 
   -6588    -6546    -6494    -6440    -6401    -6370    -6335    -6301 
   -6278    -6265    -6254    -6257    -6274    -6295    -6318    -6351 
   -6374    -6381    -6382    -6388    -6393    -6394    -6396    -6388 
   -6361    -6318    -6265    -6214    -6173    -6127    -6070    -6023 
   -5992    -5971    -5962    -5965    -5965    -5958    -5944    -5919 
   -5895    -5881    -5871    -5865    -5883    -5906    -5913    -5917 
   -5926    -5933    -5934    -5935    -5941    -5946    -5940    -5918 
   -5896    -5881    -5872    -5853    -5826    -5807    -5810    -5823 
   -5826    -5821    -5819    -5829    -5845    -5864    -5886    -5908 
   -5921    -5929    -5952    -5981    -6007    -6023    -6031    -6039 
   -6045    -6049    -6058    -6079    -6099    -6104    -6104    -6107 
   -6111    -6120    -6142    -6158    -6162    -6149    -6119    -6079 
   -6037    -6008    -5988    -5972    -5957    -5933    -5908    -5895 
   -5880    -5875    -5880    -5877    -5871    -5872    -5884    -5899 
   -5915    -5949    -5998    -6038    -6079    -6127    -6180    -6226 
   -6265    -6301    -6342    -6372    -6385    -6382    -6370    -6361 
   -6355    -6332    -6307    -6292    -6273    -6258    -6253    -6242 
   -6235    -6241    -6243    -6242    -6243    -6237    -6211    -6168 
   -6112    -6061    -6016    -5972    -5942    -5931    -5927    -5929 
   -5937    -5940    -5940    -5945    -5949    -5945    -5940    -5933 
   -5917    -5900    -5895    -5913    -5937    -5962    -6007    -6066 
   -6131    -6201    -6276    -6354    -6416    -6448    -6465    -6475 
   -6474    -6457    -6420    -6378    -6334    -6293    -6269    -6253 
   -6235    -6224    -6234    -6243    -6235    -6222    -6199    -6158 
   -6111    -6064    -6011    -5960    -5917    -5875    -5833    -5806 
   -5799    -5798    -5788    -5783    -5786    -5794    -5805    -5822 
   -5845    -5865    -5886    -5917    -5942    -5956    -5980    -6007 
   -6019    -6025    -6018    -5992    -5953    -5913    -5872    -5832 
   -5792    -5767    -5752    -5736    -5719    -5713    -5713    -5713 
   -5719    -5732    -5748    -5764    -5778    -5792    -5811    -5827 
   -5848    -5881    -5923    -5961    -5996    -6030    -6060    -6081 
   -6099    -6119    -6137    -6145    -6146    -6145    -6142    -6138 
   -6134    -6135    -6137    -6139    -6157    -6178    -6196    -6207 
   -6210    -6205    -6195    -6191    -6199    -6201    -6189    -6174 
   -6162    -6142    -6112    -6077    -6050    -6033    -6022    -6003 
   -5971    -5942    -5930    -5926    -5931    -5949    -5979    -6015 
   -6046    -6073    -6110    -6157    -6200    -6230    -6246    -6264 
