Origin Time       2026/01/15 07:13:00
Lat.              42.7
Long.             145.4
Depth. (km)       30
Mag.              5.7
Station Code      HKD159
Station Lat.      41.7160
Station Long.     141.0046
Station Height(m) 23
Record Time       2026/01/15 07:15:07
Sampling Freq(Hz) 100Hz
Duration Time(s)  60
Dir.              U-D
Scale Factor      7845(gal)/8223790
Max. Acc. (gal)   0.258
Last Correction   2026/01/15 07:15:08
Memo.             
    9791     9836     9825     9787     9728     9648     9597     9586 
    9587     9625     9695     9744     9751     9748     9742     9724 
    9721     9738     9748     9757     9786     9807     9764     9668 
    9599     9580     9605     9668     9726     9764     9787     9776 
    9748     9711     9652     9614     9647     9682     9682     9720 
    9768     9776     9796     9826     9798     9720     9641     9598 
    9595     9649     9715     9718     9724     9771     9775     9732 
    9724     9753     9740     9698     9717     9734     9694     9651 
    9618     9628     9672     9676     9680     9720     9772     9829 
    9806     9686     9602     9616     9636     9636     9695     9774 
    9768     9710     9649     9628     9643     9622     9626     9711 
    9761     9760     9802     9832     9768     9706     9710     9687 
    9633     9649     9698     9690     9667     9661     9609     9547 
    9607     9725     9730     9683     9701     9747     9782     9823 
    9842     9794     9715     9672     9682     9726     9744     9710 
    9702     9756     9799     9811     9818     9765     9690     9702 
    9710     9625     9578     9637     9688     9701     9752     9796 
    9782     9791     9817     9765     9675     9617     9597     9594 
    9610     9668     9710     9703     9706     9714     9699     9678 
    9649     9645     9680     9691     9653     9632     9661     9751 
    9840     9838     9783     9744     9730     9734     9713     9637 
    9560     9555     9613     9643     9649     9710     9810     9884 
    9876     9802     9730     9679     9626     9601     9660     9774 
    9822     9787     9737     9699     9690     9691     9678     9656 
    9637     9640     9680     9706     9678     9653     9687     9759 
    9801     9806     9784     9718     9680     9703     9687     9609 
    9556     9582     9652     9707     9734     9715     9656     9628 
    9657     9695     9703     9695     9740     9863     9945     9904 
    9805     9691     9601     9578     9564     9518     9517     9598 
    9699     9764     9784     9775     9751     9761     9830     9872 
    9828     9760     9728     9687     9609     9532     9475     9436 
    9470     9579     9691     9765     9826     9898     9954     9961 
    9923     9852     9760     9693     9687     9680     9624     9579 
    9552     9535     9579     9653     9722     9799     9830     9801 
    9784     9765     9721     9714     9711     9648     9590     9595 
    9620     9628     9663     9742     9818     9823     9761     9703 
    9684     9691     9726     9774     9776     9732     9690     9672 
    9663     9643     9629     9659     9722     9774     9787     9747 
    9703     9706     9707     9688     9672     9668     9674     9676 
    9675     9668     9629     9593     9633     9695     9718     9740 
    9759     9763     9737     9672     9625     9625     9622     9620 
    9664     9736     9767     9774     9803     9845     9850     9801 
    9759     9774     9791     9771     9721     9657     9618     9602 
    9570     9549     9580     9656     9745     9822     9869     9890 
    9875     9810     9738     9694     9645     9617     9640     9632 
    9580     9574     9612     9664     9760     9868     9903     9884 
    9857     9796     9698     9618     9572     9533     9529     9602 
    9703     9752     9764     9783     9799     9788     9760     9747 
    9756     9775     9799     9798     9767     9724     9659     9590 
    9558     9559     9587     9622     9661     9732     9796     9784 
    9724     9664     9625     9607     9609     9629     9639     9622 
    9633     9693     9755     9798     9832     9838     9806     9775 
    9764     9745     9714     9691     9682     9661     9625     9620 
    9647     9693     9765     9823     9842     9834     9798     9753 
    9722     9707     9693     9653     9605     9612     9675     9717 
    9709     9703     9710     9715     9717     9703     9695     9720 
    9760     9791     9791     9741     9678     9657     9656     9648 
    9652     9648     9634     9648     9674     9678     9682     9706 
    9747     9795     9823     9817     9790     9760     9751     9751 
    9730     9705     9694     9693     9693     9678     9643     9620 
    9607     9586     9591     9632     9652     9660     9671     9661 
    9651     9670     9688     9702     9725     9745     9799     9871 
    9825     9732     9745     9730     9613     9587     9640     9644 
    9686     9768     9787     9771     9774     9784     9806     9801 
    9730     9682     9659     9572     9567     9698     9720     9660 
    9686     9688     9655     9701     9767     9760     9741     9744 
    9691     9633     9660     9690     9690     9759     9845     9825 
    9759     9734     9680     9594     9579     9593     9595     9686 
    9819     9853     9825     9837     9837     9779     9729     9693 
    9641     9641     9666     9625     9607     9675     9698     9626 
    9614     9684     9687     9629     9660     9748     9760     9730 
    9747     9756     9724     9694     9670     9632     9616     9637 
    9666     9703     9764     9796     9795     9806     9801     9775 
    9760     9744     9699     9652     9634     9640     9629     9612 
    9639     9691     9715     9730     9745     9729     9701     9683 
    9666     9656     9679     9713     9736     9759     9784     9817 
    9841     9822     9771     9711     9659     9613     9566     9552 
    9587     9620     9694     9828     9869     9813     9813     9829 
    9757     9657     9603     9591     9624     9674     9711     9761 
    9790     9747     9701     9676     9634     9613     9644     9674 
    9674     9679     9737     9813     9821     9810     9856     9855 
    9748     9698     9737     9736     9691     9679     9699     9699 
    9670     9684     9726     9693     9643     9663     9683     9702 
    9734     9724     9729     9798     9801     9732     9737     9790 
    9756     9690     9706     9753     9736     9680     9679     9718 
    9695     9643     9703     9809     9780     9682     9691     9780 
    9765     9630     9580     9661     9674     9624     9664     9729 
    9715     9682     9682     9676     9666     9707     9749     9744 
    9767     9788     9736     9672     9647     9632     9606     9605 
    9636     9632     9594     9610     9670     9686     9670     9703 
    9775     9802     9788     9798     9788     9726     9675     9668 
    9664     9667     9709     9745     9717     9682     9709     9702 
    9595     9549     9661     9751     9698     9651     9725     9779 
    9705     9636     9684     9749     9705     9644     9703     9787 
    9774     9772     9861     9918     9880     9833     9787     9703 
    9616     9564     9524     9504     9556     9626     9644     9682 
    9752     9760     9741     9745     9710     9659     9679     9722 
    9740     9765     9780     9726     9667     9691     9741     9755 
    9779     9811     9787     9705     9610     9575     9601     9626 
    9670     9730     9748     9775     9817     9779     9744     9772 
    9732     9663     9678     9703     9698     9694     9701     9732 
    9714     9630     9632     9667     9595     9586     9683     9691 
    9682     9752     9753     9680     9671     9690     9679     9661 
    9667     9693     9693     9680     9718     9730     9705     9732 
    9752     9711     9701     9701     9674     9674     9679     9664 
    9693     9728     9732     9768     9810     9790     9753     9726 
    9705     9703     9663     9597     9601     9626     9647     9738 
    9825     9815     9795     9780     9721     9664     9648     9620 
    9590     9616     9649     9653     9699     9774     9768     9718 
    9742     9798     9784     9752     9784     9830     9787     9705 
    9674     9633     9586     9639     9713     9703     9729     9802 
    9779     9721     9748     9751     9667     9625     9655     9657 
    9625     9628     9653     9663     9674     9705     9726     9732 
    9752     9782     9791     9803     9837     9836     9775     9715 
    9688     9656     9622     9625     9633     9625     9647     9678 
    9660     9641     9672     9684     9664     9688     9722     9695 
    9664     9680     9706     9717     9724     9744     9788     9818 
    9799     9757     9730     9730     9733     9679     9606     9605 
    9649     9683     9706     9713     9702     9711     9740     9744 
    9720     9698     9718     9771     9792     9775     9760     9733 
    9690     9668     9680     9698     9701     9702     9711     9707 
    9690     9671     9651     9643     9663     9690     9699     9705 
    9718     9726     9703     9670     9668     9693     9734     9788 
    9813     9795     9761     9729     9724     9724     9684     9651 
    9660     9688     9724     9755     9768     9786     9807     9796 
    9763     9738     9730     9728     9742     9771     9775     9756 
    9752     9751     9718     9678     9652     9634     9626     9639 
    9661     9679     9671     9647     9649     9670     9671     9674 
    9699     9732     9755     9772     9778     9748     9702     9655 
    9624     9645     9701     9730     9730     9732     9740     9720 
    9672     9659     9706     9755     9772     9772     9764     9753 
    9736     9717     9703     9690     9686     9705     9728     9733 
    9713     9697     9722     9749     9701     9634     9629     9648 
    9670     9699     9729     9763     9783     9753     9691     9634 
    9603     9607     9634     9687     9736     9729     9699     9680 
    9659     9652     9663     9699     9771     9823     9819     9790 
    9745     9679     9622     9610     9639     9684     9726     9755 
    9772     9756     9709     9672     9661     9670     9706     9756 
    9779     9778     9774     9763     9749     9737     9705     9667 
    9652     9655     9649     9640     9640     9651     9676     9693 
    9674     9656     9670     9699     9737     9756     9730     9686 
    9643     9605     9582     9587     9633     9705     9752     9772 
    9786     9786     9761     9720     9683     9679     9718     9765 
    9776     9755     9728     9697     9680     9699     9721     9726 
    9744     9768     9765     9742     9711     9664     9632     9641 
    9675     9703     9705     9701     9720     9726     9706     9684 
    9667     9663     9684     9701     9702     9720     9747     9769 
    9786     9771     9722     9683     9684     9687     9664     9639 
    9645     9687     9725     9730     9717     9715     9725     9733 
    9747     9755     9756     9761     9745     9703     9666     9630 
    9598     9593     9629     9672     9691     9703     9724     9734 
    9734     9726     9729     9744     9752     9752     9752     9730 
    9691     9648     9603     9593     9621     9661     9713     9772 
    9814     9822     9794     9745     9693     9645     9620     9620 
    9632     9663     9709     9757     9796     9806     9782     9755 
    9733     9711     9703     9713     9710     9678     9637     9591 
    9540     9514     9528     9579     9661     9733     9760     9757 
    9740     9733     9753     9778     9788     9799     9799     9772 
    9732     9688     9652     9626     9613     9614     9633     9676 
    9734     9776     9779     9757     9740     9718     9682     9663 
    9674     9694     9733     9792     9830     9832     9817     9784 
    9730     9687     9660     9644     9652     9663     9656     9651 
    9648     9641     9651     9676     9694     9705     9710     9705 
    9690     9672     9649     9617     9598     9617     9664     9720 
    9769     9806     9829     9821     9787     9748     9714     9691 
    9684     9694     9699     9690     9684     9694     9714     9738 
    9740     9728     9736     9757     9747     9718     9706     9703 
    9701     9706     9724     9748     9768     9771     9763     9745 
    9710     9678     9664     9667     9675     9672     9667     9675 
    9684     9686     9703     9741     9761     9760     9771     9771 
    9749     9726     9705     9699     9732     9778     9794     9778 
    9761     9744     9707     9690     9691     9671     9660     9680 
    9679     9668     9687     9690     9687     9709     9703     9693 
    9715     9744     9761     9749     9744     9796     9821     9783 
    9753     9729     9674     9626     9633     9652     9636     9614 
    9636     9693     9722     9740     9792     9809     9772     9784 
    9784     9698     9644     9683     9741     9744     9690     9682 
    9711     9675     9649     9697     9703     9652     9691     9802 
    9776     9695     9724     9701     9612     9625     9643     9598 
    9632     9690     9664     9690     9763     9733     9720     9783 
    9774     9713     9693     9684     9672     9656     9630     9655 
    9745     9779     9736     9729     9720     9656     9652     9697 
    9697     9682     9682     9675     9699     9729     9698     9702 
    9771     9753     9701     9772     9809     9698     9647     9709 
    9728     9714     9728     9745     9753     9734     9684     9683 
    9706     9655     9617     9657     9675     9639     9655     9733 
    9732     9684     9698     9680     9671     9738     9703     9587 
    9614     9686     9684     9759     9845     9813     9790     9780 
    9718     9671     9633     9606     9648     9697     9668     9636 
    9667     9675     9666     9715     9749     9780     9863     9853 
    9776     9778     9738     9597     9578     9698     9707     9680 
    9763     9767     9678     9668     9688     9639     9602     9655 
    9690     9717     9759     9699     9691     9772     9715     9663 
    9715     9694     9702     9788     9815     9845     9848     9725 
    9640     9691     9699     9643     9710     9763     9688     9736 
    9779     9663     9633     9705     9720     9720     9745     9701 
    9633     9715     9764     9632     9609     9687     9653     9693 
    9821     9798     9755     9815     9802     9738     9755     9718 
    9639     9680     9711     9690     9713     9682     9653     9657 
    9624     9699     9737     9637     9720     9801     9679     9698 
    9788     9699     9651     9737     9732     9626     9644     9765 
    9757     9687     9706     9607     9471     9595     9694     9606 
    9664     9769     9687     9698     9828     9744     9636     9724 
    9742     9687     9714     9736     9780     9786     9717     9795 
    9834     9682     9675     9771     9706     9666     9751     9738 
    9640     9641     9629     9545     9590     9706     9709     9670 
    9683     9701     9657     9636     9694     9690     9687     9810 
    9809     9714     9776     9778     9678     9661     9655     9633 
    9589     9605     9782     9794     9653     9733     9775     9607 
    9609     9688     9597     9574     9707     9787     9775     9768 
    9779     9763     9728     9745     9788     9736     9667     9729 
    9763     9690     9683     9707     9682     9726     9803     9757 
    9688     9702     9694     9702     9745     9702     9725     9795 
    9736     9819     9922     9698     9644     9813     9688     9612 
    9722     9633     9597     9717     9664     9637     9715     9653 
    9637     9676     9567     9601     9749     9687     9707     9832 
    9733     9695     9830     9790     9683     9729     9771     9740 
    9713     9709     9698     9660     9660     9707     9703     9691 
    9733     9722     9680     9701     9676     9583     9568     9616 
    9639     9691     9763     9767     9779     9796     9721     9725 
    9763     9628     9601     9698     9647     9634     9701     9724 
    9720     9625     9628     9688     9509     9544     9821     9652 
    9524     9840     9829     9636     9811     9859     9705     9759 
    9790     9721     9748     9705     9668     9792     9803     9738 
    9792     9784     9749     9767     9693     9672     9725     9636 
    9598     9675     9648     9661     9726     9718     9823     9895 
    9756     9728     9769     9663     9653     9738     9720     9736 
    9732     9670     9710     9702     9632     9670     9680     9697 
    9807     9772     9656     9666     9652     9612     9663     9699 
    9666     9688     9798     9783     9684     9772     9794     9629 
    9663     9745     9649     9667     9753     9687     9636     9705 
    9714     9606     9560     9612     9670     9744     9737     9657 
    9710     9733     9583     9613     9807     9764     9726     9879 
    9817     9706     9795     9715     9629     9784     9749     9653 
    9811     9782     9714     9877     9765     9628     9730     9598 
    9556     9786     9726     9603     9736     9757     9652     9675 
    9703     9660     9656     9671     9679     9706     9714     9628 
    9606     9747     9691     9574     9728     9765     9629     9666 
    9806     9848     9737     9672     9679     9633     9718     9794 
    9747     9860     9832     9605     9663     9694     9572     9653 
    9697     9702     9833     9825     9805     9842     9724     9682 
    9720     9649     9725     9856     9764     9733     9826     9722 
    9566     9605     9659     9648     9667     9724     9753     9684 
    9682     9772     9713     9648     9710     9695     9738     9848 
    9763     9690     9698     9591     9576     9667     9637     9632 
    9744     9771     9724     9720     9664     9595     9637     9678 
    9733     9791     9778     9817     9803     9706     9752     9722 
    9568     9643     9713     9620     9710     9807     9705     9721 
    9776     9678     9672     9760     9772     9818     9807     9644 
    9633     9707     9663     9722     9737     9625     9693     9718 
    9603     9634     9672     9660     9705     9675     9636     9693 
    9729     9698     9707     9822     9879     9784     9698     9663 
    9667     9697     9659     9663     9772     9807     9795     9822 
    9792     9715     9693     9699     9670     9632     9624     9614 
    9618     9647     9674     9701     9680     9603     9591     9643 
    9679     9718     9699     9626     9643     9667     9667     9738 
    9767     9764     9795     9757     9701     9682     9651     9630 
    9625     9671     9753     9772     9760     9757     9753     9751 
    9730     9728     9733     9694     9684     9745     9787     9786 
    9782     9779     9759     9715     9670     9640     9644     9691 
    9747     9763     9732     9678     9655     9671     9690     9717 
    9745     9763     9786     9778     9722     9666     9626     9637 
    9675     9676     9680     9718     9724     9722     9765     9757 
    9698     9674     9671     9671     9679     9668     9686     9728 
    9702     9663     9684     9678     9648     9676     9725     9756 
    9757     9733     9741     9734     9684     9680     9684     9644 
    9666     9738     9748     9720     9709     9684     9657     9672 
