Origin Time       2026/01/15 07:13:00
Lat.              42.7
Long.             145.4
Depth. (km)       30
Mag.              5.7
Station Code      HKD100
Station Lat.      42.2864
Station Long.     143.3120
Station Height(m) 36
Record Time       2026/01/15 07:14:09
Sampling Freq(Hz) 100Hz
Duration Time(s)  60
Dir.              E-W
Scale Factor      7845(gal)/8223790
Max. Acc. (gal)   8.281
Last Correction   2026/01/15 07:14:10
Memo.             
[...]
    3950     3942     3875     3786     3720     3705     3742     3817 
    3898     3946     3955     3974     3998     3946     3755     3505 
    3360     3357     3396     3434     3516     3658     3823     3990 
    4185     4391     4537     4580     4545     4472     4396     4322 
    4222     4086     3940     3798     3690     3659     3680     3674 
    3619     3551     3510     3484     3443     3380     3326     3318 
    3381     3532     3740     3919     4028     4117     4244     4352 
    4363     4295     4220     4143     4033     3897     3773     3681 
    3619     3588     3608     3692     3797     3881     3971     4122 
    4286     4375     4365     4279     4125     3898     3627     3388 
    3244     3194     3214     3312     3508     3790     4104     4347 
    4445     4432     4383     4295     4122     3879     3630     3423 
    3280     3221     3261     3383     3558     3754     3931     4087 
    4207     4247     4185     4043     3854     3649     3472     3368 
    3360     3446     3604     3800     4008     4206     4367     4483 
    4533     4484     4367     4228     4074     3893     3693     3510 
    3358     3235     3192     3268     3449     3692     3916     4050 
    4110     4152     4185     4182     4159     4145     4128     4085 
    4037     4004     3983     3973     3955     3916     3858     3786 
    3709     3632     3550     3458     3384     3364     3387     3437 
    3503     3547     3572     3632     3744     3865     3946     3986 
    4035     4125     4240     4333     4360     4313     4221     4109 
    3958     3767     3591     3481     3434     3438     3491     3572 
    3666     3774     3892     4009     4116     4191     4226     4233 
    4206     4143     4059     3985     3960     3985     4018     4043 
    4068     4102     4102     4035     3913     3758     3600     3470 
    3388     3342     3315     3319     3379     3485     3592     3678 
    3778     3929     4152     4391     4544     4553     4440     4257 
    4054     3854     3673     3568     3577     3663     3765     3861 
    3943     3966     3905     3813     3736     3667     3596     3518 
    3423     3331     3279     3288     3365     3496     3672     3870 
    4050     4171     4193     4089     3905     3727     3623     3612 
    3665     3743     3859     4037     4230     4371     4417     4351 
    4229     4148     4104     4023     3896     3774     3690     3655 
    3673     3739     3828     3897     3929     3940     3932     3888 
    3824     3773     3736     3719     3726     3744     3789     3888 
    4033     4183     4291     4347     4369     4330     4187     3979 
    3748     3505     3267     3069     2967     2982     3103     3300 
    3553     3836     4101     4298     4402     4432     4417     4365 
    4291     4224     4175     4125     4045     3937     3829     3748 
    3711     3709     3705     3639     3505     3372     3279     3210 
    3157     3184     3373     3693     4035     4333     4584     4781 
    4878     4850     4723     4522     4256     3952     3657     3430 
    3318     3314     3381     3505     3681     3877     4043     4148 
    4183     4160     4085     3962     3794     3601     3438     3379 
    3424     3515     3620     3746     3902     4060     4166     4213 
    4237     4203     4035     3758     3510     3369     3294     3250 
    3268     3379     3554     3740     3883     3983     4074     4151 
    4163     4095     3975     3815     3620     3437     3334     3321 
    3356     3456     3670     3967     4245     4436     4529     4513 
    4388     4201     3978     3727     3478     3277     3176     3199 
    3342     3574     3866     4194     4510     4719     4779     4726 
    4588     4379     4125     3882     3699     3578     3481     3408 
    3403     3485     3640     3832     4005     4116     4141     4075 
    3951     3809     3673     3550     3473     3484     3586     3727 
    3848     3933     3974     3962     3893     3792     3689     3600 
    3520     3470     3508     3653     3825     3940     4002     4054 
    4139     4267     4403     4496     4502     4398     4214     4010 
    3824     3665     3534     3449     3437     3499     3595     3670 
    3732     3819     3928     4006     4031     4043     4074     4108 
    4137     4171     4195     4203     4209     4197     4137     4023 
    3852     3645     3474     3400     3391     3397     3415     3453 
    3504     3534     3538     3570     3669     3820     4002     4205 
    4374     4484     4542     4527     4441     4334     4233     4116 
    3971     3809     3643     3489     3383     3348     3356     3377 
    3433     3550     3692     3775     3793     3773     3709     3597 
    3492     3447     3476     3561     3674     3807     3950     4083 
    4176     4202     4151     4056     3963     3885     3805     3719 
    3663     3677     3736     3800     3840     3863     3886     3916 
    3940     3942     3929     3948     4013     4093     4149     4194 
    4252     4306     4314     4249     4132     3997     3873     3763 
    3667     3601     3589     3624     3661     3670     3672     3708 
    3786     3871     3925     3944     3942     3929     3912     3870 
    3792     3707     3658     3645     3661     3716     3800     3889 
    3989     4114     4236     4314     4353     4365     4334     4253 
    4118     3944     3753     3543     3330     3137     3003     2960 
    2992     3067     3195     3406     3661     3874     4002     4055 
    4051     4027     4016     4013     4004     3997     4020     4095 
    4216     4342     4448     4530     4585     4585     4487     4271 
    3964     3609     3250     2961     2814     2821     2943     3160 
    3451     3773     4094     4406     4658     4795     4793     4675 
    4506     4344     4171     3942     3680     3460     3335     3312 
    3335     3333     3284     3241     3271     3407     3593     3726 
    3777     3817     3898     4009     4116     4179     4178     4139 
    4120     4144     4170     4132     4009     3861     3766     3735 
    3738     3738     3721     3699     3697     3744     3824     3869 
    3867     3879     3933     3996     4040     4074     4094     4081 
    4051     4028     4001     3951     3863     3748     3654     3619 
    3620     3609     3578     3555     3569     3607     3665     3763 
    3905     4047     4133     4145     4133     4114     4056     3963 
    3878     3820     3767     3692     3603     3524     3477     3462 
    3497     3596     3721     3829     3924     4008     4070     4118 
    4147     4122     4035     3919     3828     3797     3812     3823 
    3813     3836     3924     4047     4135     4149     4129     4112 
    4093     4067     4054     4066     4066     3997     3889     3832 
    3823     3789     3708     3615     3542     3476     3411     3379 
    3403     3473     3557     3640     3744     3894     4066     4162 
    4132     4066     4032     3993     3913     3813     3721     3654 
    3604     3559     3542     3607     3755     3933     4105     4243 
    4306     4264     4140     3981     3844     3755     3692     3650 
    3640     3667     3744     3850     3908     3897     3879     3897 
    3928     3939     3932     3944     3970     3956     3869     3738 
    3651     3639     3639     3615     3615     3700     3851     3993 
    4081     4114     4097     4041     3964     3886     3804     3689 
    3574     3530     3569     3669     3812     3978     4141     4287 
    4419     4507     4483     4321     4072     3808     3592     3443 
    3341     3271     3250     3312     3465     3680     3929     4183 
    4384     4500     4558     4579     4540     4410     4194     3901 
    3550     3211     2945     2783     2764     2905     3145     3395 
    3624     3846     4047     4168     4205     4212     4218     4197 
    4147     4117     4132     4171     4236     4314     4365     4374 
    4363     4317     4187     3954     3647     3339     3106     2975 
    2918     2930     3011     3121     3226     3370     3607     3915 
    4233     4529     4783     4955     5032     5008     4862     4587 
    4221     3835     3512     3303     3165     3042     2970     3022 
    3186     3362     3484     3580     3672     3736     3754     3739 
    3673     3507     3273     3083     3009     3045     3164     3369 
    3643     3931     4210     4461     4627     4668     4598     4460 
    4294     4108     3901     3669     3443     3304     3308     3464 
    3713     3946     4075     4125     4128     4028     3798     3528 
    3318     3221     3268     3431     3623     3802     3982     4168 
    4349     4514     4642     4711     4741     4734     4641     4429 
    4105     3715     3349     3076     2916     2868     2934     3110 
    3376     3690     4014     4311     4544     4700     4793     4800 
    4685     4450     4122     3735     3366     3102     2980     3014 
    3199     3487     3807     4116     4379     4545     4579     4518 
    4438     4399     4415     4450     4429     4305     4099     3896 
    3778     3766     3790     3781     3736     3681     3634     3612 
    3624     3654     3676     3693     3758     3913     4128     4317 
    4433     4514     4599     4653     4599     4375     3985     3500 
    2992     2498     2066     1749     1579     1588     1836     2338 
    2986     3630     4207     4730     5186     5533     5709     5697 
    5593     5509     5425     5217     4807     4257     3711     3258 
    2947     2821     2883     3056     3260     3481     3701     3878 
    4014     4137     4271     4438     4637     4810     4920     4973 
    4942     4777     4504     4225     4001     3807     3603     3397 
    3227     3132     3142     3233     3326     3388     3445     3501 
    3545     3572     3559     3518     3493     3497     3508     3545 
    3640     3794     3962     4098     4172     4164     4075     3937 
    3805     3734     3738     3800     3904     4032     4132     4166 
    4132     4056     3994     3977     3954     3901     3856     3840 
    3825     3778     3712     3686     3774     3994     4261     4438 
    4449     4322     4139     3962     3812     3713     3688     3712 
    3727     3709     3672     3619     3551     3454     3333     3244 
    3248     3338     3472     3643     3885     4191     4509     4780 
    4970     5066     5038     4887     4665     4436     4206     3960 
    3724     3547     3439     3361     3284     3214     3169     3180 
    3272     3449     3685     3931     4135     4311     4503     4685 
    4796     4831     4819     4769     4692     4610     4511     4322 
    3981     3524     3091     2799     2681     2725     2933     3284 
    3724     4187     4602     4908     5057     5013     4773     4361 
    3820     3218     2640     2145     1748     1494     1445     1613 
    1954     2403     2893     3369     3801     4166     4392     4471 
    4502     4529     4482     4326     4113     3908     3731     3547 
    3300     3005     2756     2625     2602     2658     2774     2960 
    3258     3680     4183     4710     5181     5517     5695     5756 
    5742     5661     5471     5134     4687     4212     3769     3370 
    2979     2579     2250     2100     2189     2497     2910     3304 
    3655     4018     4433     4858     5184     5339     5362     5337 
    5300     5213     5012     4650     4140     3601     3188     2933 
    2743     2527     2255     1975     1748     1570     1417     1306 
    1263     1316     1507     1854     2315     2822     3335     3855 
    4391     4922     5400     5736     5836     5709     5445     5108 
    4734     4383     4091     3881     3793     3854     4013     4212 
    4419     4590     4650     4561     4321     3983     3651     3400 
    3250     3211     3281     3443     3672     3929     4189     4463 
    4810     5250     5686     6015     6227     6285     6097     5603 
    4855     4035     3330     2806     2443     2219     2145     2238 
    2450     2683     2894     3069     3163     3146     3087     3087 
    3181     3343     3566     3932     4510     5240     5995     6662 
    7175     7514     7662     7605     7339     6825     6002     4909 
    3705     2547     1503      599      -76     -422     -432     -155 
     336      954     1649     2425     3260     4071     4787     5373 
    5795     6018     6050     5929     5680     5350     5050     4834 
    4607     4291     3916     3493     3005     2413     1676      886 
     290       31      108      496     1194     2157     3242     4305 
    5232     5921     6374     6643     6737     6690     6501     6116 
    5562     4990     4499     4055     3623     3200     2781     2436 
    2293     2413     2767     3237     3815     4569     5425     6242 
    6930     7415     7680     7705     7439     6867     5999     4872 
    3577     2216      884     -310    -1243    -1804    -1945    -1667 
   -1013      -63     1063     2214     3225     3958     4371     4503 
    4422     4248     4159     4313     4762     5433     6196     6948 
    7608     8063     8233     8141     7844     7371     6775     6138 
    5516     4922     4351     3847     3499     3392     3549     3913 
    4433     5066     5671     6022     5946     5387     4387     3051 
    1512      -87    -1597    -2886    -3889    -4558    -4827    -4612 
   -3832    -2517     -838     1027     2979     4928     6744     8272 
    9378     9988    10073     9645     8804     7717     6536     5391 
    4436     3790     3493     3527     3836     4360     5066     5913 
    6809     7595     8052     7989     7372     6282     4823     3154 
    1502       66    -1013    -1614    -1674    -1239     -409      691 
    1877     2994     3962     4684     5066     5080     4757     4210 
    3588     3024     2663     2627     2930     3545     4391     5278 
    6023     6551     6751     6505     5861     4970     4004     3118 
    2388     1937     1915     2323     3046     3947     4874     5690 
    6237     6413     6183     5514     4457     3148     1723      402 
    -560     -989     -834     -139     1034     2604     4351     6034 
    7564     8937    10025    10579    10484     9828     8723     7213 
    5391     3438     1582      101     -901    -1462    -1510    -1058 
    -248      835     2096     3372     4521     5483     6274     6910 
    7335     7495     7403     7053     6417     5526     4456     3291 
    2123     1062      238     -278     -542     -618     -487     -109 
     529     1391     2324     3157     3883     4545     5120     5567 
    5860     5971     5894     5702     5497     5279     4977     4545 
    4028     3497     3010     2639     2425     2408     2659     3187 
    3960     4978     6147     7253     8118     8710     9035     9036 
    8622     7719     6389     4826     3177     1571      184     -826 
   -1339    -1285     -710      252     1352     2343     3136     3688 
    3955     3960     3753     3388     2948     2528     2246     2208 
    2430     2857     3419     4058     4756     5470     6133     6673 
    7011     7115     7030     6814     6528     6247     6068     6016 
    5969     5841     5676     5506     5246     4760     3986     2999 
    1954      985      121     -602    -1038    -1067     -738     -183 
     513     1275     1989     2628     3244     3777     4110     4232 
    4191     4066     3947     3825     3639     3473     3472     3699 
    4129     4656     5162     5624     5995     6196     6214     6081 
    5841     5562     5358     5379     5671     6085     6421     6538 
    6345     5845     5107     4230     3377     2662     2108     1729 
    1524     1517     1725     2072     2493     2991     3558     4136 
    4587     4772     4696     4437     4079     3730     3441     3244 
    3190     3264     3388     3481     3474     3356     3126     2763 
    2312     1907     1628     1480     1445     1489     1606     1863 
    2347     3068     3900     4715     5512     6288     6944     7383 
    7561     7449     7090     6628     6168     5719     5248     4708 
    4148     3669     3287     2971     2724     2540     2405     2303 
    2196     2066     1972     1984     2166     2585     3260     4117 
    5031     5845     6432     6756     6816     6617     6205     5617 
    4880     4087     3375     2805     2367     2062     1925     1942 
    2056     2223     2408     2612     2868     3180     3523     3856 
    4112     4271     4369     4449     4554     4689     4797     4847 
    4860     4807     4635     4355     4010     3685     3453     3306 
    3173     3017     2884     2833     2855     2894     2911     2936 
    3001     3080     3176     3307     3435     3519     3573     3649 
    3758     3866     3971     4087     4185     4216     4159     4033 
    3875     3688     3491     3400     3500     3773     4144     4494 
    4766     4951     5019     4973     4853     4684     4510     4359 
    4217     4102     4037     4058     4182     4380     4603     4777 
    4866     4924     4972     4938     4756     4446     4083     3708 
    3291     2829     2412     2133     1998     1961     2002     2150 
    2432     2794     3123     3364     3500     3524     3483     3468 
    3518     3635     3852     4135     4396     4603     4730     4750 
    4679     4561     4444     4352     4287     4222     4101     3932 
    3766     3616     3478     3392     3397     3505     3692     3928 
    4180     4413     4626     4835     5039     5193     5233     5107 
    4791     4310     3726     3123     2598     2203     1981     2000 
    2284     2756     3291     3781     4190     4515     4710     4735 
    4641     4509     4414     4415     4490     4540     4499     4357 
    4135     3900     3705     3541     3393     3272     3183     3132 
    3107     3079     3056     3090     3218     3450     3746     4023 
    4221     4322     4311     4201     4040     3875     3740     3646 
    3592     3588     3650     3763     3888     3996     4064     4089 
    4055     3956     3820     3688     3577     3476     3416     3457 
    3593     3812     4106     4402     4611     4729     4770     4750 
    4661     4492     4280     4058     3828     3638     3511     3435 
    3407     3441     3537     3643     3707     3713     3685     3661 
    3677     3720     3747     3743     3727     3696     3642     3557 
    3435     3302     3198     3183     3294     3497     3744     3994 
    4220     4440     4681     4935     5136     5224     5211     5157 
    5092     4982     4781     4506     4218     3974     3802     3692 
    3627     3597     3561     3478     3335     3114     2828     2540 
    2315     2218     2286     2489     2787     3145     3514     3890 
    4288     4696     5080     5393     5580     5607     5489     5266 
    4965     4599     4193     3788     3418     3126     2953     2879 
    2868     2928     3046     3198     3358     3481     3532     3526 
    3488     3434     3356     3240     3109     2995     2930     2944 
    3055     3246     3477     3708     3933     4197     4534     4900 
