Origin Time       2026/01/15 07:13:00
Lat.              42.7
Long.             145.4
Depth. (km)       30
Mag.              5.7
Station Code      HKD185
Station Lat.      42.7756
Station Long.     141.4016
Station Height(m) 266
Record Time       2026/01/15 07:14:41
Sampling Freq(Hz) 100Hz
Duration Time(s)  60
Dir.              U-D
Scale Factor      7845(gal)/8223790
Max. Acc. (gal)   0.762
Last Correction   2026/01/15 07:14:41
Memo.             
[...]
    5333     5266     5341     5382     5324     5343     5440     5416 
    5283     5256     5320     5283     5211     5244     5289     5251 
    5227     5259     5240     5159     5189     5325     5346     5283 
    5335     5398     5314     5225     5269     5306     5213     5146 
    5240     5321     5281     5304     5395     5358     5254     5263 
    5327     5321     5327     5441     5529     5459     5387     5424 
    5391     5236     5159     5175     5147     5128     5229     5344 
    5306     5206     5240     5301     5242     5216     5314     5356 
    5302     5317     5382     5355     5292     5337     5410     5364 
    5302     5360     5412     5336     5270     5289     5252     5146 
    5147     5232     5221     5194     5293     5383     5333     5275 
    5328     5363     5266     5206     5310     5375     5306     5305 
    5404     5410     5340     5335     5354     5297     5235     5292 
    5389     5374     5340     5374     5333     5227     5242     5316 
    5278     5198     5228     5296     5242     5161     5217     5285 
    5219     5201     5323     5367     5304     5329     5422     5410 
    5337     5371     5445     5379     5297     5385     5475     5406 
    5339     5371     5358     5269     5256     5310     5270     5190 
    5228     5277     5204     5159     5256     5327     5246     5189 
    5269     5301     5246     5293     5406     5397     5341     5393 
    5445     5362     5255     5273     5305     5233     5190     5232 
    5206     5127     5157     5254     5275     5246     5267     5313 
    5281     5254     5356     5427     5339     5266     5297     5297 
    5251     5279     5367     5373     5308     5325     5377     5301 
    5205     5246     5300     5255     5244     5319     5329     5251 
    5251     5327     5293     5200     5227     5317     5332     5336 
    5422     5468     5360     5258     5281     5274     5201     5256 
    5420     5468     5406     5409     5455     5385     5269     5292 
    5347     5259     5177     5227     5251     5205     5216     5255 
    5202     5121     5174     5300     5294     5227     5298     5387 
    5324     5258     5309     5351     5314     5302     5344     5319 
    5236     5269     5363     5335     5282     5368     5471     5435 
    5359     5360     5347     5266     5242     5290     5265     5185 
    5224     5321     5279     5182     5229     5350     5375     5378 
    5444     5431     5305     5267     5344     5331     5232     5243 
    5327     5296     5225     5293     5364     5271     5179     5200 
    5174     5084     5104     5228     5270     5220     5248     5333 
    5287     5215     5339     5513     5524     5493     5524     5520 
    5459     5440     5468     5414     5269     5219     5267     5225 
    5157     5221     5312     5294     5265     5298     5300     5219 
    5208     5313     5335     5244     5236     5289     5238     5167 
    5239     5363     5363     5310     5343     5366     5293     5274 
    5360     5355     5246     5255     5367     5359     5283     5333 
    5391     5292     5186     5220     5271     5256     5294     5421 
    5466     5375     5339     5395     5354     5263     5304     5352 
    5265     5184     5224     5267     5240     5246     5317     5317 
    5232     5248     5340     5305     5228     5289     5355     5277 
    5175     5190     5225     5182     5181     5263     5244     5136 
    5177     5317     5332     5289     5350     5409     5340     5270 
    5309     5333     5274     5305     5452     5490     5394     5368 
    5412     5364     5290     5344     5412     5327     5244     5296 
    5309     5201     5148     5215     5229     5151     5155     5252 
    5263     5232     5317     5402     5341     5265     5300     5350 
    5312     5287     5355     5364     5256     5231     5293     5246 
    5167     5232     5324     5286     5201     5194     5196     5124 
    5124     5250     5296     5251     5314     5448     5474     5459 
    5529     5602     5545     5444     5428     5402     5277     5228 
    5308     5289     5166     5181     5300     5285     5193     5235 
    5335     5321     5298     5368     5387     5286     5244     5320 
    5337     5256     5256     5344     5335     5263     5293     5327 
    5225     5144     5221     5298     5239     5200     5294     5324 
    5219     5216     5305     5274     5198     5255     5359     5366 
    5343     5400     5437     5344     5287     5367     5375     5286 
    5319     5417     5402     5359     5414     5472     5413     5328 
    5359     5401     5346     5341     5413     5363     5213     5177 
    5232     5220     5182     5244     5320     5270     5215     5287 
    5332     5256     5243     5339     5333     5215     5208     5301 
    5283     5213     5262     5312     5219     5124     5169     5228 
    5190     5204     5343     5394     5310     5321     5409     5382 
    5323     5382     5448     5389     5314     5352     5385     5302 
    5267     5339     5312     5219     5274     5385     5347     5255 
    5275     5327     5254     5161     5200     5240     5175     5174 
    5267     5274     5220     5275     5391     5386     5300     5323 
    5395     5339     5262     5305     5328     5246     5221     5282 
    5256     5148     5157     5270     5298     5270     5344     5427 
    5366     5289     5337     5386     5327     5302     5371     5350 
    5227     5206     5263     5235     5188     5242     5313     5282 
    5221     5265     5325     5296     5298     5364     5329     5244 
    5302     5422     5427     5362     5362     5371     5274     5188 
    5252     5304     5229     5212     5286     5266     5173     5177 
    5242     5235     5208     5292     5404     5385     5344     5416 
    5437     5346     5339     5436     5445     5375     5375     5393 
    5293     5190     5252     5346     5283     5192     5225     5258 
    5196     5184     5262     5244     5139     5165     5293     5331 
    5329     5401     5451     5366     5266     5298     5352     5301 
    5296     5393     5382     5263     5247     5304     5270     5219 
    5287     5383     5347     5266     5289     5283     5155     5135 
    5267     5314     5282     5347     5445     5393     5247     5227 
    5301     5287     5271     5371     5404     5301     5260     5319 
    5313     5251     5294     5413     5433     5389     5417     5431 
    5314     5209     5242     5297     5293     5335     5420     5390 
    5251     5173     5167     5135     5136     5286     5448     5418 
    5305     5310     5347     5306     5331     5443     5440     5329 
    5309     5346     5296     5202     5217     5298     5282     5225 
    5273     5283     5181     5192     5323     5339     5270     5302 
    5393     5390     5347     5398     5458     5379     5310     5390 
    5432     5360     5346     5389     5325     5182     5159     5250 
    5259     5223     5293     5351     5256     5170     5220     5266 
    5231     5254     5351     5354     5262     5265     5341     5314 
    5250     5293     5344     5271     5178     5179     5166     5085 
    5111     5256     5298     5242     5271     5360     5379     5371 
    5454     5540     5471     5367     5394     5400     5296     5277 
    5359     5359     5286     5302     5385     5354     5246     5269 
    5348     5304     5277     5366     5370     5256     5232     5305 
    5279     5152     5130     5228     5258     5229     5300     5368 
    5294     5224     5258     5252     5169     5158     5243     5258 
    5193     5235     5358     5377     5343     5405     5462     5383 
    5308     5363     5422     5401     5421     5482     5421     5275 
    5220     5236     5186     5121     5196     5308     5273     5204 
    5243     5244     5162     5194     5351     5420     5375     5383 
    5455     5431     5333     5351     5420     5327     5198     5219 
    5233     5165     5175     5269     5263     5154     5130     5213 
    5220     5178     5265     5367     5317     5262     5333     5394 
    5358     5350     5421     5435     5348     5340     5414     5382 
    5305     5333     5356     5277     5215     5248     5259     5177 
    5146     5211     5193     5088     5086     5173     5177     5157 
    5274     5413     5405     5378     5463     5517     5456     5440 
    5506     5495     5400     5387     5437     5370     5232     5211 
    5228     5103     4968     4989     5040     5032     5077     5192 
    5229     5162     5174     5302     5340     5316     5445     5605 
    5579     5499     5508     5495     5420     5420     5525     5537 
    5402     5340     5370     5304     5211     5260     5336     5301 
    5266     5308     5298     5190     5142     5215     5240     5178 
    5190     5240     5148     5017     5031     5078     5015     4976 
    5088     5174     5146     5185     5316     5354     5312     5382 
    5544     5609     5594     5660     5710     5597     5489     5529 
    5563     5512     5501     5559     5556     5459     5425     5482 
    5441     5341     5371     5406     5267     5103     5054     5023 
    4951     4938     5027     5061     4973     4961     5063     5070 
    5011     5063     5159     5165     5151     5197     5221     5162 
    5159     5296     5402     5417     5502     5664     5730     5711 
    5764     5826     5728     5590     5598     5637     5580     5560 
    5621     5584     5427     5360     5405     5368     5265     5278 
    5317     5202     5061     5042     5031     4947     4905     4958 
    4968     4864     4819     4874     4839     4745     4796     4911 
    4932     4966     5109     5239     5260     5298     5464     5594 
    5583     5616     5728     5721     5648     5690     5755     5707 
    5632     5634     5651     5587     5540     5587     5576     5448 
    5383     5413     5375     5283     5256     5256     5181     5098 
    5124     5158     5084     5034     5085     5082     4992     4978 
    5040     5005     4892     4884     4946     4918     4884     4973 
    5078     5103     5165     5312     5402     5387     5421     5521 
    5536     5532     5682     5850     5852     5771     5718     5628 
    5467     5373     5414     5435     5355     5344     5427     5433 
    5375     5386     5405     5312     5194     5178     5184     5108 
    5062     5098     5043     4884     4850     4961     5030     5071 
    5206     5352     5362     5310     5335     5344     5239     5167 
    5213     5220     5163     5224     5359     5367     5304     5368 
    5493     5508     5498     5552     5549     5466     5454     5516 
    5479     5316     5205     5192     5125     5043     5117     5263 
    5309     5329     5418     5485     5468     5494     5614     5656 
    5555     5479     5440     5290     5128     5115     5150     5124 
    5131     5246     5341     5290     5212     5211     5147     5005 
    4985     5051     5027     4986     5073     5185     5196     5196 
    5287     5348     5302     5319     5456     5513     5447     5440 
    5489     5449     5374     5402     5440     5354     5265     5309 
    5375     5368     5405     5518     5552     5482     5485     5548 
    5487     5362     5348     5354     5231     5105     5082     5051 
    4926     4814     4796     4752     4664     4718     4884     4968 
    5031     5204     5386     5467     5528     5659     5757     5736 
    5722     5782     5759     5643     5605     5599     5490     5364 
    5351     5348     5240     5117     5090     5070     4981     4962 
    5047     5061     5012     5080     5224     5278     5310     5482 
    5687     5733     5692     5697     5638     5466     5350     5347 
    5266     5078     5000     5036     4986     4892     4909     4946 
    4889     4891     5049     5196     5219     5259     5386     5429 
    5367     5402     5502     5491     5472     5567     5637     5566 
    5458     5435     5433     5366     5355     5447     5436     5314 
    5301     5362     5339     5306     5377     5456     5404     5296 
    5286     5277     5161     5115     5202     5225     5177     5216 
    5282     5229     5131     5158     5250     5250     5248     5370 
    5452     5387     5333     5348     5282     5142     5107     5169 
    5157     5120     5215     5343     5347     5312     5343     5352 
    5287     5297     5416     5455     5387     5386     5416     5325 
    5206     5208     5247     5209     5186     5297     5410     5398 
    5405     5501     5501     5394     5375     5439     5436     5389 
    5410     5462     5413     5331     5362     5405     5337     5323 
    5389     5333     5169     5086     5066     4985     4896     4935 
    5028     5009     4962     5039     5132     5150     5228     5393 
    5445     5360     5358     5458     5471     5421     5475     5553 
    5513     5466     5529     5553     5445     5367     5402     5410 
    5374     5435     5517     5441     5300     5269     5281     5198 
    5092     5070     5032     4918     4905     5031     5089     5086 
    5192     5332     5350     5329     5410     5522     5505     5429 
    5439     5410     5269     5211     5233     5127     4942     4873 
    4903     4904     4907     5042     5243     5335     5420     5637 
    5821     5883     5981     6097     6066     5918     5813     5760 
    5637     5479     5462     5502     5394     5229     5167     5093 
    4945     4873     4909     4891     4789     4769     4842     4861 
    4858     4963     5081     5080     5085     5243     5440     5529 
    5613     5745     5749     5603     5512     5499     5428     5321 
    5292     5289     5179     5051     5062     5101     5061     5111 
    5282     5371     5358     5397     5474     5448     5356     5375 
    5456     5432     5395     5458     5464     5358     5305     5329 
    5283     5151     5076     5077     5007     4899     4938     5049 
    5031     4985     5053     5124     5120     5188     5354     5436 
    5405     5439     5540     5543     5482     5521     5605     5598 
    5562     5591     5580     5463     5401     5441     5408     5304 
    5289     5325     5282     5206     5223     5283     5238     5166 
    5217     5259     5182     5148     5185     5130     5001     4972 
    5031     5032     4996     5065     5154     5093     5016     5086 
    5178     5217     5332     5526     5622     5589     5605     5707 
    5713     5638     5660     5684     5553     5402     5363     5324 
    5224     5197     5275     5292     5211     5213     5308     5321 
    5287     5358     5444     5389     5305     5317     5289     5151 
    5100     5182     5204     5154     5188     5254     5223     5163 
    5219     5316     5309     5302     5422     5490     5405     5366 
    5412     5385     5317     5348     5429     5416     5344     5368 
    5409     5300     5170     5170     5155     5059     5053     5132 
    5125     5050     5069     5174     5194     5147     5208     5306 
    5289     5269     5362     5431     5401     5406     5479     5467 
    5364     5363     5454     5437     5379     5459     5566     5562 
    5545     5579     5532     5387     5323     5368     5341     5216 
    5161     5166     5100     5038     5109     5200     5171     5150 
    5242     5300     5273     5335     5464     5451     5309     5227 
    5209     5124     5036     5105     5204     5144     5098     5200 
    5273     5259     5316     5432     5452     5390     5418     5525 
    5508     5390     5381     5416     5340     5285     5363     5425 
    5389     5400     5495     5486     5339     5270     5293     5206 
    5074     5085     5127     5057     5019     5130     5238     5232 
    5238     5332     5360     5283     5289     5354     5294     5198 
    5242     5319     5281     5233     5300     5355     5308     5312 
    5414     5445     5385     5404     5479     5427     5302     5323 
    5398     5340     5275     5333     5347     5244     5182     5205 
    5177     5062     5020     5096     5086     4988     5015     5103 
    5093     5097     5204     5258     5212     5229     5378     5479 
    5456     5495     5618     5621     5548     5584     5636     5579 
    5530     5571     5580     5475     5379     5374     5304     5130 
    5049     5070     5031     4996     5112     5273     5317     5312 
    5366     5394     5323     5306     5410     5439     5333     5287 
    5317     5255     5154     5174     5224     5150     5085     5171 
    5247     5200     5179     5242     5225     5108     5080     5162 
    5174     5150     5270     5435     5463     5458     5551     5630 
    5614     5638     5741     5733     5574     5487     5513     5454 
    5328     5306     5324     5246     5155     5163     5171     5090 
    5063     5185     5251     5174     5157     5205     5135     5019 
    5027     5073     5034     5007     5103     5205     5209     5252 
    5389     5440     5395     5444     5567     5584     5535     5571 
    5632     5568     5466     5459     5454     5346     5255     5248 
    5184     5028     4961     5017     5005     4918     4939     5017 
    4993     4969     5081     5209     5217     5217     5332     5429 
    5420     5475     5617     5659     5649     5771     5933     5962 
    5917     5911     5888     5751     5602     5539     5405     5157 
    5009     4980     4885     4769     4783     4864     4861     4820 
    4873     4957     4957     4999     5161     5247     5196     5206 
    5300     5297     5243     5316     5459     5499     5501     5595 
    5665     5591     5522     5560     5553     5444     5400     5435 
    5359     5213     5202     5266     5227     5148     5179     5255 
    5258     5265     5359     5391     5273     5196     5235     5227 
    5167     5206     5287     5256     5171     5198     5292     5309 
    5339     5482     5567     5501     5481     5543     5514     5424 
    5433     5516     5506     5425     5420     5412     5262     5120 
    5107     5049     4889     4827     4897     4928     4920     5019 
    5189     5255     5259     5350     5435     5402     5401     5509 
    5541     5431     5373     5422     5401     5316     5346     5439 
    5409     5310     5297     5304     5209     5124     5162     5171 
    5076     5065     5173     5205     5185     5274     5416     5445 
    5410     5463     5545     5521     5494     5563     5553     5404 
    5320     5336     5286     5184     5167     5204     5167     5098 
    5123     5163     5093     5043     5123     5162     5082     5044 
    5094     5104     5092     5204     5378     5416     5378     5455 
    5563     5544     5513     5572     5579     5459     5382     5406 
    5367     5254     5242     5301     5270     5219     5287     5360 
    5302     5247     5320     5363     5287     5274     5360     5356 
    5265     5246     5282     5242     5163     5201     5293     5275 
    5244     5300     5273     5119     5042     5085     5108     5124 
    5233     5371     5375     5305     5360     5470     5467     5490 
