Origin Time       2026/01/15 07:13:00
Lat.              42.7
Long.             145.4
Depth. (km)       30
Mag.              5.7
Station Code      HKD125
Station Lat.      42.7609
Station Long.     142.1344
Station Height(m) 69
Record Time       2026/01/15 07:14:30
Sampling Freq(Hz) 100Hz
Duration Time(s)  65
Dir.              U-D
Scale Factor      7845(gal)/8223790
Max. Acc. (gal)   0.464
Last Correction   2026/01/15 07:14:30
Memo.             
[...]
   19014    19018    19030    19052    19075    19089    19091    19089 
   19080    19071    19059    19049    19044    19037    19026    19017 
   19017    19025    19039    19059    19091    19126    19149    19148 
   19129    19101    19064    19030    19009    18995    18991    18998 
   19001    18998    18997    18995    18993    18998    19012    19021 
   19028    19036    19044    19053    19064    19075    19080    19080 
   19083    19093    19105    19118    19129    19132    19120    19094 
   19059    19030    19013    19001    18997    19005    19017    19030 
   19040    19045    19055    19066    19070    19071    19076    19087 
   19103    19117    19125    19132    19133    19117    19089    19064 
   19045    19029    19018    19006    18995    18990    18990    18994 
   18994    18995    19002    19003    19006    19016    19026    19036 
   19048    19064    19084    19105    19122    19138    19151    19153 
   19148    19140    19133    19124    19111    19095    19078    19062 
   19045    19030    19014    18999    18990    18981    18968    18959 
   18959    18970    18982    18990    19005    19026    19049    19068 
   19080    19094    19116    19140    19163    19179    19183    19183 
   19182    19176    19163    19144    19120    19093    19063    19039 
   19024    19022    19024    19022    19017    19008    18997    18993 
   18995    18999    19008    19014    19024    19037    19049    19056 
   19056    19049    19041    19035    19032    19032    19030    19018 
   18998    18990    18997    19008    19022    19041    19062    19080 
   19095    19106    19116    19124    19128    19125    19110    19090 
   19070    19056    19044    19033    19022    19014    19021    19040 
   19063    19090    19118    19141    19160    19171    19178    19176 
   19160    19129    19086    19043    19009    18990    18981    18981 
   18986    18999    19018    19043    19071    19094    19107    19116 
   19120    19116    19102    19083    19070    19066    19067    19066 
   19059    19051    19043    19036    19033    19035    19037    19039 
   19043    19047    19047    19044    19045    19051    19060    19078 
   19095    19107    19114    19120    19125    19128    19130    19133 
   19133    19125    19118    19110    19097    19090    19091    19090 
   19091    19090    19082    19067    19047    19029    19018    19009 
   19002    19001    19003    19013    19026    19035    19039    19045 
   19048    19043    19039    19037    19040    19041    19043    19044 
   19049    19063    19078    19087    19093    19098    19103    19105 
   19109    19116    19120    19124    19120    19107    19091    19075 
   19059    19047    19036    19029    19029    19037    19048    19053 
   19055    19059    19059    19059    19056    19049    19041    19037 
   19041    19052    19062    19064    19066    19070    19076    19080 
   19072    19053    19035    19020    19010    19003    18995    18985 
   18974    18963    18954    18949    18955    18971    18994    19018 
   19045    19070    19090    19116    19147    19170    19184    19191 
   19188    19172    19152    19136    19114    19093    19078    19063 
   19053    19052    19053    19062    19071    19075    19075    19075 
   19076    19079    19082    19086    19084    19078    19074    19076 
   19084    19094    19097    19089    19083    19090    19103    19117 
   19122    19120    19113    19101    19082    19066    19051    19033 
   19016    19005    18998    18998    19009    19025    19041    19051 
   19048    19037    19024    19012    18993    18972    18955    18943 
   18936    18940    18954    18975    19001    19033    19074    19116 
   19153    19186    19211    19232    19237    19228    19211    19191 
   19174    19160    19148    19137    19122    19106    19091    19066 
   19030    19001    18982    18966    18951    18937    18922    18917 
   18922    18933    18955    18995    19039    19075    19103    19122 
   19129    19120    19098    19078    19056    19035    19022    19021 
   19021    19021    19024    19026    19035    19049    19066    19074 
   19080    19084    19089    19090    19095    19099    19101    19101 
   19101    19095    19093    19098    19101    19102    19102    19093 
   19074    19052    19025    18997    18971    18948    18940    18948 
   18966    18981    18991    18997    18998    18997    18999    19003 
   19009    19018    19030    19041    19057    19078    19095    19117 
   19144    19171    19194    19214    19230    19242    19246    19242 
   19236    19222    19203    19184    19165    19145    19124    19099 
   19072    19045    19017    18997    18985    18975    18964    18958 
   18952    18949    18951    18960    18971    18989    19014    19039 
   19059    19076    19084    19079    19064    19048    19037    19032 
   19028    19024    19016    19010    19006    19012    19030    19056 
   19080    19106    19129    19148    19161    19170    19172    19175 
   19175    19175    19172    19170    19163    19148    19124    19093 
   19055    19021    19002    18991    18991    18993    18985    18972 
   18958    18944    18941    18948    18963    18987    19014    19035 
   19044    19048    19045    19036    19022    19005    18989    18979 
   18976    18983    18997    19016    19040    19057    19068    19080 
   19080    19075    19071    19066    19057    19056    19063    19070 
   19074    19072    19068    19062    19057    19057    19063    19067 
   19072    19076    19079    19078    19075    19071    19068    19070 
   19072    19076    19078    19075    19067    19053    19041    19033 
   19024    19010    18997    18989    18985    18986    18986    18990 
   19008    19032    19057    19084    19107    19128    19141    19147 
   19147    19145    19144    19140    19134    19137    19145    19149 
   19152    19152    19152    19148    19144    19138    19129    19116 
   19107    19103    19102    19107    19114    19121    19122    19113 
   19099    19091    19079    19064    19053    19045    19036    19026 
   19016    19003    18994    18994    19001    19009    19012    19009 
   18998    18981    18963    18944    18931    18929    18940    18963 
   18989    19012    19029    19040    19055    19078    19102    19121 
   19137    19147    19152    19156    19156    19155    19148    19133 
   19116    19102    19089    19071    19055    19045    19044    19049 
   19064    19080    19093    19103    19107    19106    19102    19093 
   19083    19082    19084    19087    19093    19098    19094    19080 
   19067    19047    19021    19001    18979    18962    18956    18958 
   18962    18966    18963    18959    18958    18954    18955    18960 
   18966    18971    18981    18987    18994    19002    19008    19014 
   19032    19053    19076    19099    19122    19138    19149    19156 
   19157    19153    19151    19149    19147    19138    19130    19122 
   19114    19113    19120    19130    19136    19134    19136    19133 
   19129    19132    19130    19124    19118    19110    19099    19087 
   19075    19063    19052    19037    19024    19016    19009    18999 
   18989    18981    18974    18971    18981    18998    19021    19049 
   19076    19101    19120    19136    19149    19161    19168    19159 
   19141    19126    19114    19097    19079    19064    19047    19021 
   18999    18989    18979    18970    18958    18936    18914    18900 
   18893    18889    18893    18908    18932    18967    19005    19043 
   19074    19095    19106    19117    19120    19113    19105    19094 
   19082    19079    19083    19094    19113    19134    19156    19176 
   19195    19209    19215    19214    19205    19192    19182    19165 
   19143    19118    19093    19063    19037    19017    18999    18979 
   18962    18949    18939    18936    18941    18949    18955    18963 
   18970    18971    18970    18968    18970    18976    18987    18998 
   19014    19041    19070    19099    19121    19132    19140    19143 
   19137    19137    19148    19163    19176    19183    19182    19164 
   19138    19106    19067    19030    19002    18983    18972    18974 
   18981    18993    19005    19013    19020    19029    19044    19056 
   19066    19076    19082    19079    19070    19062    19055    19048 
   19048    19060    19078    19099    19118    19132    19141    19145 
   19144    19141    19145    19151    19152    19145    19133    19121 
   19107    19089    19070    19060    19048    19036    19030    19021 
   19008    18997    18993    18997    19003    19005    19010    19017 
   19028    19045    19063    19076    19080    19075    19062    19041 
   19021    19003    18994    18997    19005    19018    19035    19051 
   19066    19076    19078    19068    19056    19047    19037    19030 
   19030    19039    19053    19075    19097    19114    19122    19124 
   19128    19128    19122    19121    19126    19128    19125    19118 
   19111    19109    19101    19089    19076    19064    19055    19048 
   19041    19039    19040    19043    19047    19052    19057    19062 
   19063    19062    19057    19045    19026    19012    18999    18987 
   18978    18968    18964    18970    18978    18986    19002    19017 
   19025    19030    19028    19018    19018    19028    19043    19062 
   19082    19098    19114    19133    19152    19168    19187    19205 
   19221    19236    19248    19249    19245    19234    19213    19187 
   19163    19141    19124    19107    19095    19083    19070    19051 
   19035    19025    19018    19016    19022    19032    19040    19053 
   19072    19090    19099    19101    19103    19111    19106    19084 
   19057    19036    19024    19014    19001    18986    18978    18976 
   18974    18974    18986    19006    19030    19059    19084    19103 
   19116    19118    19113    19107    19102    19094    19091    19098 
   19107    19118    19130    19141    19144    19141    19132    19113 
   19094    19086    19083    19083    19084    19087    19089    19090 
   19091    19091    19090    19084    19076    19066    19051    19029 
   19008    18989    18972    18959    18954    18955    18958    18964 
   18975    18991    19012    19041    19078    19111    19133    19133 
   19114    19090    19066    19039    19009    18982    18967    18963 
   18970    18982    18993    19002    19016    19037    19062    19082 
   19098    19113    19128    19144    19157    19165    19171    19170 
   19160    19140    19114    19089    19070    19057    19044    19032 
   19022    19013    19002    18993    18991    18997    19008    19020 
   19029    19036    19041    19037    19026    19012    18997    18983 
   18975    18972    18972    18978    18983    18989    18995    19001 
   19006    19017    19028    19040    19060    19087    19120    19156 
   19187    19207    19210    19198    19176    19151    19124    19095 
   19072    19051    19024    18998    18982    18978    18989    19012 
   19033    19052    19075    19099    19122    19143    19155    19160 
   19163    19159    19148    19130    19103    19070    19029    18982 
   18936    18901    18878    18874    18882    18900    18918    18935 
   18954    18974    18998    19030    19057    19072    19083    19094 
   19103    19114    19117    19111    19098    19080    19056    19036 
   19021    19010    19006    19003    18997    18993    18985    18972 
   18962    18958    18958    18958    18955    18952    18951    18951 
   18956    18968    18983    18998    19014    19033    19056    19079 
   19099    19114    19124    19133    19144    19156    19161    19160 
   19147    19122    19091    19057    19030    19018    19017    19025 
   19040    19048    19055    19066    19076    19086    19102    19111 
   19116    19121    19132    19138    19141    19143    19140    19126 
   19105    19075    19040    19003    18972    18947    18927    18912 
   18908    18916    18933    18956    18982    19009    19039    19076 
   19116    19152    19187    19221    19252    19284    19319    19352 
   19377    19400    19418    19431    19442    19444    19431    19407 
   19372    19322    19263    19198    19132    19068    19017    18976 
   18945    18931    18927    18921    18920    18920    18918    18912 
   18900    18885    18873    18862    18851    18848    18851    18858 
   18867    18881    18893    18905    18921    18947    18978    19009 
   19044    19079    19113    19147    19178    19206    19234    19260 
   19279    19287    19287    19283    19275    19260    19236    19202 
   19157    19105    19051    19003    18962    18927    18904    18890 
   18885    18890    18909    18929    18948    18972    18991    19003 
   19017    19026    19021    19006    18987    18959    18928    18891 
   18848    18804    18762    18723    18697    18688    18690    18711 
   18751    18804    18868    18947    19036    19120    19195    19253 
   19287    19315    19352    19364    19354    19357    19350    19321 
   19294    19260    19215    19174    19126    19082    19044    19003 
   18971    18951    18940    18936    18936    18935    18933    18928 
   18925    18924    18922    18924    18928    18931    18933    18940 
   18952    18974    18997    19014    19036    19059    19075    19084 
   19084    19079    19075    19067    19057    19053    19049    19049 
   19063    19084    19116    19157    19202    19248    19311    19371 
   19415    19464    19506    19533    19548    19542    19522    19491 
   19444    19392    19345    19296    19241    19182    19128    19076 
   19021    18968    18920    18878    18850    18843    18855    18881 
   18917    18959    18999    19035    19070    19103    19132    19156 
   19183    19203    19213    19213    19205    19186    19161    19129 
   19087    19048    19018    18997    18983    18976    18981    18997 
   19017    19043    19068    19087    19099    19109    19118    19129 
   19132    19125    19111    19086    19045    18999    18939    18871 
   18809    18752    18709    18684    18671    18675    18690    18716 
   18754    18805    18866    18929    18991    19045    19090    19130 
   19160    19174    19178    19168    19148    19121    19091    19060 
   19036    19018    19002    18987    18978    18971    18967    18960 
   18952    18948    18943    18937    18937    18941    18948    18958 
   18968    18976    18987    18997    19005    19013    19020    19025 
   19032    19036    19041    19049    19056    19052    19041    19032 
   19025    19025    19029    19035    19040    19044    19040    19036 
   19039    19044    19053    19067    19087    19114    19144    19178 
   19214    19244    19264    19283    19298    19306    19306    19298 
   19275    19242    19201    19155    19106    19055    19002    18954 
   18918    18904    18913    18949    19009    19075    19141    19201 
   19251    19287    19306    19314    19317    19311    19298    19286 
   19271    19259    19246    19233    19221    19206    19186    19171 
   19157    19144    19130    19121    19116    19113    19118    19129 
   19145    19165    19180    19190    19191    19176    19149    19116 
   19074    19025    18971    18921    18875    18832    18797    18773 
   18758    18756    18765    18781    18801    18820    18840    18863 
   18893    18928    18967    19008    19045    19079    19106    19124 
   19136    19151    19160    19157    19147    19124    19094    19060 
   19021    18979    18937    18897    18863    18848    18852    18875 
   18912    18960    19018    19083    19144    19192    19225    19252 
   19273    19279    19267    19249    19221    19179    19132    19079 
   19030    18995    18963    18927    18891    18855    18816    18781 
   18755    18743    18740    18752    18777    18810    18852    18906 
   18970    19043    19114    19174    19225    19260    19280    19290 
   19284    19263    19229    19184    19140    19099    19066    19044 
   19029    19026    19026    19028    19035    19052    19071    19098 
   19128    19159    19192    19225    19255    19284    19313    19337 
   19357    19365    19365    19353    19330    19300    19264    19221 
   19178    19138    19099    19066    19040    19022    19009    18997 
   18990    18990    18991    18998    19008    19012    19013    19014 
   19017    19013    19008    18998    18983    18970    18959    18955 
   18962    18970    18979    18999    19014    19022    19028    19026 
   19020    19018    19016    19014    19012    19012    19014    19017 
   19018    19018    19016    19021    19036    19051    19067    19087 
   19105    19120    19132    19133    19122    19107    19084    19056 
   19037    19030    19024    19018    19017    19009    19003    19002 
   18993    18982    18970    18960    18956    18955    18956    18959 
   18960    18956    18951    18941    18928    18906    18881    18851 
   18823    18804    18806    18835    18882    18939    18997    19055 
   19116    19180    19246    19306    19352    19380    19390    19381 
   19357    19321    19271    19211    19149    19084    19022    18964 
   18912    18866    18825    18794    18779    18782    18797    18829 
   18875    18922    18970    19017    19064    19109    19138    19155 
   19159    19148    19129    19103    19071    19040    19012    18990 
   18981    18974    18972    18985    19010    19044    19086    19126 
   19161    19192    19219    19240    19255    19268    19283    19296 
   19309    19313    19299    19273    19240    19197    19155    19126 
   19109    19106    19114    19128    19148    19171    19190    19203 
   19207    19203    19197    19182    19159    19132    19099    19067 
   19041    19013    18981    18951    18921    18893    18874    18866 
   18870    18882    18897    18916    18933    18949    18970    18998 
   19026    19057    19090    19116    19137    19155    19170    19184 
   19194    19192    19188    19184    19176    19171    19167    19161 
   19163    19164    19164    19167    19163    19147    19126    19103 
   19078    19056    19035    19014    18994    18971    18954    18943 
   18940    18947    18960    18979    19001    19025    19052    19084 
   19111    19132    19149    19161    19168    19168    19157    19136 
   19111    19083    19055    19030    19008    18986    18967    18954 
   18944    18937    18937    18939    18941    18952    18968    18987 
   19012    19045    19083    19125    19168    19199    19215    19218 
   19210    19194    19172    19147    19120    19094    19072    19053 
   19032    19010    18993    18972    18951    18931    18913    18893 
   18871    18851    18831    18816    18814    18819    18828    18848 
   18875    18908    18941    18967    18982    18991    18991    18987 
   18982    18975    18974    18979    18989    18999    19017    19035 
   19048    19059    19068    19072    19070    19063    19059    19055 
   19051    19053    19063    19076    19094    19117    19151    19192 
   19229    19259    19278    19282    19264    19234    19195    19147 
   19090    19037    18993    18958    18933    18925    18931    18947 
   18971    19002    19032    19059    19082    19098    19106    19110 
   19116    19120    19122    19126    19130    19138    19152    19160 
