Origin Time       2026/01/15 07:13:00
Lat.              42.7
Long.             145.4
Depth. (km)       30
Mag.              5.7
Station Code      HKD109
Station Lat.      42.1678
Station Long.     142.7673
Station Height(m) 4
Record Time       2026/01/15 07:14:27
Sampling Freq(Hz) 100Hz
Duration Time(s)  60
Dir.              N-S
Scale Factor      7845(gal)/8223790
Max. Acc. (gal)   1.275
Last Correction   2026/01/15 07:14:28
Memo.             
[...]
   13454    13491    13509    13510    13506    13502    13498    13495 
   13477    13440    13409    13389    13378    13379    13393    13412 
   13424    13429    13432    13428    13419    13414    13424    13437 
   13437    13425    13412    13389    13343    13284    13234    13203 
   13182    13171    13184    13220    13267    13316    13362    13397 
   13416    13423    13413    13400    13389    13390    13402    13419 
   13429    13446    13478    13510    13539    13567    13578    13571 
   13558    13539    13513    13483    13455    13427    13394    13362 
   13333    13316    13312    13309    13308    13309    13302    13284 
   13267    13251    13230    13209    13200    13193    13186    13194 
   13227    13277    13325    13367    13402    13424    13439    13462 
   13502    13552    13597    13632    13655    13653    13633    13597 
   13537    13464    13400    13346    13292    13236    13196    13178 
   13178    13188    13205    13231    13259    13296    13338    13381 
   13410    13416    13406    13397    13386    13375    13373    13382 
   13393    13400    13413    13433    13441    13446    13462    13485 
   13495    13501    13516    13533    13536    13518    13493    13468 
   13441    13400    13347    13298    13265    13230    13197    13188 
   13205    13231    13259    13289    13317    13338    13362    13392 
   13420    13443    13462    13475    13474    13456    13428    13396 
   13374    13370    13373    13362    13338    13316    13312    13327 
   13354    13383    13406    13412    13409    13397    13373    13358 
   13360    13363    13358    13350    13342    13343    13358    13378 
   13402    13414    13404    13393    13386    13373    13362    13355 
   13339    13319    13298    13281    13263    13242    13227    13236 
   13266    13297    13325    13356    13389    13419    13446    13463 
   13473    13486    13497    13491    13462    13414    13373    13348 
   13332    13313    13286    13261    13244    13236    13240    13254 
   13271    13298    13324    13343    13356    13367    13381    13387 
   13383    13389    13405    13414    13416    13409    13396    13381 
   13358    13327    13304    13289    13275    13274    13284    13292 
   13302    13324    13371    13432    13486    13529    13567    13595 
   13605    13590    13564    13545    13529    13510    13483    13450 
   13410    13369    13352    13378    13405    13408    13401    13389 
   13363    13329    13298    13270    13246    13231    13221    13213 
   13216    13236    13266    13305    13356    13401    13427    13436 
   13428    13405    13381    13359    13344    13344    13360    13382 
   13396    13397    13393    13397    13408    13414    13420    13425 
   13427    13421    13419    13421    13423    13423    13425    13427 
   13428    13432    13433    13432    13431    13425    13414    13397 
   13371    13339    13305    13265    13230    13211    13200    13198 
   13216    13246    13289    13342    13378    13397    13412    13424 
   13435    13437    13428    13424    13441    13477    13521    13562 
   13590    13608    13613    13612    13605    13591    13551    13487 
   13428    13379    13338    13304    13278    13265    13273    13293 
   13316    13344    13375    13409    13450    13485    13500    13498 
   13489    13470    13441    13410    13383    13366    13360    13370 
   13393    13436    13489    13525    13545    13548    13532    13502 
   13470    13433    13398    13358    13316    13279    13250    13224 
   13203    13177    13139    13092    13045    13004    12972    12953 
   12958    12992    13050    13130    13219    13305    13381    13451 
   13524    13586    13614    13625    13635    13636    13621    13594 
   13551    13493    13433    13393    13374    13385    13428    13498 
   13589    13674    13738    13780    13790    13775    13734    13662 
   13560    13447    13338    13244    13180    13144    13142    13169 
   13215    13284    13375    13470    13539    13572    13585    13581 
   13549    13495    13436    13373    13309    13258    13228    13212 
   13190    13165    13147    13135    13124    13117    13122    13126 
   13119    13113    13135    13182    13248    13332    13436    13548 
   13639    13695    13725    13726    13694    13628    13531    13414 
   13300    13205    13151    13146    13185    13258    13354    13450 
   13521    13558    13562    13533    13475    13402    13321    13240 
   13166    13092    13032    13016    13051    13131    13254    13402 
   13543    13647    13707    13737    13751    13741    13701    13640 
   13576    13516    13459    13405    13352    13312    13298    13294 
   13278    13248    13216    13182    13158    13149    13142    13135 
   13146    13181    13232    13292    13351    13405    13447    13479 
   13501    13498    13458    13387    13293    13184    13089    13024 
   12988    12984    13011    13073    13173    13288    13408    13533 
   13648    13734    13780    13791    13786    13778    13763    13734 
   13697    13659    13620    13587    13572    13566    13549    13529 
   13528    13548    13567    13572    13552    13508    13464    13446 
   13440    13432    13416    13392    13358    13333    13329    13354 
   13398    13435    13452    13462    13475    13489    13505    13510 
   13501    13470    13406    13316    13231    13178    13163    13176 
   13207    13244    13271    13285    13290    13281    13254    13209 
   13163    13136    13130    13139    13163    13207    13270    13351 
   13443    13533    13599    13639    13662    13674    13680    13682 
   13678    13660    13616    13541    13463    13397    13336    13289 
   13257    13225    13203    13203    13231    13279    13327    13371 
   13423    13475    13520    13554    13583    13598    13589    13579 
   13575    13563    13540    13494    13417    13321    13223    13134 
   13065    13018    12987    12980    13014    13076    13150    13231 
   13309    13383    13456    13520    13558    13567    13544    13502 
   13464    13427    13379    13336    13311    13309    13332    13371 
   13414    13459    13500    13529    13548    13562    13559    13541 
   13525    13501    13450    13375    13292    13215    13147    13097 
   13081    13095    13120    13149    13177    13216    13279    13363 
   13454    13527    13567    13574    13560    13543    13524    13494 
   13460    13433    13419    13413    13406    13402    13409    13421 
   13428    13436    13455    13487    13529    13576    13629    13675 
   13703    13714    13694    13636    13567    13506    13451    13405 
   13367    13329    13302    13282    13255    13224    13197    13165 
   13127    13093    13069    13063    13074    13104    13158    13227 
   13289    13333    13359    13370    13366    13352    13343    13335 
   13325    13325    13328    13317    13297    13275    13258    13252 
   13252    13246    13240    13251    13285    13333    13387    13436 
   13475    13500    13504    13486    13444    13382    13309    13217 
   13100    12985    12884    12776    12672    12611    12604    12649 
   12734    12846    12973    13108    13250    13390    13514    13622 
   13711    13768    13795    13802    13776    13702    13602    13497 
   13383    13263    13153    13076    13030    12993    12962    12962 
   13001    13059    13119    13178    13243    13313    13375    13423 
   13459    13468    13437    13389    13348    13312    13255    13181 
   13113    13070    13035    13008    13012    13057    13135    13234 
   13347    13470    13587    13679    13738    13771    13771    13724 
   13639    13540    13456    13405    13385    13401    13451    13521 
   13593    13652    13698    13732    13747    13745    13732    13716 
   13705    13698    13689    13684    13687    13686    13683    13687 
   13698    13698    13683    13662    13644    13639    13657    13683 
   13695    13706    13714    13695    13657    13618    13575    13536 
   13513    13495    13477    13459    13455    13464    13477    13474 
   13456    13410    13332    13250    13190    13147    13119    13112 
   13134    13184    13246    13294    13329    13352    13355    13352 
   13362    13387    13427    13467    13506    13544    13579    13624 
   13676    13722    13752    13760    13741    13699    13643    13578 
   13510    13437    13369    13311    13271    13273    13313    13365 
   13416    13479    13558    13660    13787    13915    14019    14096 
   14161    14216    14254    14261    14218    14122    13987    13828 
   13659    13493    13333    13200    13107    13057    13041    13047 
   13062    13084    13112    13147    13186    13224    13251    13257 
   13248    13238    13221    13196    13166    13131    13097    13072 
   13059    13058    13057    13049    13041    13042    13046    13062 
   13089    13127    13180    13227    13255    13289    13352    13435 
   13524    13616    13697    13745    13756    13737    13693    13635 
   13558    13454    13333    13207    13081    12976    12893    12823 
   12754    12681    12610    12552    12503    12448    12388    12337 
   12312    12316    12345    12395    12456    12540    12650    12768 
   12891    13014    13123    13228    13336    13436    13513    13563 
   13581    13567    13532    13483    13423    13343    13240    13128 
   13026    12943    12891    12862    12853    12870    12919    12989 
   13084    13184    13266    13332    13382    13409    13414    13405 
   13385    13362    13351    13352    13352    13350    13350    13366 
   13416    13487    13558    13618    13664    13698    13733    13776 
   13834    13907    13984    14062    14138    14206    14257    14284 
   14289    14287    14277    14264    14238    14195    14148    14100 
   14058    14027    14002    13991    13994    13996    13998    14002 
   13995    13975    13944    13905    13864    13824    13765    13687 
   13609    13533    13441    13339    13243    13165    13103    13076 
   13086    13115    13149    13186    13232    13290    13348    13398 
   13435    13437    13409    13375    13338    13284    13219    13155 
   13097    13038    12981    12949    12939    12951    12996    13080 
   13190    13315    13437    13571    13729    13895    14045    14164 
   14239    14257    14214    14122    13996    13852    13695    13533 
   13369    13205    13042    12891    12772    12691    12633    12587 
   12557    12534    12506    12479    12469    12482    12517    12580 
   12671    12783    12903    13018    13135    13261    13389    13505 
   13586    13622    13610    13556    13478    13381    13263    13131 
   12976    12793    12602    12438    12330    12280    12279    12321 
   12409    12533    12691    12880    13090    13313    13535    13753 
   13969    14160    14318    14440    14526    14565    14559    14520 
   14461    14382    14284    14164    14017    13844    13672    13516 
   13377    13258    13171    13115    13070    13022    12974    12924 
   12873    12833    12808    12800    12818    12860    12920    13004 
   13113    13242    13390    13558    13734    13896    14022    14116 
   14200    14274    14320    14318    14264    14158    14013    13846 
   13678    13521    13400    13316    13262    13232    13215    13211 
   13235    13296    13377    13450    13501    13537    13572    13612 
   13653    13698    13734    13747    13740    13736    13736    13737 
   13736    13716    13668    13605    13536    13463    13385    13293 
   13188    13072    12946    12812    12680    12559    12455    12375 
   12326    12320    12366    12456    12569    12687    12796    12891 
   12978    13072    13184    13305    13416    13521    13626    13711 
   13761    13775    13748    13679    13568    13421    13254    13078 
   12910    12769    12681    12648    12660    12723    12833    12984 
   13163    13350    13535    13717    13887    14037    14166    14276 
   14357    14401    14416    14400    14349    14266    14156    14014 
   13856    13701    13549    13417    13324    13275    13270    13313 
   13400    13520    13660    13818    13981    14129    14243    14318 
   14339    14304    14231    14135    14025    13896    13740    13559 
   13363    13157    12954    12771    12613    12482    12376    12306 
   12279    12301    12361    12456    12583    12721    12847    12958 
   13049    13113    13150    13174    13188    13178    13143    13093 
   13046    13000    12951    12906    12887    12901    12946    13011 
   13088    13173    13252    13320    13378    13421    13446    13459 
   13460    13459    13468    13493    13522    13548    13563    13563 
   13549    13522    13485    13456    13444    13443    13451    13471 
   13505    13566    13659    13776    13892    13991    14067    14102 
   14092    14044    13954    13830    13680    13518    13356    13197 
   13036    12887    12775    12708    12685    12717    12791    12884 
   12988    13107    13232    13355    13478    13599    13714    13814 
   13890    13940    13969    13987    13988    13973    13937    13867 
   13771    13660    13536    13394    13238    13084    12951    12847 
   12789    12802    12889    13032    13211    13410    13618    13826 
   14014    14164    14281    14365    14409    14423    14403    14338 
   14231    14081    13894    13668    13406    13120    12841    12591 
   12379    12221    12112    12050    12046    12100    12208    12359 
   12533    12712    12880    13030    13153    13238    13288    13312 
   13316    13304    13271    13227    13190    13161    13131    13113 
   13123    13154    13204    13275    13366    13471    13585    13691 
   13779    13849    13895    13899    13860    13792    13690    13559 
   13431    13319    13220    13139    13082    13045    13031    13051 
   13089    13127    13171    13221    13282    13360    13447    13531 
   13606    13664    13693    13684    13651    13598    13516    13412 
   13300    13189    13093    13027    12992    12995    13036    13108 
   13211    13348    13509    13679    13857    14035    14204    14355 
   14465    14521    14536    14516    14459    14358    14229    14085 
   13937    13792    13655    13520    13387    13263    13161    13073 
   12996    12935    12888    12854    12834    12830    12852    12884 
   12901    12907    12906    12885    12858    12849    12860    12892 
   12950    13027    13124    13236    13352    13467    13587    13703 
   13799    13869    13909    13905    13856    13768    13644    13497 
   13347    13198    13059    12937    12837    12777    12766    12800 
   12861    12922    12980    13041    13099    13151    13205    13254 
   13294    13332    13381    13436    13486    13527    13556    13570 
   13564    13543    13504    13441    13355    13252    13146    13063 
   13019    13003    13008    13046    13120    13215    13332    13473 
   13609    13722    13813    13871    13891    13876    13818    13722 
   13614    13510    13425    13373    13354    13370    13421    13498 
   13595    13702    13803    13886    13942    13980    14004    14014 
   14017    14014    13992    13954    13914    13865    13814    13765 
   13720    13675    13625    13566    13513    13478    13459    13447 
   13435    13421    13402    13369    13321    13263    13188    13104 
   13012    12907    12791    12672    12559    12471    12414    12391 
   12399    12432    12492    12587    12707    12841    12985    13136 
   13290    13436    13574    13694    13786    13861    13929    13980 
   14006    14015    14008    13995    13979    13950    13909    13853 
   13784    13709    13629    13540    13437    13331    13230    13135 
   13058    13011    13004    13041    13099    13169    13247    13323 
   13378    13417    13448    13473    13494    13524    13568    13618 
   13664    13713    13764    13815    13861    13890    13894    13878 
   13842    13797    13741    13670    13585    13493    13397    13288 
   13163    13031    12897    12771    12650    12521    12394    12293 
   12225    12194    12214    12286    12405    12564    12754    12961 
   13181    13412    13648    13871    14067    14226    14341    14400 
   14403    14358    14268    14146    14018    13891    13765    13639 
   13516    13401    13297    13201    13113    13026    12934    12835 
   12742    12665    12613    12587    12583    12590    12617    12669 
   12741    12834    12947    13066    13194    13323    13436    13547 
   13652    13734    13798    13853    13888    13892    13875    13848 
   13813    13778    13771    13787    13809    13833    13855    13856 
   13837    13802    13749    13687    13620    13528    13412    13294 
   13196    13120    13074    13058    13072    13107    13154    13212 
   13279    13356    13432    13491    13531    13552    13545    13516 
   13474    13417    13344    13269    13192    13115    13063    13047 
   13051    13076    13124    13188    13250    13306    13347    13366 
   13371    13367    13360    13346    13323    13304    13292    13281 
   13261    13227    13181    13135    13097    13054    12997    12943 
   12903    12883    12892    12943    13026    13128    13247    13378 
   13516    13651    13771    13873    13960    14029    14077    14103 
   14102    14079    14042    13980    13892    13787    13663    13524 
   13373    13220    13073    12935    12822    12760    12752    12787 
   12853    12951    13072    13207    13359    13516    13660    13787 
   13891    13971    14029    14067    14081    14076    14052    14010 
   13950    13883    13806    13720    13629    13539    13448    13359 
   13265    13176    13088    12999    12923    12858    12799    12754 
   12731    12730    12742    12771    12831    12924    13030    13138 
   13234    13313    13385    13443    13481    13509    13531    13533 
   13532    13540    13551    13556    13562    13559    13545    13533 
   13518    13506    13493    13466    13433    13409    13394    13389 
   13382    13358    13324    13294    13263    13235    13223    13224 
   13234    13251    13284    13338    13417    13522    13635    13730 
   13805    13853    13879    13884    13863    13809    13725    13617 
   13487    13342    13192    13050    12922    12815    12741    12707 
   12718    12771    12845    12941    13074    13231    13387    13537 
   13666    13755    13803    13821    13802    13747    13668    13578 
   13470    13352    13240    13127    13018    12930    12864    12804 
   12756    12739    12754    12793    12845    12908    12981    13069 
   13171    13270    13350    13413    13458    13482    13494    13504 
   13514    13537    13564    13583    13585    13575    13554    13528 
   13508    13494    13485    13485    13500    13528    13575    13637 
   13709    13790    13861    13909    13933    13932    13900    13836 
   13747    13657    13581    13512    13462    13433    13424    13436 
   13466    13498    13532    13560    13575    13587    13603    13609 
   13605    13603    13590    13558    13514    13473    13444    13433 
   13439    13450    13459    13468    13483    13504    13532    13567 
   13599    13633    13668    13690    13687    13672    13648    13612 
