Origin Time       2026/01/15 07:13:00
Lat.              42.7
Long.             145.4
Depth. (km)       30
Mag.              5.7
Station Code      HKD109
Station Lat.      42.1678
Station Long.     142.7673
Station Height(m) 4
Record Time       2026/01/15 07:14:27
Sampling Freq(Hz) 100Hz
Duration Time(s)  60
Dir.              U-D
Scale Factor      7845(gal)/8223790
Max. Acc. (gal)   0.521
Last Correction   2026/01/15 07:14:28
Memo.             
[...]
    4837     4834     4820     4793     4760     4733     4715     4680 
    4625     4580     4563     4568     4580     4579     4568     4557 
    4553     4558     4553     4533     4526     4541     4554     4567 
    4588     4621     4648     4661     4664     4671     4679     4684 
    4696     4722     4752     4780     4792     4773     4745     4741 
    4761     4787     4797     4792     4784     4789     4806     4823 
    4847     4877     4889     4869     4833     4800     4776     4750 
    4714     4664     4595     4517     4445     4391     4386     4437 
    4487     4500     4500     4518     4560     4604     4629     4639 
    4660     4683     4684     4662     4638     4614     4583     4565 
    4575     4608     4657     4691     4691     4671     4656     4660 
    4676     4698     4727     4752     4749     4714     4673     4653 
    4642     4635     4629     4629     4635     4638     4653     4704 
    4774     4831     4854     4847     4811     4747     4692     4671 
    4661     4654     4654     4654     4631     4584     4550     4565 
    4594     4594     4567     4558     4575     4571     4526     4476 
    4445     4441     4442     4432     4414     4423     4472     4540 
    4588     4618     4635     4648     4660     4681     4712     4733 
    4730     4720     4711     4691     4675     4672     4675     4691 
    4723     4762     4793     4796     4777     4757     4743     4742 
    4753     4768     4781     4785     4787     4795     4792     4769 
    4756     4760     4758     4735     4706     4687     4683     4685 
    4677     4653     4618     4581     4560     4569     4591     4607 
    4606     4580     4554     4572     4627     4683     4715     4731 
    4746     4765     4779     4791     4801     4783     4738     4700 
    4700     4734     4762     4762     4754     4756     4750     4742 
    4746     4757     4757     4733     4673     4595     4545     4548 
    4576     4599     4623     4656     4679     4668     4644     4652 
    4704     4752     4760     4747     4747     4774     4807     4822 
    4826     4827     4823     4815     4826     4849     4842     4792 
    4733     4692     4673     4648     4592     4536     4519     4540 
    4568     4595     4619     4641     4666     4684     4683     4689 
    4726     4768     4784     4779     4770     4768     4745     4704 
    4676     4671     4685     4719     4756     4780     4780     4762 
    4754     4765     4783     4792     4795     4803     4810     4806 
    4792     4780     4779     4793     4800     4779     4756     4756 
    4764     4753     4730     4710     4708     4711     4687     4638 
    4612     4629     4668     4696     4695     4675     4660     4661 
    4677     4698     4707     4704     4693     4672     4652     4660 
    4702     4750     4770     4752     4716     4710     4739     4761 
    4743     4718     4712     4725     4743     4749     4742     4739 
    4737     4738     4753     4769     4772     4758     4743     4741 
    4734     4711     4696     4702     4710     4714     4712     4715 
    4729     4737     4727     4707     4681     4650     4631     4644 
    4677     4703     4708     4695     4685     4698     4738     4783 
    4797     4768     4707     4665     4677     4711     4729     4730 
    4737     4754     4761     4741     4710     4704     4716     4719 
    4700     4661     4612     4572     4554     4560     4579     4604 
    4635     4661     4683     4692     4683     4676     4681     4695 
    4715     4729     4714     4673     4630     4607     4617     4654 
    4700     4733     4734     4696     4654     4652     4685     4722 
    4725     4691     4657     4645     4645     4648     4656     4671 
    4681     4689     4699     4715     4730     4727     4712     4704 
    4706     4703     4689     4666     4637     4610     4600     4608 
    4634     4680     4711     4696     4657     4641     4661     4700 
    4742     4780     4806     4812     4792     4757     4735     4750 
    4789     4819     4814     4784     4760     4741     4718     4689 
    4672     4675     4662     4600     4521     4483     4498     4537 
    4579     4612     4631     4630     4608     4599     4631     4673 
    4685     4675     4650     4635     4638     4650     4664     4671 
    4685     4718     4756     4784     4800     4799     4791     4789 
    4779     4753     4722     4692     4681     4679     4664     4639 
    4625     4623     4615     4594     4572     4558     4549     4557 
    4585     4614     4627     4619     4598     4579     4569     4575 
    4594     4617     4641     4666     4672     4649     4626     4625 
    4641     4642     4623     4611     4631     4681     4735     4772 
    4783     4779     4779     4800     4830     4834     4818     4807 
    4793     4764     4725     4696     4680     4668     4665     4677 
    4680     4654     4618     4587     4569     4571     4581     4576 
    4552     4519     4490     4473     4475     4473     4482     4521 
    4571     4606     4621     4623     4622     4619     4634     4665 
    4692     4708     4720     4730     4745     4766     4787     4803 
    4800     4781     4760     4742     4726     4704     4677     4646 
    4612     4579     4558     4565     4594     4611     4604     4596 
    4607     4634     4646     4644     4653     4679     4703     4726 
    4754     4789     4830     4845     4816     4777     4760     4749 
    4722     4684     4645     4607     4573     4553     4546     4553 
    4575     4588     4576     4556     4558     4583     4600     4584 
    4545     4506     4500     4538     4584     4600     4600     4611 
    4635     4653     4661     4671     4680     4677     4666     4653 
    4645     4642     4633     4622     4619     4626     4629     4626 
    4644     4684     4726     4761     4787     4795     4792     4774 
    4743     4723     4727     4752     4768     4756     4720     4676 
    4629     4577     4536     4526     4558     4599     4606     4595 
    4594     4607     4622     4638     4672     4718     4733     4708 
    4681     4693     4747     4806     4831     4830     4823     4818 
    4806     4789     4779     4774     4770     4768     4773     4791 
    4807     4807     4789     4779     4804     4854     4881     4866 
    4841     4841     4862     4882     4892     4885     4860     4807 
    4729     4662     4633     4630     4638     4639     4639     4646 
    4658     4662     4649     4623     4608     4617     4642     4653 
    4633     4600     4579     4575     4591     4617     4633     4648 
    4666     4673     4660     4634     4615     4610     4618     4638 
    4668     4699     4729     4745     4747     4747     4746     4739 
    4727     4711     4698     4696     4695     4688     4676     4665 
    4671     4698     4734     4754     4758     4762     4769     4769 
    4758     4730     4708     4712     4731     4752     4762     4742 
    4704     4683     4680     4684     4696     4715     4712     4684 
    4654     4644     4650     4652     4629     4595     4571     4575 
    4587     4585     4577     4577     4587     4611     4648     4684 
    4730     4796     4872     4926     4939     4916     4880     4858 
    4855     4851     4849     4847     4838     4822     4797     4762 
    4733     4711     4687     4653     4635     4650     4672     4680 
    4676     4666     4665     4676     4692     4706     4711     4716 
    4722     4710     4695     4685     4672     4656     4645     4644 
    4633     4591     4537     4504     4499     4499     4492     4492 
    4509     4542     4590     4641     4675     4673     4634     4581 
    4550     4571     4630     4693     4750     4795     4818     4818 
    4800     4777     4764     4765     4760     4737     4699     4648 
    4585     4527     4479     4445     4426     4410     4401     4402 
    4406     4413     4422     4430     4438     4450     4453     4440 
    4423     4428     4461     4517     4573     4614     4623     4617 
    4617     4615     4608     4621     4658     4699     4714     4706 
    4696     4695     4696     4700     4720     4760     4795     4811 
    4818     4823     4837     4858     4874     4878     4866     4835 
    4812     4826     4861     4878     4869     4855     4850     4837 
    4806     4783     4796     4819     4811     4785     4764     4735 
    4691     4631     4561     4506     4492     4500     4506     4515 
    4533     4554     4587     4619     4654     4699     4738     4766 
    4788     4803     4814     4814     4800     4774     4754     4754 
    4769     4774     4766     4760     4743     4716     4679     4626 
    4573     4542     4529     4541     4577     4621     4652     4675 
    4700     4737     4787     4838     4872     4885     4882     4870 
    4866     4870     4869     4860     4841     4812     4785     4760 
    4733     4710     4679     4623     4575     4565     4584     4604 
    4629     4668     4716     4753     4765     4761     4758     4760 
    4746     4718     4683     4650     4637     4639     4639     4637 
    4634     4629     4625     4617     4585     4533     4484     4456 
    4461     4510     4585     4662     4730     4791     4845     4892 
    4916     4912     4887     4853     4820     4788     4766     4772 
    4800     4837     4873     4899     4905     4892     4874     4860 
    4843     4826     4806     4780     4739     4673     4591     4529 
    4502     4495     4492     4488     4498     4529     4568     4602 
    4633     4654     4660     4656     4642     4629     4629     4634 
    4633     4629     4635     4661     4699     4735     4762     4792 
    4814     4808     4777     4737     4699     4654     4608     4577 
    4571     4584     4610     4625     4631     4646     4676     4718 
    4765     4797     4801     4789     4766     4731     4693     4656 
    4623     4599     4580     4558     4540     4530     4522     4510 
    4500     4500     4514     4530     4537     4548     4568     4590 
    4614     4649     4691     4741     4796     4841     4862     4864 
    4853     4833     4816     4811     4814     4812     4784     4726 
    4657     4596     4552     4523     4511     4510     4504     4503 
    4510     4510     4506     4509     4515     4519     4526     4529 
    4522     4509     4495     4484     4482     4492     4510     4525 
    4529     4527     4518     4498     4491     4515     4564     4621 
    4669     4693     4696     4688     4675     4676     4707     4750 
    4789     4819     4834     4846     4866     4881     4869     4831 
    4795     4784     4779     4772     4776     4777     4765     4742 
    4711     4687     4666     4639     4617     4606     4598     4596 
    4617     4661     4714     4766     4822     4860     4872     4887 
    4918     4954     4986     5005     5015     5024     5017     4985 
    4953     4946     4961     4978     4990     4985     4950     4908 
    4889     4891     4892     4885     4870     4865     4870     4866 
    4860     4857     4843     4820     4800     4792     4797     4807 
    4814     4819     4828     4835     4828     4819     4818     4828 
    4841     4835     4810     4776     4747     4742     4753     4754 
    4737     4716     4714     4719     4711     4685     4660     4635 
    4604     4580     4564     4552     4538     4518     4498     4492 
    4506     4529     4552     4558     4558     4564     4575     4581 
    4580     4580     4575     4568     4567     4560     4542     4523 
    4494     4450     4411     4384     4376     4387     4406     4425 
    4459     4488     4488     4484     4488     4491     4507     4541 
    4575     4599     4617     4625     4625     4621     4622     4635 
    4658     4673     4662     4615     4554     4504     4472     4463 
    4476     4482     4465     4453     4455     4461     4460     4453 
    4450     4460     4480     4494     4500     4511     4525     4541 
    4557     4576     4602     4622     4642     4680     4733     4777 
    4797     4793     4772     4739     4703     4661     4619     4584 
    4557     4540     4540     4563     4602     4645     4691     4743 
    4811     4895     4978     5036     5073     5098     5109     5104 
    5080     5039     4993     4935     4872     4827     4810     4822 
    4843     4845     4833     4818     4784     4727     4673     4635 
    4595     4549     4521     4518     4531     4557     4600     4660 
    4734     4814     4901     5000     5084     5131     5158     5181 
    5204     5221     5206     5179     5169     5146     5086     5011 
    4943     4892     4853     4806     4752     4704     4664     4617 
    4568     4538     4530     4530     4531     4544     4572     4604 
    4633     4666     4706     4743     4783     4818     4835     4833 
    4827     4819     4803     4784     4758     4722     4668     4596 
    4530     4488     4456     4417     4372     4337     4334     4363 
    4403     4445     4488     4526     4564     4600     4622     4642 
    4676     4712     4731     4745     4756     4753     4737     4715 
    4693     4671     4634     4587     4553     4545     4545     4536 
    4504     4452     4395     4347     4310     4298     4315     4340 
    4353     4361     4374     4383     4384     4367     4330     4294 
    4267     4234     4197     4166     4148     4141     4140     4139 
    4144     4175     4230     4283     4332     4380     4432     4494 
    4573     4664     4758     4834     4868     4868     4858     4865 
    4897     4936     4955     4939     4892     4835     4783     4742 
    4725     4725     4718     4703     4684     4666     4657     4657 
    4661     4673     4698     4722     4734     4743     4764     4797 
    4837     4864     4878     4899     4928     4954     4966     4966 
    4961     4966     4989     5005     5005     5008     5026     5054 
    5077     5080     5066     5050     5023     4977     4934     4923 
    4934     4942     4947     4955     4953     4938     4912     4884 
    4865     4846     4839     4858     4895     4928     4954     4976 
    4992     4997     4993     4986     4962     4924     4889     4851 
    4796     4727     4657     4595     4556     4546     4549     4557 
    4564     4563     4564     4572     4584     4600     4606     4588 
    4557     4526     4500     4480     4467     4452     4438     4445 
    4460     4475     4506     4542     4563     4568     4576     4592 
    4607     4608     4599     4585     4573     4565     4565     4579 
    4594     4594     4569     4544     4537     4548     4561     4569 
    4557     4522     4482     4444     4406     4380     4360     4330 
    4305     4290     4284     4294     4310     4318     4328     4353 
    4399     4459     4530     4614     4693     4766     4839     4896 
    4936     4969     4981     4970     4949     4932     4916     4904 
    4908     4915     4911     4903     4895     4884     4878     4869 
    4841     4801     4772     4757     4754     4760     4770     4777 
    4785     4810     4837     4847     4850     4854     4865     4880 
    4892     4895     4900     4926     4961     4977     4992     5015 
    5026     5023     5016     5011     5013     5022     5026     5022 
    5008     4984     4953     4924     4903     4888     4872     4845 
    4816     4792     4753     4700     4649     4587     4514     4441 
    4361     4284     4232     4205     4193     4187     4198     4226 
    4264     4294     4297     4293     4309     4344     4384     4418 
    4442     4457     4459     4450     4453     4469     4496     4529 
    4549     4549     4538     4534     4538     4538     4529     4517 
    4504     4494     4496     4518     4561     4625     4684     4726 
    4756     4770     4770     4762     4745     4712     4671     4642 
    4645     4669     4695     4707     4708     4714     4723     4743 
    4779     4824     4860     4873     4877     4896     4938     4980 
    5008     5023     5030     5038     5049     5065     5085     5105 
    5119     5120     5109     5096     5073     5022     4953     4880 
    4816     4766     4727     4698     4672     4646     4631     4631 
    4646     4689     4750     4807     4853     4903     4949     4976 
    4988     4985     4972     4946     4909     4866     4818     4769 
    4727     4677     4611     4540     4472     4413     4365     4334 
    4314     4299     4286     4266     4251     4259     4284     4318 
    4351     4379     4399     4417     4444     4479     4504     4515 
    4519     4531     4558     4596     4633     4662     4681     4696 
    4710     4716     4726     4737     4739     4743     4752     4758 
    4770     4785     4787     4770     4734     4675     4604     4544 
    4486     4421     4347     4272     4216     4185     4182     4199 
    4224     4249     4293     4353     4418     4486     4560     4626 
    4677     4718     4753     4795     4841     4876     4889     4887 
    4884     4889     4892     4889     4891     4897     4899     4887 
    4853     4804     4756     4712     4672     4641     4627     4625 
    4622     4610     4596     4600     4625     4653     4680     4700 
    4720     4746     4768     4779     4788     4807     4828     4841 
    4849     4855     4858     4853     4839     4822     4800     4776 
    4750     4710     4656     4599     4548     4511     4479     4442 
    4411     4387     4365     4359     4357     4352     4349     4355 
    4378     4415     4455     4491     4542     4614     4693     4776 
    4849     4889     4900     4907     4924     4954     4992     5015 
    5013     5004     4990     4981     4968     4943     4909     4874 
    4838     4806     4783     4769     4760     4752     4739     4715 
    4683     4656     4637     4615     4595     4572     4542     4511 
    4491     4484     4486     4494     4504     4522     4549     4590 
    4631     4662     4684     4693     4693     4692     4695     4703 
    4715     4730     4758     4793     4822     4853     4889     4923 
    4949     4969     4986     5000     5005     5000     4992     4977 
    4942     4891     4834     4779     4730     4689     4661     4638 
    4617     4595     4565     4542     4544     4556     4560     4550 
    4533     4518     4513     4513     4531     4565     4594     4606 
    4610     4608     4599     4594     4592     4588     4581     4556 
    4514     4483     4455     4414     4372     4341     4318     4293 
    4264     4248     4255     4275     4305     4348     4402     4459 
    4513     4556     4591     4630     4683     4739     4791     4831 
    4868     4901     4943     4989     5020     5035     5038     5031 
    5015     4995     4981     4959     4930     4907     4881     4853 
    4823     4783     4735     4695     4664     4642     4639     4653 
    4673     4692     4707     4720     4742     4773     4801     4828 
    4861     4895     4927     4953     4972     4974     4961     4935 
    4908     4893     4884     4872     4866     4873     4876     4862 
    4839     4823     4823     4827     4822     4807     4785     4766 
