Origin Time       2026/01/15 07:13:00
Lat.              42.7
Long.             145.4
Depth. (km)       30
Mag.              5.7
Station Code      HKD128
Station Lat.      42.7656
Station Long.     141.8219
Station Height(m) 31
Record Time       2026/01/15 07:14:36
Sampling Freq(Hz) 100Hz
Duration Time(s)  68
Dir.              N-S
Scale Factor      7845(gal)/8223790
Max. Acc. (gal)   2.083
Last Correction   2026/01/15 07:14:37
Memo.             
[...]
     589      600      607      612      610      595      568      523 
     464      399      340      286      241      216      206      210 
     234      272      307      319      306      280      247      209 
     172      133       99       71       45       24        4      -20 
     -47      -72      -90      -90      -75      -51      -24       -8 
       2       16       33       60       99      143      184      225 
     264      290      305      306      299      291      290      290 
     291      291      295      306      326      351      364      360 
     340      309      274      245      221      198      182      172 
     167      167      170      172      179      193      210      232 
     257      290      330      364      378      369      346      310 
     270      232      206      184      162      144      128      106 
      81       66       67       83      113      143      164      175 
     168      148      130      120      114      122      148      178 
     205      220      214      195      172      155      147      152 
     168      193      220      247      275      302      317      314 
     301      282      265      257      257      263      263      251 
     225      180      121       67       36       29       39       59 
      79       93      102      109      110      112      122      145 
     174      210      255      298      337      368      386      384 
     364      333      303      288      294      318      351      380 
     395      394      368      325      280      238      203      178 
     156      141      132      114       89       55       16      -14 
     -29      -27      -14        5       22       28       14      -14 
     -43      -55      -43       -5       47      101      149      187 
     214      228      236      244      256      278      299      317 
     332      346      353      355      348      325      292      261 
     230      198      171      145      122      112      112      118 
     140      178      221      260      295      324      340      340 
     330      314      297      284      274      256      237      225 
     213      198      189      189      202      234      278      322 
     369      414      450      467      464      452      440      422 
     399      371      329      271      207      145       95       68 
      60       76      122      195      278      361      433      483 
     503      491      450      379      279      172       71      -21 
    -109     -191     -274     -353     -421     -471     -498     -498 
    -467     -414     -344     -260     -175      -91       -5       78 
     162      247      329      409      480      531      557      569 
     575      585      616      666      723      784      843      893 
     931      953      940      900      847      785      722      662 
     607      557      514      464      396      309      198       74 
     -44     -149     -238     -309     -368     -421     -465     -506 
    -541     -564     -569     -561     -541     -499     -438     -372 
    -305     -243     -190     -136      -79      -18       47      118 
     193      274      355      422      464      479      475      468 
     469      483      506      540      581      618      629      602 
     545      469      384      302      234      186      166      175 
     210      263      324      376      421      459      490      514 
     535      553      562      560      542      506      445      359 
     260      164       71      -12      -81     -148     -217     -274 
    -318     -345     -346     -321     -272     -203     -124      -43 
      35      108      172      224      251      253      233      187 
     124       59        5      -32      -52      -47      -14       37 
     105      189      288      402      518      631      746      855 
     951     1030     1080     1097     1086     1044      976      886 
     785      675      548      407      257       94      -72     -216 
    -329     -407     -446     -446     -423     -387     -351     -326 
    -310     -299     -286     -279     -284     -295     -298     -290 
    -263     -216     -159      -98      -36       27       94      166 
     237      305      357      400      440      480      530      587 
     648      703      742      760      749      708      637      541 
     423      298      182       98       47       25       20       24 
      28       28       22       28       51       95      153      218 
     280      333      373      403      423      434      441      445 
     436      411      371      305      225      145       74       22 
      -6      -20      -10       16       35       43       43       40 
      47       63       82      105      132      170      218      257 
     279      287      278      245      201      157      121       98 
      98      118      153      194      240      292      356      433 
     518      602      679      742      776      774      743      675 
     564      418      252       83      -72     -202     -295     -346 
    -361     -352     -325     -282     -228     -162      -82        2 
      76      133      166      168      144       87       -8     -136 
    -274     -403     -518     -607     -660     -677     -652     -581 
    -471     -328     -153       47      274      507      734      949 
    1138     1301     1439     1539     1591     1593     1537     1433 
    1302     1161     1013      869      733      598      463      341 
     243      170      121      102      109      124      130      122 
      94       45      -28     -130     -256     -399     -557     -711 
    -842     -943    -1007    -1027    -1007     -953     -865     -742 
    -579     -378     -149       87      311      515      692      841 
     961     1050     1107     1132     1128     1105     1077     1044 
    1016      990      957      913      862      800      737      679 
     621      560      503      448      394      340      274      189 
      93       -8     -118     -226     -328     -425     -515     -596 
    -660     -697     -718     -723     -715     -688     -638     -568 
    -477     -363     -241     -126      -20       71      153      237 
     321      409      503      603      707      807      886      936 
     946      909      835      743      648      562      500      465 
     450      453      453      429      375      301      218      135 
      45      -44     -136     -230     -319     -392     -449     -491 
    -506     -498     -467     -402     -301     -168      -14      147 
     317      484      627      753      858      939     1007     1070 
    1120     1151     1155     1123     1057      967      858      731 
     595      450      305      168       43      -71     -172     -265 
    -364     -469     -567     -646     -706     -745     -768     -770 
    -743     -695     -639     -587     -537     -491     -449     -399 
    -326     -233     -116       28      189      363      550      747 
     946     1144     1331     1482     1593     1656     1665     1626 
    1556     1458     1339     1208     1067      913      749      571 
     383      194       12     -155     -305     -438     -558     -668 
    -756     -820     -868     -891     -877     -824     -737     -629 
    -510     -390     -270     -147      -33       56      114      140 
     139      113       74       43       39       64      113      172 
     236      302      368      436      515      612      726      845 
     961     1063     1140     1188     1205     1194     1163     1112 
    1034      918      758      569      359      136      -81     -292 
    -487     -639     -745     -797     -789     -729     -634     -519 
    -399     -287     -191     -117      -71      -44      -27      -21 
     -28      -39      -49      -59      -54      -35      -12       16 
      51       89      130      178      233      307      407      522 
     639      754      855      930      969      969      935      872 
     781      664      519      352      184       36      -83     -182 
    -268     -349     -423     -481     -510     -500     -450     -365 
    -255     -120       35      199      351      475      569      634 
     677      710      734      754      777      799      811      808 
     787      751      718      687      650      616      587      558 
     544      546      561      577      584      567      515      436 
     344      243      122      -12     -160     -321     -479     -626 
    -756     -854     -911     -918     -880     -803     -710     -612 
    -510     -403     -292     -172      -44       94      238      379 
     503      608      695      760      803      823      812      773 
     710      633      556      500      468      461      488      538 
     587      625      652      664      675      695      719      729 
     716      684      627      553      467      364      245      106 
     -54     -229     -406     -580     -733     -851     -938     -996 
   -1008     -977     -911     -811     -675     -519     -360     -201 
     -51       83      213      344      477      612      742      846 
     919      966      984      967      915      831      733      621 
     500      394      310      261      257      287      337      405 
     477      530      552      542      499      430      337      221 
      89      -52     -199     -345     -480     -591     -662     -681 
    -643     -541     -387     -198        4      197      368      523 
     677      841     1015     1175     1293     1340     1308     1197 
    1024      819      615      441      314      236      193      180 
     191      221      265      313      357      386      378      322 
     233      133       40      -33      -85     -129     -197     -298 
    -432     -592     -762     -912    -1009    -1042    -1017     -942 
    -827     -684     -513     -319     -120       86      303      525 
     745      949     1120     1256     1344     1374     1355     1301 
    1221     1127     1020      901      777      654      533      411 
     297      186       68      -52     -176     -306     -433     -560 
    -688     -818     -955    -1084    -1174    -1231    -1251    -1221 
   -1139    -1019     -874     -720     -576     -444     -314     -180 
     -36      118      287      468      648      818      972     1097 
    1188     1239     1264     1267     1248     1229     1224     1225 
    1227     1221     1192     1131     1038      922      789      649 
     517      398      294      209      143       89       49       32 
      41       67       93      113      128      133      129      122 
     112       93       70       43        6      -37      -93     -153 
    -203     -241     -276     -310     -342     -372     -398     -432 
    -465     -491     -499     -475     -414     -328     -234     -147 
     -63       21      109      199      297      410      540      676 
     815      946     1059     1151     1223     1282     1339     1390 
    1433     1462     1467     1453     1418     1351     1248     1115 
     949      758      553      344      141      -39     -195     -330 
    -450     -556     -641     -699     -731     -731     -700     -650 
    -598     -545     -504     -481     -468     -465     -468     -467 
    -469     -481     -488     -481     -463     -434     -409     -382 
    -338     -267     -166      -40      105      268      436      602 
     753      878      980     1059     1112     1134     1134     1117 
    1096     1077     1066     1059     1048     1027      989      938 
     888      849      807      756      685      592      486      378 
     268      160       54      -59     -176     -295     -421     -553 
    -679     -796     -904     -993    -1057    -1093    -1096    -1062 
    -986     -870     -722     -553     -379     -209      -58       71 
     183      286      384      487      596      708      816      912 
     980     1012     1012      982      923      841      742      635 
     535      449      379      322      276      248      247      275 
     337      423      525      631      731      822      892      939 
     965      963      924      841      711      535      314       55 
    -221     -502     -769    -1005    -1200    -1339    -1418    -1436 
   -1390    -1291    -1159    -1004     -835     -654     -465     -267 
     -67      120      287      436      564      668      751      820 
     886      940      977      997     1004      997      992      988 
     986      993     1005     1021     1040     1048     1039     1017 
     982      938      892      845      793      737      679      607 
     513      406      295      183       75      -25     -118     -211 
    -310     -415     -537     -675     -819     -958    -1077    -1173 
   -1248    -1301    -1328    -1327    -1294    -1236    -1154    -1047 
    -920     -778     -622     -457     -298     -151      -22       81 
     168      252      344      453      581      719      859      994 
    1115     1223     1324     1426     1539     1667     1807     1948 
    2083     2205     2305     2370     2385     2335     2212     2016 
    1753     1435     1080      707      334      -24     -363     -676 
    -954    -1194    -1401    -1576    -1719    -1829    -1907    -1957 
   -1980    -1973    -1946    -1900    -1822    -1707    -1555    -1364 
   -1146     -904     -643     -369      -99      152      383      591 
     777      955     1140     1339     1544     1745     1930     2085 
    2204     2273     2286     2257     2203     2127     2031     1914 
    1769     1601     1416     1224     1030      838      648      453 
     249       49     -132     -294     -441     -575     -704     -839 
    -981    -1123    -1256    -1366    -1437    -1471    -1471    -1448 
   -1420    -1390    -1351    -1294    -1208    -1077     -900     -689 
    -460     -233      -22      168      340      502      660      808 
     950     1075     1181     1273     1344     1389     1414     1424 
    1425     1431     1431     1421     1401     1367     1313     1231 
    1117      973      804      615      410      191      -35     -270 
    -494     -691     -857     -986    -1067    -1108    -1116    -1093 
   -1054    -1012     -958     -886     -807     -719     -616     -508 
    -407     -324     -267     -233     -214     -205     -193     -162 
    -102       -1      129      278      433      584      729      861 
     986     1108     1229     1348     1464     1578     1690     1791 
    1869     1911     1904     1848     1752     1634     1502     1359 
    1212     1053      865      645      396      128     -143     -402 
    -633     -820     -966    -1085    -1175    -1235    -1269    -1285 
   -1286    -1275    -1244    -1188    -1111    -1021     -926     -834 
    -750     -670     -589     -498     -379     -236      -83       75 
     253      449      649      845     1026     1186     1327     1444 
    1534     1597     1628     1629     1602     1547     1472     1390 
    1301     1202     1096      978      851      715      576      444 
     324      216      113        8      -98     -202     -307     -418 
    -533     -650     -770     -884     -986    -1069    -1132    -1185 
   -1227    -1262    -1294    -1308    -1289    -1223    -1094     -909 
    -681     -415     -125      164      442      697      912     1075 
    1194     1269     1302     1310     1301     1283     1258     1227 
    1186     1135     1075     1005      918      814      704      602 
     513      449      425      429      448      484      529      564 
     579      573      546      498      429      340      232      108 
     -22     -149     -265     -363     -438     -492     -531     -556 
    -561     -556     -546     -540     -541     -540     -527     -514 
    -502     -488     -476     -460     -437     -409     -372     -315 
    -230     -116       25      187      359      537      712      881 
    1043     1202     1363     1520     1663     1783     1875     1938 
    1964     1944     1881     1776     1640     1482     1312     1134 
     955      774      585      384      176      -32     -237     -430 
    -603     -756     -881     -972    -1034    -1088    -1136    -1175 
   -1217    -1259    -1289    -1305    -1298    -1256    -1178    -1078 
    -959     -828     -693     -557     -411     -267     -124       25 
     174      328      494      661      820      974     1120     1255 
    1372     1466     1529     1568     1587     1578     1536     1449 
    1321     1163      985      805      639      492      368      265 
     176       99       29      -31      -75     -105     -132     -153 
    -168     -180     -190     -206     -238     -287     -355     -437 
    -529     -622     -696     -745     -774     -783     -770     -750 
    -710     -650     -581     -491     -369     -225      -54      141 
     346      550      737      888     1003     1082     1128     1151 
    1155     1147     1132     1113     1088     1055     1021      992 
     966      943      924      896      859      819      768      707 
     638      561      481      399      313      228      135       35 
     -62     -147     -214     -263     -292     -298     -291     -283 
    -279     -288     -321     -368     -421     -476     -525     -567 
    -598     -616     -629     -635     -631     -608     -568     -508 
    -427     -324     -197      -54       98      257      425      591 
     742      877      993     1085     1151     1192     1204     1188 
    1139     1050      926      781      633      500      394      313 
     256      221      207      210      228      259      301      349 
     398      438      467      477      467      425      348      237 
      95      -76     -265     -457     -633     -766     -859     -916 
    -935     -934     -919     -886     -839     -778     -706     -615 
    -503     -369     -217      -47      124      286      437      572 
     684      776      853      909      951      976      982      982 
     976      953      920      884      853      831      823      827 
     839      846      837      804      747      675      591      500 
     413      329      245      162       75      -18     -120     -226 
    -330     -432     -525     -596     -641     -658     -650     -614 
    -552     -472     -378     -282     -186      -82       25      125 
     217      299      369      430      480      511      523      525 
     519      515      519      531      558      603      664      734 
     807      873      930      978     1026     1065     1085     1080 
    1039      969      868      735      581      411      234       52 
    -125     -295     -456     -611     -754     -876     -972    -1043 
   -1080    -1075    -1032     -954     -854     -737     -600     -456 
    -321     -187      -56       59      171      282      392      502 
     600      687      764      826      874      912      942      972 
    1000     1013     1008      973      911      837      753      661 
     571      476      371      257      137        9     -122     -253 
