Origin Time       2026/01/15 07:13:00
Lat.              42.7
Long.             145.4
Depth. (km)       30
Mag.              5.7
Station Code      HKD103
Station Lat.      42.7275
Station Long.     142.2973
Station Height(m) 86
Record Time       2026/01/15 07:14:25
Sampling Freq(Hz) 100Hz
Duration Time(s)  60
Dir.              U-D
Scale Factor      7845(gal)/8223790
Max. Acc. (gal)   0.657
Last Correction   2026/01/15 07:14:26
Memo.             
[...]
  -20059   -20081   -20097   -20100   -20090   -20075   -20055   -20027 
  -19986   -19942   -19909   -19899   -19901   -19907   -19908   -19916 
  -19931   -19946   -19953   -19957   -19962   -19965   -19965   -19969 
  -19974   -19982   -19993   -20000   -19996   -19986   -19974   -19962 
  -19946   -19924   -19907   -19896   -19890   -19894   -19900   -19903 
  -19909   -19917   -19921   -19926   -19944   -19975   -20004   -20025 
  -20036   -20040   -20048   -20059   -20052   -20038   -20032   -20034 
  -20028   -20021   -20020   -20023   -20031   -20044   -20055   -20058 
  -20056   -20050   -20044   -20044   -20051   -20063   -20077   -20083 
  -20082   -20069   -20054   -20040   -20019   -19985   -19948   -19921 
  -19900   -19884   -19874   -19869   -19877   -19899   -19920   -19934 
  -19940   -19948   -19963   -19975   -19985   -19998   -20019   -20039 
  -20052   -20056   -20062   -20082   -20105   -20117   -20124   -20129 
  -20124   -20110   -20088   -20050   -20002   -19963   -19930   -19894 
  -19858   -19836   -19835   -19845   -19854   -19859   -19862   -19862 
  -19857   -19845   -19816   -19777   -19742   -19716   -19704   -19705 
  -19711   -19720   -19742   -19766   -19782   -19805   -19838   -19870 
  -19894   -19911   -19926   -19943   -19955   -19957   -19955   -19961 
  -19980   -20009   -20042   -20070   -20090   -20106   -20123   -20136 
  -20142   -20142   -20137   -20123   -20098   -20069   -20040   -20016 
  -19993   -19978   -19977   -19986   -19997   -20007   -20017   -20025 
  -20027   -20023   -20007   -19971   -19932   -19897   -19854   -19805 
  -19765   -19737   -19724   -19726   -19726   -19724   -19742   -19784 
  -19831   -19878   -19923   -19967   -20019   -20073   -20115   -20142 
  -20160   -20171   -20178   -20174   -20152   -20120   -20082   -20039 
  -19990   -19946   -19915   -19900   -19899   -19901   -19901   -19905 
  -19916   -19924   -19934   -19947   -19958   -19962   -19965   -19953 
  -19916   -19872   -19839   -19818   -19797   -19773   -19754   -19754 
  -19766   -19777   -19796   -19830   -19867   -19911   -19962   -20017 
  -20067   -20110   -20150   -20191   -20235   -20260   -20267   -20259 
  -20240   -20216   -20191   -20167   -20140   -20109   -20079   -20050 
  -20015   -19975   -19928   -19876   -19830   -19803   -19793   -19796 
  -19804   -19820   -19851   -19892   -19939   -19988   -20023   -20048 
  -20074   -20101   -20127   -20146   -20143   -20123   -20106   -20105 
  -20108   -20104   -20094   -20079   -20061   -20048   -20034   -20004 
  -19958   -19904   -19866   -19849   -19846   -19847   -19855   -19874 
  -19904   -19943   -19989   -20039   -20081   -20100   -20098   -20092 
  -20083   -20066   -20044   -20021   -19988   -19944   -19904   -19866 
  -19826   -19791   -19769   -19758   -19746   -19732   -19735   -19753 
  -19766   -19764   -19750   -19743   -19745   -19757   -19774   -19780 
  -19773   -19774   -19799   -19839   -19873   -19903   -19950   -20012 
  -20063   -20104   -20136   -20152   -20146   -20135   -20139   -20146 
  -20144   -20131   -20116   -20109   -20105   -20101   -20089   -20061 
  -20025   -19998   -19992   -19989   -19973   -19943   -19924   -19916 
  -19900   -19872   -19846   -19824   -19805   -19801   -19815   -19831 
  -19853   -19886   -19919   -19936   -19938   -19938   -19955   -19978 
  -19982   -19971   -19953   -19931   -19911   -19886   -19862   -19847 
  -19842   -19849   -19867   -19893   -19924   -19955   -19980   -20005 
  -20029   -20047   -20065   -20082   -20101   -20124   -20154   -20179 
  -20200   -20220   -20236   -20254   -20266   -20252   -20204   -20137 
  -20077   -20017   -19951   -19872   -19796   -19742   -19701   -19657 
  -19612   -19577   -19561   -19558   -19562   -19573   -19591   -19611 
  -19638   -19661   -19677   -19696   -19728   -19761   -19786   -19816 
  -19859   -19907   -19947   -19981   -20025   -20090   -20152   -20190 
  -20212   -20233   -20266   -20299   -20318   -20313   -20297   -20278 
  -20248   -20209   -20163   -20104   -20047   -20000   -19947   -19882 
  -19809   -19742   -19696   -19670   -19658   -19656   -19662   -19680 
  -19704   -19734   -19766   -19791   -19791   -19778   -19786   -19818 
  -19840   -19836   -19813   -19800   -19813   -19839   -19857   -19857 
  -19845   -19835   -19832   -19828   -19815   -19801   -19789   -19780 
  -19778   -19792   -19822   -19878   -19951   -20015   -20067   -20123 
  -20179   -20229   -20274   -20316   -20352   -20371   -20370   -20359 
  -20333   -20291   -20247   -20216   -20181   -20140   -20105   -20067 
  -20021   -19978   -19948   -19931   -19911   -19877   -19836   -19805 
  -19786   -19761   -19727   -19697   -19687   -19703   -19747   -19797 
  -19831   -19845   -19862   -19903   -19953   -19978   -19982   -20000 
  -20038   -20070   -20092   -20102   -20098   -20094   -20108   -20125 
  -20133   -20136   -20137   -20127   -20098   -20078   -20075   -20078 
  -20070   -20056   -20042   -20027   -20013   -19998   -19982   -19967 
  -19950   -19935   -19923   -19913   -19917   -19932   -19957   -19986 
  -20017   -20058   -20105   -20133   -20155   -20181   -20189   -20174 
  -20154   -20135   -20105   -20061   -20004   -19950   -19900   -19854 
  -19808   -19772   -19751   -19738   -19722   -19710   -19715   -19745 
  -19781   -19807   -19831   -19872   -19931   -19992   -20050   -20100 
  -20140   -20177   -20209   -20235   -20255   -20251   -20223   -20183 
  -20137   -20097   -20075   -20051   -20007   -19951   -19908   -19893 
  -19889   -19882   -19878   -19873   -19863   -19857   -19840   -19815 
  -19799   -19786   -19757   -19704   -19645   -19600   -19575   -19568 
  -19569   -19562   -19554   -19558   -19575   -19602   -19639   -19684 
  -19715   -19741   -19772   -19809   -19854   -19903   -19940   -19963 
  -19984   -20005   -20025   -20046   -20071   -20097   -20110   -20108 
  -20104   -20106   -20110   -20106   -20097   -20079   -20051   -20029 
  -20021   -20019   -20008   -19985   -19959   -19940   -19917   -19885 
  -19863   -19859   -19873   -19901   -19938   -19973   -20008   -20044 
  -20086   -20120   -20136   -20146   -20163   -20174   -20169   -20155 
  -20139   -20106   -20055   -19988   -19915   -19862   -19830   -19797 
  -19772   -19769   -19773   -19777   -19786   -19796   -19816   -19849 
  -19882   -19921   -19967   -20012   -20058   -20105   -20146   -20179 
  -20206   -20229   -20248   -20259   -20262   -20259   -20262   -20268 
  -20258   -20244   -20247   -20237   -20198   -20164   -20158   -20152 
  -20132   -20102   -20062   -20008   -19953   -19911   -19885   -19873 
  -19861   -19842   -19828   -19827   -19832   -19834   -19824   -19815 
  -19809   -19811   -19820   -19827   -19830   -19847   -19881   -19896 
  -19890   -19905   -19938   -19958   -19970   -19965   -19939   -19920 
  -19920   -19912   -19881   -19838   -19804   -19796   -19799   -19784 
  -19757   -19745   -19743   -19734   -19742   -19772   -19792   -19812 
  -19849   -19888   -19919   -19939   -19946   -19948   -19961   -19982 
  -19985   -19953   -19909   -19889   -19905   -19948   -20002   -20024 
  -19989   -19953   -19975   -20019   -20015   -19966   -19904   -19853 
  -19835   -19846   -19830   -19786   -19776   -19799   -19822   -19862 
  -19907   -19915   -19935   -20002   -20065   -20078   -20056   -20039 
  -20032   -20009   -19997   -20031   -20075   -20077   -20029   -19973 
  -19947   -19958   -19980   -19975   -19930   -19876   -19869   -19916 
  -19974   -19994   -19954   -19907   -19948   -20038   -20038   -20004 
  -20066   -20150   -20171   -20159   -20132   -20100   -20069   -20038 
  -20019   -20004   -19986   -19980   -19966   -19920   -19878   -19882 
  -19940   -20007   -20002   -19946   -19934   -19982   -20047   -20100 
  -20106   -20077   -20055   -20056   -20066   -20067   -20043   -20001 
  -19974   -19978   -19984   -19971   -19974   -20001   -20001   -19998 
  -20047   -20110   -20137   -20135   -20151   -20191   -20193   -20152 
  -20129   -20113   -20077   -20047   -20028   -19998   -19977   -19971 
  -19947   -19915   -19908   -19907   -19888   -19876   -19884   -19884 
  -19865   -19865   -19877   -19846   -19792   -19773   -19776   -19759 
  -19732   -19719   -19724   -19749   -19781   -19819   -19869   -19928 
  -19984   -20042   -20106   -20147   -20167   -20209   -20248   -20237 
  -20212   -20201   -20162   -20101   -20078   -20063   -19996   -19917 
  -19889   -19870   -19818   -19766   -19749   -19742   -19728   -19730 
  -19754   -19768   -19768   -19772   -19780   -19804   -19836   -19838 
  -19824   -19812   -19786   -19776   -19801   -19801   -19754   -19726 
  -19765   -19812   -19796   -19759   -19780   -19824   -19831   -19842 
  -19916   -19990   -19997   -20007   -20074   -20125   -20132   -20162 
  -20221   -20248   -20235   -20236   -20281   -20321   -20310   -20267 
  -20241   -20245   -20241   -20189   -20116   -20061   -20020   -19994 
  -19957   -19886   -19835   -19834   -19822   -19754   -19684   -19695 
  -19750   -19750   -19722   -19741   -19796   -19835   -19854   -19878 
  -19924   -19970   -20007   -20042   -20062   -20067   -20089   -20131 
  -20158   -20146   -20140   -20163   -20177   -20179   -20170   -20140 
  -20120   -20120   -20098   -20040   -19980   -19939   -19905   -19847 
  -19799   -19804   -19811   -19782   -19754   -19742   -19750   -19782 
  -19807   -19818   -19845   -19881   -19903   -19926   -19953   -19957 
  -19963   -19997   -20004   -19947   -19876   -19876   -19942   -19967 
  -19928   -19913   -19962   -20034   -20077   -20092   -20112   -20150 
  -20202   -20260   -20298   -20286   -20240   -20213   -20206   -20183 
  -20158   -20155   -20140   -20098   -20071   -20070   -20063   -20043 
  -20013   -19994   -19992   -19947   -19866   -19815   -19759   -19670 
  -19626   -19658   -19673   -19614   -19556   -19581   -19633   -19654 
  -19669   -19650   -19619   -19657   -19710   -19716   -19711   -19705 
  -19734   -19791   -19824   -19878   -19967   -20020   -20024   -20036 
  -20113   -20216   -20240   -20186   -20150   -20163   -20164   -20121 
  -20083   -20055   -20001   -19954   -19953   -19957   -19901   -19819 
  -19803   -19816   -19778   -19758   -19791   -19791   -19774   -19807 
  -19855   -19873   -19855   -19853   -19913   -19955   -19930   -19923 
  -19978   -20001   -19947   -19903   -19916   -19951   -19988   -19975 
  -19919   -19935   -19997   -20034   -20075   -20075   -20046   -20082 
  -20117   -20094   -20100   -20110   -20063   -20061   -20102   -20055 
  -19974   -19931   -19885   -19872   -19874   -19797   -19741   -19770 
  -19769   -19765   -19826   -19845   -19847   -19935   -20007   -20034 
  -20078   -20078   -20101   -20201   -20197   -20124   -20123   -20139 
  -20155   -20163   -20136   -20094   -20039   -20034   -20063   -20063 
  -20100   -20121   -20070   -20094   -20144   -20119   -20101   -20043 
  -19982   -20035   -20032   -19946   -19935   -19913   -19839   -19793 
  -19774   -19773   -19765   -19745   -19823   -19905   -19774   -19656 
  -19793   -19954   -19989   -20021   -20034   -19974   -19957   -20051 
  -20160   -20169   -20083   -20012   -20015   -20056   -20066   -20039 
  -20083   -20108   -19970   -19845   -19840   -19882   -19899   -19807 
  -19711   -19749   -19827   -19799   -19670   -19584   -19646   -19796 
  -19908   -19901   -19797   -19718   -19777   -19950   -20070   -20056 
  -20048   -20063   -19988   -19912   -19938   -20055   -20166   -20063 
  -19808   -19668   -19684   -19769   -19838   -19824   -19732   -19589 
  -19498   -19577   -19704   -19755   -19823   -19808   -19645   -19614 
  -19786   -19977   -20063   -20027   -19962   -19935   -19996   -20098 
  -20082   -20081   -20206   -20170   -19974   -19951   -20079   -20054 
  -19845   -19828   -20040   -19967   -19583   -19467   -19746   -19946 
  -19843   -19693   -19650   -19643   -19699   -19838   -19950   -20063 
  -20174   -20066   -19858   -19974   -20372   -20611   -20490   -20293 
  -20355   -20538   -20532   -20399   -20420   -20586   -20571   -20309 
  -20094   -20112   -20359   -20491   -20224   -20070   -20262   -20220 
  -19957   -19931   -20119   -20302   -20268   -20036   -19916   -19943 
  -19997   -20056   -20032   -20056   -20209   -20074   -19678   -19642 
  -20007   -20312   -20225   -19815   -19620   -19857   -20079   -20028 
  -19907   -19930   -19996   -19921   -19824   -19831   -19857   -19899 
  -19982   -20017   -19939   -19778   -19651   -19750   -20042   -20193 
  -20054   -19836   -19739   -19747   -19884   -20178   -20272   -19967 
  -19769   -19901   -19950   -19873   -20032   -20251   -20044   -19647 
  -19566   -19704   -19863   -20013   -20025   -19835   -19587   -19619 
  -19963   -20131   -19981   -19795   -19607   -19585   -19905   -20135 
  -19996   -19781   -19747   -19900   -19986   -19911   -19981   -20123 
  -20058   -20058   -20174   -20115   -20025   -19974   -19847   -19904 
  -20158   -20187   -19924   -19684   -19656   -19747   -19854   -19967 
  -19965   -19751   -19564   -19650   -19882   -19943   -19749   -19549 
  -19564   -19750   -19881   -19769   -19569   -19660   -19951   -19939 
  -19745   -19854   -20081   -20136   -20147   -20135   -20083   -20113 
  -20158   -20071   -19970   -19961   -19967   -19926   -19754   -19519 
  -19484   -19624   -19718   -19749   -19689   -19521   -19467   -19660 
  -19882   -19900   -19834   -19855   -19923   -20021   -20104   -20088 
  -20105   -20245   -20348   -20248   -20158   -20372   -20607   -20507 
  -20236   -20027   -20071   -20420   -20646   -20448   -20146   -20081 
  -20206   -20340   -20341   -20262   -20143   -19885   -19820   -20181 
  -20291   -19893   -19692   -19862   -19931   -19846   -19799   -19737 
  -19684   -19816   -19985   -19882   -19701   -19739   -19808   -19816 
  -19884   -19943   -19936   -19834   -19680   -19746   -20031   -20174 
  -20074   -19927   -19903   -20059   -20283   -20360   -20236   -20073 
  -20059   -20178   -20236   -20213   -20162   -19951   -19714   -19827 
  -20129   -20143   -19889   -19754   -19859   -20017   -20081   -20085 
  -20089   -20047   -19980   -20016   -20098   -20082   -20024   -20002 
  -19997   -20027   -20069   -20050   -20015   -20040   -20108   -20102 
  -20021   -20086   -20201   -20083   -19961   -20048   -20143   -20156 
  -20082   -19881   -19815   -20040   -20117   -19805   -19569   -19616 
  -19666   -19710   -19820   -19747   -19484   -19406   -19554   -19723 
  -19876   -19862   -19618   -19529   -19746   -19977   -20110   -20132 
  -19966   -19776   -19816   -20063   -20266   -20308   -20231   -20047 
  -19894   -19989   -20232   -20358   -20275   -20065   -19916   -19957 
  -20104   -20173   -20078   -19928   -19839   -19807   -19828   -19828 
  -19747   -19777   -19908   -19776   -19434   -19360   -19619   -19824 
  -19773   -19665   -19650   -19641   -19620   -19666   -19827   -20048 
  -20129   -20021   -19881   -19811   -19842   -20002   -20200   -20256 
  -20120   -19857   -19678   -19913   -20374   -20395   -19961   -19727 
  -19921   -20136   -19993   -19786   -20086   -20497   -20200   -19629 
  -19658   -20036   -20179   -20198   -20139   -19834   -19614   -19799 
  -20116   -20156   -19863   -19676   -19827   -19928   -19865   -19861 
  -19811   -19646   -19634   -19881   -20077   -19919   -19626   -19580 
  -19687   -19707   -19772   -19970   -20079   -19869   -19507   -19541 
  -20017   -20344   -20267   -19989   -19808   -20005   -20370   -20452 
  -20318   -20201   -20151   -20191   -20228   -20232   -20316   -20355 
  -20214   -20085   -20142   -20313   -20360   -20190   -20102   -20293 
  -20513   -20526   -20290   -20007   -20011   -20218   -20335   -20279 
  -20052   -19854   -19858   -19865   -19843   -19873   -19761   -19583 
  -19615   -19716   -19637   -19507   -19554   -19684   -19708   -19633 
  -19531   -19533   -19720   -19873   -19805   -19723   -19788   -19926 
  -20046   -20069   -19986   -19920   -19944   -19998   -20005   -20016 
  -20059   -20039   -19986   -20000   -20007   -20001   -20086   -20159 
  -20123   -20110   -20120   -20046   -19997   -20065   -20097   -19951 
  -19745   -19668   -19695   -19724   -19697   -19599   -19535   -19561 
  -19599   -19629   -19647   -19683   -19795   -19878   -19877   -19911 
  -19985   -19978   -19908   -19946   -20121   -20229   -20119   -19904 
  -19845   -19957   -20004   -19962   -19965   -19984   -19977   -19974 
  -19962   -19977   -20051   -20109   -20110   -20093   -20082   -20117 
  -20166   -20171   -20150   -20100   -20044   -20039   -20059   -20056 
  -19997   -19894   -19861   -19921   -19943   -19907   -19888   -19909 
  -19936   -19946   -19974   -20031   -20071   -20066   -20036   -20047 
  -20098   -20131   -20117   -20074   -20065   -20093   -20079   -20028 
  -20024   -20059   -20061   -19993   -19934   -19980   -20067   -20081 
  -20011   -19954   -19969   -20020   -20086   -20148   -20160   -20108 
  -20061   -20115   -20209   -20217   -20155   -20112   -20106   -20112 
  -20098   -20020   -19931   -19927   -19939   -19881   -19822   -19830 
  -19881   -19901   -19863   -19839   -19877   -19946   -20001   -20007 
  -19989   -19996   -20015   -20015   -19967   -19896   -19900   -19950 
  -19931   -19857   -19809   -19826   -19853   -19842   -19836   -19830 
  -19778   -19715   -19683   -19705   -19792   -19873   -19859   -19769 
  -19723   -19792   -19907   -19948   -19911   -19907   -19947   -19973 
  -19997   -19988   -19916   -19897   -19977   -20017   -19953   -19867 
  -19827   -19835   -19850   -19835   -19812   -19799   -19792   -19799 
  -19822   -19854   -19884   -19904   -19921   -19955   -20004   -20065 
  -20120   -20139   -20143   -20186   -20243   -20256   -20228   -20210 
  -20229   -20245   -20247   -20239   -20186   -20083   -20015   -20028 
  -20050   -20015   -19954   -19894   -19869   -19884   -19878   -19832 
  -19788   -19770   -19772   -19745   -19685   -19630   -19604   -19620 
  -19645   -19650   -19662   -19691   -19710   -19708   -19742   -19827 
  -19913   -19967   -19985   -19982   -20011   -20088   -20137   -20101 
  -20047   -20061   -20100   -20092   -20019   -19947   -19958   -20001 
  -19993   -19936   -19886   -19893   -19942   -19950   -19896   -19849 
  -19861   -19893   -19894   -19863   -19840   -19849   -19862   -19865 
  -19857   -19834   -19818   -19836   -19876   -19896   -19882   -19884 
  -19944   -20012   -20017   -19984   -19985   -20024   -20052   -20063 
  -20061   -20031   -19985   -19958   -19977   -20036   -20083   -20055 
  -19984   -19966   -20027   -20075   -20059   -20038   -20054   -20066 
  -20036   -19998   -19984   -19975   -19961   -19950   -19938   -19912 
  -19899   -19939   -19997   -20017   -20015   -20035   -20104   -20182 
  -20204   -20186   -20204   -20272   -20345   -20368   -20340   -20316 
  -20326   -20322   -20283   -20270   -20297   -20290   -20236   -20209 
  -20202   -20170   -20147   -20167   -20186   -20178   -20148   -20104 
  -20075   -20075   -20062   -20034   -20005   -19957   -19911   -19894 
  -19874   -19832   -19809   -19816   -19808   -19766   -19727   -19726 
  -19765   -19803   -19796   -19764   -19769   -19819   -19857   -19853 
  -19835   -19832   -19846   -19857   -19865   -19865   -19851   -19845 
  -19832   -19792   -19770   -19792   -19805   -19786   -19758   -19745 
  -19737   -19728   -19728   -19739   -19776   -19822   -19824   -19793 
