Origin Time       2026/01/15 07:13:00
Lat.              42.7
Long.             145.4
Depth. (km)       30
Mag.              5.7
Station Code      HKD125
Station Lat.      42.7609
Station Long.     142.1344
Station Height(m) 69
Record Time       2026/01/15 07:14:30
Sampling Freq(Hz) 100Hz
Duration Time(s)  65
Dir.              E-W
Scale Factor      7845(gal)/8223790
Max. Acc. (gal)   1.568
Last Correction   2026/01/15 07:14:30
Memo.             
[...]
   -6705    -6783    -6858    -6917    -6967    -7005    -7029    -7045 
   -7059    -7064    -7065    -7064    -7056    -7041    -7022    -6998 
   -6964    -6926    -6890    -6853    -6821    -6794    -6764    -6732 
   -6705    -6683    -6664    -6651    -6635    -6617    -6600    -6586 
   -6581    -6585    -6600    -6621    -6648    -6679    -6712    -6743 
   -6767    -6786    -6797    -6798    -6798    -6797    -6797    -6801 
   -6810    -6825    -6840    -6859    -6878    -6895    -6913    -6928 
   -6941    -6959    -6975    -6986    -6994    -6995    -6986    -6967 
   -6941    -6910    -6875    -6836    -6787    -6733    -6677    -6617 
   -6561    -6513    -6477    -6448    -6430    -6423    -6423    -6427 
   -6434    -6447    -6465    -6486    -6511    -6536    -6563    -6590 
   -6621    -6666    -6717    -6778    -6848    -6921    -6994    -7065 
   -7126    -7173    -7209    -7229    -7241    -7242    -7233    -7213 
   -7183    -7144    -7096    -7038    -6976    -6909    -6839    -6771 
   -6704    -6635    -6573    -6520    -6482    -6462    -6453    -6457 
   -6473    -6496    -6523    -6552    -6585    -6616    -6648    -6675 
   -6696    -6709    -6721    -6729    -6736    -6750    -6770    -6793 
   -6817    -6843    -6868    -6886    -6894    -6898    -6894    -6885 
   -6875    -6870    -6868    -6871    -6878    -6882    -6882    -6876 
   -6855    -6825    -6793    -6747    -6696    -6648    -6606    -6574 
   -6561    -6562    -6577    -6602    -6639    -6681    -6729    -6786 
   -6844    -6901    -6951    -6994    -7034    -7067    -7080    -7082 
   -7072    -7055    -7033    -7013    -7002    -6999    -6999    -7001 
   -7001    -6995    -6984    -6970    -6948    -6922    -6891    -6855 
   -6812    -6766    -6713    -6652    -6588    -6516    -6448    -6392 
   -6350    -6320    -6305    -6307    -6319    -6338    -6362    -6390 
   -6420    -6457    -6500    -6555    -6619    -6687    -6759    -6829 
   -6897    -6957    -7009    -7056    -7098    -7129    -7152    -7167 
   -7175    -7177    -7173    -7159    -7129    -7083    -7026    -6964 
   -6897    -6829    -6767    -6710    -6663    -6623    -6589    -6565 
   -6550    -6534    -6523    -6516    -6513    -6528    -6561    -6602 
   -6656    -6714    -6768    -6822    -6867    -6898    -6918    -6933 
   -6941    -6943    -6943    -6937    -6926    -6912    -6895    -6876 
   -6859    -6841    -6826    -6812    -6797    -6787    -6779    -6770 
   -6763    -6764    -6763    -6760    -6762    -6764    -6764    -6759 
   -6752    -6745    -6739    -6735    -6728    -6718    -6709    -6700 
   -6685    -6670    -6663    -6667    -6681    -6698    -6723    -6751 
   -6782    -6814    -6848    -6880    -6912    -6939    -6955    -6964 
   -6966    -6957    -6939    -6913    -6889    -6870    -6852    -6848 
   -6853    -6862    -6870    -6880    -6886    -6885    -6878    -6866 
   -6848    -6828    -6804    -6779    -6754    -6729    -6708    -6693 
   -6682    -6674    -6669    -6667    -6669    -6671    -6673    -6671 
   -6664    -6656    -6647    -6637    -6635    -6635    -6635    -6639 
   -6650    -6662    -6673    -6686    -6704    -6724    -6750    -6786 
   -6825    -6860    -6898    -6933    -6959    -6987    -7013    -7029 
   -7042    -7051    -7044    -7028    -7003    -6972    -6939    -6909 
   -6882    -6858    -6841    -6826    -6802    -6772    -6736    -6694 
   -6651    -6612    -6579    -6558    -6547    -6546    -6555    -6569 
   -6588    -6608    -6628    -6646    -6663    -6678    -6693    -6710 
   -6733    -6758    -6777    -6791    -6801    -6802    -6795    -6785 
   -6778    -6782    -6798    -6835    -6883    -6934    -6980    -7022 
   -7053    -7071    -7080    -7080    -7075    -7068    -7060    -7045 
   -7029    -7007    -6976    -6937    -6894    -6847    -6791    -6737 
   -6687    -6643    -6602    -6570    -6552    -6547    -6550    -6563 
   -6582    -6608    -6639    -6674    -6712    -6751    -6787    -6821 
   -6849    -6866    -6870    -6864    -6853    -6839    -6826    -6826 
   -6836    -6845    -6859    -6876    -6893    -6907    -6914    -6910 
   -6903    -6890    -6875    -6864    -6852    -6839    -6824    -6804 
   -6777    -6740    -6691    -6635    -6575    -6521    -6478    -6444 
   -6426    -6424    -6431    -6444    -6465    -6492    -6527    -6563 
   -6601    -6646    -6697    -6755    -6817    -6876    -6929    -6978 
   -7014    -7038    -7053    -7060    -7055    -7037    -7011    -6983 
   -6953    -6924    -6898    -6879    -6863    -6851    -6839    -6816 
   -6790    -6766    -6740    -6716    -6697    -6686    -6685    -6690 
   -6697    -6705    -6712    -6716    -6717    -6717    -6717    -6718 
   -6712    -6700    -6687    -6675    -6666    -6660    -6656    -6656 
   -6662    -6673    -6685    -6694    -6701    -6708    -6710    -6717 
   -6728    -6745    -6772    -6810    -6858    -6909    -6960    -7010 
   -7051    -7078    -7092    -7095    -7084    -7061    -7033    -7001 
   -6966    -6921    -6872    -6826    -6782    -6733    -6683    -6642 
   -6608    -6581    -6569    -6571    -6590    -6625    -6673    -6723 
   -6772    -6817    -6851    -6863    -6856    -6843    -6824    -6801 
   -6782    -6772    -6774    -6790    -6817    -6845    -6872    -6895 
   -6913    -6922    -6926    -6922    -6912    -6899    -6886    -6868 
   -6843    -6816    -6789    -6756    -6718    -6682    -6644    -6606 
   -6575    -6554    -6544    -6547    -6565    -6598    -6644    -6700 
   -6764    -6826    -6880    -6925    -6955    -6968    -6970    -6960 
   -6937    -6909    -6882    -6853    -6824    -6801    -6782    -6763 
   -6740    -6718    -6691    -6660    -6629    -6598    -6570    -6554 
   -6551    -6559    -6579    -6613    -6655    -6697    -6732    -6760 
   -6783    -6795    -6799    -6804    -6806    -6810    -6820    -6833 
   -6852    -6876    -6902    -6924    -6941    -6945    -6940    -6926 
   -6903    -6870    -6832    -6795    -6759    -6718    -6683    -6650 
   -6612    -6577    -6548    -6521    -6498    -6489    -6492    -6500 
   -6515    -6539    -6569    -6604    -6644    -6686    -6731    -6782 
   -6835    -6886    -6934    -6975    -7011    -7040    -7055    -7069 
   -7084    -7090    -7091    -7094    -7091    -7080    -7061    -7029 
   -6983    -6926    -6866    -6801    -6733    -6671    -6620    -6577 
   -6547    -6529    -6517    -6509    -6513    -6520    -6531    -6550 
   -6577    -6610    -6648    -6686    -6725    -6768    -6806    -6841 
   -6875    -6903    -6924    -6940    -6956    -6970    -6980    -6984 
   -6986    -6988    -6986    -6978    -6970    -6963    -6955    -6948 
   -6943    -6937    -6933    -6926    -6907    -6875    -6825    -6766 
   -6705    -6648    -6597    -6552    -6517    -6486    -6462    -6439 
   -6421    -6411    -6411    -6424    -6451    -6490    -6543    -6612 
   -6697    -6797    -6902    -7009    -7109    -7195    -7260    -7299 
   -7318    -7318    -7298    -7267    -7229    -7187    -7149    -7109 
   -7065    -7026    -6983    -6936    -6887    -6833    -6775    -6721 
   -6670    -6625    -6596    -6581    -6577    -6586    -6608    -6637 
   -6675    -6718    -6767    -6820    -6872    -6921    -6963    -7001 
   -7033    -7053    -7060    -7056    -7041    -7017    -6987    -6960 
   -6933    -6913    -6905    -6903    -6909    -6921    -6933    -6947 
   -6960    -6971    -6979    -6978    -6967    -6947    -6924    -6895 
   -6864    -6826    -6777    -6721    -6655    -6582    -6513    -6448 
   -6386    -6342    -6312    -6288    -6266    -6245    -6220    -6197 
   -6183    -6180    -6187    -6203    -6230    -6262    -6286    -6299 
   -6299    -6285    -6264    -6243    -6227    -6224    -6241    -6276 
   -6328    -6404    -6500    -6608    -6723    -6839    -6949    -7047 
   -7126    -7186    -7222    -7229    -7211    -7173    -7118    -7045 
   -6966    -6889    -6818    -6760    -6713    -6679    -6663    -6662 
   -6673    -6698    -6729    -6764    -6809    -6863    -6930    -7013 
   -7102    -7190    -7264    -7318    -7348    -7339    -7295    -7222 
   -7122    -7007    -6893    -6786    -6691    -6619    -6565    -6519 
   -6480    -6447    -6416    -6385    -6361    -6350    -6358    -6382 
   -6420    -6475    -6546    -6623    -6702    -6783    -6866    -6951 
   -7032    -7110    -7180    -7238    -7284    -7317    -7333    -7335 
   -7323    -7295    -7261    -7214    -7150    -7078    -6990    -6876 
   -6756    -6671    -6623    -6581    -6566    -6597    -6651    -6720 
   -6801    -6876    -6949    -7015    -7072    -7122    -7160    -7186 
   -7209    -7227    -7233    -7219    -7188    -7140    -7078    -7010 
   -6936    -6867    -6824    -6806    -6812    -6847    -6905    -6972 
   -7044    -7103    -7140    -7149    -7122    -7055    -6948    -6809 
   -6647    -6470    -6288    -6114    -5956    -5819    -5721    -5663 
   -5649    -5687    -5769    -5869    -5988    -6165    -6357    -6501 
   -6647    -6801    -6906    -6994    -7063    -7083    -7079    -7059 
   -7021    -6980    -6934    -6894    -6864    -6845    -6847    -6867 
   -6902    -6951    -7018    -7102    -7192    -7276    -7337    -7369 
   -7358    -7311    -7229    -7113    -6970    -6806    -6620    -6421 
   -6241    -6070    -5906    -5768    -5664    -5580    -5529    -5517 
   -5535    -5590    -5680    -5805    -5954    -6127    -6311    -6498 
   -6681    -6856    -7022    -7176    -7321    -7457    -7580    -7688 
   -7777    -7843    -7890    -7919    -7929    -7925    -7909    -7878 
   -7830    -7762    -7677    -7574    -7456    -7322    -7180    -7037 
   -6894    -6752    -6624    -6507    -6403    -6319    -6249    -6197 
   -6170    -6157    -6158    -6168    -6184    -6207    -6234    -6262 
   -6296    -6330    -6359    -6385    -6413    -6453    -6504    -6574 
   -6664    -6779    -6913    -7064    -7223    -7376    -7512    -7628 
   -7711    -7762    -7780    -7765    -7724    -7661    -7573    -7466 
   -7345    -7209    -7064    -6918    -6772    -6636    -6509    -6386 
   -6281    -6196    -6129    -6084    -6066    -6072    -6096    -6130 
   -6168    -6210    -6249    -6281    -6320    -6369    -6423    -6485 
   -6555    -6635    -6720    -6809    -6894    -6970    -7032    -7078 
   -7106    -7115    -7106    -7083    -7051    -7015    -6983    -6957 
   -6939    -6928    -6925    -6928    -6930    -6930    -6921    -6901 
   -6868    -6824    -6766    -6700    -6629    -6555    -6482    -6413 
   -6355    -6309    -6273    -6254    -6251    -6262    -6280    -6307 
   -6338    -6367    -6400    -6439    -6484    -6529    -6582    -6643 
   -6706    -6772    -6841    -6909    -6978    -7055    -7136    -7215 
   -7288    -7348    -7387    -7410    -7418    -7407    -7380    -7345 
   -7307    -7269    -7223    -7171    -7105    -7022    -6924    -6812 
   -6694    -6581    -6482    -6405    -6350    -6316    -6303    -6304 
   -6322    -6354    -6397    -6454    -6513    -6569    -6623    -6666 
   -6691    -6708    -6717    -6720    -6714    -6705    -6698    -6690 
   -6690    -6706    -6741    -6802    -6893    -7001    -7122    -7256 
   -7381    -7479    -7551    -7596    -7608    -7595    -7558    -7493 
   -7408    -7311    -7202    -7079    -6948    -6816    -6683    -6555 
   -6440    -6347    -6274    -6224    -6197    -6196    -6219    -6264 
   -6324    -6404    -6498    -6596    -6690    -6775    -6844    -6898 
   -6936    -6959    -6971    -6972    -6966    -6949    -6922    -6891 
   -6860    -6829    -6801    -6777    -6758    -6735    -6706    -6679 
   -6648    -6612    -6574    -6546    -6525    -6513    -6521    -6556 
   -6610    -6681    -6760    -6847    -6939    -7025    -7098    -7159 
   -7206    -7234    -7249    -7246    -7223    -7183    -7130    -7061 
   -6984    -6907    -6831    -6766    -6723    -6700    -6702    -6729 
   -6772    -6825    -6882    -6930    -6955    -6949    -6909    -6828 
   -6709    -6556    -6373    -6173    -5979    -5798    -5644    -5532 
   -5468    -5458    -5508    -5610    -5764    -5969    -6216    -6494 
   -6791    -7090    -7372    -7631    -7855    -8032    -8164    -8253 
   -8291    -8272    -8206    -8090    -7928    -7732    -7508    -7264 
   -7007    -6752    -6512    -6292    -6096    -5933    -5807    -5724 
   -5684    -5694    -5748    -5837    -5953    -6084    -6220    -6350 
   -6457    -6535    -6586    -6610    -6609    -6600    -6596    -6605 
   -6636    -6698    -6789    -6901    -7028    -7156    -7271    -7365 
   -7435    -7484    -7510    -7516    -7512    -7497    -7477    -7453 
   -7422    -7381    -7333    -7272    -7200    -7119    -7024    -6920 
   -6808    -6691    -6585    -6498    -6436    -6403    -6405    -6450 
   -6519    -6601    -6691    -6779    -6847    -6883    -6894    -6890 
   -6875    -6851    -6820    -6781    -6736    -6682    -6615    -6536 
   -6451    -6363    -6285    -6226    -6189    -6183    -6212    -6268 
   -6345    -6442    -6547    -6651    -6756    -6864    -6974    -7083 
   -7200    -7321    -7443    -7561    -7669    -7762    -7831    -7871 
   -7884    -7862    -7808    -7723    -7608    -7464    -7298    -7118 
   -6933    -6754    -6585    -6428    -6289    -6166    -6052    -5949 
   -5849    -5746    -5645    -5543    -5444    -5359    -5289    -5243 
   -5235    -5271    -5352    -5478    -5649    -5859    -6088    -6327 
   -6570    -6809    -7037    -7252    -7456    -7649    -7831    -7998 
   -8151    -8279    -8372    -8422    -8428    -8382    -8283    -8136 
   -7942    -7715    -7458    -7187    -6916    -6654    -6408    -6184 
   -5983    -5810    -5667    -5556    -5479    -5433    -5422    -5451 
   -5520    -5624    -5757    -5911    -6072    -6231    -6378    -6509 
   -6620    -6709    -6777    -6829    -6872    -6909    -6945    -6986 
   -7036    -7102    -7184    -7283    -7396    -7520    -7647    -7770 
   -7877    -7959    -8010    -8024    -7996    -7923    -7808    -7661 
   -7487    -7291    -7092    -6898    -6710    -6542    -6396    -6273 
   -6177    -6104    -6056    -6030    -6026    -6042    -6070    -6112 
   -6166    -6231    -6297    -6359    -6417    -6471    -6512    -6544 
   -6579    -6616    -6656    -6709    -6778    -6867    -6972    -7090 
   -7215    -7349    -7481    -7608    -7724    -7821    -7894    -7936 
   -7943    -7909    -7832    -7716    -7564    -7380    -7179    -6968 
   -6754    -6547    -6355    -6181    -6029    -5895    -5786    -5705 
   -5651    -5624    -5621    -5641    -5684    -5752    -5845    -5957 
   -6084    -6218    -6354    -6492    -6627    -6756    -6882    -7005 
   -7125    -7244    -7361    -7468    -7561    -7634    -7677    -7689 
   -7673    -7630    -7565    -7484    -7400    -7314    -7226    -7137 
   -7049    -6960    -6870    -6772    -6671    -6567    -6455    -6342 
   -6239    -6150    -6073    -6012    -5977    -5969    -5980    -6012 
   -6064    -6126    -6201    -6292    -6392    -6504    -6627    -6752 
   -6871    -6978    -7067    -7132    -7173    -7198    -7199    -7187 
   -7168    -7136    -7098    -7057    -7010    -6964    -6918    -6872 
   -6836    -6812    -6798    -6799    -6813    -6840    -6879    -6926 
   -6974    -7018    -7057    -7086    -7098    -7101    -7095    -7082 
   -7063    -7036    -7001    -6951    -6886    -6816    -6737    -6654 
   -6575    -6511    -6459    -6423    -6403    -6392    -6388    -6393 
   -6409    -6428    -6447    -6469    -6484    -6488    -6477    -6454 
   -6419    -6373    -6320    -6266    -6219    -6191    -6183    -6196 
   -6237    -6307    -6401    -6527    -6678    -6853    -7055    -7275 
   -7504    -7728    -7935    -8109    -8233    -8301    -8306    -8248 
   -8133    -7967    -7762    -7528    -7273    -7015    -6764    -6524 
   -6300    -6102    -5925    -5776    -5663    -5587    -5553    -5563 
   -5614    -5706    -5833    -5980    -6135    -6295    -6448    -6593 
   -6725    -6840    -6944    -7037    -7117    -7191    -7261    -7325 
   -7373    -7408    -7431    -7434    -7419    -7387    -7339    -7277 
   -7202    -7111    -7013    -6912    -6817    -6732    -6663    -6613 
   -6579    -6552    -6527    -6505    -6490    -6482    -6489    -6513 
   -6554    -6606    -6659    -6702    -6733    -6747    -6745    -6731 
   -6706    -6679    -6660    -6646    -6639    -6652    -6679    -6709 
   -6743    -6785    -6836    -6893    -6961    -7041    -7119    -7198 
   -7267    -7321    -7354    -7365    -7341    -7288    -7215    -7117 
   -6999    -6874    -6745    -6627    -6524    -6442    -6389    -6357 
   -6345    -6363    -6403    -6455    -6529    -6623    -6731    -6849 
   -6970    -7076    -7161    -7213    -7226    -7200    -7133    -7029 
   -6899    -6759    -6621    -6497    -6397    -6323    -6276    -6258 
   -6264    -6289    -6334    -6394    -6467    -6550    -6639    -6732 
   -6826    -6918    -7003    -7078    -7137    -7184    -7218    -7233 
   -7230    -7210    -7167    -7099    -7018    -6928    -6829    -6731 
   -6636    -6547    -6466    -6394    -6334    -6288    -6261    -6255 
   -6274    -6315    -6372    -6447    -6536    -6625    -6713    -6798 
   -6874    -6940    -6997    -7042    -7078    -7098    -7102    -7086 
   -7052    -7001    -6936    -6860    -6781    -6702    -6633    -6578 
   -6539    -6520    -6520    -6534    -6566    -6609    -6658    -6710 
   -6764    -6820    -6874    -6924    -6972    -7020    -7063    -7109 
   -7161    -7210    -7254    -7292    -7319    -7335    -7348    -7352 
   -7342    -7325    -7304    -7276    -7238    -7184    -7113    -7025 
   -6928    -6812    -6681    -6548    -6419    -6295    -6185    -6096 
   -6025    -5979    -5962    -5983    -6043    -6139    -6265    -6420 
   -6598    -6786    -6976    -7160    -7329    -7473    -7582    -7649 
   -7677    -7673    -7634    -7562    -7464    -7344    -7213    -7078 
   -6947    -6828    -6721    -6635    -6569    -6519    -6485    -6467 
   -6461    -6462    -6466    -6466    -6459    -6446    -6423    -6392 
   -6354    -6311    -6273    -6242    -6215    -6192    -6180    -6173 
   -6172    -6178    -6191    -6220    -6273    -6345    -6438    -6546 
   -6659    -6778    -6895    -7002    -7095    -7175    -7240    -7284 
   -7311    -7321    -7310    -7281    -7241    -7192    -7138    -7080 
   -7028    -6990    -6961    -6941    -6928    -6918    -6905    -6889 
   -6867    -6841    -6814    -6790    -6770    -6756    -6752    -6758 
   -6758    -6755    -6747    -6727    -6700    -6681    -6667    -6652 
   -6644    -6646    -6640    -6627    -6608    -6575    -6538    -6501 
   -6471    -6465    -6481    -6517    -6579    -6663    -6759    -6859 
   -6957    -7042    -7106    -7149    -7173    -7175    -7155    -7122 
   -7084    -7042    -6998    -6952    -6907    -6867    -6831    -6802 
   -6786    -6782    -6785    -6787    -6802    -6835    -6868    -6894 
   -6920    -6937    -6929    -6903    -6859    -6795    -6718    -6632 
   -6544    -6457    -6370    -6293    -6224    -6169    -6130    -6111 
   -6114    -6137    -6183    -6253    -6345    -6454    -6575    -6704 
   -6828    -6945    -7049    -7138    -7215    -7280    -7334    -7380 
   -7425    -7464    -7493    -7514    -7518    -7500    -7464    -7406 
   -7323    -7222    -7103    -6972    -6831    -6682    -6527    -6376 
