Origin Time       2026/01/15 07:13:00
Lat.              42.7
Long.             145.4
Depth. (km)       30
Mag.              5.7
Station Code      HKD181
Station Lat.      43.1161
Station Long.     141.5462
Station Height(m) 8
Record Time       2026/01/15 07:14:42
Sampling Freq(Hz) 100Hz
Duration Time(s)  60
Dir.              U-D
Scale Factor      7845(gal)/8223790
Max. Acc. (gal)   0.478
Last Correction   2026/01/15 07:14:42
Memo.             
[...]
   15057    15101    15142    15182    15215    15236    15238    15228 
   15192    15148    15114    15088    15061    15049    15049    15051 
   15061    15074    15080    15093    15107    15124    15145    15155 
   15147    15136    15124    15107    15097    15088    15083    15086 
   15098    15105    15105    15106    15103    15095    15090    15082 
   15076    15080    15091    15107    15126    15144    15157    15163 
   15159    15149    15129    15102    15071    15039    15009    14989 
   14982    14985    14995    15016    15039    15056    15067    15076 
   15086    15091    15095    15106    15118    15132    15145    15156 
   15161    15163    15157    15148    15141    15141    15145    15148 
   15145    15137    15124    15106    15084    15066    15047    15022 
   15007    15003    15003    15006    15014    15033    15060    15094 
   15137    15182    15214    15232    15233    15219    15199    15164 
   15122    15087    15060    15043    15045    15059    15071    15076 
   15078    15078    15071    15066    15067    15066    15064    15070 
   15076    15084    15087    15086    15091    15099    15103    15109 
   15120    15133    15142    15142    15132    15120    15103    15075 
   15041    15007    14979    14958    14953    14960    14968    14980 
   14997    15013    15028    15041    15052    15068    15094    15118 
   15136    15152    15175    15195    15205    15207    15207    15201 
   15186    15168    15152    15138    15130    15124    15120    15122 
   15125    15124    15122    15117    15110    15105    15095    15095 
   15103    15109    15118    15140    15172    15202    15221    15219 
   15198    15168    15138    15110    15084    15061    15055    15060 
   15067    15082    15102    15113    15117    15120    15109    15097 
   15091    15084    15080    15088    15091    15094    15110    15126 
   15134    15142    15155    15161    15159    15153    15142    15128 
   15109    15088    15072    15064    15060    15055    15049    15043 
   15036    15030    15029    15029    15032    15045    15063    15078 
   15094    15115    15141    15160    15172    15188    15209    15218 
   15226    15237    15242    15237    15228    15213    15196    15180 
   15160    15145    15136    15120    15097    15071    15044    15026 
   15016    15001    14985    14979    14979    14986    15003    15021 
   15036    15048    15057    15061    15059    15051    15041    15030 
   15025    15032    15055    15083    15111    15138    15165    15194 
   15218    15226    15221    15207    15188    15165    15140    15113 
   15087    15074    15075    15079    15086    15102    15120    15132 
   15145    15163    15172    15174    15174    15172    15171    15169 
   15169    15175    15183    15186    15183    15178    15161    15137 
   15109    15074    15036    15009    14989    14974    14968    14967 
   14974    14990    15012    15029    15041    15048    15051    15049 
   15048    15051    15055    15066    15086    15105    15121    15134 
   15140    15141    15144    15147    15147    15144    15141    15136 
   15130    15125    15114    15109    15115    15133    15157    15180 
   15201    15215    15223    15225    15228    15225    15209    15188 
   15179    15169    15155    15140    15129    15115    15101    15087 
   15078    15075    15078    15083    15083    15080    15072    15063 
   15057    15056    15055    15055    15056    15055    15051    15045 
   15039    15037    15045    15060    15087    15117    15142    15163 
   15178    15175    15160    15144    15120    15088    15056    15026 
   15001    14982    14975    14986    15010    15045    15088    15134 
   15180    15223    15257    15283    15296    15300    15295    15276 
   15242    15199    15156    15113    15072    15041    15014    14993 
   14982    14980    14982    14991    15005    15018    15036    15055 
   15084    15122    15155    15186    15213    15225    15223    15210 
   15184    15156    15126    15093    15061    15043    15033    15026 
   15025    15021    15007    14987    14964    14940    14935    14940 
   14944    14951    14966    14985    15009    15034    15053    15068 
   15076    15075    15076    15078    15071    15066    15064    15066 
   15072    15091    15110    15126    15152    15180    15198    15213 
   15229    15240    15248    15252    15242    15225    15214    15198 
   15178    15161    15147    15132    15121    15114    15118    15130 
   15148    15167    15183    15191    15191    15179    15160    15138 
   15117    15102    15095    15091    15094    15103    15114    15118 
   15110    15095    15076    15053    15034    15025    15025    15033 
   15052    15079    15109    15134    15155    15172    15179    15176 
   15165    15149    15137    15126    15121    15120    15121    15124 
   15129    15136    15148    15161    15168    15165    15164    15161 
   15148    15129    15106    15071    15030    14993    14960    14939 
   14933    14941    14959    14979    15002    15026    15048    15063 
   15076    15087    15099    15120    15148    15182    15217    15241 
   15249    15250    15246    15225    15199    15179    15167    15164 
   15171    15183    15196    15213    15225    15223    15206    15174 
   15130    15087    15055    15026    15007    14998    14983    14968 
   14958    14947    14940    14941    14953    14971    14987    15001 
   15007    15005    14995    14986    14979    14967    14958    14960 
   14964    14975    14999    15028    15056    15091    15130    15171 
   15211    15249    15284    15317    15337    15337    15330    15318 
   15300    15279    15250    15215    15188    15180    15180    15183 
   15201    15229    15255    15273    15282    15279    15267    15249 
   15219    15178    15122    15070    15022    14980    14948    14918 
   14886    14858    14835    14820    14812    14813    14827    14851 
   14879    14912    14948    14989    15032    15064    15086    15101 
   15106    15103    15094    15083    15078    15076    15076    15079 
   15083    15095    15109    15120    15133    15151    15171    15199 
   15230    15255    15268    15272    15273    15277    15280    15273 
   15257    15240    15226    15211    15192    15172    15149    15126 
   15109    15099    15093    15087    15090    15097    15103    15109 
   15098    15072    15047    15017    14974    14922    14864    14808 
   14760    14725    14709    14717    14744    14793    14859    14933 
   15002    15068    15122    15159    15187    15209    15219    15223 
   15228    15234    15238    15242    15252    15272    15290    15304 
   15319    15331    15337    15336    15327    15309    15277    15240 
   15206    15180    15153    15126    15110    15105    15102    15102 
   15102    15101    15105    15118    15133    15157    15187    15218 
   15245    15267    15279    15275    15261    15248    15233    15213 
   15192    15179    15165    15147    15125    15103    15082    15057 
   15030    15010    14997    14990    14990    14999    15021    15043 
   15061    15083    15097    15099    15105    15110    15109    15110 
   15111    15111    15111    15117    15122    15122    15124    15118 
   15105    15098    15090    15067    15040    15016    14983    14948 
   14916    14883    14862    14854    14850    14859    14882    14906 
   14933    14964    15001    15040    15079    15122    15172    15218 
   15257    15292    15317    15325    15327    15321    15311    15311 
   15310    15310    15313    15304    15287    15259    15207    15137 
   15066    14995    14939    14906    14890    14890    14910    14941 
   14979    15028    15087    15147    15199    15246    15276    15286 
   15282    15263    15219    15152    15066    14970    14874    14789 
   14720    14675    14654    14655    14673    14706    14758    14817 
   14883    14956    15022    15076    15110    15124    15126    15111 
   15091    15086    15095    15110    15130    15156    15186    15215 
   15242    15264    15275    15269    15253    15230    15207    15195 
   15194    15195    15203    15215    15221    15226    15232    15242 
   15261    15275    15276    15275    15271    15265    15264    15263 
   15260    15255    15245    15236    15221    15199    15180    15169 
   15156    15141    15120    15088    15051    15009    14960    14913 
   14867    14827    14798    14794    14814    14863    14947    15052 
   15164    15261    15334    15372    15371    15340    15287    15210 
   15113    15007    14909    14825    14760    14716    14686    14677 
   14690    14719    14758    14806    14859    14910    14960    15010 
   15055    15091    15130    15172    15215    15267    15319    15364 
   15411    15457    15495    15530    15557    15573    15588    15597 
   15584    15550    15498    15433    15364    15294    15228    15169 
   15109    15037    14970    14924    14902    14904    14922    14943 
   14947    14932    14905    14872    14847    14825    14814    14818 
   14832    14858    14897    14951    15017    15082    15138    15178 
   15186    15164    15132    15107    15093    15080    15070    15063 
   15053    15049    15056    15075    15111    15160    15211    15260 
   15298    15322    15340    15352    15354    15346    15325    15294 
   15256    15210    15151    15083    15017    14962    14918    14899 
   14910    14936    14967    15003    15040    15066    15084    15105 
   15124    15141    15167    15199    15232    15261    15283    15288 
   15283    15260    15217    15159    15094    15028    14975    14939 
   14910    14893    14881    14872    14872    14878    14890    14910 
   14935    14955    14968    14986    15021    15064    15110    15167 
   15230    15290    15338    15369    15387    15394    15387    15365 
   15334    15298    15253    15201    15149    15099    15045    14987 
   14931    14875    14831    14810    14814    14840    14891    14964 
   15047    15128    15201    15259    15299    15323    15333    15326 
   15304    15275    15245    15215    15190    15167    15134    15097 
   15059    15022    14989    14960    14947    14947    14948    14949 
   14947    14933    14909    14875    14841    14813    14798    14809 
   14839    14886    14951    15016    15072    15124    15171    15207 
   15230    15246    15265    15287    15310    15334    15350    15348 
   15326    15288    15237    15172    15110    15057    15013    14983 
   14970    14966    14978    15006    15045    15101    15167    15238 
   15309    15375    15434    15475    15489    15483    15457    15419 
   15363    15294    15229    15163    15098    15053    15026    15006 
   14998    15009    15028    15055    15093    15130    15152    15156 
   15151    15133    15107    15083    15060    15039    15021    15009 
   15005    14999    14985    14964    14944    14929    14918    14916 
   14922    14935    14960    14993    15025    15057    15094    15128 
   15161    15194    15219    15234    15240    15236    15223    15211 
   15209    15214    15222    15238    15249    15248    15240    15223 
   15205    15191    15188    15187    15190    15196    15199    15192 
   15176    15147    15106    15051    14986    14924    14870    14831 
   14809    14800    14800    14818    14859    14910    14966    15022 
   15068    15094    15098    15083    15048    15001    14948    14898 
   14852    14817    14796    14789    14806    14844    14886    14933 
   14983    15032    15075    15113    15138    15161    15187    15202 
   15214    15236    15257    15279    15303    15329    15357    15384 
   15402    15407    15403    15400    15399    15383    15356    15325 
   15280    15229    15182    15134    15083    15030    14976    14929 
   14893    14871    14863    14866    14879    14904    14931    14951 
   14974    15005    15028    15044    15066    15084    15097    15106 
   15105    15087    15061    15036    15012    14994    14989    14995 
   15017    15045    15074    15099    15121    15140    15153    15168 
   15187    15215    15249    15283    15313    15338    15356    15363 
   15363    15356    15342    15319    15288    15253    15210    15161 
   15118    15084    15053    15021    14980    14931    14882    14848 
   14839    14843    14864    14909    14964    15028    15102    15172 
   15238    15299    15346    15372    15381    15377    15354    15310 
   15256    15201    15148    15102    15072    15064    15063    15066 
   15074    15072    15055    15032    15005    14978    14952    14928 
   14913    14909    14910    14917    14933    14956    14986    15017 
   15047    15066    15072    15072    15068    15060    15057    15060 
   15063    15064    15067    15072    15080    15087    15094    15107 
   15121    15134    15153    15180    15213    15241    15256    15261 
   15265    15263    15256    15249    15238    15229    15219    15209 
   15201    15199    15206    15217    15229    15246    15268    15291 
   15309    15318    15314    15296    15271    15240    15202    15156 
   15106    15048    14983    14913    14840    14775    14725    14694 
   14682    14688    14705    14743    14796    14855    14922    14998 
   15064    15118    15160    15183    15186    15178    15163    15148 
   15153    15178    15215    15267    15323    15372    15414    15449 
   15472    15481    15476    15452    15406    15345    15273    15192 
   15102    15001    14890    14787    14704    14642    14608    14604 
   14629    14681    14748    14828    14917    15003    15079    15145 
   15202    15248    15279    15295    15299    15299    15299    15299 
   15307    15314    15307    15294    15273    15249    15222    15195 
   15169    15144    15126    15117    15115    15117    15120    15130 
   15136    15133    15133    15129    15121    15120    15122    15122 
   15111    15087    15052    15010    14963    14918    14881    14856 
   14845    14848    14858    14870    14889    14910    14943    14990 
   15043    15099    15163    15221    15271    15313    15341    15367 
   15381    15385    15383    15373    15357    15342    15329    15315 
   15295    15269    15250    15238    15233    15234    15236    15236 
   15230    15210    15174    15129    15074    15009    14953    14918 
   14897    14889    14902    14931    14970    15016    15056    15093 
   15133    15161    15171    15175    15176    15165    15142    15121 
   15097    15064    15037    15025    15025    15040    15071    15110 
   15153    15203    15256    15298    15318    15314    15288    15249 
   15196    15134    15074    15017    14964    14918    14891    14895 
   14925    14964    15013    15067    15111    15147    15176    15198 
   15222    15244    15253    15250    15236    15215    15187    15155 
   15125    15101    15086    15082    15083    15084    15084    15076 
   15056    15022    14972    14913    14852    14791    14733    14683 
   14644    14619    14612    14632    14679    14742    14812    14885 
   14955    15018    15070    15105    15129    15148    15164    15168 
   15171    15179    15187    15199    15228    15265    15302    15334 
   15371    15395    15394    15377    15350    15313    15265    15207 
   15147    15105    15078    15057    15051    15047    15036    15025 
   15017    15009    15001    14995    14991    14991    15001    15018 
   15032    15036    15032    15018    15006    15005    15012    15028 
   15051    15083    15125    15167    15199    15223    15241    15252 
   15264    15282    15296    15304    15309    15306    15294    15280 
   15265    15245    15222    15196    15168    15134    15098    15066 
   15034    15006    14983    14979    14995    15018    15052    15099 
   15155    15209    15252    15280    15292    15290    15273    15256 
   15242    15225    15199    15167    15129    15087    15047    15009 
   14983    14966    14948    14941    14945    14960    14987    15022 
   15052    15080    15117    15161    15209    15249    15279    15296 
   15298    15284    15264    15240    15206    15161    15106    15043 
   14974    14908    14859    14831    14831    14862    14908    14952 
   15001    15049    15087    15114    15137    15163    15186    15195 
   15192    15179    15155    15121    15087    15061    15040    15020 
   15006    14998    14993    14993    15002    15020    15034    15039 
   15030    15014    14995    14987    14994    15014    15048    15087 
   15129    15176    15223    15263    15290    15311    15323    15327 
   15334    15345    15345    15333    15313    15272    15214    15165 
   15124    15080    15047    15024    14999    14976    14959    14944 
   14933    14925    14917    14908    14898    14893    14901    14914 
   14936    14974    15017    15047    15064    15072    15072    15075 
   15079    15070    15051    15036    15028    15025    15036    15070 
   15118    15168    15218    15272    15322    15361    15390    15403 
   15400    15380    15344    15288    15219    15151    15086    15026 
   14985    14956    14931    14914    14913    14921    14937    14955 
   14979    15014    15056    15095    15130    15164    15202    15245 
   15286    15317    15341    15354    15340    15296    15245    15196 
   15147    15094    15034    14972    14910    14862    14832    14810 
   14806    14829    14864    14906    14956    15012    15070    15122 
   15167    15205    15233    15246    15248    15240    15237    15244 
   15252    15252    15236    15214    15192    15171    15153    15137 
   15118    15099    15084    15083    15090    15099    15113    15114 
   15095    15072    15059    15049    15047    15057    15079    15103 
   15126    15134    15128    15113    15095    15078    15052    15007 
   14953    14905    14872    14854    14841    14837    14839    14839 
   14852    14886    14939    15006    15084    15159    15219    15264 
   15295    15313    15326    15342    15358    15372    15380    15381 
   15373    15358    15345    15330    15304    15273    15244    15222 
   15215    15219    15223    15225    15215    15192    15161    15124 
   15078    15032    14995    14970    14948    14922    14895    14868 
   14844    14825    14820    14833    14864    14905    14951    14997 
   15037    15074    15113    15149    15175    15188    15192    15183 
   15157    15122    15086    15049    15021    15010    15007    15013 
   15041    15078    15109    15138    15155    15153    15148    15145 
   15137    15133    15132    15124    15110    15105    15105    15111 
   15126    15149    15178    15214    15255    15298    15330    15348 
   15352    15337    15306    15260    15203    15142    15082    15033 
   14995    14970    14959    14953    14952    14958    14964    14968 
   14964    14951    14931    14902    14875    14858    14858    14870 
   14886    14916    14956    14999    15041    15078    15101    15118 
   15134    15156    15184    15218    15250    15276    15292    15295 
   15280    15245    15205    15164    15121    15087    15071    15061 
   15059    15066    15075    15087    15101    15117    15133    15148 
   15161    15172    15182    15188    15192    15201    15215    15226 
   15238    15259    15276    15290    15311    15341    15363    15372 
