Origin Time       2026/01/15 07:13:00
Lat.              42.7
Long.             145.4
Depth. (km)       30
Mag.              5.7
Station Code      HKD106
Station Lat.      42.3414
Station Long.     142.3688
Station Height(m) 5
Record Time       2026/01/15 07:14:28
Sampling Freq(Hz) 100Hz
Duration Time(s)  62
Dir.              E-W
Scale Factor      7845(gal)/8223790
Max. Acc. (gal)   1.675
Last Correction   2026/01/15 07:14:28
Memo.             
[...]
    2254     2200     2155     2116     2079     2042     2012     1992 
    1975     1957     1941     1930     1922     1921     1934     1958 
    1976     1983     1985     1985     1988     1999     2010     2019 
    2037     2058     2065     2058     2056     2060     2074     2103 
    2131     2165     2203     2232     2246     2235     2200     2158 
    2120     2074     2023     1980     1952     1941     1948     1958 
    1971     1989     2011     2035     2064     2093     2110     2110 
    2107     2111     2111     2096     2069     2041     2022     2019 
    2020     2012     1989     1965     1950     1946     1953     1965 
    1979     1987     2003     2034     2065     2097     2135     2170 
    2209     2251     2286     2319     2342     2359     2367     2353 
    2322     2276     2207     2118     2025     1952     1912     1887 
    1850     1811     1782     1768     1775     1794     1817     1848 
    1888     1941     1992     2033     2076     2118     2142     2153 
    2160     2174     2191     2197     2193     2180     2158     2128 
    2092     2058     2045     2037     2022     2002     1987     1981 
    1988     2012     2049     2083     2110     2122     2116     2112 
    2111     2103     2099     2108     2130     2162     2196     2219 
    2231     2234     2235     2236     2241     2259     2284     2299 
    2299     2290     2278     2274     2284     2296     2312     2335 
    2358     2374     2374     2355     2342     2338     2319     2280 
    2232     2172     2106     2045     1977     1896     1804     1711 
    1621     1537     1474     1437     1428     1437     1448     1467 
    1514     1588     1680     1782     1881     1979     2069     2146 
    2214     2293     2388     2494     2601     2690     2747     2779 
    2798     2812     2813     2789     2733     2644     2520     2374 
    2224     2085     1969     1873     1780     1686     1602     1533 
    1487     1474     1489     1528     1588     1668     1745     1814 
    1888     1971     2061     2162     2254     2320     2362     2390 
    2412     2444     2485     2517     2551     2593     2625     2648 
    2673     2683     2662     2606     2540     2486     2455     2434 
    2409     2378     2334     2278     2216     2155     2095     2029 
    1957     1884     1810     1736     1653     1557     1460     1372 
    1312     1281     1260     1233     1208     1200     1221     1273 
    1344     1426     1522     1632     1761     1911     2065     2208 
    2343     2474     2604     2728     2840     2936     3003     3040 
    3057     3071     3079     3075     3030     2944     2843     2740 
    2625     2497     2359     2209     2053     1899     1760     1632 
    1505     1378     1252     1138     1039      965      915      885 
     874      886      918      966     1028     1093     1169     1260 
    1375     1514     1660     1806     1948     2087     2230     2369 
    2497     2620     2724     2810     2882     2941     2995     3051 
    3102     3150     3186     3194     3180     3148     3102     3041 
    2947     2820     2675     2531     2403     2296     2191     2077 
    1952     1814     1669     1526     1394     1282     1185     1098 
    1038     1007     1000     1015     1061     1134     1225     1340 
    1474     1610     1752     1903     2047     2188     2330     2470 
    2593     2683     2754     2808     2830     2828     2812     2785 
    2745     2695     2631     2552     2470     2396     2326     2250 
    2173     2104     2043     1998     1964     1934     1904     1869 
    1836     1814     1804     1813     1836     1864     1902     1956 
    2023     2099     2173     2239     2304     2370     2436     2497 
    2539     2567     2590     2606     2609     2592     2540     2455 
    2346     2232     2131     2043     1964     1880     1790     1701 
    1625     1571     1549     1555     1575     1606     1634     1665 
    1709     1768     1838     1915     1992     2068     2141     2212 
    2282     2340     2366     2361     2342     2315     2281     2241 
    2196     2147     2097     2053     2019     1995     1973     1939 
    1895     1856     1826     1813     1827     1864     1907     1964 
    2034     2099     2151     2195     2227     2247     2257     2268 
    2286     2300     2297     2280     2249     2209     2165     2107 
    2034     1961     1910     1900     1925     1975     2046     2130 
    2215     2303     2384     2439     2462     2448     2407     2355 
    2307     2257     2197     2130     2060     1987     1912     1842 
    1780     1725     1679     1649     1634     1628     1628     1636 
    1651     1672     1706     1749     1798     1858     1918     1969 
    2023     2079     2123     2170     2236     2323     2417     2516 
    2623     2722     2808     2868     2899     2917     2924     2913 
    2891     2843     2759     2644     2498     2336     2182     2042 
    1915     1806     1707     1615     1526     1437     1360     1298 
    1255     1235     1228     1229     1250     1283     1327     1385 
    1458     1548     1641     1723     1814     1923     2033     2130 
    2218     2300     2386     2478     2567     2644     2705     2743 
    2766     2790     2808     2808     2785     2736     2674     2616 
    2567     2516     2459     2400     2338     2272     2207     2149 
    2092     2043     2002     1961     1931     1911     1892     1869 
    1844     1818     1791     1772     1769     1776     1776     1755 
    1726     1714     1717     1738     1769     1792     1800     1804 
    1822     1860     1907     1949     1976     1991     2004     2029 
    2060     2085     2101     2101     2087     2070     2062     2064 
    2072     2080     2085     2089     2103     2135     2177     2220 
    2257     2282     2299     2313     2326     2322     2288     2226 
    2142     2049     1956     1872     1783     1684     1584     1486 
    1398     1339     1308     1290     1285     1306     1358     1425 
    1491     1547     1590     1630     1678     1737     1798     1846 
    1888     1929     1965     2004     2049     2104     2168     2232 
    2305     2380     2440     2490     2533     2570     2593     2601 
    2594     2567     2523     2466     2401     2331     2265     2211 
    2178     2173     2193     2222     2258     2300     2336     2369 
    2400     2419     2423     2413     2384     2339     2289     2235 
    2181     2131     2083     2043     2025     2020     2033     2066 
    2118     2177     2249     2327     2407     2494     2581     2659 
    2736     2810     2875     2933     2979     3007     3017     3010 
    2979     2916     2830     2729     2609     2475     2336     2196 
    2056     1927     1818     1736     1679     1649     1647     1665 
    1684     1705     1742     1795     1860     1942     2034     2126 
    2215     2288     2343     2382     2404     2409     2409     2412 
    2417     2419     2411     2384     2340     2290     2247     2219 
    2201     2176     2134     2080     2014     1931     1838     1740 
    1645     1570     1513     1468     1440     1426     1417     1420 
    1440     1471     1513     1570     1645     1736     1827     1917 
    2006     2093     2176     2253     2327     2394     2448     2488 
    2502     2486     2440     2373     2286     2189     2087     1987 
    1903     1836     1776     1728     1691     1657     1622     1593 
    1566     1533     1497     1463     1441     1435     1443     1471 
    1522     1588     1675     1784     1903     2026     2145     2254 
    2344     2411     2446     2471     2498     2523     2531     2517 
    2492     2451     2394     2317     2227     2141     2068     2011 
    1969     1945     1927     1898     1858     1809     1755     1707 
    1672     1645     1634     1641     1653     1667     1682     1688 
    1676     1659     1656     1683     1732     1786     1830     1863 
    1881     1894     1906     1914     1907     1881     1854     1841 
    1834     1829     1817     1784     1746     1732     1745     1768 
    1795     1822     1860     1925     2027     2146     2251     2336 
    2420     2513     2612     2708     2787     2839     2848     2830 
    2805     2768     2708     2629     2543     2454     2362     2270 
    2177     2083     1999     1944     1927     1935     1956     1976 
    1979     1961     1945     1950     1981     2029     2085     2146 
    2203     2255     2311     2370     2424     2466     2494     2515 
    2528     2529     2520     2504     2482     2455     2431     2407 
    2378     2349     2326     2309     2282     2251     2228     2220 
    2228     2247     2278     2323     2367     2397     2412     2415 
    2393     2344     2274     2181     2073     1965     1850     1732 
    1628     1547     1478     1428     1417     1447     1514     1614 
    1744     1902     2076     2249     2405     2529     2617     2670 
    2686     2663     2610     2536     2440     2330     2209     2088 
    1971     1875     1813     1776     1752     1746     1769     1810 
    1860     1914     1969     2027     2096     2172     2246     2316 
    2378     2430     2465     2488     2502     2515     2523     2524 
    2521     2516     2502     2473     2425     2366     2303     2239 
    2174     2110     2042     1975     1921     1884     1868     1876 
    1892     1911     1941     1976     2002     2014     2019     2025 
    2023     2020     2018     2020     2042     2084     2133     2185 
    2239     2292     2344     2394     2439     2473     2497     2509 
    2515     2517     2517     2506     2478     2442     2416     2404 
    2384     2347     2313     2282     2238     2180     2108     2019 
    1923     1831     1740     1644     1544     1431     1296     1151 
    1013      895      791      687      588      510      460      448 
     469      514      565      619      676      745      842      951 
    1043     1120     1194     1270     1362     1470     1586     1696 
    1799     1896     1995     2108     2234     2344     2428     2502 
    2575     2658     2748     2821     2864     2891     2905     2911 
    2929     2944     2956     2971     2979     2976     2959     2921 
    2864     2783     2682     2577     2477     2373     2243     2079 
    1891     1713     1584     1507     1452     1394     1335     1293 
    1308     1397     1539     1709     1892     2093     2324     2594 
    2872     3111     3285     3407     3495     3565     3611     3612 
    3576     3526     3468     3385     3262     3095     2916     2751 
    2606     2470     2322     2158     2000     1864     1749     1642 
    1543     1463     1414     1391     1382     1378     1378     1389 
    1417     1462     1518     1576     1638     1726     1840     1957 
    2070     2160     2215     2268     2331     2389     2444     2501 
    2548     2578     2587     2577     2548     2509     2462     2403 
    2328     2239     2147     2061     1977     1891     1800     1709 
    1621     1553     1513     1491     1482     1485     1499     1528 
    1571     1621     1674     1723     1771     1822     1891     1973 
    2052     2127     2209     2300     2397     2489     2563     2621 
    2671     2720     2772     2816     2844     2857     2852     2825 
    2775     2701     2612     2516     2430     2357     2286     2219 
    2142     2043     1933     1825     1722     1622     1516     1405 
    1291     1192     1125     1096     1097     1121     1155     1205 
    1278     1364     1470     1594     1719     1830     1927     2004 
    2065     2111     2147     2182     2205     2209     2207     2196 
    2187     2188     2199     2211     2223     2247     2284     2323 
    2376     2451     2540     2629     2713     2787     2851     2899 
    2937     2949     2930     2890     2839     2774     2701     2623 
    2525     2394     2230     2038     1837     1642     1466     1314 
    1196     1108     1055     1030     1027     1053     1108     1181 
    1267     1368     1483     1599     1706     1810     1906     1984 
    2058     2135     2222     2315     2420     2533     2644     2737 
    2808     2849     2867     2864     2836     2776     2681     2552 
    2398     2226     2049     1875     1702     1539     1391     1270 
    1189     1162     1179     1231     1310     1410     1517     1629 
    1749     1864     1969     2072     2161     2238     2307     2357 
    2396     2435     2479     2539     2610     2690     2776     2859 
    2937     3003     3055     3100     3144     3169     3171     3142 
    3080     2986     2863     2729     2587     2431     2273     2111 
    1929     1738     1540     1333     1136      963      820      714 
     643      615      631      693      788      913     1073     1266 
    1468     1657     1834     1999     2142     2268     2371     2448 
    2500     2528     2544     2560     2573     2583     2590     2585 
    2581     2597     2619     2631     2639     2632     2605     2563 
    2515     2466     2416     2353     2278     2192     2095     1998 
    1894     1786     1683     1591     1505     1420     1336     1270 
    1221     1193     1197     1244     1328     1435     1561     1702 
    1846     2006     2187     2381     2589     2808     3025     3242 
    3443     3613     3743     3817     3842     3820     3750     3646 
    3512     3345     3137     2895     2623     2323     2018     1736 
    1476     1227     1009      822      656      540      473      446 
     471      530      608      702      805      928     1082     1264 
    1456     1642     1821     1991     2154     2303     2420     2511 
    2573     2609     2643     2686     2731     2774     2820     2866 
    2917     2974     3026     3057     3060     3045     3017     2971 
    2905     2813     2691     2540     2373     2197     2023     1861 
    1711     1564     1418     1281     1148     1020      905      818 
     760      734      730      747      797      876      978     1100 
    1244     1410     1595     1790     1981     2162     2326     2466 
    2602     2745     2868     2972     3056     3100     3121     3136 
    3150     3164     3153     3114     3065     3003     2914     2809 
    2690     2547     2384     2212     2038     1864     1698     1539 
    1385     1237     1105      997      916      857      824      816 
     823      839      858      881      920      985     1080     1205 
    1356     1522     1695     1872     2060     2254     2450     2644 
    2829     2994     3132     3242     3334     3402     3437     3446 
    3429     3373     3280     3156     3007     2841     2666     2494 
    2328     2164     2015     1892     1782     1695     1644     1622 
    1614     1621     1645     1683     1730     1787     1842     1895 
    1953     2014     2084     2162     2235     2297     2351     2400 
    2446     2494     2547     2596     2637     2666     2677     2671 
    2652     2612     2555     2489     2411     2331     2258     2188 
    2120     2060     1999     1935     1881     1840     1806     1780 
    1759     1745     1746     1757     1777     1811     1850     1892 
    1944     2003     2072     2147     2216     2273     2312     2327 
    2315     2288     2254     2215     2170     2119     2060     1998 
    1939     1884     1826     1765     1703     1642     1599     1570 
    1547     1534     1528     1518     1514     1522     1541     1570 
    1605     1640     1671     1706     1748     1792     1841     1906 
    1985     2070     2154     2239     2330     2421     2506     2589 
    2658     2702     2721     2725     2717     2700     2671     2631 
    2582     2520     2444     2363     2277     2177     2070     1969 
    1879     1800     1744     1703     1671     1649     1637     1629 
    1622     1626     1641     1661     1691     1722     1749     1780 
    1819     1864     1917     1975     2029     2074     2119     2154 
    2178     2195     2204     2199     2180     2155     2128     2089 
    2041     1984     1927     1881     1857     1861     1887     1927 
    1973     2018     2064     2115     2161     2188     2184     2147 
    2093     2030     1962     1903     1860     1836     1836     1864 
    1922     1998     2069     2145     2224     2289     2350     2416 
    2481     2547     2614     2675     2722     2752     2781     2822 
    2866     2889     2887     2860     2809     2747     2685     2623 
    2570     2533     2501     2473     2455     2434     2401     2361 
    2326     2312     2317     2319     2297     2254     2214     2197 
    2197     2193     2166     2120     2081     2057     2038     2022 
    2007     1979     1948     1934     1946     1975     2006     2025 
    2031     2046     2081     2126     2172     2201     2207     2201 
    2204     2204     2181     2137     2081     2016     1938     1854 
    1769     1682     1586     1479     1360     1246     1148     1066 
    1003      959      938      938      957      989     1036     1102 
    1177     1250     1321     1395     1464     1539     1622     1694 
    1757     1827     1898     1961     2026     2091     2145     2188 
    2231     2277     2324     2373     2417     2459     2489     2505 
    2508     2502     2500     2497     2484     2461     2430     2397 
    2369     2335     2299     2265     2228     2185     2153     2124 
    2092     2072     2058     2037     2018     2008     2000     1991 
    1987     1984     1981     1992     2025     2069     2120     2180 
    2242     2308     2382     2459     2540     2621     2698     2771 
    2839     2894     2933     2953     2949     2914     2857     2790 
    2702     2601     2501     2403     2311     2224     2147     2081 
    2031     2003     1992     1996     2015     2042     2066     2088 
    2104     2103     2081     2038     1977     1907     1826     1742 
    1665     1603     1568     1563     1568     1590     1637     1696 
    1769     1868     1979     2092     2207     2315     2409     2490 
    2558     2605     2636     2650     2639     2617     2592     2556 
    2519     2482     2442     2405     2369     2326     2278     2235 
    2188     2130     2066     1998     1923     1846     1776     1715 
    1656     1597     1543     1505     1491     1497     1503     1513 
    1526     1540     1559     1587     1617     1638     1655     1664 
    1674     1682     1678     1661     1656     1655     1651     1657 
    1676     1702     1738     1791     1856     1929     2007     2088 
    2173     2258     2339     2421     2501     2573     2633     2683 
    2720     2737     2737     2720     2685     2635     2570     2494 
    2415     2339     2266     2197     2133     2079     2037     1999 
    1962     1925     1884     1841     1804     1782     1768     1767 
    1775     1784     1796     1814     1831     1853     1883     1915 
    1949     1979     2008     2045     2092     2145     2209     2284 
    2354     2423     2497     2567     2624     2664     2687     2691 
    2683     2666     2640     2601     2552     2489     2404     2305 
