Origin Time       2026/01/15 07:13:00
Lat.              42.7
Long.             145.4
Depth. (km)       30
Mag.              5.7
Station Code      HKD159
Station Lat.      41.7160
Station Long.     141.0046
Station Height(m) 23
Record Time       2026/01/15 07:15:07
Sampling Freq(Hz) 100Hz
Duration Time(s)  60
Dir.              E-W
Scale Factor      7845(gal)/8223790
Max. Acc. (gal)   0.879
Last Correction   2026/01/15 07:15:08
Memo.             
   -8491    -8444    -8360    -8271    -8195    -8162    -8182    -8210 
   -8199    -8178    -8189    -8208    -8209    -8212    -8257    -8322 
   -8334    -8310    -8317    -8341    -8352    -8357    -8390    -8434 
   -8468    -8499    -8505    -8455    -8378    -8271    -8149    -8101 
   -8121    -8135    -8143    -8160    -8149    -8155    -8241    -8333 
   -8415    -8515    -8563    -8583    -8648    -8687    -8684    -8698 
   -8689    -8600    -8429    -8230    -8055    -7900    -7750    -7585 
   -7457    -7456    -7584    -7793    -8046    -8278    -8419    -8514 
   -8652    -8804    -8922    -8978    -8934    -8819    -8681    -8523 
   -8382    -8274    -8149    -8024    -7970    -7966    -7977    -7993 
   -8008    -8047    -8106    -8167    -8244    -8329    -8406    -8441 
   -8425    -8394    -8361    -8348    -8351    -8322    -8282    -8272 
   -8282    -8303    -8348    -8419    -8495    -8523    -8498    -8463 
   -8442    -8438    -8414    -8340    -8289    -8329    -8392    -8386 
   -8298    -8183    -8106    -8050    -7983    -7912    -7850    -7828 
   -7898    -8063    -8236    -8343    -8419    -8538    -8683    -8772 
   -8781    -8735    -8680    -8662    -8667    -8627    -8548    -8446 
   -8306    -8135    -7971    -7857    -7827    -7879    -7963    -7986 
   -7916    -7852    -7886    -7994    -8118    -8202    -8232    -8262 
   -8332    -8452    -8575    -8629    -8633    -8646    -8711    -8820 
   -8874    -8814    -8688    -8557    -8437    -8302    -8156    -8008 
   -7874    -7816    -7831    -7863    -7913    -7997    -8122    -8259 
   -8357    -8446    -8554    -8676    -8799    -8850    -8784    -8652 
   -8486    -8311    -8216    -8189    -8117    -7986    -7873    -7839 
   -7904    -8021    -8124    -8199    -8264    -8338    -8426    -8486 
   -8468    -8406    -8376    -8392    -8391    -8347    -8294    -8252 
   -8243    -8301    -8382    -8429    -8468    -8523    -8590    -8625 
   -8569    -8421    -8244    -8120    -8081    -8074    -8036    -7963 
   -7886    -7852    -7913    -8019    -8070    -8118    -8237    -8383 
   -8513    -8592    -8598    -8568    -8556    -8530    -8469    -8394 
   -8303    -8235    -8248    -8301    -8326    -8317    -8283    -8252 
   -8232    -8208    -8187    -8182    -8179    -8159    -8139    -8141 
   -8158    -8187    -8243    -8330    -8424    -8483    -8495    -8487 
   -8488    -8496    -8476    -8415    -8337    -8278    -8276    -8320 
   -8341    -8318    -8260    -8178    -8112    -8083    -8086    -8121 
   -8149    -8144    -8160    -8224    -8280    -8313    -8367    -8441 
   -8521    -8594    -8629    -8617    -8599    -8576    -8532    -8486 
   -8424    -8320    -8205    -8083    -7947    -7844    -7821    -7873 
   -7966    -8075    -8172    -8224    -8268    -8356    -8449    -8515 
   -8554    -8560    -8544    -8523    -8509    -8487    -8422    -8325 
   -8248    -8208    -8179    -8139    -8091    -8071    -8075    -8052 
   -7990    -7931    -7912    -7942    -8020    -8127    -8225    -8320 
   -8436    -8583    -8746    -8885    -8962    -8988    -8980    -8931 
   -8849    -8716    -8536    -8326    -8089    -7855    -7684    -7582 
   -7541    -7564    -7636    -7734    -7866    -8055    -8283    -8530 
   -8743    -8870    -8932    -8957    -8916    -8807    -8657    -8479 
   -8314    -8209    -8116    -7986    -7875    -7850    -7943    -8124 
   -8295    -8382    -8398    -8407    -8446    -8467    -8409    -8310 
   -8264    -8295    -8340    -8349    -8349    -8330    -8213    -8035 
   -7916    -7867    -7825    -7816    -7909    -8075    -8241    -8413 
   -8598    -8783    -8947    -9051    -9051    -8959    -8837    -8706 
   -8536    -8340    -8160    -7987    -7839    -7792    -7815    -7794 
   -7757    -7751    -7758    -7812    -7958    -8145    -8316    -8465 
   -8588    -8698    -8807    -8866    -8839    -8775    -8708    -8598 
   -8463    -8375    -8316    -8224    -8104    -7973    -7834    -7720 
   -7684    -7715    -7777    -7861    -7954    -8048    -8187    -8407 
   -8660    -8868    -9011    -9104    -9140    -9132    -9089    -8976 
   -8765    -8506    -8249    -8005    -7785    -7614    -7495    -7426 
   -7420    -7487    -7604    -7765    -7965    -8186    -8406    -8607 
   -8793    -8969    -9092    -9144    -9134    -9035    -8860    -8667 
   -8475    -8286    -8110    -7947    -7793    -7689    -7668    -7682 
   -7717    -7790    -7871    -7940    -8028    -8160    -8305    -8425 
   -8552    -8681    -8762    -8791    -8791    -8770    -8756    -8746 
   -8685    -8580    -8509    -8457    -8374    -8264    -8140    -8012 
   -7919    -7882    -7885    -7906    -7938    -7946    -7933    -7947 
   -8027    -8163    -8295    -8403    -8484    -8522    -8565    -8641 
   -8716    -8793    -8874    -8919    -8905    -8850    -8772    -8673 
   -8532    -8360    -8201    -8068    -7960    -7867    -7771    -7699 
   -7654    -7603    -7576    -7630    -7753    -7884    -8001    -8140 
   -8309    -8475    -8646    -8826    -8976    -9070    -9092    -9013 
   -8864    -8698    -8519    -8306    -8074    -7875    -7728    -7611 
   -7541    -7549    -7614    -7701    -7811    -7942    -8089    -8270 
   -8495    -8742    -8958    -9105    -9181    -9169    -9080    -8946 
   -8764    -8538    -8293    -8027    -7771    -7595    -7514    -7503 
   -7546    -7639    -7782    -7965    -8160    -8359    -8557    -8730 
   -8856    -8912    -8903    -8866    -8795    -8664    -8506    -8363 
   -8225    -8075    -7955    -7902    -7884    -7908    -8006    -8155 
   -8332    -8519    -8652    -8692    -8687    -8665    -8611    -8538 
   -8455    -8330    -8182    -8070    -8006    -7951    -7905    -7897 
   -7905    -7935    -8025    -8164    -8320    -8469    -8606    -8726 
   -8796    -8793    -8750    -8675    -8559    -8417    -8247    -8059 
   -7917    -7858    -7847    -7854    -7888    -7963    -8077    -8208 
   -8334    -8469    -8618    -8729    -8780    -8795    -8792    -8772 
   -8710    -8588    -8438    -8309    -8201    -8079    -7958    -7874 
   -7817    -7781    -7794    -7882    -8004    -8117    -8249    -8368 
   -8425    -8452    -8491    -8537    -8559    -8550    -8557    -8560 
   -8496    -8378    -8271    -8210    -8163    -8100    -8064    -8093 
   -8155    -8228    -8290    -8330    -8380    -8426    -8434    -8432 
   -8429    -8403    -8359    -8305    -8267    -8247    -8209    -8174 
   -8158    -8109    -8021    -7958    -7954    -7978    -7997    -8059 
   -8198    -8351    -8459    -8567    -8698    -8772    -8768    -8756 
   -8761    -8738    -8688    -8650    -8581    -8428    -8240    -8059 
   -7869    -7707    -7658    -7699    -7744    -7796    -7898    -8033 
   -8162    -8299    -8438    -8534    -8567    -8571    -8592    -8672 
   -8769    -8788    -8735    -8672    -8575    -8442    -8343    -8263 
   -8136    -7996    -7890    -7819    -7797    -7819    -7846    -7882 
   -7938    -8005    -8091    -8216    -8380    -8522    -8598    -8658 
   -8700    -8691    -8689    -8691    -8646    -8603    -8542    -8402 
   -8280    -8233    -8174    -8114    -8112    -8120    -8113    -8136 
   -8179    -8194    -8203    -8232    -8249    -8240    -8214    -8194 
   -8224    -8268    -8260    -8262    -8298    -8295    -8278    -8282 
   -8259    -8226    -8249    -8314    -8374    -8414    -8484    -8591 
   -8633    -8610    -8606    -8569    -8482    -8425    -8374    -8278 
   -8176    -8081    -7983    -7916    -7886    -7886    -7916    -7975 
   -8073    -8185    -8303    -8460    -8603    -8685    -8757    -8818 
   -8823    -8800    -8742    -8621    -8478    -8345    -8185    -8001 
   -7874    -7792    -7704    -7653    -7661    -7704    -7784    -7892 
   -8025    -8197    -8370    -8550    -8757    -8904    -8955    -8972 
   -8946    -8864    -8762    -8599    -8375    -8194    -8071    -7951 
   -7870    -7859    -7857    -7854    -7920    -8032    -8118    -8203 
   -8340    -8484    -8572    -8622    -8640    -8611    -8584    -8560 
   -8479    -8336    -8171    -8032    -7939    -7878    -7870    -7901 
   -7909    -7942    -8059    -8194    -8282    -8374    -8491    -8598 
   -8702    -8822    -8920    -8982    -9034    -9043    -8972    -8864 
   -8739    -8546    -8298    -8063    -7854    -7674    -7545    -7470 
   -7437    -7430    -7477    -7572    -7665    -7788    -7987    -8212 
   -8421    -8657    -8905    -9089    -9188    -9221    -9163    -9034 
   -8910    -8784    -8610    -8421    -8248    -8070    -7898    -7805 
   -7792    -7767    -7727    -7754    -7840    -7927    -8009    -8110 
   -8228    -8344    -8448    -8550    -8649    -8712    -8742    -8739 
   -8688    -8622    -8581    -8525    -8432    -8345    -8284    -8195 
   -8060    -7950    -7925    -7982    -8064    -8122    -8166    -8228 
   -8317    -8398    -8425    -8422    -8422    -8437    -8473    -8492 
   -8475    -8459    -8453    -8422    -8349    -8241    -8141    -8109 
   -8137    -8163    -8147    -8097    -8054    -8063    -8127    -8186 
   -8209    -8240    -8317    -8402    -8460    -8498    -8507    -8475 
   -8419    -8387    -8409    -8440    -8437    -8438    -8463    -8456 
   -8378    -8255    -8148    -8110    -8147    -8194    -8185    -8137 
   -8132    -8174    -8181    -8141    -8124    -8147    -8205    -8305 
   -8414    -8486    -8517    -8534    -8538    -8546    -8584    -8614 
   -8596    -8571    -8559    -8514    -8406    -8275    -8175    -8100 
   -8001    -7898    -7821    -7765    -7738    -7751    -7780    -7819 
   -7893    -8019    -8190    -8361    -8499    -8619    -8730    -8816 
   -8857    -8839    -8784    -8710    -8653    -8619    -8550    -8444 
   -8375    -8325    -8256    -8193    -8132    -8073    -8050    -8089 
   -8156    -8195    -8189    -8168    -8164    -8163    -8139    -8120 
   -8155    -8225    -8283    -8334    -8371    -8368    -8352    -8365 
   -8397    -8419    -8449    -8496    -8546    -8556    -8488    -8375 
   -8271    -8194    -8152    -8141    -8131    -8108    -8098    -8121 
   -8145    -8137    -8118    -8137    -8187    -8249    -8333    -8409 
   -8441    -8476    -8532    -8546    -8494    -8407    -8324    -8253 
   -8225    -8245    -8268    -8272    -8262    -8229    -8191    -8164 
   -8162    -8193    -8243    -8295    -8347    -8391    -8415    -8421 
   -8426    -8438    -8459    -8500    -8557    -8588    -8568    -8503 
   -8410    -8293    -8164    -8040    -7928    -7852    -7827    -7855 
   -7916    -7974    -8029    -8095    -8182    -8297    -8413    -8505 
   -8614    -8738    -8816    -8839    -8826    -8766    -8658    -8529 
   -8371    -8179    -8002    -7874    -7781    -7727    -7712    -7722 
   -7770    -7893    -8063    -8228    -8398    -8575    -8714    -8812 
   -8887    -8911    -8864    -8784    -8708    -8623    -8527    -8428 
   -8298    -8151    -8014    -7894    -7817    -7790    -7821    -7901 
   -7983    -8060    -8145    -8236    -8336    -8428    -8488    -8534 
   -8549    -8515    -8460    -8406    -8351    -8272    -8167    -8052 
   -7962    -7932    -7971    -8055    -8163    -8298    -8442    -8560 
   -8661    -8779    -8866    -8885    -8833    -8706    -8532    -8378 
   -8274    -8185    -8068    -7954    -7861    -7804    -7811    -7865 
   -7923    -7966    -8014    -8082    -8164    -8256    -8347    -8445 
   -8553    -8638    -8681    -8692    -8673    -8642    -8614    -8568 
   -8488    -8391    -8287    -8181    -8098    -8036    -7971    -7925 
   -7938    -8002    -8101    -8216    -8309    -8375    -8453    -8544 
   -8614    -8665    -8706    -8723    -8699    -8656    -8625    -8579 
   -8494    -8384    -8268    -8149    -8032    -7928    -7855    -7807 
   -7774    -7781    -7836    -7908    -7994    -8120    -8262    -8401 
   -8542    -8675    -8776    -8858    -8928    -8951    -8910    -8831 
   -8729    -8598    -8453    -8298    -8127    -7948    -7784    -7669 
   -7619    -7623    -7661    -7736    -7843    -7983    -8164    -8347 
   -8498    -8629    -8739    -8822    -8887    -8937    -8923    -8823 
   -8704    -8606    -8480    -8313    -8148    -8000    -7865    -7762 
   -7693    -7641    -7630    -7696    -7797    -7885    -7987    -8141 
   -8306    -8448    -8572    -8671    -8741    -8799    -8804    -8766 
   -8746    -8723    -8654    -8548    -8409    -8264    -8151    -8041 
   -7900    -7786    -7755    -7753    -7763    -7823    -7893    -7965 
   -8087    -8214    -8337    -8490    -8586    -8650    -8779    -8862 
   -8865    -8838    -8716    -8541    -8417    -8347    -8290    -8178 
   -8004    -7896    -7913    -7932    -7911    -7908    -7912    -7977 
   -8171    -8361    -8444    -8490    -8579    -8688    -8757    -8796 
   -8803    -8750    -8729    -8741    -8642    -8476    -8316    -8089 
   -7942    -7943    -7855    -7653    -7569    -7673    -7801    -7906 
   -8051    -8143    -8251    -8525    -8723    -8722    -8757    -8823 
   -8819    -8883    -8924    -8721    -8577    -8672    -8581    -8256 
   -8029    -7939    -7904    -7935    -7975    -7928    -7847    -7846 
   -7915    -7969    -7965    -7969    -8100    -8313    -8457    -8532 
   -8600    -8596    -8537    -8553    -8613    -8595    -8534    -8536 
   -8584    -8596    -8538    -8444    -8357    -8279    -8189    -8118 
   -8109    -8097    -8033    -8006    -8010    -7948    -7912    -7952 
   -7966    -7996    -8112    -8239    -8332    -8468    -8622    -8673 
   -8710    -8773    -8756    -8742    -8769    -8675    -8487    -8394 
   -8316    -8160    -8090    -8005    -7786    -7712    -7805    -7838 
   -7877    -7979    -8037    -8093    -8279    -8491    -8537    -8542 
   -8669    -8762    -8748    -8733    -8694    -8573    -8457    -8418 
   -8357    -8175    -7994    -7969    -8025    -8023    -7977    -7943 
   -7931    -8001    -8139    -8213    -8244    -8316    -8394    -8488 
   -8617    -8691    -8676    -8630    -8631    -8629    -8525    -8371 
   -8271    -8225    -8168    -8095    -8019    -7892    -7812    -7919 
   -8086    -8162    -8194    -8230    -8297    -8426    -8557    -8602 
   -8567    -8544    -8563    -8545    -8476    -8433    -8386    -8276 
   -8201    -8202    -8187    -8108    -8006    -7998    -8063    -8060 
   -7989    -7948    -7981    -8095    -8272    -8424    -8473    -8519 
   -8619    -8681    -8725    -8743    -8625    -8507    -8545    -8598 
   -8564    -8451    -8275    -8128    -8056    -8020    -7942    -7792 
   -7739    -7879    -7990    -8023    -8145    -8255    -8264    -8378 
   -8544    -8546    -8538    -8681    -8833    -8843    -8761    -8685 
   -8579    -8438    -8387    -8326    -8117    -7931    -7879    -7867 
   -7877    -7913    -7981    -8097    -8220    -8356    -8500    -8583 
   -8626    -8673    -8688    -8665    -8650    -8631    -8579    -8532 
   -8456    -8271    -8033    -7873    -7844    -7861    -7790    -7689 
   -7704    -7813    -7923    -8073    -8266    -8421    -8523    -8648 
   -8789    -8838    -8815    -8833    -8862    -8795    -8619    -8446 
   -8364    -8348    -8301    -8141    -7878    -7688    -7709    -7784 
   -7776    -7788    -7863    -7966    -8144    -8337    -8379    -8357 
   -8452    -8577    -8660    -8718    -8680    -8577    -8542    -8544 
   -8494    -8398    -8303    -8210    -8140    -8139    -8077    -7901 
   -7797    -7792    -7824    -7946    -8060    -8059    -8079    -8248 
   -8463    -8549    -8572    -8691    -8770    -8768    -8847    -8842 
   -8716    -8737    -8757    -8617    -8475    -8326    -8124    -7971 
   -7831    -7670    -7609    -7623    -7646    -7747    -7869    -7939 
   -8067    -8267    -8429    -8533    -8644    -8789    -8954    -9077 
   -9082    -9018    -8934    -8800    -8684    -8567    -8363    -8160 
   -7973    -7758    -7624    -7566    -7531    -7576    -7638    -7717 
   -7921    -8132    -8241    -8376    -8599    -8757    -8812    -8908 
   -8995    -8973    -8920    -8851    -8691    -8446    -8247    -8128 
   -7993    -7896    -7859    -7767    -7715    -7788    -7857    -7916 
   -8020    -8149    -8338    -8515    -8613    -8727    -8847    -8843 
   -8739    -8652    -8565    -8479    -8402    -8252    -8110    -8074 
   -8000    -7927    -7946    -7936    -7970    -8109    -8167    -8163 
   -8235    -8353    -8428    -8430    -8436    -8468    -8459    -8448 
   -8484    -8469    -8438    -8452    -8392    -8283    -8241    -8190 
   -8082    -8035    -8071    -8098    -8125    -8166    -8172    -8185 
   -8202    -8186    -8197    -8232    -8278    -8368    -8402    -8378 
   -8405    -8436    -8480    -8581    -8625    -8580    -8548    -8560 
   -8503    -8384    -8347    -8278    -8125    -8127    -8167    -8082 
   -8102    -8172    -8139    -8170    -8209    -8155    -8163    -8235 
   -8318    -8434    -8552    -8648    -8665    -8600    -8556    -8540 
   -8496    -8398    -8274    -8221    -8251    -8256    -8208    -8112 
   -8025    -8062    -8141    -8128    -8129    -8159    -8176    -8330 
   -8467    -8374    -8305    -8317    -8256    -8247    -8309    -8321 
   -8301    -8282    -8259    -8268    -8356    -8438    -8394    -8268 
   -8228    -8361    -8561    -8629    -8529    -8374    -8251    -8208 
   -8206    -8137    -8001    -7905    -7915    -8033    -8162    -8179 
   -8121    -8094    -8129    -8237    -8386    -8541    -8688    -8745 
   -8719    -8722    -8689    -8568    -8441    -8345    -8324    -8395 
   -8417    -8287    -8070    -7900    -7843    -7838    -7863    -7948 
   -8051    -8174    -8360    -8492    -8467    -8394    -8355    -8374 
   -8514    -8676    -8716    -8642    -8550    -8515    -8459    -8293 
   -8113    -8020    -8040    -8179    -8345    -8413    -8399    -8347 
   -8266    -8209    -8176    -8170    -8257    -8376    -8403    -8405 
   -8407    -8332    -8271    -8260    -8206    -8206    -8314    -8372 
   -8378    -8388    -8344    -8289    -8290    -8314    -8324    -8313 
   -8301    -8270    -8222    -8193    -8144    -8058    -8020    -8067 
   -8145    -8240    -8332    -8378    -8430    -8514    -8567    -8584 
   -8579    -8537    -8494    -8476    -8444    -8353    -8253    -8191 
   -8143    -8118    -8125    -8120    -8083    -8035    -8010    -8055 
   -8120    -8151    -8208    -8293    -8380    -8464    -8494    -8486 
   -8506    -8546    -8569    -8538    -8475    -8410    -8345    -8302 
   -8264    -8225    -8187    -8127    -8067    -8051    -8082    -8135 
   -8170    -8189    -8187    -8206    -8329    -8499    -8600    -8637 
   -8649    -8625    -8568    -8533    -8498    -8405    -8284    -8201 
   -8136    -8070    -8043    -8027    -7962    -7911    -7919    -7954 
   -7992    -8043    -8137    -8233    -8290    -8351    -8410    -8451 
   -8514    -8590    -8634    -8633    -8606    -8581    -8552    -8492 
   -8390    -8241    -8104    -8048    -8056    -8078    -8106    -8121 
   -8104    -8090    -8129    -8208    -8286    -8363    -8437    -8484 
   -8519    -8563    -8573    -8546    -8522    -8495    -8425    -8322 
   -8240    -8198    -8187    -8172    -8127    -8073    -8051    -8102 
   -8206    -8280    -8295    -8303    -8351    -8415    -8422    -8355 
   -8299    -8333    -8409    -8463    -8490    -8496    -8487    -8480 
   -8459    -8401    -8316    -8249    -8239    -8240    -8202    -8163 
