Origin Time       2026/01/15 07:13:00
Lat.              42.7
Long.             145.4
Depth. (km)       30
Mag.              5.7
Station Code      HKD110
Station Lat.      42.1310
Station Long.     142.9354
Station Height(m) 4
Record Time       2026/01/15 07:14:25
Sampling Freq(Hz) 100Hz
Duration Time(s)  61
Dir.              E-W
Scale Factor      7845(gal)/8223790
Max. Acc. (gal)   2.201
Last Correction   2026/01/15 07:14:26
Memo.             
[...]
   -2663    -2656    -2652    -2654    -2660    -2670    -2685    -2704 
   -2718    -2717    -2705    -2683    -2650    -2608    -2566    -2528 
   -2497    -2462    -2431    -2421    -2421    -2424    -2434    -2447 
   -2461    -2478    -2496    -2505    -2511    -2517    -2527    -2533 
   -2538    -2550    -2583    -2623    -2648    -2674    -2705    -2728 
   -2754    -2783    -2802    -2814    -2822    -2816    -2805    -2799 
   -2794    -2782    -2771    -2758    -2747    -2739    -2735    -2732 
   -2727    -2714    -2709    -2714    -2718    -2720    -2721    -2721 
   -2714    -2706    -2694    -2683    -2682    -2682    -2675    -2671 
   -2673    -2668    -2658    -2643    -2633    -2635    -2639    -2637 
   -2639    -2644    -2644    -2641    -2635    -2624    -2617    -2617 
   -2614    -2617    -2627    -2635    -2633    -2631    -2629    -2629 
   -2625    -2616    -2602    -2597    -2596    -2590    -2577    -2565 
   -2559    -2558    -2555    -2556    -2552    -2544    -2542    -2543 
   -2540    -2535    -2538    -2550    -2563    -2587    -2624    -2663 
   -2700    -2737    -2774    -2809    -2840    -2864    -2883    -2889 
   -2887    -2891    -2891    -2876    -2868    -2866    -2862    -2857 
   -2852    -2835    -2818    -2813    -2808    -2791    -2764    -2722 
   -2675    -2635    -2598    -2569    -2544    -2506    -2463    -2435 
   -2417    -2392    -2365    -2342    -2326    -2327    -2340    -2353 
   -2373    -2400    -2421    -2442    -2466    -2490    -2517    -2548 
   -2582    -2619    -2651    -2677    -2709    -2751    -2793    -2833 
   -2872    -2899    -2913    -2925    -2937    -2937    -2929    -2917 
   -2897    -2875    -2857    -2844    -2825    -2802    -2787    -2779 
   -2764    -2745    -2729    -2708    -2687    -2679    -2670    -2666 
   -2673    -2679    -2685    -2695    -2708    -2725    -2748    -2760 
   -2767    -2771    -2762    -2745    -2732    -2724    -2724    -2729 
   -2727    -2721    -2728    -2736    -2725    -2700    -2674    -2641 
   -2609    -2579    -2547    -2513    -2485    -2462    -2458    -2473 
   -2489    -2496    -2497    -2502    -2512    -2519    -2517    -2524 
   -2542    -2571    -2606    -2641    -2673    -2700    -2722    -2747 
   -2772    -2803    -2830    -2837    -2825    -2808    -2791    -2782 
   -2779    -2774    -2768    -2762    -2751    -2737    -2717    -2682 
   -2644    -2612    -2575    -2543    -2515    -2489    -2467    -2465 
   -2475    -2488    -2504    -2516    -2523    -2531    -2544    -2558 
   -2570    -2575    -2579    -2596    -2617    -2646    -2679    -2714 
   -2758    -2818    -2878    -2924    -2963    -2990    -3010    -3028 
   -3034    -3030    -3018    -2990    -2943    -2893    -2839    -2774 
   -2710    -2655    -2608    -2571    -2540    -2505    -2479    -2474 
   -2479    -2492    -2506    -2517    -2531    -2554    -2566    -2559 
   -2550    -2533    -2509    -2497    -2497    -2498    -2515    -2542 
   -2573    -2614    -2658    -2697    -2737    -2772    -2786    -2789 
   -2775    -2744    -2717    -2705    -2701    -2702    -2697    -2691 
   -2698    -2706    -2718    -2733    -2737    -2733    -2729    -2717 
   -2691    -2662    -2643    -2621    -2596    -2583    -2587    -2597 
   -2616    -2643    -2666    -2679    -2682    -2681    -2682    -2689 
   -2700    -2706    -2700    -2690    -2690    -2689    -2687    -2701 
   -2716    -2720    -2731    -2743    -2740    -2740    -2752    -2772 
   -2802    -2833    -2848    -2853    -2853    -2860    -2880    -2895 
   -2902    -2913    -2922    -2916    -2903    -2891    -2875    -2860 
   -2853    -2840    -2818    -2797    -2762    -2712    -2668    -2636 
   -2608    -2583    -2555    -2512    -2458    -2393    -2324    -2270 
   -2238    -2224    -2231    -2249    -2280    -2330    -2396    -2478 
   -2582    -2698    -2794    -2874    -2937    -2970    -2976    -2976 
   -2971    -2959    -2943    -2914    -2875    -2830    -2787    -2755 
   -2731    -2709    -2686    -2652    -2606    -2565    -2525    -2488 
   -2457    -2434    -2411    -2393    -2381    -2362    -2350    -2359 
   -2384    -2420    -2459    -2489    -2512    -2533    -2556    -2586 
   -2617    -2644    -2662    -2667    -2667    -2673    -2682    -2687 
   -2693    -2702    -2710    -2717    -2732    -2743    -2745    -2751 
   -2748    -2735    -2727    -2724    -2712    -2702    -2706    -2714 
   -2722    -2732    -2735    -2728    -2718    -2712    -2705    -2691 
   -2675    -2662    -2646    -2627    -2608    -2587    -2562    -2539 
   -2528    -2523    -2520    -2523    -2525    -2527    -2532    -2539 
   -2548    -2558    -2563    -2569    -2589    -2629    -2677    -2716 
   -2741    -2751    -2755    -2758    -2767    -2782    -2789    -2782 
   -2760    -2722    -2670    -2613    -2559    -2523    -2508    -2511 
   -2523    -2540    -2567    -2604    -2650    -2702    -2748    -2779 
   -2798    -2805    -2791    -2767    -2743    -2714    -2685    -2664 
   -2656    -2659    -2674    -2690    -2704    -2714    -2720    -2713 
   -2685    -2639    -2594    -2550    -2519    -2513    -2515    -2517 
   -2540    -2573    -2601    -2636    -2679    -2714    -2745    -2776 
   -2798    -2820    -2848    -2871    -2889    -2901    -2909    -2924 
   -2930    -2920    -2895    -2866    -2828    -2783    -2727    -2660 
   -2604    -2567    -2540    -2512    -2498    -2502    -2511    -2528 
   -2565    -2613    -2673    -2741    -2795    -2840    -2875    -2887 
   -2883    -2863    -2821    -2776    -2740    -2694    -2654    -2636 
   -2631    -2628    -2647    -2683    -2720    -2754    -2791    -2824 
   -2855    -2884    -2905    -2916    -2911    -2886    -2856    -2829 
   -2797    -2755    -2695    -2620    -2548    -2489    -2434    -2386 
   -2342    -2299    -2262    -2230    -2193    -2161    -2149    -2147 
   -2155    -2185    -2242    -2308    -2377    -2446    -2512    -2581 
   -2639    -2677    -2691    -2694    -2689    -2679    -2671    -2671 
   -2673    -2671    -2670    -2667    -2658    -2650    -2652    -2655 
   -2660    -2671    -2681    -2683    -2687    -2697    -2706    -2721 
   -2748    -2779    -2805    -2822    -2829    -2828    -2828    -2828 
   -2821    -2802    -2767    -2716    -2650    -2583    -2525    -2474 
   -2432    -2413    -2415    -2421    -2431    -2448    -2465    -2477 
   -2498    -2521    -2548    -2589    -2627    -2662    -2704    -2749 
   -2798    -2856    -2922    -2988    -3056    -3113    -3156    -3181 
   -3181    -3159    -3122    -3084    -3041    -2999    -2957    -2910 
   -2860    -2812    -2762    -2716    -2677    -2646    -2623    -2610 
   -2605    -2598    -2596    -2597    -2601    -2606    -2606    -2600 
   -2587    -2570    -2548    -2533    -2532    -2543    -2563    -2593 
   -2633    -2677    -2718    -2748    -2770    -2794    -2825    -2855 
   -2883    -2909    -2928    -2944    -2955    -2963    -2972    -2975 
   -2965    -2944    -2907    -2859    -2803    -2748    -2702    -2658 
   -2621    -2604    -2594    -2587    -2596    -2621    -2654    -2691 
   -2724    -2748    -2768    -2787    -2801    -2803    -2793    -2764 
   -2716    -2650    -2574    -2497    -2428    -2371    -2330    -2304 
   -2289    -2285    -2288    -2284    -2270    -2253    -2232    -2215 
   -2209    -2219    -2239    -2265    -2296    -2347    -2432    -2540 
   -2662    -2789    -2911    -3029    -3134    -3211    -3262    -3299 
   -3316    -3318    -3315    -3306    -3292    -3284    -3276    -3254 
   -3218    -3161    -3080    -2982    -2878    -2764    -2640    -2508 
   -2367    -2224    -2092    -1968    -1853    -1756    -1684    -1651 
   -1648    -1663    -1702    -1772    -1864    -1964    -2065    -2154 
   -2234    -2317    -2397    -2463    -2515    -2556    -2590    -2617 
   -2641    -2673    -2710    -2747    -2779    -2817    -2852    -2875 
   -2883    -2867    -2820    -2758    -2695    -2629    -2574    -2536 
   -2515    -2506    -2508    -2511    -2504    -2489    -2470    -2444 
   -2412    -2377    -2346    -2328    -2324    -2335    -2355    -2370 
   -2385    -2416    -2452    -2493    -2547    -2605    -2667    -2743 
   -2812    -2871    -2937    -2999    -3055    -3107    -3154    -3191 
   -3217    -3227    -3226    -3206    -3172    -3125    -3072    -3015 
   -2949    -2872    -2798    -2721    -2639    -2560    -2489    -2434 
   -2400    -2376    -2359    -2361    -2376    -2404    -2444    -2493 
   -2551    -2613    -2664    -2712    -2763    -2816    -2878    -2941 
   -2992    -3034    -3071    -3086    -3082    -3079    -3073    -3061 
   -3051    -3030    -3006    -2982    -2952    -2916    -2882    -2852 
   -2820    -2783    -2745    -2717    -2706    -2702    -2708    -2733 
   -2770    -2812    -2868    -2928    -2975    -3014    -3042    -3052 
   -3048    -3033    -3003    -2961    -2902    -2833    -2770    -2714 
   -2659    -2605    -2555    -2506    -2462    -2432    -2408    -2382 
   -2369    -2361    -2349    -2339    -2335    -2338    -2347    -2367 
   -2404    -2452    -2506    -2567    -2636    -2712    -2795    -2893 
   -2990    -3075    -3148    -3204    -3246    -3284    -3316    -3335 
   -3342    -3331    -3300    -3250    -3188    -3115    -3037    -2949 
   -2847    -2732    -2612    -2493    -2380    -2274    -2176    -2091 
   -2019    -1961    -1923    -1910    -1914    -1929    -1954    -1983 
   -2016    -2057    -2101    -2149    -2201    -2258    -2319    -2382 
   -2444    -2501    -2554    -2592    -2617    -2643    -2664    -2674 
   -2682    -2693    -2700    -2701    -2705    -2716    -2741    -2776 
   -2812    -2837    -2847    -2835    -2813    -2786    -2755    -2722 
   -2689    -2644    -2589    -2532    -2479    -2434    -2394    -2362 
   -2340    -2335    -2339    -2347    -2357    -2363    -2370    -2384 
   -2398    -2412    -2430    -2450    -2469    -2490    -2519    -2552 
   -2598    -2658    -2727    -2798    -2870    -2929    -2976    -3007 
   -3021    -3025    -3024    -3011    -2994    -2978    -2961    -2953 
   -2953    -2965    -2992    -3033    -3088    -3149    -3210    -3276 
   -3338    -3381    -3410    -3424    -3422    -3402    -3370    -3322 
   -3246    -3150    -3040    -2917    -2795    -2686    -2583    -2475 
   -2363    -2259    -2168    -2087    -2011    -1944    -1890    -1852 
   -1834    -1836    -1853    -1888    -1950    -2031    -2123    -2228 
   -2350    -2482    -2625    -2764    -2890    -3002    -3100    -3173 
   -3221    -3244    -3248    -3230    -3198    -3163    -3127    -3098 
   -3072    -3045    -3010    -2968    -2929    -2901    -2874    -2847 
   -2826    -2805    -2768    -2728    -2685    -2636    -2592    -2550 
   -2498    -2444    -2396    -2358    -2327    -2297    -2272    -2261 
   -2269    -2297    -2344    -2400    -2457    -2519    -2578    -2624 
   -2652    -2660    -2644    -2612    -2573    -2531    -2490    -2458 
   -2442    -2438    -2440    -2432    -2415    -2396    -2370    -2339 
   -2305    -2258    -2199    -2139    -2081    -2026    -1983    -1954 
   -1941    -1934    -1945    -1980    -2035    -2108    -2200    -2320 
   -2463    -2613    -2763    -2907    -3041    -3168    -3272    -3338 
   -3380    -3404    -3404    -3393    -3379    -3349    -3312    -3284 
   -3253    -3219    -3192    -3156    -3111    -3071    -3025    -2972 
   -2921    -2868    -2810    -2755    -2705    -2659    -2627    -2612 
   -2604    -2613    -2651    -2708    -2764    -2822    -2880    -2925 
   -2957    -2980    -2990    -2983    -2952    -2894    -2812    -2713 
   -2613    -2520    -2430    -2340    -2261    -2200    -2154    -2127 
   -2124    -2137    -2161    -2197    -2239    -2281    -2320    -2361 
   -2404    -2451    -2500    -2548    -2597    -2647    -2702    -2760 
   -2821    -2879    -2936    -2988    -3024    -3040    -3045    -3032 
   -2991    -2933    -2875    -2824    -2767    -2706    -2651    -2602 
   -2570    -2569    -2592    -2627    -2673    -2727    -2785    -2849 
   -2917    -2986    -3042    -3078    -3090    -3090    -3069    -3038 
   -3006    -2956    -2897    -2835    -2763    -2682    -2604    -2528 
   -2459    -2398    -2343    -2296    -2258    -2230    -2204    -2184 
   -2170    -2161    -2158    -2158    -2165    -2187    -2218    -2255 
   -2317    -2389    -2450    -2512    -2586    -2662    -2732    -2789 
   -2837    -2886    -2928    -2953    -2964    -2961    -2934    -2884 
   -2821    -2747    -2663    -2582    -2506    -2444    -2404    -2388 
   -2386    -2394    -2408    -2417    -2421    -2419    -2397    -2358 
   -2299    -2220    -2143    -2070    -2002    -1956    -1953    -1991 
   -2074    -2197    -2343    -2512    -2702    -2890    -3068    -3244 
   -3408    -3557    -3684    -3785    -3866    -3932    -3982    -4018 
   -4037    -4037    -4021    -3981    -3920    -3844    -3744    -3612 
   -3453    -3271    -3063    -2836    -2598    -2353    -2114    -1892 
   -1688    -1509    -1366    -1256    -1183    -1146    -1142    -1170 
   -1231    -1308    -1399    -1512    -1640    -1780    -1929    -2070 
   -2207    -2350    -2492    -2629    -2772    -2920    -3064    -3215 
   -3375    -3538    -3697    -3844    -3970    -4079    -4167    -4228 
   -4271    -4306    -4334    -4349    -4347    -4318    -4261    -4180 
   -4074    -3940    -3793    -3620    -3412    -3177    -2925    -2664 
   -2400    -2137    -1877    -1630    -1398    -1185     -997     -835 
    -691     -564     -467     -396     -360     -364     -400     -467 
    -579     -729     -909    -1128    -1379    -1647    -1930    -2226 
   -2525    -2829    -3133    -3424    -3692    -3935    -4145    -4307 
   -4423    -4504    -4553    -4563    -4526    -4453    -4357    -4233 
   -4079    -3901    -3707    -3492    -3265    -3038    -2813    -2578 
   -2343    -2120    -1921    -1760    -1645    -1576    -1551    -1564 
   -1603    -1667    -1750    -1853    -1968    -2085    -2193    -2290 
   -2385    -2473    -2543    -2602    -2651    -2687    -2718    -2748 
   -2774    -2808    -2849    -2883    -2914    -2953    -2982    -2995 
   -3010    -3019    -3022    -3029    -3034    -3038    -3038    -3030 
   -3018    -3007    -2999    -2995    -2987    -2961    -2926    -2887 
   -2837    -2775    -2705    -2624    -2543    -2474    -2415    -2366 
   -2335    -2323    -2331    -2361    -2417    -2489    -2566    -2650 
   -2744    -2844    -2945    -3032    -3100    -3146    -3157    -3137 
   -3091    -3011    -2909    -2790    -2652    -2512    -2378    -2234 
   -2080    -1937    -1803    -1675    -1566    -1482    -1421    -1385 
   -1375    -1395    -1447    -1520    -1611    -1725    -1852    -1988 
   -2145    -2312    -2479    -2643    -2795    -2933    -3063    -3177 
   -3265    -3329    -3370    -3388    -3388    -3370    -3341    -3311 
   -3285    -3269    -3262    -3257    -3258    -3268    -3284    -3302 
   -3321    -3334    -3330    -3310    -3273    -3229    -3177    -3119 
   -3052    -2982    -2911    -2841    -2776    -2721    -2667    -2617 
   -2579    -2550    -2524    -2515    -2525    -2539    -2560    -2597 
   -2640    -2695    -2764    -2830    -2897    -2970    -3040    -3110 
   -3177    -3235    -3288    -3331    -3353    -3362    -3357    -3322 
   -3258    -3175    -3061    -2918    -2752    -2563    -2362    -2166 
   -1977    -1798    -1642    -1506    -1389    -1293    -1219    -1175 
   -1167    -1185    -1224    -1291    -1372    -1466    -1588    -1741 
   -1917    -2111    -2309    -2504    -2693    -2868    -3024    -3156 
   -3272    -3376    -3465    -3537    -3595    -3640    -3677    -3709 
   -3742    -3770    -3789    -3786    -3761    -3709    -3632    -3530 
   -3403    -3245    -3060    -2859    -2654    -2455    -2261    -2081 
   -1923    -1782    -1655    -1545    -1444    -1355    -1281    -1225 
   -1200    -1202    -1227    -1270    -1337    -1422    -1522    -1640 
   -1771    -1911    -2058    -2211    -2366    -2527    -2693    -2860 
   -3022    -3177    -3322    -3456    -3581    -3684    -3766    -3840 
   -3902    -3951    -3993    -4025    -4039    -4045    -4047    -4039 
   -4018    -3978    -3924    -3871    -3812    -3738    -3653    -3558 
   -3447    -3321    -3184    -3049    -2917    -2786    -2655    -2531 
   -2416    -2300    -2192    -2097    -2014    -1948    -1908    -1887 
   -1885    -1918    -1972    -2038    -2126    -2232    -2344    -2469 
   -2598    -2714    -2829    -2937    -3028    -3102    -3167    -3214 
   -3248    -3265    -3262    -3235    -3188    -3127    -3067    -3003 
   -2933    -2866    -2802    -2743    -2686    -2633    -2578    -2531 
   -2492    -2450    -2403    -2355    -2301    -2251    -2205    -2150 
   -2104    -2073    -2038    -2000    -1971    -1942    -1911    -1885 
   -1865    -1858    -1869    -1896    -1933    -1976    -2027    -2092 
   -2169    -2250    -2342    -2452    -2574    -2693    -2810    -2924 
   -3034    -3144    -3242    -3322    -3381    -3412    -3422    -3416 
   -3383    -3323    -3250    -3160    -3056    -2948    -2833    -2712 
   -2594    -2484    -2373    -2270    -2187    -2118    -2068    -2041 
   -2033    -2042    -2069    -2110    -2161    -2222    -2288    -2359 
   -2430    -2494    -2558    -2616    -2659    -2698    -2737    -2770 
   -2797    -2821    -2839    -2849    -2859    -2866    -2868    -2878 
   -2886    -2887    -2894    -2898    -2887    -2872    -2857    -2836 
   -2812    -2782    -2747    -2718    -2698    -2681    -2671    -2662 
   -2654    -2655    -2662    -2668    -2677    -2682    -2681    -2682 
   -2689    -2693    -2698    -2706    -2706    -2701    -2694    -2679 
   -2652    -2621    -2583    -2539    -2489    -2434    -2378    -2326 
   -2273    -2216    -2158    -2095    -2029    -1968    -1910    -1856 
   -1821    -1803    -1794    -1803    -1837    -1895    -1979    -2089 
   -2218    -2366    -2535    -2716    -2899    -3075    -3237    -3389 
   -3523    -3631    -3717    -3788    -3840    -3883    -3919    -3935 
   -3932    -3913    -3877    -3817    -3730    -3616    -3483    -3327 
   -3156    -2979    -2793    -2597    -2401    -2220    -2053    -1895 
   -1759    -1641    -1536    -1455    -1404    -1375    -1375    -1410 
   -1476    -1580    -1715    -1873    -2054    -2250    -2455    -2667 
   -2871    -3060    -3237    -3392    -3522    -3630    -3713    -3769 
   -3807    -3825    -3824    -3808    -3775    -3723    -3655    -3584 
   -3505    -3420    -3333    -3242    -3157    -3082    -3010    -2941 
   -2876    -2813    -2752    -2687    -2620    -2552    -2484    -2416 
   -2357    -2303    -2263    -2238    -2223    -2228    -2258    -2305 
   -2358    -2415    -2469    -2512    -2540    -2558    -2566    -2574 
   -2581    -2589    -2606    -2637    -2679    -2729    -2787    -2847 
   -2901    -2943    -2963    -2952    -2913    -2856    -2782    -2697 
   -2608    -2520    -2435    -2357    -2286    -2223    -2166    -2114 
   -2068    -2035    -2014    -2006    -2012    -2029    -2057    -2096 
   -2141    -2193    -2259    -2332    -2411    -2498    -2593    -2685 
   -2768    -2847    -2921    -2987    -3044    -3090    -3121    -3137 
   -3138    -3123    -3099    -3069    -3033    -2992    -2951    -2903 
   -2849    -2785    -2717    -2647    -2586    -2539    -2502    -2478 
