Origin Time       2026/01/15 07:13:00
Lat.              42.7
Long.             145.4
Depth. (km)       30
Mag.              5.7
Station Code      HKD106
Station Lat.      42.3414
Station Long.     142.3688
Station Height(m) 5
Record Time       2026/01/15 07:14:28
Sampling Freq(Hz) 100Hz
Duration Time(s)  62
Dir.              U-D
Scale Factor      7845(gal)/8223790
Max. Acc. (gal)   0.654
Last Correction   2026/01/15 07:14:28
Memo.             
[...]
    9913     9890     9873     9880     9902     9922     9937     9949 
    9961     9979     9996    10014    10017     9992     9967     9952 
    9942     9953     9973     9971     9938     9909     9907     9937 
    9983    10026    10038    10026    10014     9996     9967     9942 
    9938     9942     9937     9915     9884     9855     9834     9821 
    9806     9792     9796     9819     9838     9838     9830     9829 
    9841     9873     9917     9953     9984    10022    10065    10087 
   10088    10088    10085    10064    10034    10019    10010     9998 
    9987     9971     9942     9921     9914     9904     9888     9864 
    9829     9792     9767     9752     9745     9751     9767     9788 
    9814     9838     9856     9871     9886     9911     9948     9984 
   10007    10014    10007     9998     9984     9975     9975     9977 
    9977     9973     9961     9942     9931     9941     9965     9988 
   10003    10010    10011    10012    10021    10025    10019    10011 
   10000     9990     9988     9992     9991     9984     9980     9977 
    9965     9942     9923     9911     9898     9886     9883     9882 
    9886     9915     9957     9990    10015    10022    10030    10064 
   10054     9987     9952     9957     9960     9954     9937     9900 
    9859     9830     9833     9837     9819     9810     9821     9836 
    9850     9856     9849     9848     9855     9863     9879     9895 
    9909     9927     9950     9979    10000     9998     9981     9971 
    9964     9957     9950     9940     9931     9937     9945     9953 
    9960     9944     9902     9869     9853     9829     9801     9786 
    9788     9809     9829     9834     9833     9840     9857     9886 
    9911     9922     9921     9915     9918     9926     9938     9958 
    9973     9981     9994    10006    10021    10030    10019     9995 
    9975     9968     9973     9981     9975     9945     9902     9867 
    9856     9868     9895     9927     9949     9950     9942     9940 
    9940     9940     9931     9915     9895     9879     9883     9902 
    9925     9950     9971     9991    10022    10058    10091    10108 
   10127    10176    10216    10203    10188    10203    10200    10197 
   10219    10220    10192    10165    10154    10139    10103    10069 
   10050    10018     9980     9960     9942     9919     9894     9863 
    9833     9811     9798     9799     9801     9790     9779     9772 
    9761     9761     9775     9787     9805     9838     9864     9871 
    9863     9852     9853     9873     9904     9933     9940     9930 
    9936     9954     9979    10012    10057    10095    10114    10125 
   10127    10111    10087    10075    10073    10073    10060    10027 
    9987     9946     9907     9869     9849     9838     9815     9783 
    9763     9744     9711     9697     9706     9713     9711     9715 
    9733     9760     9790     9836     9887     9911     9923     9946 
    9972     9991    10012    10031    10031    10029    10034    10034 
   10029    10027    10031    10033    10025    10004     9981     9965 
    9963     9971     9980     9976     9961     9952     9950     9949 
    9950     9949     9942     9931     9910     9883     9864     9857 
    9864     9867     9857     9857     9880     9911     9941     9969 
    9987     9985     9965     9949     9948     9949     9940     9929 
    9925     9914     9891     9877     9886     9914     9944     9937 
    9904     9898     9930     9961     9960     9921     9865     9823 
    9809     9822     9853     9888     9909     9906     9900     9907 
    9918     9926     9937     9954     9977     9996    10003    10012 
   10041    10068    10075    10061    10029     9998     9991     9994 
    9979     9952     9931     9911     9888     9865     9849     9845 
    9856     9883     9917     9929     9911     9886     9857     9837 
    9844     9863     9860     9828     9787     9760     9755     9767 
    9794     9832     9876     9915     9938     9956     9988    10038 
   10081    10099    10107    10112    10104    10091    10076    10053 
   10018     9981     9961     9954     9929     9887     9853     9826 
    9806     9795     9787     9782     9794     9806     9807     9806 
    9813     9832     9863     9896     9926     9958     9990    10015 
   10050    10084    10103    10100    10083    10065    10060    10068 
   10085    10103    10116    10114    10088    10064    10052    10044 
   10037    10038    10039    10033    10019    10003     9992    10006 
   10029    10031    10011     9985     9957     9925     9903     9902 
    9917     9944     9960     9956     9936     9906     9869     9833 
    9814     9813     9806     9775     9715     9645     9602     9612 
    9652     9686     9710     9728     9722     9707     9707     9728 
    9776     9855     9930     9981    10019    10061    10102    10139 
   10180    10223    10266    10293    10296    10285    10273    10273 
   10272    10250    10204    10156    10125    10106    10079    10048 
   10012     9976     9950     9925     9873     9819     9784     9768 
    9765     9761     9744     9717     9690     9671     9657     9640 
    9639     9676     9729     9756     9756     9748     9749     9780 
    9846     9925     9983    10004     9992     9960     9926     9909 
    9910     9936     9981    10017    10014     9987     9964     9957 
    9964     9971     9969     9957     9931     9900     9871     9850 
    9853     9877     9907     9923     9914     9884     9861     9864 
    9890     9925     9946     9950     9942     9933     9922     9911 
    9906     9909     9919     9941     9954     9942     9918     9896 
    9882     9873     9872     9875     9876     9876     9883     9899 
    9911     9917     9915     9913     9910     9915     9934     9965 
   10002    10031    10044    10034    10021    10021    10030    10026 
   10007     9981     9950     9918     9890     9865     9853     9849 
    9845     9837     9833     9850     9880     9907     9940     9983 
   10021    10029    10021    10025    10026    10030    10057    10083 
   10083    10073    10073    10077    10084    10091    10076    10039 
   10011     9998     9987     9979     9980     9985     9981     9981 
   10003    10034    10049    10050    10038    10018     9996     9981 
    9980     9987     9990     9969     9927     9886     9855     9844 
    9838     9826     9792     9744     9702     9674     9655     9648 
    9639     9625     9613     9597     9589     9606     9637     9674 
    9718     9772     9838     9899     9930     9941     9952     9975 
   10015    10062    10100    10126    10133    10118    10100    10091 
   10076    10058    10046    10031    10015    10002     9983     9948 
    9910     9894     9900     9915     9926     9925     9906     9890 
    9904     9958    10022    10064    10081    10083    10081    10087 
   10100    10108    10111    10111    10107    10095    10076    10068 
   10076    10088    10093    10102    10099    10072    10035    10008 
    9980     9942     9898     9859     9833     9818     9814     9813 
    9810     9809     9813     9826     9846     9869     9894     9917 
    9938     9953     9960     9960     9963     9969     9975     9972 
    9960     9941     9914     9895     9896     9892     9879     9877 
    9880     9886     9902     9914     9930     9958     9995    10019 
   10007     9980     9981     9995     9994     9992     9995     9991 
    9969     9937     9913     9904     9919     9940     9946     9953 
    9969     9979     9975     9967     9979    10012    10052    10079 
   10081    10048     9992     9956     9958     9996    10045    10084 
   10100    10092    10066    10025     9967     9918     9899     9910 
    9936     9960     9969     9950     9906     9859     9828     9819 
    9829     9853     9883     9906     9907     9890     9869     9871 
    9900     9937     9957     9979    10014    10031    10017     9996 
    9984     9963     9921     9869     9813     9756     9701     9649 
    9607     9574     9545     9522     9499     9486     9494     9512 
    9529     9572     9655     9722     9736     9737     9775     9842 
    9907     9957    10015    10072    10095    10095    10099    10100 
   10092    10084    10064    10035    10015     9994     9963     9941 
    9931     9906     9873     9868     9876     9888     9907     9918 
    9919     9927     9945     9964     9976     9969     9948     9934 
    9945     9960     9948     9900     9842     9796     9780     9802 
    9830     9846     9861     9869     9867     9864     9856     9844 
    9846     9863     9884     9911     9933     9934     9917     9891 
    9872     9868     9867     9864     9856     9836     9817     9807 
    9796     9784     9778     9774     9784     9822     9855     9863 
    9861     9871     9894     9914     9938     9983    10033    10073 
   10108    10122    10118    10122    10142    10166    10185    10188 
   10189    10201    10210    10207    10195    10169    10143    10134 
   10130    10125    10127    10130    10112    10081    10052    10017 
    9973     9933     9904     9882     9860     9855     9865     9868 
    9856     9852     9871     9904     9938     9965     9971     9960 
    9944     9929     9926     9934     9940     9946     9940     9911 
    9872     9825     9782     9763     9772     9794     9814     9825 
    9822     9815     9818     9828     9844     9871     9895     9907 
    9910     9910     9910     9914     9938     9984    10037    10081 
   10127    10177    10220    10265    10308    10336    10349    10345 
   10320    10289    10264    10235    10204    10181    10168    10158 
   10146    10129    10116    10106    10080    10049    10031    10015 
    9992     9976     9967     9945     9925     9918     9921     9936 
    9954     9972     9984    10002    10031    10062    10093    10126 
   10150    10164    10166    10160    10157    10158    10158    10161 
   10156    10131    10106    10089    10069    10048    10031    10021 
    9998     9961     9933     9911     9884     9846     9806     9772 
    9742     9721     9706     9676     9628     9585     9560     9549 
    9544     9543     9536     9520     9520     9535     9540     9548 
    9563     9578     9594     9612     9624     9632     9637     9648 
    9660     9670     9687     9718     9753     9798     9855     9911 
    9963    10011    10060    10102    10125    10139    10154    10173 
   10189    10199    10203    10199    10185    10164    10137    10114 
   10100    10084    10039     9973     9918     9883     9845     9801 
    9760     9738     9732     9709     9678     9683     9722     9744 
    9729     9718     9737     9769     9792     9799     9801     9806 
    9805     9803     9819     9842     9865     9906     9957     9980 
    9981    10000    10018    10014    10007    10008     9995     9958 
    9911     9859     9802     9764     9763     9772     9786     9811 
    9832     9836     9832     9833     9842     9844     9840     9850 
    9876     9903     9936     9972    10022    10084    10141    10181 
   10212    10239    10254    10251    10242    10233    10211    10176 
   10142    10110    10073    10038    10008     9990     9979     9957 
    9922     9899     9896     9900     9906     9911     9892     9834 
    9778     9757     9759     9757     9759     9753     9714     9671 
    9674     9706     9730     9740     9744     9747     9765     9818 
    9887     9952     9987     9983     9961     9957     9975    10000 
   10038    10091    10137    10162    10176    10180    10170    10172 
   10200    10234    10250    10251    10234    10192    10138    10100 
   10079    10053    10022     9995     9972     9960     9950     9933 
    9919     9925     9941     9963     9979     9984     9981     9964 
    9936     9902     9871     9857     9850     9830     9803     9792 
    9794     9798     9802     9805     9822     9849     9876     9906 
    9941     9964     9976     9988    10006    10035    10079    10120 
   10125    10093    10052    10004     9954     9913     9880     9855 
    9842     9852     9877     9900     9907     9904     9911     9930 
    9960     9994    10019    10030    10023     9999     9975     9979 
   10015    10062    10099    10120    10134    10147    10168    10191 
   10192    10170    10157    10161    10160    10149    10142    10138 
   10137    10143    10154    10149    10130    10125    10127    10114 
   10083    10052    10022     9992     9967     9946     9933     9930 
    9933     9936     9944     9953     9956     9957     9969     9984 
    9983     9964     9937     9902     9863     9834     9814     9795 
    9772     9729     9676     9634     9605     9579     9555     9532 
    9512     9508     9517     9524     9525     9532     9537     9543 
    9558     9580     9591     9585     9567     9570     9597     9628 
    9645     9645     9644     9660     9695     9734     9765     9783 
    9801     9822     9842     9868     9903     9921     9921     9922 
    9909     9879     9845     9796     9744     9709     9687     9672 
    9652     9612     9563     9524     9502     9497     9498     9513 
    9543     9564     9582     9629     9687     9740     9790     9846 
    9929    10034    10126    10201    10262    10305    10350    10412 
   10473    10523    10573    10613    10621    10588    10527    10463 
   10416    10405    10442    10507    10552    10531    10431    10299 
   10216    10242    10339    10419    10420    10341    10250    10208 
   10201    10187    10142    10099    10108    10156    10187    10154 
   10056     9946     9886     9890     9929     9961     9963     9949 
    9946     9945     9952     9972     9983     9991    10018    10057 
   10107    10162    10203    10220    10231    10245    10268    10282 
   10274    10262    10262    10261    10242    10188    10112    10054 
   10022     9999     9953     9879     9798     9720     9651     9607 
    9572     9539     9514     9508     9508     9505     9508     9516 
    9516     9521     9545     9564     9568     9570     9572     9575 
    9570     9552     9532     9522     9537     9568     9587     9585 
    9582     9583     9582     9575     9566     9555     9555     9568 
    9587     9601     9609     9624     9641     9667     9709     9765 
    9826     9883     9922     9952     9988    10035    10088    10135 
   10174    10200    10207    10203    10206    10231    10273    10308 
   10341    10365    10362    10350    10354    10369    10381    10382 
   10382    10373    10350    10311    10265    10237    10215    10183 
   10149    10112    10068    10006     9923     9825     9732     9660 
    9597     9528     9464     9429     9420     9421     9431     9448 
    9468     9489     9514     9552     9601     9653     9715     9779 
    9830     9892     9969    10038    10099    10156    10204    10253 
   10311    10359    10388    10404    10409    10403    10385    10380 
   10388    10381    10361    10341    10326    10309    10280    10245 
   10201    10138    10061     9992     9929     9875     9841     9810 
    9767     9732     9697     9647     9589     9541     9513     9501 
    9502     9506     9508     9529     9567     9609     9657     9698 
    9725     9748     9763     9778     9798     9809     9813     9817 
    9822     9838     9863     9890     9919     9953     9996    10033 
   10050    10077    10120    10168    10212    10238    10241    10224 
   10184    10137    10098    10056    10019     9995     9980     9977 
    9984     9990     9994     9996    10004    10025    10044    10057 
   10069    10065    10053    10048    10035    10027    10030    10027 
   10029    10029    10012     9996     9973     9940     9911     9880 
    9848     9823     9805     9790     9763     9720     9683     9663 
    9649     9640     9645     9679     9732     9786     9842     9918 
    9998    10042    10069    10115    10150    10153    10158    10162 
   10131    10071    10025    10003     9969     9921     9900     9892 
    9886     9904     9942     9984    10017    10023    10022    10015 
    9991     9964     9923     9863     9818     9794     9780     9784 
    9798     9806     9801     9799     9807     9810     9802     9796 
    9787     9778     9779     9782     9788     9791     9790     9798 
    9803     9813     9841     9857     9853     9837     9829     9844 
    9859     9876     9910     9919     9909     9898     9883     9871 
    9868     9875     9892     9903     9918     9953     9977     9991 
   10018    10053    10091    10122    10145    10164    10179    10192 
   10201    10192    10181    10177    10170    10161    10150    10135 
   10120    10106    10087    10056    10002     9940     9894     9859 
    9821     9776     9734     9695     9663     9656     9670     9688 
    9725     9776     9840     9921    10004    10073    10123    10157 
   10199    10242    10262    10277    10292    10309    10331    10347 
   10341    10315    10300    10303    10299    10276    10246    10230 
   10224    10199    10142    10073    10002     9944     9903     9863 
    9810     9736     9656     9597     9552     9521     9513     9512 
    9513     9517     9524     9535     9555     9586     9629     9688 
    9768     9853     9930     9996    10048    10089    10127    10161 
   10193    10216    10227    10220    10188    10131    10068    10015 
    9967     9917     9875     9832     9788     9759     9740     9718 
    9695     9680     9661     9622     9580     9547     9518     9504 
    9508     9528     9549     9563     9576     9590     9606     9632 
    9670     9711     9749     9788     9828     9865     9904     9942 
    9969     9984     9987     9980     9973     9977     9994    10023 
   10057    10088    10115    10135    10160    10197    10222    10219 
   10215    10204    10179    10153    10142    10135    10125    10120 
   10127    10135    10138    10153    10174    10189    10196    10184 
   10152    10116    10089    10062    10027     9987     9964     9958 
    9956     9953     9953     9954     9958     9971     9985     9988 
    9994    10010    10022    10018    10014    10022    10029    10025 
   10018    10002     9981     9975     9991    10015    10035    10050 
   10064    10068    10061    10060    10080    10112    10143    10174 
   10206    10235    10266    10299    10315    10305    10284    10250 
   10197    10130    10060     9983     9894     9806     9733     9664 
    9589     9520     9468     9424     9378     9337     9309     9293 
    9304     9336     9367     9401     9439     9481     9528     9579 
    9625     9667     9706     9742     9774     9795     9814     9844 
    9876     9902     9921     9919     9892     9857     9823     9795 
    9776     9760     9755     9769     9802     9841     9872     9900 
    9934     9972    10006    10037    10071    10092    10106    10125 
   10142    10146    10142    10146    10152    10145    10131    10129 
   10130    10127    10127    10141    10156    10160    10160    10152 
   10120    10083    10057    10029     9995     9969     9954     9944 
