Origin Time       2026/01/15 07:13:00
Lat.              42.7
Long.             145.4
Depth. (km)       30
Mag.              5.7
Station Code      HKD181
Station Lat.      43.1161
Station Long.     141.5462
Station Height(m) 8
Record Time       2026/01/15 07:14:42
Sampling Freq(Hz) 100Hz
Duration Time(s)  60
Dir.              E-W
Scale Factor      7845(gal)/8223790
Max. Acc. (gal)   1.054
Last Correction   2026/01/15 07:14:42
Memo.             
   -5616    -5630    -5645    -5655    -5659    -5660    -5663    -5660 
   -5653    -5652    -5655    -5656    -5663    -5680    -5702    -5725 
   -5751    -5772    -5795    -5823    -5852    -5880    -5910    -5931 
   -5953    -5977    -5994    -5998    -5998    -5989    -5975    -5958 
   -5935    -5913    -5894    -5873    -5856    -5848    -5844    -5836 
   -5829    -5827    -5829    -5830    -5829    -5825    -5814    -5795 
   -5772    -5741    -5709    -5676    -5644    -5610    -5579    -5560 
   -5548    -5540    -5537    -5540    -5547    -5563    -5586    -5610 
   -5633    -5659    -5684    -5705    -5721    -5738    -5759    -5779 
   -5800    -5825    -5845    -5864    -5883    -5895    -5896    -5894 
   -5886    -5871    -5849    -5825    -5798    -5767    -5737    -5710 
   -5687    -5670    -5655    -5645    -5640    -5637    -5643    -5652 
   -5659    -5665    -5676    -5680    -5682    -5691    -5703    -5718 
   -5740    -5760    -5775    -5795    -5815    -5830    -5846    -5857 
   -5863    -5863    -5853    -5838    -5823    -5807    -5791    -5780 
   -5773    -5768    -5763    -5759    -5755    -5752    -5751    -5753 
   -5755    -5751    -5746    -5742    -5740    -5738    -5736    -5734 
   -5732    -5721    -5714    -5714    -5710    -5705    -5701    -5697 
   -5695    -5698    -5706    -5719    -5736    -5755    -5772    -5794 
   -5815    -5833    -5849    -5860    -5867    -5872    -5875    -5871 
   -5868    -5869    -5867    -5864    -5859    -5850    -5837    -5817 
   -5794    -5769    -5744    -5719    -5698    -5680    -5668    -5657 
   -5647    -5641    -5648    -5653    -5659    -5670    -5684    -5701 
   -5718    -5738    -5760    -5779    -5794    -5799    -5794    -5784 
   -5771    -5755    -5738    -5725    -5711    -5698    -5684    -5670 
   -5660    -5655    -5648    -5643    -5643    -5645    -5651    -5661 
   -5678    -5698    -5729    -5765    -5798    -5830    -5864    -5891 
   -5907    -5915    -5921    -5921    -5915    -5903    -5891    -5877 
   -5864    -5848    -5825    -5800    -5780    -5763    -5751    -5744 
   -5737    -5737    -5742    -5752    -5767    -5784    -5794    -5803 
   -5810    -5814    -5818    -5819    -5815    -5809    -5799    -5784 
   -5765    -5742    -5715    -5687    -5665    -5652    -5641    -5637 
   -5644    -5655    -5664    -5675    -5686    -5692    -5699    -5702 
   -5697    -5691    -5686    -5676    -5670    -5664    -5660    -5660 
   -5659    -5661    -5674    -5687    -5706    -5730    -5755    -5782 
   -5813    -5841    -5865    -5884    -5895    -5903    -5906    -5906 
   -5902    -5891    -5877    -5864    -5849    -5837    -5833    -5833 
   -5833    -5833    -5830    -5823    -5815    -5803    -5794    -5790 
   -5787    -5791    -5806    -5821    -5829    -5840    -5848    -5849 
   -5849    -5845    -5832    -5813    -5792    -5764    -5734    -5706 
   -5675    -5637    -5606    -5582    -5557    -5539    -5522    -5508 
   -5501    -5497    -5495    -5501    -5514    -5535    -5563    -5595 
   -5626    -5652    -5672    -5682    -5684    -5687    -5690    -5692 
   -5697    -5709    -5725    -5740    -5760    -5783    -5806    -5836 
   -5871    -5904    -5934    -5957    -5969    -5973    -5973    -5967 
   -5960    -5949    -5934    -5918    -5900    -5877    -5854    -5833 
   -5809    -5787    -5767    -5749    -5736    -5721    -5710    -5703 
   -5694    -5684    -5680    -5676    -5672    -5676    -5683    -5692 
   -5703    -5715    -5726    -5738    -5749    -5763    -5779    -5787 
   -5787    -5779    -5769    -5761    -5746    -5729    -5710    -5690 
   -5670    -5655    -5641    -5630    -5628    -5632    -5634    -5641 
   -5659    -5680    -5703    -5729    -5755    -5779    -5805    -5826 
   -5849    -5872    -5888    -5899    -5906    -5907    -5902    -5892 
   -5879    -5864    -5850    -5837    -5830    -5826    -5818    -5811 
   -5810    -5806    -5800    -5794    -5787    -5786    -5783    -5780 
   -5783    -5786    -5786    -5784    -5783    -5782    -5780    -5779 
   -5779    -5780    -5780    -5780    -5776    -5772    -5769    -5764 
   -5760    -5756    -5749    -5741    -5734    -5728    -5724    -5719 
   -5718    -5725    -5733    -5737    -5734    -5725    -5717    -5705 
   -5690    -5678    -5667    -5656    -5652    -5652    -5652    -5656 
   -5663    -5671    -5679    -5683    -5686    -5686    -5683    -5683 
   -5683    -5682    -5683    -5684    -5680    -5679    -5682    -5690 
   -5709    -5734    -5763    -5798    -5834    -5868    -5900    -5931 
   -5954    -5971    -5984    -5994    -5995    -5991    -5980    -5958 
   -5927    -5892    -5856    -5818    -5778    -5736    -5697    -5661 
   -5633    -5613    -5601    -5591    -5589    -5591    -5598    -5605 
   -5616    -5628    -5641    -5659    -5678    -5694    -5711    -5725 
   -5740    -5760    -5779    -5796    -5815    -5834    -5849    -5864 
   -5873    -5875    -5868    -5852    -5830    -5809    -5792    -5778 
   -5760    -5751    -5748    -5746    -5745    -5745    -5745    -5746 
   -5751    -5760    -5772    -5783    -5795    -5803    -5806    -5806 
   -5796    -5786    -5778    -5767    -5749    -5730    -5714    -5699 
   -5691    -5686    -5679    -5672    -5668    -5667    -5665    -5661 
   -5656    -5653    -5649    -5645    -5645    -5648    -5648    -5645 
   -5651    -5655    -5661    -5680    -5706    -5730    -5755    -5780 
   -5802    -5819    -5840    -5860    -5872    -5881    -5884    -5877 
   -5865    -5852    -5834    -5813    -5790    -5764    -5734    -5714 
   -5705    -5699    -5702    -5710    -5717    -5722    -5728    -5734 
   -5746    -5755    -5764    -5775    -5783    -5788    -5795    -5803 
   -5803    -5799    -5795    -5788    -5779    -5769    -5763    -5756 
   -5753    -5749    -5745    -5742    -5741    -5740    -5741    -5740 
   -5733    -5730    -5729    -5730    -5741    -5753    -5763    -5768 
   -5772    -5776    -5779    -5779    -5778    -5776    -5775    -5772 
   -5769    -5771    -5775    -5776    -5780    -5787    -5794    -5800 
   -5807    -5814    -5819    -5825    -5832    -5840    -5844    -5845 
   -5844    -5842    -5844    -5844    -5840    -5833    -5826    -5814 
   -5803    -5794    -5783    -5772    -5764    -5757    -5751    -5742 
   -5738    -5733    -5728    -5721    -5709    -5690    -5664    -5638 
   -5617    -5601    -5586    -5578    -5580    -5593    -5613    -5640 
   -5671    -5707    -5740    -5769    -5799    -5821    -5832    -5841 
   -5848    -5849    -5848    -5845    -5837    -5829    -5815    -5802 
   -5791    -5780    -5771    -5765    -5757    -5749    -5745    -5741 
   -5737    -5736    -5734    -5732    -5729    -5726    -5721    -5718 
   -5719    -5719    -5726    -5738    -5752    -5767    -5783    -5792 
   -5796    -5800    -5799    -5792    -5780    -5767    -5751    -5738 
   -5729    -5713    -5697    -5688    -5688    -5688    -5695    -5710 
   -5729    -5749    -5772    -5796    -5821    -5842    -5861    -5877 
   -5894    -5907    -5910    -5902    -5881    -5848    -5800    -5749 
   -5706    -5674    -5652    -5648    -5656    -5667    -5678    -5686 
   -5692    -5702    -5714    -5728    -5740    -5752    -5761    -5768 
   -5775    -5782    -5788    -5790    -5783    -5772    -5764    -5760 
   -5761    -5769    -5779    -5790    -5802    -5815    -5832    -5849 
   -5864    -5875    -5880    -5881    -5877    -5868    -5850    -5829 
   -5805    -5782    -5761    -5740    -5718    -5697    -5672    -5645 
   -5621    -5609    -5602    -5605    -5618    -5638    -5660    -5683 
   -5702    -5715    -5722    -5721    -5719    -5724    -5724    -5724 
   -5728    -5732    -5738    -5751    -5764    -5776    -5787    -5798 
   -5810    -5825    -5844    -5863    -5881    -5899    -5911    -5914 
   -5910    -5900    -5879    -5849    -5819    -5790    -5759    -5726 
   -5697    -5678    -5667    -5664    -5671    -5684    -5702    -5722 
   -5742    -5760    -5773    -5782    -5787    -5794    -5800    -5806 
   -5807    -5806    -5805    -5798    -5784    -5768    -5752    -5734 
   -5719    -5709    -5705    -5707    -5711    -5715    -5715    -5711 
   -5707    -5706    -5702    -5699    -5702    -5709    -5715    -5729 
   -5746    -5767    -5790    -5810    -5830    -5857    -5888    -5918 
   -5942    -5961    -5976    -5983    -5977    -5965    -5948    -5918 
   -5881    -5840    -5788    -5729    -5672    -5621    -5578    -5544 
   -5520    -5505    -5497    -5498    -5502    -5513    -5522    -5533 
   -5547    -5566    -5589    -5616    -5640    -5659    -5675    -5691 
   -5698    -5699    -5703    -5705    -5705    -5706    -5703    -5701 
   -5698    -5701    -5710    -5722    -5737    -5752    -5771    -5795 
   -5813    -5825    -5834    -5840    -5838    -5837    -5834    -5833 
   -5827    -5821    -5814    -5807    -5800    -5791    -5780    -5769 
   -5763    -5764    -5768    -5772    -5779    -5790    -5800    -5811 
   -5818    -5821    -5823    -5821    -5813    -5802    -5790    -5773 
   -5756    -5740    -5729    -5724    -5725    -5733    -5748    -5771 
   -5798    -5825    -5849    -5871    -5886    -5891    -5888    -5876 
   -5859    -5841    -5819    -5800    -5784    -5769    -5760    -5765 
   -5779    -5798    -5819    -5842    -5864    -5880    -5887    -5883 
   -5875    -5861    -5842    -5817    -5788    -5759    -5734    -5711 
   -5686    -5661    -5643    -5626    -5613    -5607    -5609    -5618 
   -5640    -5668    -5706    -5749    -5794    -5838    -5875    -5899 
   -5914    -5917    -5908    -5895    -5875    -5853    -5837    -5819 
   -5802    -5783    -5768    -5761    -5755    -5745    -5733    -5719 
   -5702    -5684    -5670    -5660    -5659    -5665    -5671    -5674 
   -5675    -5671    -5661    -5647    -5628    -5611    -5598    -5590 
   -5595    -5606    -5624    -5652    -5687    -5721    -5751    -5775 
   -5792    -5806    -5815    -5819    -5823    -5830    -5837    -5844 
   -5852    -5863    -5872    -5876    -5875    -5865    -5841    -5809 
   -5772    -5734    -5699    -5674    -5663    -5657    -5660    -5675 
   -5699    -5725    -5756    -5791    -5818    -5836    -5845    -5844 
   -5832    -5818    -5806    -5790    -5773    -5761    -5751    -5746 
   -5746    -5752    -5759    -5764    -5763    -5760    -5755    -5745 
   -5733    -5724    -5715    -5707    -5705    -5703    -5702    -5701 
   -5702    -5702    -5699    -5699    -5701    -5706    -5717    -5732 
   -5748    -5771    -5796    -5818    -5837    -5848    -5846    -5833 
   -5811    -5783    -5751    -5719    -5697    -5682    -5671    -5668 
   -5674    -5679    -5680    -5679    -5674    -5667    -5668    -5668 
   -5660    -5648    -5630    -5611    -5590    -5564    -5539    -5510 
   -5475    -5436    -5405    -5381    -5359    -5348    -5354    -5373 
   -5402    -5447    -5494    -5532    -5560    -5584    -5605    -5624 
   -5645    -5668    -5690    -5717    -5751    -5783    -5815    -5844 
   -5868    -5894    -5921    -5949    -5980    -6011    -6049    -6092 
   -6129    -6162    -6199    -6223    -6232    -6231    -6226    -6214 
   -6196    -6176    -6154    -6129    -6104    -6084    -6058    -6022 
   -5983    -5942    -5892    -5834    -5772    -5703    -5636    -5571 
   -5518    -5482    -5466    -5472    -5495    -5530    -5578    -5634 
   -5695    -5756    -5819    -5879    -5929    -5975    -6021    -6060 
   -6100    -6142    -6177    -6203    -6218    -6218    -6197    -6164 
   -6120    -6070    -6016    -5958    -5902    -5845    -5794    -5751 
   -5707    -5660    -5610    -5559    -5506    -5456    -5414    -5383 
   -5360    -5347    -5340    -5347    -5370    -5408    -5462    -5537 
   -5626    -5726    -5837    -5956    -6070    -6176    -6269    -6342 
   -6389    -6412    -6408    -6377    -6319    -6239    -6146    -6046 
   -5948    -5854    -5767    -5688    -5618    -5555    -5501    -5448 
   -5389    -5324    -5256    -5184    -5108    -5035    -4972    -4918 
   -4876    -4851    -4842    -4846    -4869    -4915    -4974    -5046 
   -5131    -5224    -5317    -5412    -5502    -5584    -5657    -5714 
   -5756    -5783    -5798    -5796    -5786    -5772    -5753    -5726 
   -5698    -5674    -5649    -5633    -5625    -5621    -5629    -5649 
   -5679    -5726    -5788    -5857    -5937    -6021    -6103    -6183 
   -6257    -6324    -6381    -6426    -6462    -6485    -6493    -6490 
   -6471    -6439    -6397    -6349    -6293    -6239    -6185    -6133 
   -6084    -6039    -5996    -5953    -5906    -5861    -5821    -5779 
   -5734    -5694    -5665    -5647    -5640    -5645    -5663    -5691 
   -5730    -5769    -5800    -5819    -5819    -5798    -5756    -5698 
   -5628    -5555    -5481    -5408    -5343    -5289    -5251    -5227 
   -5217    -5227    -5251    -5289    -5343    -5404    -5471    -5551 
   -5636    -5725    -5822    -5925    -6029    -6134    -6234    -6315 
   -6376    -6417    -6438    -6435    -6407    -6353    -6278    -6184 
   -6064    -5921    -5768    -5610    -5454    -5309    -5186    -5090 
   -5023    -4984    -4973    -4990    -5031    -5090    -5167    -5262 
   -5379    -5514    -5663    -5822    -5987    -6146    -6303    -6448 
   -6578    -6687    -6772    -6832    -6862    -6855    -6814    -6741 
   -6637    -6513    -6373    -6218    -6057    -5899    -5744    -5599 
   -5467    -5352    -5258    -5181    -5125    -5090    -5069    -5059 
   -5063    -5071    -5078    -5088    -5097    -5107    -5121    -5131 
   -5136    -5151    -5171    -5194    -5225    -5266    -5314    -5375 
   -5458    -5559    -5671    -5783    -5888    -5979    -6050    -6108 
   -6158    -6197    -6223    -6231    -6223    -6192    -6142    -6088 
   -6022    -5945    -5865    -5784    -5703    -5643    -5616    -5625 
   -5672    -5749    -5837    -5923    -6007    -6084    -6158    -6226 
   -6272    -6285    -6259    -6193    -6097    -5983    -5864    -5751 
   -5640    -5525    -5414    -5316    -5232    -5174    -5139    -5123 
   -5117    -5119    -5127    -5148    -5190    -5250    -5323    -5398 
   -5468    -5539    -5611    -5688    -5771    -5865    -5962    -6053 
   -6133    -6201    -6259    -6304    -6339    -6372    -6397    -6411 
   -6408    -6392    -6367    -6336    -6289    -6219    -6133    -6029 
   -5919    -5819    -5733    -5656    -5587    -5532    -5490    -5466 
   -5466    -5483    -5508    -5529    -5540    -5548    -5551    -5552 
   -5559    -5560    -5536    -5501    -5468    -5444    -5441    -5459 
   -5474    -5470    -5448    -5427    -5422    -5452    -5509    -5566 
   -5607    -5624    -5625    -5634    -5668    -5724    -5783    -5832 
   -5859    -5873    -5894    -5931    -5985    -6034    -6065    -6080 
   -6084    -6091    -6104    -6124    -6145    -6153    -6145    -6124 
   -6091    -6046    -5992    -5930    -5864    -5802    -5751    -5707 
   -5680    -5672    -5679    -5694    -5711    -5725    -5733    -5734 
   -5728    -5715    -5701    -5686    -5671    -5659    -5655    -5659 
   -5672    -5690    -5707    -5722    -5732    -5738    -5748    -5760 
   -5772    -5782    -5784    -5788    -5795    -5805    -5818    -5833 
   -5850    -5871    -5887    -5902    -5910    -5904    -5884    -5845 
   -5792    -5732    -5668    -5611    -5568    -5539    -5516    -5499 
   -5493    -5495    -5509    -5535    -5571    -5613    -5641    -5651 
   -5651    -5640    -5616    -5591    -5567    -5535    -5495    -5455 
   -5405    -5352    -5310    -5287    -5282    -5302    -5350    -5428 
   -5541    -5678    -5832    -6000    -6165    -6320    -6465    -6586 
   -6671    -6720    -6732    -6706    -6644    -6548    -6421    -6270 
   -6106    -5937    -5776    -5630    -5502    -5393    -5300    -5227 
   -5177    -5151    -5148    -5169    -5206    -5256    -5314    -5375 
   -5433    -5486    -5536    -5570    -5589    -5603    -5614    -5629 
   -5656    -5691    -5733    -5782    -5833    -5879    -5918    -5952 
   -5973    -5981    -5981    -5979    -5968    -5942    -5904    -5863 
   -5818    -5782    -5759    -5755    -5767    -5792    -5834    -5883 
   -5933    -5983    -6029    -6068    -6096    -6114    -6126    -6135 
   -6138    -6133    -6116    -6085    -6037    -5976    -5907    -5837 
   -5767    -5702    -5648    -5606    -5578    -5564    -5566    -5578 
   -5601    -5629    -5659    -5694    -5733    -5772    -5810    -5842 
   -5868    -5887    -5892    -5886    -5871    -5846    -5818    -5786 
   -5748    -5705    -5664    -5638    -5625    -5626    -5648    -5686 
   -5733    -5783    -5829    -5867    -5892    -5899    -5887    -5859 
   -5819    -5773    -5729    -5687    -5655    -5637    -5636    -5647 
   -5671    -5711    -5764    -5821    -5876    -5931    -5975    -6002 
   -6012    -6004    -5969    -5910    -5834    -5734    -5618    -5499 
   -5382    -5274    -5186    -5125    -5089    -5074    -5086    -5128 
   -5194    -5283    -5387    -5508    -5643    -5780    -5911    -6038 
   -6156    -6249    -6319    -6370    -6397    -6394    -6370    -6332 
   -6281    -6220    -6162    -6110    -6054    -5998    -5945    -5891 
   -5833    -5772    -5717    -5670    -5625    -5582    -5544    -5506 
   -5467    -5428    -5390    -5355    -5332    -5324    -5335    -5367 
   -5412    -5472    -5549    -5633    -5713    -5787    -5852    -5902 
   -5937    -5967    -5996    -6026    -6052    -6079    -6097    -6107 
   -6108    -6102    -6084    -6058    -6025    -5981    -5934    -5886 
   -5832    -5783    -5738    -5694    -5655    -5624    -5605    -5595 
   -5593    -5594    -5601    -5607    -5614    -5630    -5648    -5659 
   -5670    -5676    -5670    -5655    -5640    -5624    -5617    -5621 
   -5632    -5655    -5686    -5715    -5746    -5776    -5796    -5811 
   -5821    -5817    -5800    -5775    -5740    -5697    -5653    -5613 
   -5580    -5557    -5539    -5526    -5521    -5526    -5544    -5564 
   -5593    -5636    -5682    -5729    -5779    -5823    -5867    -5913 
   -5949    -5976    -5996    -6003    -5995    -5962    -5906    -5840 
   -5765    -5684    -5613    -5553    -5506    -5472    -5448    -5428 
   -5413    -5401    -5395    -5401    -5414    -5432    -5451    -5471 
   -5499    -5532    -5568    -5614    -5670    -5730    -5796    -5859 
   -5914    -5957    -5989    -6018    -6039    -6045    -6034    -6004 
   -5956    -5895    -5836    -5783    -5742    -5710    -5683    -5661 
   -5655    -5653    -5657    -5675    -5701    -5729    -5767    -5806 
   -5845    -5883    -5919    -5957    -5995    -6030    -6076    -6135 
   -6197    -6262    -6323    -6374    -6415    -6435    -6428    -6393 
   -6330    -6235    -6112    -5975    -5823    -5667    -5520    -5382 
   -5244    -5117    -5009    -4923    -4865    -4843    -4858    -4897 
   -4958    -5031    -5120    -5221    -5324    -5428    -5539    -5645 
   -5741    -5833    -5917    -5989    -6049    -6095    -6124    -6141 
   -6141    -6133    -6123    -6106    -6077    -6037    -5989    -5941 
   -5894    -5841    -5784    -5724    -5661    -5597    -5541    -5499 
   -5466    -5444    -5443    -5460    -5494    -5545    -5605    -5665 
   -5728    -5786    -5840    -5890    -5929    -5956    -5975    -5981 
   -5977    -5960    -5930    -5892    -5849    -5799    -5748    -5702 
