Origin Time       2026/01/15 07:13:00
Lat.              42.7
Long.             145.4
Depth. (km)       30
Mag.              5.7
Station Code      HKD185
Station Lat.      42.7756
Station Long.     141.4016
Station Height(m) 266
Record Time       2026/01/15 07:14:41
Sampling Freq(Hz) 100Hz
Duration Time(s)  60
Dir.              E-W
Scale Factor      7845(gal)/8223790
Max. Acc. (gal)   1.547
Last Correction   2026/01/15 07:14:41
Memo.             
[...]
   -4152    -4167    -4178    -4203    -4180    -4098    -4014    -3936 
   -3865    -3834    -3846    -3886    -3919    -3928    -3951    -3974 
   -3956    -3935    -3929    -3912    -3905    -3928    -3959    -3987 
   -4008    -4045    -4108    -4143    -4140    -4135    -4108    -4072 
   -4082    -4108    -4108    -4091    -4086    -4074    -4021    -3970 
   -3983    -4024    -4040    -4066    -4087    -4082    -4085    -4117 
   -4155    -4164    -4132    -4118    -4133    -4104    -4059    -4064 
   -4085    -4077    -4051    -4031    -4027    -4008    -3991    -4013 
   -4012    -3982    -3990    -4018    -4031    -4050    -4063    -4074 
   -4091    -4086    -4071    -4058    -4016    -3991    -4010    -4012 
   -3996    -3987    -3977    -3969    -3959    -3940    -3921    -3894 
   -3878    -3894    -3910    -3933    -4006    -4079    -4105    -4128 
   -4167    -4191    -4185    -4160    -4149    -4135    -4109    -4108 
   -4113    -4083    -4039    -4012    -4012    -4020    -4025    -4060 
   -4098    -4079    -4052    -4058    -4056    -4037    -4025    -4037 
   -4082    -4117    -4129    -4139    -4109    -4040    -4017    -4025 
   -4001    -3967    -3960    -3985    -4010    -4013    -4020    -4037 
   -4031    -4027    -4047    -4048    -4044    -4068    -4094    -4086 
   -4059    -4060    -4091    -4099    -4095    -4122    -4136    -4102 
   -4051    -3998    -3956    -3933    -3923    -3929    -3943    -3960 
   -3998    -4017    -4008    -4025    -4060    -4072    -4063    -4047 
   -4023    -3974    -3896    -3851    -3867    -3892    -3913    -3937 
   -3937    -3915    -3904    -3932    -3982    -3994    -3998    -4056 
   -4116    -4131    -4137    -4135    -4112    -4108    -4135    -4155 
   -4125    -4063    -4056    -4106    -4133    -4147    -4171    -4179 
   -4187    -4210    -4226    -4225    -4207    -4202    -4225    -4214 
   -4179    -4176    -4159    -4122    -4124    -4109    -4014    -3906 
   -3856    -3855    -3856    -3852    -3874    -3897    -3881    -3869 
   -3881    -3894    -3937    -4024    -4109    -4166    -4180    -4163 
   -4116    -4028    -3955    -3951    -3950    -3915    -3885    -3885 
   -3897    -3878    -3848    -3862    -3889    -3913    -3997    -4109 
   -4164    -4172    -4174    -4197    -4226    -4217    -4176    -4129 
   -4086    -4093    -4139    -4144    -4118    -4113    -4114    -4101 
   -4054    -4000    -4000    -4037    -4089    -4156    -4182    -4158 
   -4141    -4131    -4101    -4068    -4056    -4083    -4105    -4090 
   -4075    -4028    -3929    -3859    -3829    -3784    -3748    -3761 
   -3805    -3850    -3870    -3915    -3998    -4047    -4059    -4085 
   -4108    -4112    -4102    -4068    -4023    -3979    -3963    -3990 
   -4005    -3991    -4025    -4075    -4066    -4031    -4020    -4054 
   -4109    -4143    -4172    -4202    -4198    -4183    -4168    -4116 
   -4067    -4064    -4077    -4089    -4097    -4090    -4068    -4029 
   -4002    -4016    -4014    -3982    -3989    -4037    -4079    -4090 
   -4063    -4048    -4068    -4085    -4109    -4148    -4167    -4185 
   -4189    -4131    -4059    -4028    -4002    -3951    -3886    -3850 
   -3835    -3796    -3771    -3819    -3889    -3928    -3951    -3973 
   -3997    -4017    -4036    -4071    -4087    -4071    -4082    -4120 
   -4129    -4124    -4132    -4140    -4129    -4091    -4048    -4009 
   -3951    -3897    -3875    -3867    -3885    -3937    -3998    -4044 
   -4059    -4054    -4058    -4059    -4064    -4109    -4137    -4116 
   -4105    -4121    -4131    -4131    -4129    -4140    -4144    -4124 
   -4132    -4175    -4187    -4183    -4185    -4144    -4082    -4051 
   -4050    -4058    -4045    -4025    -4039    -4024    -3951    -3902 
   -3894    -3896    -3921    -3956    -3970    -3951    -3915    -3900 
   -3888    -3842    -3813    -3819    -3831    -3883    -3970    -4040 
   -4105    -4186    -4267    -4291    -4229    -4156    -4121    -4070 
   -4021    -4028    -4050    -4045    -4017    -3979    -3975    -3991 
   -4008    -4040    -4064    -4087    -4144    -4202    -4224    -4229 
   -4233    -4237    -4213    -4164    -4147    -4152    -4148    -4153 
   -4148    -4087    -4002    -3946    -3906    -3861    -3813    -3809 
   -3843    -3856    -3865    -3906    -3947    -3973    -3990    -3993 
   -3993    -4009    -4037    -4081    -4113    -4110    -4110    -4120 
   -4097    -4062    -4039    -4023    -4027    -4043    -4055    -4052 
   -4020    -4008    -4040    -4047    -4027    -4028    -4039    -4043 
   -4063    -4110    -4155    -4155    -4141    -4171    -4201    -4183 
   -4168    -4164    -4144    -4116    -4091    -4071    -4048    -4014 
   -4009    -4025    -4012    -4004    -4018    -4014    -4001    -3997 
   -3991    -3969    -3912    -3875    -3906    -3927    -3927    -3959 
   -3982    -3960    -3940    -3935    -3943    -3950    -3956    -3997 
   -4039    -4056    -4097    -4156    -4172    -4144    -4117    -4120 
   -4136    -4133    -4140    -4151    -4117    -4064    -4032    -3981 
   -3915    -3902    -3952    -3987    -3962    -3929    -3937    -3950 
   -3966    -4017    -4047    -4039    -4072    -4147    -4198    -4213 
   -4229    -4256    -4244    -4183    -4151    -4148    -4126    -4117 
   -4121    -4075    -3978    -3886    -3842    -3825    -3811    -3851 
   -3964    -4064    -4114    -4133    -4112    -4075    -4060    -4067 
   -4085    -4083    -4086    -4122    -4132    -4101    -4090    -4079 
   -4032    -3973    -3913    -3859    -3819    -3789    -3792    -3815 
   -3823    -3855    -3940    -4010    -4043    -4066    -4087    -4104 
   -4116    -4147    -4213    -4270    -4294    -4310    -4302    -4249 
   -4185    -4133    -4087    -4041    -4010    -4013    -4004    -3967 
   -3958    -3975    -3985    -3997    -4001    -3983    -3971    -3993 
   -4051    -4105    -4105    -4098    -4109    -4083    -4041    -4040 
   -4059    -4071    -4074    -4066    -4068    -4064    -4047    -4048 
   -4035    -3989    -3982    -4000    -3986    -3966    -3962    -3970 
   -3975    -3947    -3910    -3890    -3878    -3904    -3975    -4023 
   -4040    -4070    -4105    -4117    -4086    -4043    -4040    -4068 
   -4090    -4104    -4090    -4066    -4074    -4093    -4086    -4066 
   -4060    -4091    -4124    -4125    -4124    -4120    -4081    -4052 
   -4068    -4083    -4071    -4059    -4071    -4082    -4064    -4064 
   -4097    -4098    -4097    -4145    -4194    -4189    -4137    -4070 
   -4024    -3993    -3979    -3998    -3990    -3933    -3916    -3936 
   -3935    -3933    -3946    -3946    -3924    -3898    -3909    -3936 
   -3931    -3924    -3939    -3937    -3928    -3931    -3942    -3959 
   -3973    -3981    -4008    -4025    -4028    -4070    -4139    -4183 
   -4212    -4232    -4233    -4224    -4222    -4239    -4236    -4190 
   -4163    -4170    -4167    -4159    -4140    -4072    -3994    -3960 
   -3969    -3966    -3913    -3874    -3890    -3893    -3863    -3859 
   -3882    -3912    -3950    -3997    -4039    -4047    -4047    -4083 
   -4095    -4043    -3994    -3966    -3927    -3883    -3854    -3859 
   -3892    -3927    -3983    -4060    -4110    -4153    -4199    -4190 
   -4133    -4089    -4091    -4131    -4148    -4143    -4147    -4135 
   -4116    -4113    -4094    -4063    -4060    -4068    -4062    -4035 
   -4005    -3998    -4001    -3987    -3985    -3997    -4006    -4033 
   -4075    -4090    -4077    -4055    -4036    -4017    -3998    -4013 
   -4072    -4122    -4147    -4171    -4178    -4156    -4121    -4082 
   -4040    -3994    -3983    -4031    -4059    -4025    -4001    -4009 
   -4002    -3967    -3931    -3931    -3956    -3990    -4045    -4086 
   -4062    -4039    -4067    -4095    -4105    -4109    -4109    -4105 
   -4077    -4027    -4000    -3991    -4001    -4052    -4098    -4105 
   -4101    -4104    -4113    -4126    -4128    -4118    -4082    -4018 
   -3981    -3977    -3970    -3969    -3963    -3933    -3912    -3916 
   -3936    -3952    -3956    -3985    -4047    -4082    -4086    -4099 
   -4110    -4108    -4104    -4102    -4101    -4072    -4035    -4031 
   -4032    -4010    -4000    -3994    -3970    -3948    -3954    -3994 
   -4047    -4082    -4121    -4162    -4179    -4193    -4193    -4164 
   -4151    -4156    -4162    -4159    -4118    -4066    -4045    -4010 
   -3950    -3917    -3886    -3854    -3855    -3847    -3809    -3767 
   -3747    -3780    -3828    -3847    -3873    -3919    -3970    -4031 
   -4086    -4120    -4140    -4156    -4175    -4168    -4114    -4086 
   -4120    -4136    -4133    -4158    -4187    -4202    -4212    -4214 
   -4212    -4195    -4185    -4197    -4180    -4132    -4118    -4126 
   -4108    -4067    -4020    -3997    -3982    -3959    -3967    -3989 
   -3982    -3998    -4031    -4017    -3973    -3942    -3955    -3997 
   -4006    -3996    -4008    -3983    -3939    -3946    -3981    -4008 
   -4041    -4064    -4056    -4035    -4029    -4071    -4122    -4144 
   -4147    -4125    -4081    -4058    -4048    -4028    -4012    -4009 
   -4033    -4074    -4090    -4098    -4102    -4068    -4027    -4010 
   -3996    -3991    -4020    -4064    -4079    -4023    -3958    -3970 
   -4008    -4006    -4001    -4002    -3989    -3969    -3951    -3946 
   -3946    -3940    -3970    -4020    -4033    -4033    -4041    -4021 
   -3983    -3973    -3997    -4033    -4032    -4009    -4012    -4010 
   -3997    -4016    -4044    -4058    -4077    -4099    -4117    -4139 
   -4167    -4218    -4253    -4234    -4216    -4218    -4221    -4248 
   -4276    -4256    -4218    -4172    -4110    -4037    -3966    -3937 
   -3956    -3954    -3923    -3915    -3917    -3910    -3906    -3915 
   -3948    -3977    -3989    -4016    -4024    -3987    -3970    -3990 
   -4018    -4055    -4102    -4151    -4160    -4121    -4102    -4112 
   -4109    -4104    -4098    -4060    -4000    -3933    -3893    -3897 
   -3910    -3924    -3955    -3971    -3994    -4055    -4097    -4113 
   -4144    -4172    -4180    -4167    -4148    -4141    -4105    -4035 
   -4009    -4035    -4059    -4094    -4133    -4144    -4124    -4078 
   -4044    -4037    -4017    -3998    -4021    -4048    -4071    -4102 
   -4105    -4086    -4098    -4145    -4178    -4147    -4099    -4083 
   -4031    -3917    -3839    -3815    -3792    -3780    -3801    -3844 
   -3871    -3889    -3943    -4009    -4028    -4040    -4074    -4087 
   -4079    -4074    -4087    -4118    -4125    -4093    -4063    -4031 
   -3989    -3958    -3921    -3894    -3906    -3947    -4004    -4050 
   -4078    -4108    -4125    -4120    -4141    -4168    -4153    -4136 
   -4132    -4104    -4052    -3998    -3974    -3967    -3912    -3838 
   -3813    -3808    -3816    -3861    -3927    -4001    -4044    -4033 
   -4029    -4062    -4113    -4170    -4193    -4199    -4251    -4305 
   -4294    -4239    -4171    -4105    -4028    -3951    -3935    -3959 
   -3939    -3910    -3924    -3940    -3933    -3919    -3915    -3925 
   -3923    -3909    -3927    -3962    -4000    -4064    -4117    -4118 
   -4098    -4075    -4048    -4035    -4052    -4094    -4120    -4112 
   -4126    -4158    -4148    -4116    -4085    -4033    -3978    -3956 
   -3990    -4031    -4024    -4029    -4097    -4155    -4179    -4207 
   -4213    -4190    -4168    -4151    -4121    -4054    -3979    -3959 
   -3958    -3946    -3975    -4027    -4048    -4056    -4062    -4056 
   -4052    -4056    -4078    -4098    -4078    -4060    -4089    -4129 
   -4171    -4225    -4270    -4287    -4253    -4179    -4106    -4048 
   -4013    -3997    -3970    -3950    -3966    -3983    -3979    -3966 
   -3963    -3969    -3928    -3829    -3761    -3738    -3728    -3753 
   -3815    -3877    -3919    -3935    -3944    -3967    -3998    -4083 
   -4230    -4355    -4440    -4530    -4606    -4654    -4689    -4708 
   -4720    -4716    -4676    -4617    -4513    -4353    -4222    -4144 
   -4063    -3970    -3873    -3778    -3685    -3576    -3484    -3422 
   -3342    -3279    -3273    -3281    -3283    -3292    -3311    -3339 
   -3377    -3427    -3497    -3554    -3589    -3657    -3753    -3840 
   -3924    -4006    -4095    -4197    -4307    -4450    -4607    -4739 
   -4854    -4946    -4985    -4992    -4969    -4900    -4806    -4700 
   -4587    -4479    -4367    -4284    -4261    -4225    -4145    -4048 
   -3897    -3684    -3469    -3304    -3207    -3159    -3154    -3206 
   -3234    -3192    -3168    -3204    -3280    -3392    -3520    -3638 
   -3740    -3825    -3936    -4085    -4194    -4253    -4307    -4347 
   -4388    -4465    -4568    -4681    -4791    -4899    -5011    -5074 
   -5071    -5038    -4966    -4843    -4711    -4567    -4398    -4221 
   -4043    -3881    -3736    -3578    -3422    -3276    -3129    -3015 
   -2963    -2955    -2991    -3061    -3168    -3319    -3473    -3624 
   -3796    -3943    -4071    -4232    -4396    -4542    -4679    -4795 
   -4882    -4934    -4961    -5001    -5026    -4993    -4943    -4882 
   -4792    -4704    -4648    -4617    -4594    -4549    -4499    -4455 
   -4374    -4268    -4166    -4017    -3807    -3564    -3308    -3082 
   -2897    -2745    -2647    -2577    -2504    -2474    -2497    -2556 
   -2667    -2818    -2986    -3177    -3402    -3657    -3912    -4147 
   -4375    -4572    -4729    -4912    -5143    -5371    -5556    -5657 
   -5663    -5586    -5433    -5267    -5143    -5024    -4892    -4772 
   -4648    -4517    -4380    -4218    -4012    -3747    -3474    -3291 
   -3183    -3111    -3103    -3132    -3141    -3137    -3132    -3144 
   -3169    -3176    -3210    -3312    -3450    -3618    -3807    -3944 
   -4010    -4050    -4081    -4124    -4194    -4295    -4433    -4561 
   -4642    -4688    -4687    -4656    -4653    -4675    -4676    -4622 
   -4517    -4419    -4342    -4252    -4159    -4074    -3973    -3886 
   -3839    -3798    -3757    -3735    -3740    -3765    -3778    -3788 
   -3811    -3811    -3789    -3788    -3801    -3834    -3897    -3952 
   -3973    -3946    -3905    -3920    -3956    -3973    -4000    -4027 
   -4020    -3996    -3977    -3989    -4040    -4109    -4197    -4297 
   -4365    -4433    -4525    -4595    -4649    -4722    -4789    -4816 
   -4764    -4652    -4548    -4440    -4297    -4144    -3955    -3723 
   -3515    -3358    -3241    -3165    -3136    -3146    -3160    -3146 
   -3161    -3241    -3356    -3511    -3681    -3808    -3905    -4002 
   -4101    -4190    -4256    -4329    -4413    -4455    -4459    -4455 
   -4434    -4414    -4406    -4379    -4309    -4203    -4114    -4108 
   -4152    -4201    -4271    -4341    -4390    -4433    -4471    -4491 
   -4473    -4417    -4382    -4368    -4313    -4237    -4171    -4067 
   -3910    -3724    -3516    -3315    -3153    -3051    -3017    -3014 
   -3052    -3165    -3316    -3458    -3600    -3723    -3817    -3902 
   -3977    -4031    -4064    -4095    -4137    -4143    -4078    -3996 
   -3937    -3905    -3915    -3977    -4085    -4201    -4274    -4326 
   -4390    -4423    -4415    -4406    -4413    -4440    -4476    -4544 
   -4677    -4828    -4959    -5097    -5198    -5221    -5206    -5151 
   -5023    -4851    -4665    -4477    -4286    -4064    -3846    -3640 
   -3416    -3221    -3092    -2991    -2928    -2928    -2963    -3019 
   -3094    -3181    -3283    -3357    -3404    -3469    -3545    -3628 
   -3751    -3910    -4093    -4267    -4387    -4441    -4432    -4368 
   -4315    -4310    -4347    -4444    -4594    -4753    -4908    -5038 
   -5109    -5115    -5035    -4896    -4745    -4569    -4380    -4205 
   -4020    -3838    -3693    -3589    -3505    -3429    -3391    -3422 
   -3480    -3526    -3586    -3647    -3672    -3677    -3694    -3732 
   -3777    -3815    -3869    -3906    -3861    -3786    -3735    -3669 
   -3604    -3580    -3600    -3655    -3724    -3829    -4005    -4206 
   -4395    -4575    -4689    -4729    -4746    -4750    -4735    -4710 
   -4672    -4612    -4488    -4284    -4070    -3885    -3728    -3634 
   -3612    -3631    -3688    -3798    -3959    -4131    -4243    -4302 
   -4330    -4278    -4174    -4110    -4081    -4043    -3990    -3921 
   -3835    -3723    -3603    -3511    -3420    -3300    -3199    -3154 
   -3156    -3202    -3304    -3446    -3585    -3705    -3858    -4032 
   -4170    -4295    -4446    -4573    -4635    -4656    -4669    -4676 
   -4639    -4584    -4550    -4503    -4450    -4453    -4492    -4509 
   -4487    -4428    -4349    -4270    -4194    -4131    -4060    -3966 
   -3892    -3839    -3769    -3711    -3704    -3724    -3727    -3700 
   -3672    -3665    -3669    -3709    -3821    -3955    -4072    -4183 
   -4268    -4317    -4348    -4376    -4401    -4394    -4365    -4364 
   -4349    -4267    -4170    -4078    -3963    -3852    -3785    -3771 
   -3790    -3811    -3854    -3923    -3959    -3985    -4045    -4113 
   -4179    -4266    -4352    -4418    -4468    -4534    -4621    -4654 
   -4588    -4456    -4280    -4105    -3983    -3916    -3875    -3835 
   -3785    -3742    -3685    -3600    -3545    -3531    -3535    -3578 
   -3645    -3697    -3743    -3786    -3840    -3901    -3929    -3950 
   -4000    -4037    -4067    -4131    -4193    -4232    -4256    -4256 
   -4229    -4186    -4163    -4179    -4172    -4128    -4122    -4162 
   -4185    -4172    -4140    -4097    -4036    -3959    -3910    -3901 
   -3925    -4012    -4148    -4271    -4344    -4360    -4336    -4275 
   -4160    -4033    -3933    -3823    -3696    -3593    -3503    -3410 
   -3331    -3271    -3230    -3229    -3276    -3393    -3559    -3739 
   -3947    -4170    -4368    -4546    -4688    -4787    -4880    -4961 
   -5008    -4995    -4878    -4706    -4529    -4326    -4132    -3998 
   -3893    -3788    -3697    -3622    -3569    -3559    -3627    -3766 
   -3901    -3996    -4091    -4185    -4256    -4340    -4433    -4490 
   -4467    -4367    -4255    -4175    -4121    -4120    -4163    -4176 
   -4147    -4113    -4081    -4047    -4000    -3960    -3970    -4005 
   -4047    -4104    -4137    -4133    -4109    -4055    -3969    -3861 
   -3761    -3717    -3719    -3721    -3720    -3708    -3669    -3626 
   -3588    -3547    -3510    -3496    -3531    -3596    -3650    -3723 
   -3842    -3951    -4043    -4152    -4236    -4268    -4283    -4320 
   -4391    -4469    -4556    -4689    -4814    -4860    -4876    -4896 
   -4895    -4881    -4865    -4799    -4641    -4414    -4197    -4017 
   -3834    -3662    -3562    -3520    -3515    -3551    -3607    -3638 
   -3618    -3565    -3515    -3439    -3357    -3338    -3335    -3276 
   -3188    -3115    -3084    -3122    -3231    -3402    -3584    -3735 
   -3910    -4136    -4348    -4533    -4698    -4814    -4872    -4892 
   -4912    -4945    -4957    -4954    -4961    -4932    -4866    -4806 
   -4729    -4619    -4506    -4409    -4318    -4197    -4055    -3954 
   -3874    -3790    -3757    -3742    -3653    -3512    -3397    -3335 
   -3318    -3304    -3307    -3337    -3338    -3322    -3341    -3373 
   -3418    -3520    -3680    -3846    -3979    -4079    -4175    -4252 
   -4302    -4368    -4446    -4513    -4607    -4739    -4877    -4995 
