Origin Time       2026/01/15 07:13:00
Lat.              42.7
Long.             145.4
Depth. (km)       30
Mag.              5.7
Station Code      HKD103
Station Lat.      42.7275
Station Long.     142.2973
Station Height(m) 86
Record Time       2026/01/15 07:14:25
Sampling Freq(Hz) 100Hz
Duration Time(s)  60
Dir.              E-W
Scale Factor      7845(gal)/8223790
Max. Acc. (gal)   1.020
Last Correction   2026/01/15 07:14:26
Memo.             
[...]
    4101     4110     4114     4114     4110     4105     4098     4093 
    4085     4074     4063     4052     4048     4059     4078     4099 
    4122     4139     4147     4144     4131     4112     4089     4059 
    4028     3998     3962     3929     3908     3888     3871     3869 
    3873     3879     3892     3906     3920     3935     3959     3986 
    4005     4020     4033     4033     4025     4014     3998     3981 
    3970     3963     3958     3959     3964     3973     3975     3975 
    3977     3982     3990     4000     4008     4014     4021     4027 
    4027     4021     4008     3989     3963     3931     3904     3890 
    3888     3898     3915     3928     3942     3951     3954     3946 
    3933     3921     3906     3885     3856     3829     3808     3793 
    3789     3794     3808     3834     3871     3920     3977     4033 
    4089     4141     4182     4203     4210     4207     4195     4174 
    4148     4118     4090     4064     4040     4025     4025     4040 
    4067     4098     4124     4145     4158     4158     4151     4140 
    4128     4120     4114     4109     4105     4108     4122     4139 
    4147     4152     4152     4143     4124     4097     4063     4025 
    3990     3952     3910     3867     3828     3794     3770     3758 
    3755     3765     3784     3807     3827     3844     3861     3881 
    3905     3927     3951     3981     4010     4035     4051     4056 
    4058     4060     4058     4052     4050     4050     4047     4044 
    4036     4023     4010     4001     3990     3979     3970     3966 
    3963     3967     3974     3986     4008     4031     4045     4054 
    4058     4055     4045     4037     4029     4020     4012     3997 
    3975     3948     3921     3902     3892     3883     3878     3873 
    3866     3858     3847     3838     3832     3838     3852     3874 
    3905     3942     3981     4016     4041     4063     4082     4097 
    4105     4104     4091     4074     4050     4020     3993     3969 
    3950     3948     3960     3977     3993     4010     4023     4024 
    4023     4021     4021     4031     4050     4068     4090     4109 
    4120     4122     4117     4104     4083     4064     4050     4037 
    4033     4033     4031     4023     4009     3989     3967     3946 
    3925     3915     3919     3932     3959     4001     4050     4110 
    4179     4243     4293     4328     4342     4333     4301     4245 
    4166     4075     3983     3896     3817     3758     3721     3703 
    3697     3707     3723     3736     3750     3758     3755     3751 
    3748     3748     3761     3784     3813     3855     3902     3946 
    3982     4018     4052     4075     4090     4104     4114     4122 
    4133     4143     4151     4156     4156     4159     4162     4162 
    4171     4189     4210     4228     4236     4232     4224     4207 
    4179     4145     4110     4078     4043     4004     3966     3925 
    3889     3858     3832     3811     3797     3796     3798     3798 
    3800     3807     3816     3825     3836     3851     3869     3888 
    3912     3946     3987     4035     4085     4129     4166     4189 
    4197     4194     4186     4176     4163     4149     4135     4117 
    4099     4081     4067     4058     4050     4045     4045     4047 
    4050     4048     4048     4051     4054     4059     4064     4063 
    4058     4052     4043     4025     4005     3987     3977     3971 
    3962     3944     3925     3904     3875     3844     3811     3782 
    3762     3747     3740     3746     3755     3770     3794     3823 
    3852     3885     3919     3946     3963     3979     3990     3993 
    3994     3997     3994     3994     3998     4000     3994     3991 
    3996     4004     4013     4027     4044     4070     4099     4126 
    4149     4172     4197     4218     4233     4234     4218     4190 
    4151     4098     4037     3979     3931     3892     3862     3843 
    3838     3847     3869     3893     3923     3955     3983     4009 
    4037     4068     4101     4131     4152     4163     4158     4143 
    4121     4091     4060     4032     4008     3990     3978     3963 
    3950     3943     3936     3932     3925     3920     3923     3935 
    3952     3977     4006     4040     4079     4121     4159     4194 
    4233     4264     4278     4271     4247     4207     4155     4097 
    4036     3978     3927     3886     3851     3824     3809     3798 
    3789     3789     3790     3790     3796     3801     3811     3829 
    3854     3886     3921     3946     3966     3987     4009     4035 
    4059     4075     4087     4098     4102     4099     4091     4077 
    4062     4047     4025     4002     3982     3966     3950     3933 
    3924     3923     3923     3929     3942     3956     3975     4000 
    4018     4031     4037     4037     4029     4010     3978     3937 
    3897     3866     3843     3828     3824     3832     3848     3871 
    3902     3946     3993     4037     4079     4113     4129     4137 
    4140     4131     4113     4102     4094     4087     4082     4079 
    4081     4089     4093     4095     4097     4094     4098     4106 
    4112     4120     4128     4125     4110     4083     4041     3993 
    3944     3901     3863     3836     3828     3838     3856     3878 
    3906     3936     3964     3990     4008     4017     4020     4016 
    4008     3994     3977     3959     3943     3924     3909     3902 
    3908     3929     3959     3989     4023     4055     4081     4098 
    4105     4109     4110     4109     4102     4090     4072     4052 
    4032     4012     3996     3982     3979     3991     4006     4017 
    4028     4039     4043     4039     4028     4006     3975     3942 
    3912     3886     3861     3839     3824     3816     3823     3838 
    3862     3896     3928     3954     3970     3978     3981     3974 
    3958     3946     3933     3919     3905     3890     3878     3881 
    3892     3908     3931     3959     3989     4016     4037     4062 
    4086     4109     4135     4158     4179     4199     4218     4233 
    4236     4225     4209     4193     4174     4148     4116     4072 
    4024     3973     3925     3886     3861     3846     3846     3856 
    3878     3915     3954     3989     4023     4048     4058     4058 
    4048     4027     4006     3987     3969     3955     3947     3947 
    3954     3969     3989     4006     4021     4037     4052     4067 
    4079     4091     4101     4106     4106     4098     4083     4064 
    4043     4016     3987     3963     3944     3936     3932     3927 
    3925     3932     3942     3948     3952     3954     3951     3948 
    3943     3936     3933     3932     3940     3948     3952     3960 
    3974     3986     3996     4002     4018     4043     4064     4083 
    4102     4114     4122     4120     4105     4081     4054     4027 
    3993     3956     3927     3904     3890     3889     3897     3912 
    3931     3954     3974     3987     3998     4006     4013     4016 
    4013     4017     4028     4037     4054     4071     4078     4081 
    4085     4077     4056     4039     4023     4005     3987     3974 
    3966     3962     3960     3959     3958     3956     3955     3955 
    3952     3947     3946     3948     3950     3947     3942     3935 
    3936     3942     3944     3948     3959     3971     3989     4012 
    4033     4060     4086     4102     4105     4094     4074     4048 
    4020     3990     3964     3952     3952     3964     3982     4002 
    4029     4060     4087     4108     4125     4136     4143     4141 
    4133     4124     4113     4097     4077     4055     4039     4032 
    4033     4035     4028     4014     3996     3971     3944     3915 
    3889     3871     3856     3842     3832     3831     3839     3855 
    3873     3885     3897     3913     3929     3939     3948     3959 
    3970     3981     3990     3998     4013     4028     4032     4037 
    4043     4041     4036     4027     4013     3994     3973     3955 
    3942     3939     3942     3952     3971     3987     3996     4004 
    4009     4017     4023     4024     4027     4035     4041     4043 
    4041     4036     4027     4020     4016     4012     4012     4013 
    4014     4021     4027     4028     4032     4040     4048     4060 
    4075     4089     4094     4093     4083     4067     4047     4028 
    4010     3993     3977     3964     3955     3940     3920     3902 
    3890     3882     3878     3883     3898     3916     3929     3937 
    3939     3932     3928     3924     3919     3920     3927     3936 
    3947     3956     3967     3975     3982     3986     3985     3981 
    3983     3991     4001     4016     4035     4052     4070     4087 
    4098     4108     4118     4125     4124     4117     4109     4093 
    4070     4041     4006     3970     3932     3901     3878     3863 
    3859     3869     3879     3889     3898     3901     3900     3896 
    3888     3885     3889     3905     3936     3971     4008     4048 
    4086     4109     4116     4110     4093     4063     4032     4006 
    3986     3971     3960     3954     3951     3944     3937     3935 
    3940     3954     3975     4009     4054     4097     4136     4168 
    4187     4193     4187     4168     4140     4109     4081     4054 
    4031     4016     4009     4014     4029     4050     4072     4098 
    4120     4131     4131     4118     4091     4052     4001     3944 
    3889     3843     3808     3781     3762     3748     3738     3735 
    3740     3754     3773     3802     3838     3869     3893     3910 
    3921     3927     3925     3921     3921     3929     3943     3959 
    3981     4008     4041     4077     4116     4156     4194     4234 
    4278     4307     4322     4325     4311     4278     4233     4180 
    4128     4081     4039     4004     3979     3967     3962     3960 
    3956     3948     3937     3928     3920     3916     3923     3943 
    3974     4009     4045     4086     4131     4168     4193     4197 
    4185     4156     4116     4068     4021     3977     3943     3919 
    3900     3889     3885     3888     3901     3920     3936     3952 
    3973     3989     4002     4013     4021     4025     4020     4002 
    3975     3940     3897     3850     3800     3750     3707     3670 
    3639     3619     3612     3612     3622     3634     3646     3662 
    3678     3700     3730     3759     3796     3851     3921     3994 
    4066     4136     4202     4263     4313     4349     4365     4364 
    4345     4313     4270     4217     4163     4114     4067     4028 
    3996     3971     3954     3940     3929     3920     3908     3893 
    3875     3852     3824     3797     3773     3755     3744     3738 
    3736     3743     3758     3773     3788     3807     3828     3852 
    3877     3900     3927     3954     3974     3991     4008     4028 
    4056     4086     4116     4147     4182     4218     4257     4301 
    4353     4411     4463     4506     4536     4553     4565     4575 
    4577     4580     4585     4591     4594     4581     4554     4514 
    4460     4403     4347     4284     4218     4156     4089     4014 
    3946     3890     3843     3809     3794     3800     3825     3863 
    3905     3936     3948     3940     3920     3893     3865     3839 
    3819     3808     3802     3802     3804     3805     3808     3816 
    3840     3882     3937     3998     4054     4093     4120     4129 
    4118     4099     4079     4055     4031     4006     3987     3975 
    3975     3982     3991     4002     4010     4017     4021     4023 
    4023     4023     4020     4010     3990     3950     3889     3808 
    3716     3615     3505     3395     3295     3213     3153     3122 
    3118     3140     3186     3257     3354     3472     3603     3740 
    3883     4032     4183     4325     4446     4534     4588     4604 
    4584     4537     4468     4382     4294     4210     4140     4090 
    4060     4044     4051     4068     4081     4091     4102     4110 
    4124     4141     4164     4189     4206     4209     4187     4151 
    4104     4039     3966     3904     3852     3809     3790     3790 
    3796     3811     3839     3877     3915     3946     3973     3996 
    4016     4029     4040     4048     4060     4083     4121     4183 
    4267     4363     4459     4546     4617     4661     4673     4644 
    4567     4450     4310     4163     4017     3877     3755     3662 
    3599     3561     3555     3574     3608     3657     3716     3774 
    3832     3893     3950     3998     4040     4071     4093     4104 
    4104     4095     4082     4066     4050     4044     4051     4068 
    4094     4131     4172     4210     4240     4259     4259     4245 
    4220     4183     4145     4109     4074     4039     4010     3993 
    3982     3967     3940     3898     3846     3794     3744     3701 
    3663     3635     3618     3611     3618     3636     3665     3704 
    3754     3812     3877     3943     4001     4044     4072     4081 
    4067     4037     3990     3931     3865     3796     3728     3670 
    3634     3615     3607     3619     3657     3721     3813     3924 
    4039     4151     4253     4342     4418     4467     4479     4459 
    4409     4324     4205     4056     3883     3699     3516     3348 
    3199     3078     2987     2938     2929     2968     3059     3194 
    3361     3559     3781     4006     4210     4384     4534     4657 
    4746     4800     4827     4838     4845     4834     4799     4746 
    4677     4594     4495     4383     4263     4144     4020     3890 
    3763     3645     3541     3450     3385     3349     3345     3385 
    3466     3569     3681     3815     3970     4125     4266     4392 
    4503     4581     4615     4604     4561     4492     4399     4295 
    4195     4101     4012     3929     3848     3773     3717     3674 
    3639     3604     3573     3561     3582     3627     3685     3755 
    3839     3929     4009     4075     4145     4217     4288     4364 
    4436     4502     4564     4615     4658     4695     4719     4733 
    4734     4715     4669     4607     4536     4442     4325     4191 
    4048     3915     3800     3699     3615     3557     3519     3495 
    3492     3520     3568     3630     3708     3798     3890     3977 
    4054     4121     4168     4195     4194     4160     4097     4017 
    3932     3854     3784     3724     3681     3650     3630     3618 
    3611     3608     3609     3620     3651     3705     3769     3828 
    3879     3929     3978     4021     4060     4095     4125     4148 
    4170     4190     4203     4218     4249     4291     4325     4355 
    4376     4383     4378     4364     4347     4325     4306     4297 
    4283     4256     4216     4160     4087     4000     3901     3792 
    3681     3578     3492     3426     3379     3350     3345     3358 
    3392     3451     3532     3640     3777     3929     4078     4225 
    4364     4488     4590     4664     4706     4723     4725     4700 
    4653     4591     4519     4436     4347     4251     4143     4025 
    3910     3809     3720     3645     3603     3595     3611     3651 
    3704     3759     3816     3877     3931     3962     3969     3962 
    3951     3937     3921     3905     3890     3879     3878     3879 
    3883     3888     3888     3886     3893     3909     3928     3947 
    3964     3979     3993     4009     4029     4060     4112     4176 
    4241     4290     4314     4322     4318     4293     4237     4159 
    4072     3989     3910     3843     3792     3758     3739     3731 
    3727     3719     3713     3705     3696     3688     3681     3682 
    3693     3721     3773     3840     3920     4012     4112     4212 
    4302     4380     4442     4477     4476     4434     4351     4228 
    4075     3910     3750     3605     3489     3411     3365     3348 
    3358     3392     3437     3491     3553     3622     3701     3790 
    3894     4012     4136     4259     4375     4475     4552     4602 
    4618     4599     4550     4479     4394     4302     4209     4116 
    4024     3932     3848     3773     3697     3624     3554     3499 
    3469     3466     3491     3546     3623     3713     3807     3897 
    3985     4066     4140     4207     4260     4305     4344     4369 
    4372     4348     4302     4243     4175     4102     4031     3971 
    3921     3881     3851     3838     3838     3842     3850     3863 
    3881     3901     3933     3978     4032     4087     4143     4186 
    4217     4241     4272     4310     4338     4345     4341     4320 
    4278     4224     4162     4085     4006     3940     3881     3821 
    3771     3738     3727     3742     3765     3786     3809     3846 
    3893     3939     3977     4001     4017     4027     4035     4051 
    4072     4094     4110     4126     4155     4183     4198     4202 
    4199     4193     4190     4189     4176     4147     4117     4106 
    4104     4093     4066     4018     3960     3906     3848     3771 
    3692     3630     3580     3546     3549     3585     3635     3692 
    3774     3867     3948     4016     4081     4139     4167     4166 
    4175     4210     4249     4286     4329     4371     4395     4391 
    4360     4305     4230     4139     4031     3924     3832     3736 
    3646     3599     3592     3593     3616     3684     3763     3827 
    3889     3946     3989     4018     4013     3979     3939     3897 
    3862     3840     3820     3786     3751     3740     3757     3786 
    3819     3850     3881     3906     3920     3921     3910     3894 
    3878     3869     3874     3900     3932     3958     3987     4013 
    4017     4012     4014     4018     4023     4036     4064     4104 
    4153     4221     4297     4371     4444     4513     4564     4592 
    4606     4603     4583     4544     4486     4411     4328     4249 
    4171     4082     3991     3905     3819     3736     3666     3612 
    3573     3545     3523     3508     3504     3510     3524     3549 
    3586     3631     3672     3713     3757     3788     3812     3844 
    3879     3916     3967     4040     4114     4183     4245     4283 
    4295     4305     4313     4305     4286     4272     4270     4271 
    4271     4268     4257     4239     4214     4191     4171     4156 
    4145     4132     4126     4132     4135     4136     4136     4118 
    4087     4059     4037     4013     3991     3979     3986     3993 
    3979     3954     3931     3905     3886     3885     3904     3936 
    3990     4058     4113     4152     4186     4209     4221     4237 
    4256     4280     4313     4342     4365     4388     4401     4387 
    4352     4306     4252     4194     4133     4062     3981     3897 
    3809     3716     3622     3527     3451     3395     3356     3338 
    3341     3357     3402     3470     3550     3642     3743     3852 
    3967     4063     4126     4178     4214     4221     4198     4153 
    4109     4064     4014     3973     3946     3925     3921     3921 
    3917     3919     3932     3946     3955     3959     3967     3973 
