Origin Time       2026/01/15 07:13:00
Lat.              42.7
Long.             145.4
Depth. (km)       30
Mag.              5.7
Station Code      HKD181
Station Lat.      43.1161
Station Long.     141.5462
Station Height(m) 8
Record Time       2026/01/15 07:14:42
Sampling Freq(Hz) 100Hz
Duration Time(s)  60
Dir.              N-S
Scale Factor      7845(gal)/8223790
Max. Acc. (gal)   1.218
Last Correction   2026/01/15 07:14:42
Memo.             
[...]
  -14477   -14458   -14450   -14455   -14465   -14477   -14493   -14508 
  -14521   -14532   -14540   -14546   -14546   -14544   -14546   -14547 
  -14548   -14554   -14561   -14559   -14551   -14539   -14523   -14501 
  -14480   -14465   -14455   -14447   -14438   -14426   -14409   -14392 
  -14373   -14359   -14351   -14349   -14355   -14370   -14391   -14418 
  -14449   -14478   -14505   -14534   -14562   -14586   -14609   -14628 
  -14646   -14655   -14658   -14655   -14648   -14636   -14624   -14608 
  -14594   -14581   -14573   -14574   -14580   -14585   -14597   -14608 
  -14611   -14612   -14612   -14604   -14590   -14577   -14562   -14551 
  -14544   -14535   -14520   -14505   -14490   -14477   -14469   -14467 
  -14467   -14466   -14463   -14454   -14447   -14447   -14447   -14454 
  -14470   -14489   -14513   -14539   -14566   -14593   -14613   -14627 
  -14638   -14642   -14639   -14629   -14613   -14598   -14588   -14570 
  -14546   -14526   -14511   -14494   -14477   -14465   -14454   -14449 
  -14449   -14450   -14455   -14469   -14481   -14496   -14516   -14535 
  -14548   -14558   -14567   -14574   -14580   -14592   -14602   -14601 
  -14598   -14597   -14597   -14593   -14594   -14605   -14621   -14634 
  -14644   -14648   -14640   -14628   -14615   -14597   -14584   -14574 
  -14566   -14561   -14561   -14565   -14567   -14569   -14567   -14569 
  -14570   -14577   -14592   -14605   -14616   -14627   -14631   -14623 
  -14611   -14593   -14567   -14540   -14513   -14485   -14461   -14446 
  -14440   -14442   -14449   -14458   -14466   -14474   -14482   -14492 
  -14504   -14513   -14526   -14540   -14551   -14561   -14566   -14561 
  -14551   -14543   -14535   -14531   -14530   -14528   -14524   -14516 
  -14508   -14501   -14493   -14480   -14461   -14443   -14427   -14412 
  -14405   -14400   -14395   -14399   -14404   -14408   -14418   -14432 
  -14453   -14473   -14486   -14497   -14503   -14503   -14501   -14494 
  -14489   -14490   -14499   -14512   -14532   -14559   -14582   -14604 
  -14628   -14650   -14669   -14690   -14712   -14728   -14737   -14737 
  -14740   -14742   -14740   -14732   -14721   -14709   -14694   -14673 
  -14650   -14634   -14615   -14590   -14569   -14544   -14515   -14485 
  -14454   -14423   -14395   -14373   -14359   -14347   -14337   -14331 
  -14332   -14335   -14337   -14343   -14358   -14376   -14400   -14435 
  -14472   -14508   -14544   -14574   -14596   -14613   -14631   -14644 
  -14652   -14658   -14658   -14650   -14635   -14624   -14616   -14604 
  -14598   -14598   -14596   -14594   -14597   -14596   -14596   -14597 
  -14601   -14604   -14604   -14604   -14604   -14601   -14597   -14596 
  -14594   -14586   -14569   -14551   -14530   -14505   -14480   -14457 
  -14439   -14426   -14416   -14411   -14409   -14404   -14395   -14388 
  -14378   -14369   -14362   -14358   -14362   -14374   -14393   -14419 
  -14447   -14473   -14496   -14515   -14530   -14543   -14557   -14571 
  -14586   -14600   -14615   -14624   -14627   -14627   -14623   -14616 
  -14605   -14590   -14580   -14570   -14562   -14563   -14567   -14567 
  -14569   -14575   -14584   -14593   -14604   -14609   -14612   -14611 
  -14605   -14598   -14590   -14582   -14574   -14569   -14566   -14569 
  -14571   -14571   -14571   -14569   -14557   -14540   -14526   -14512 
  -14500   -14489   -14480   -14470   -14466   -14466   -14472   -14485 
  -14503   -14516   -14528   -14539   -14546   -14546   -14536   -14523 
  -14508   -14489   -14469   -14457   -14450   -14450   -14450   -14445 
  -14434   -14423   -14415   -14416   -14427   -14443   -14463   -14489 
  -14519   -14551   -14584   -14612   -14636   -14652   -14665   -14675 
  -14682   -14689   -14692   -14694   -14704   -14712   -14713   -14712 
  -14710   -14710   -14708   -14696   -14682   -14670   -14652   -14631 
  -14613   -14596   -14578   -14561   -14544   -14524   -14503   -14481 
  -14461   -14443   -14426   -14408   -14396   -14388   -14381   -14381 
  -14384   -14389   -14399   -14407   -14415   -14426   -14440   -14455 
  -14469   -14478   -14486   -14499   -14512   -14523   -14531   -14543 
  -14558   -14577   -14596   -14609   -14620   -14628   -14634   -14635 
  -14631   -14627   -14625   -14621   -14619   -14619   -14619   -14616 
  -14609   -14594   -14573   -14553   -14536   -14520   -14511   -14508 
  -14509   -14513   -14515   -14515   -14513   -14505   -14497   -14492 
  -14484   -14476   -14469   -14461   -14455   -14457   -14461   -14466 
  -14469   -14472   -14484   -14499   -14509   -14516   -14521   -14519 
  -14509   -14496   -14482   -14469   -14458   -14454   -14455   -14461 
  -14466   -14477   -14493   -14511   -14527   -14546   -14567   -14589 
  -14609   -14627   -14646   -14658   -14661   -14659   -14654   -14647 
  -14643   -14640   -14636   -14629   -14621   -14613   -14608   -14605 
  -14605   -14604   -14600   -14594   -14588   -14578   -14567   -14554 
  -14538   -14523   -14503   -14482   -14472   -14467   -14474   -14492 
  -14511   -14530   -14543   -14553   -14565   -14571   -14571   -14569 
  -14567   -14561   -14550   -14534   -14515   -14493   -14470   -14457 
  -14453   -14458   -14473   -14493   -14517   -14538   -14553   -14562 
  -14570   -14571   -14563   -14554   -14546   -14542   -14538   -14542 
  -14550   -14557   -14562   -14567   -14574   -14586   -14598   -14608 
  -14613   -14616   -14611   -14596   -14580   -14566   -14554   -14543 
  -14532   -14516   -14499   -14486   -14478   -14474   -14473   -14473 
  -14480   -14490   -14500   -14505   -14508   -14508   -14507   -14503 
  -14490   -14476   -14465   -14454   -14445   -14440   -14439   -14445 
  -14454   -14466   -14480   -14492   -14509   -14531   -14546   -14563 
  -14585   -14601   -14616   -14629   -14632   -14631   -14627   -14616 
  -14604   -14600   -14601   -14598   -14597   -14597   -14602   -14609 
  -14617   -14628   -14634   -14631   -14621   -14604   -14582   -14562 
  -14544   -14527   -14511   -14499   -14486   -14477   -14467   -14462 
  -14461   -14461   -14461   -14461   -14463   -14470   -14485   -14504 
  -14520   -14524   -14523   -14517   -14508   -14501   -14503   -14512 
  -14535   -14559   -14577   -14594   -14608   -14620   -14635   -14648 
  -14659   -14669   -14674   -14675   -14674   -14667   -14655   -14636 
  -14613   -14592   -14573   -14555   -14540   -14535   -14535   -14530 
  -14520   -14511   -14499   -14481   -14469   -14458   -14445   -14431 
  -14418   -14412   -14415   -14424   -14434   -14445   -14457   -14472 
  -14488   -14501   -14511   -14516   -14519   -14524   -14535   -14548 
  -14565   -14581   -14596   -14608   -14612   -14605   -14594   -14581 
  -14565   -14546   -14528   -14508   -14496   -14500   -14509   -14517 
  -14526   -14527   -14521   -14516   -14511   -14508   -14508   -14516 
  -14530   -14539   -14550   -14559   -14562   -14559   -14557   -14554 
  -14547   -14538   -14531   -14527   -14527   -14530   -14532   -14538 
  -14547   -14555   -14557   -14558   -14559   -14559   -14561   -14562 
  -14565   -14571   -14578   -14580   -14575   -14569   -14559   -14546 
  -14528   -14513   -14505   -14499   -14490   -14488   -14492   -14499 
  -14504   -14509   -14521   -14538   -14551   -14562   -14570   -14580 
  -14588   -14590   -14586   -14580   -14571   -14563   -14555   -14553 
  -14555   -14557   -14558   -14562   -14571   -14582   -14592   -14604 
  -14613   -14620   -14625   -14631   -14631   -14623   -14605   -14582 
  -14558   -14535   -14513   -14494   -14480   -14470   -14472   -14480 
  -14482   -14481   -14482   -14481   -14474   -14467   -14457   -14447 
  -14435   -14420   -14404   -14377   -14347   -14326   -14307   -14299 
  -14304   -14315   -14334   -14359   -14386   -14411   -14434   -14457 
  -14476   -14494   -14519   -14546   -14577   -14611   -14639   -14658 
  -14673   -14685   -14694   -14702   -14712   -14721   -14728   -14732 
  -14729   -14720   -14706   -14690   -14670   -14652   -14635   -14615 
  -14596   -14580   -14561   -14540   -14530   -14520   -14508   -14499 
  -14489   -14478   -14470   -14458   -14442   -14424   -14408   -14397 
  -14389   -14381   -14380   -14381   -14385   -14401   -14423   -14443 
  -14463   -14478   -14492   -14500   -14508   -14511   -14505   -14492 
  -14477   -14462   -14450   -14440   -14436   -14439   -14449   -14462 
  -14477   -14494   -14515   -14538   -14559   -14581   -14602   -14623 
  -14643   -14656   -14670   -14686   -14701   -14715   -14725   -14728 
  -14721   -14716   -14712   -14708   -14705   -14704   -14697   -14686 
  -14677   -14673   -14669   -14667   -14665   -14663   -14662   -14661 
  -14662   -14658   -14644   -14625   -14602   -14574   -14542   -14512 
  -14486   -14469   -14459   -14453   -14446   -14434   -14416   -14401 
  -14386   -14370   -14357   -14347   -14342   -14342   -14345   -14351 
  -14359   -14369   -14378   -14385   -14392   -14405   -14428   -14458 
  -14488   -14521   -14558   -14590   -14621   -14646   -14661   -14670 
  -14671   -14666   -14652   -14635   -14616   -14594   -14575   -14567 
  -14565   -14566   -14578   -14588   -14589   -14589   -14578   -14558 
  -14540   -14519   -14494   -14477   -14465   -14459   -14463   -14467 
  -14463   -14454   -14447   -14442   -14432   -14423   -14419   -14415 
  -14413   -14420   -14430   -14439   -14453   -14473   -14496   -14521 
  -14547   -14570   -14597   -14625   -14652   -14679   -14705   -14720 
  -14728   -14729   -14724   -14717   -14709   -14694   -14674   -14652 
  -14631   -14609   -14585   -14557   -14531   -14507   -14484   -14462 
  -14446   -14426   -14401   -14382   -14362   -14343   -14331   -14320 
  -14307   -14299   -14299   -14301   -14310   -14327   -14353   -14388 
  -14434   -14486   -14546   -14605   -14655   -14704   -14748   -14783 
  -14817   -14850   -14879   -14909   -14937   -14959   -14966   -14958 
  -14936   -14899   -14860   -14824   -14791   -14764   -14740   -14712 
  -14677   -14627   -14559   -14482   -14396   -14308   -14229   -14161 
  -14102   -14054   -14018   -13995   -13984   -13983   -13984   -13991 
  -14002   -14025   -14062   -14110   -14164   -14223   -14283   -14338 
  -14393   -14451   -14504   -14554   -14602   -14650   -14697   -14744 
  -14793   -14843   -14890   -14935   -14979   -15018   -15053   -15087 
  -15118   -15148   -15172   -15187   -15191   -15186   -15171   -15142 
  -15109   -15066   -15016   -14970   -14922   -14881   -14850   -14818 
  -14781   -14735   -14679   -14617   -14551   -14478   -14407   -14337 
  -14268   -14203   -14141   -14083   -14031   -13988   -13954   -13934 
  -13930   -13941   -13972   -14027   -14102   -14184   -14272   -14361 
  -14442   -14513   -14573   -14617   -14651   -14673   -14678   -14671 
  -14654   -14634   -14612   -14589   -14562   -14534   -14507   -14478 
  -14450   -14427   -14412   -14400   -14389   -14380   -14372   -14362 
  -14353   -14342   -14338   -14341   -14346   -14358   -14382   -14420 
  -14463   -14511   -14558   -14602   -14643   -14679   -14709   -14727 
  -14733   -14727   -14705   -14675   -14636   -14589   -14543   -14501 
  -14459   -14418   -14384   -14357   -14330   -14299   -14266   -14238 
  -14215   -14199   -14193   -14196   -14202   -14211   -14230   -14257 
  -14295   -14345   -14408   -14478   -14548   -14621   -14694   -14763 
  -14823   -14872   -14914   -14947   -14968   -14976   -14976   -14967 
  -14951   -14928   -14898   -14862   -14820   -14771   -14723   -14682 
  -14650   -14629   -14627   -14638   -14655   -14679   -14709   -14739 
  -14773   -14817   -14866   -14916   -14968   -15017   -15052   -15074 
  -15072   -15043   -14989   -14918   -14832   -14736   -14638   -14538 
  -14434   -14327   -14222   -14122   -14027   -13940   -13865   -13809 
  -13772   -13753   -13757   -13782   -13822   -13876   -13940   -14011 
  -14092   -14177   -14262   -14349   -14436   -14523   -14602   -14673 
  -14732   -14778   -14814   -14837   -14839   -14816   -14771   -14710 
  -14636   -14547   -14447   -14349   -14256   -14170   -14103   -14058 
  -14035   -14030   -14041   -14073   -14125   -14193   -14284   -14395 
  -14516   -14648   -14785   -14914   -15036   -15151   -15250   -15329 
  -15387   -15417   -15414   -15383   -15325   -15240   -15136   -15020 
  -14891   -14751   -14608   -14470   -14349   -14250   -14175   -14121 
  -14091   -14088   -14114   -14166   -14241   -14328   -14423   -14505 
  -14571   -14627   -14661   -14674   -14677   -14663   -14631   -14584 
  -14526   -14459   -14384   -14301   -14220   -14146   -14079   -14021 
  -13972   -13936   -13917   -13915   -13929   -13963   -14014   -14080 
  -14158   -14239   -14319   -14389   -14449   -14503   -14553   -14598 
  -14636   -14673   -14706   -14742   -14781   -14827   -14872   -14908 
  -14937   -14964   -14983   -15001   -15020   -15034   -15045   -15044 
  -15034   -15017   -14997   -14976   -14953   -14925   -14886   -14836 
  -14785   -14743   -14715   -14702   -14697   -14688   -14666   -14628 
  -14581   -14526   -14469   -14423   -14386   -14357   -14332   -14323 
  -14334   -14369   -14427   -14504   -14586   -14661   -14725   -14778 
  -14813   -14836   -14852   -14859   -14851   -14829   -14790   -14732 
  -14655   -14557   -14438   -14303   -14156   -14000   -13852   -13718 
  -13606   -13524   -13467   -13436   -13431   -13450   -13495   -13568 
  -13664   -13784   -13915   -14045   -14183   -14327   -14472   -14616 
  -14762   -14899   -15032   -15168   -15304   -15439   -15569   -15674 
  -15747   -15792   -15812   -15815   -15793   -15741   -15654   -15539 
  -15410   -15277   -15147   -15009   -14860   -14696   -14517   -14351 
  -14220   -14127   -14065   -14019   -13971   -13915   -13865   -13836 
  -13832   -13845   -13864   -13883   -13890   -13891   -13906   -13944 
  -14003   -14072   -14134   -14181   -14212   -14230   -14242   -14261 
  -14285   -14316   -14355   -14409   -14482   -14566   -14651   -14728 
  -14790   -14839   -14885   -14929   -14963   -14983   -14985   -14963 
  -14926   -14878   -14817   -14752   -14686   -14616   -14540   -14469 
  -14404   -14350   -14315   -14301   -14308   -14335   -14376   -14423 
  -14469   -14517   -14559   -14589   -14608   -14613   -14602   -14586 
  -14571   -14559   -14559   -14567   -14578   -14589   -14597   -14601 
  -14601   -14600   -14598   -14592   -14581   -14571   -14565   -14562 
  -14565   -14566   -14561   -14544   -14526   -14509   -14504   -14507 
  -14517   -14534   -14546   -14558   -14575   -14593   -14616   -14658 
  -14708   -14755   -14801   -14833   -14851   -14852   -14837   -14810 
  -14771   -14717   -14652   -14582   -14508   -14431   -14357   -14293 
  -14247   -14219   -14216   -14237   -14274   -14326   -14384   -14442 
  -14497   -14547   -14590   -14625   -14650   -14673   -14700   -14727 
  -14754   -14778   -14794   -14796   -14777   -14739   -14688   -14628 
  -14570   -14512   -14455   -14400   -14349   -14297   -14242   -14179 
  -14110   -14044   -13987   -13945   -13929   -13945   -13988   -14058 
  -14142   -14227   -14303   -14365   -14413   -14458   -14497   -14526 
  -14548   -14567   -14575   -14580   -14589   -14593   -14594   -14601 
  -14611   -14625   -14659   -14706   -14767   -14840   -14917   -14990 
  -15049   -15094   -15121   -15138   -15155   -15164   -15168   -15167 
  -15159   -15136   -15098   -15047   -14982   -14905   -14820   -14732 
  -14658   -14600   -14551   -14512   -14478   -14438   -14395   -14357 
  -14320   -14291   -14265   -14241   -14215   -14193   -14179   -14170 
  -14161   -14150   -14139   -14125   -14104   -14084   -14064   -14045 
  -14034   -14031   -14035   -14046   -14068   -14098   -14135   -14183 
  -14243   -14315   -14395   -14482   -14574   -14662   -14739   -14806 
  -14858   -14890   -14913   -14932   -14948   -14968   -14994   -15021 
  -15051   -15078   -15093   -15094   -15082   -15048   -14998   -14945 
  -14890   -14835   -14783   -14727   -14666   -14609   -14547   -14477 
  -14411   -14345   -14281   -14227   -14185   -14160   -14146   -14137 
  -14133   -14133   -14133   -14141   -14150   -14158   -14164   -14158 
  -14139   -14108   -14068   -14025   -13991   -13967   -13950   -13954 
  -13980   -14021   -14075   -14146   -14233   -14326   -14419   -14515 
  -14608   -14696   -14785   -14870   -14940   -14995   -15049   -15107 
  -15160   -15207   -15250   -15279   -15290   -15283   -15260   -15228 
  -15178   -15115   -15045   -14964   -14871   -14778   -14686   -14596 
  -14509   -14427   -14346   -14274   -14215   -14170   -14141   -14126 
  -14125   -14133   -14150   -14172   -14199   -14230   -14257   -14280 
  -14299   -14310   -14315   -14318   -14315   -14308   -14301   -14288 
  -14272   -14257   -14250   -14256   -14273   -14296   -14320   -14346 
  -14374   -14400   -14426   -14457   -14492   -14531   -14575   -14623 
  -14670   -14716   -14759   -14797   -14831   -14870   -14908   -14933 
  -14948   -14960   -14968   -14966   -14956   -14945   -14935   -14921 
  -14912   -14910   -14916   -14918   -14916   -14908   -14894   -14879 
  -14862   -14844   -14824   -14801   -14773   -14736   -14693   -14647 
  -14596   -14542   -14486   -14422   -14345   -14265   -14193   -14131 
  -14083   -14058   -14061   -14083   -14119   -14172   -14233   -14293 
  -14351   -14401   -14439   -14457   -14453   -14434   -14407   -14369 
  -14327   -14291   -14266   -14256   -14261   -14284   -14324   -14376 
  -14439   -14501   -14557   -14601   -14635   -14659   -14677   -14696 
  -14710   -14716   -14721   -14723   -14717   -14709   -14700   -14690 
  -14682   -14679   -14675   -14669   -14655   -14629   -14598   -14565 
  -14531   -14505   -14494   -14494   -14508   -14527   -14543   -14557 
  -14566   -14565   -14557   -14550   -14544   -14539   -14531   -14521 
  -14512   -14494   -14478   -14466   -14458   -14458   -14466   -14474 
  -14484   -14500   -14520   -14546   -14570   -14593   -14616   -14636 
  -14655   -14679   -14706   -14727   -14739   -14737   -14723   -14701 
  -14665   -14613   -14557   -14497   -14440   -14399   -14372   -14362 
  -14365   -14377   -14400   -14426   -14445   -14459   -14467   -14463 
  -14453   -14432   -14405   -14380   -14355   -14327   -14291   -14247 
  -14202   -14158   -14122   -14095   -14089   -14115   -14161   -14222 
  -14301   -14382   -14461   -14547   -14634   -14712   -14783   -14850 
  -14901   -14940   -14968   -14989   -15002   -15009   -15003   -14985 
  -14956   -14925   -14886   -14836   -14783   -14725   -14666   -14608 
  -14554   -14497   -14438   -14382   -14330   -14280   -14237   -14204 
  -14184   -14177   -14176   -14189   -14219   -14260   -14307   -14357 
  -14404   -14451   -14500   -14546   -14593   -14644   -14698   -14752 
  -14805   -14855   -14899   -14940   -14976   -15002   -15018   -15036 
  -15048   -15051   -15039   -15010   -14964   -14913   -14866   -14818 
  -14771   -14724   -14679   -14638   -14593   -14547   -14497   -14440 
  -14384   -14342   -14314   -14297   -14292   -14288   -14285   -14291 
  -14303   -14319   -14334   -14343   -14366   -14411   -14474   -14548 
  -14623   -14685   -14727   -14747   -14746   -14725   -14693   -14648 
  -14597   -14542   -14482   -14419   -14361   -14301   -14238   -14183 
  -14146   -14123   -14115   -14123   -14139   -14160   -14191   -14226 
  -14260   -14295   -14331   -14373   -14419   -14465   -14507   -14544 
