Origin Time       2026/01/15 07:13:00
Lat.              42.7
Long.             145.4
Depth. (km)       30
Mag.              5.7
Station Code      HKD110
Station Lat.      42.1310
Station Long.     142.9354
Station Height(m) 4
Record Time       2026/01/15 07:14:25
Sampling Freq(Hz) 100Hz
Duration Time(s)  61
Dir.              N-S
Scale Factor      7845(gal)/8223790
Max. Acc. (gal)   1.969
Last Correction   2026/01/15 07:14:26
Memo.             
[...]
   -2737    -2724    -2706    -2700    -2700    -2695    -2679    -2652 
   -2617    -2579    -2548    -2529    -2515    -2500    -2482    -2454 
   -2416    -2380    -2353    -2338    -2327    -2317    -2303    -2278 
   -2255    -2236    -2218    -2203    -2196    -2197    -2193    -2185 
   -2185    -2199    -2216    -2228    -2236    -2238    -2235    -2242 
   -2257    -2276    -2297    -2319    -2344    -2376    -2408    -2435 
   -2455    -2469    -2479    -2493    -2508    -2523    -2535    -2546 
   -2550    -2551    -2556    -2563    -2574    -2586    -2594    -2597 
   -2593    -2581    -2565    -2542    -2505    -2465    -2431    -2401 
   -2369    -2339    -2307    -2273    -2255    -2263    -2284    -2304 
   -2319    -2323    -2327    -2340    -2362    -2385    -2404    -2419 
   -2431    -2439    -2442    -2443    -2442    -2440    -2442    -2443 
   -2451    -2463    -2469    -2465    -2452    -2436    -2427    -2431 
   -2439    -2435    -2423    -2412    -2407    -2413    -2427    -2425 
   -2415    -2407    -2398    -2397    -2396    -2382    -2365    -2358 
   -2362    -2376    -2394    -2412    -2430    -2442    -2447    -2455 
   -2477    -2504    -2528    -2547    -2555    -2555    -2562    -2577 
   -2593    -2605    -2608    -2600    -2586    -2570    -2551    -2529 
   -2500    -2463    -2428    -2393    -2359    -2336    -2319    -2304 
   -2295    -2292    -2299    -2313    -2334    -2354    -2376    -2393 
   -2401    -2398    -2393    -2389    -2382    -2378    -2378    -2374 
   -2377    -2392    -2416    -2450    -2485    -2509    -2525    -2532 
   -2529    -2528    -2532    -2529    -2516    -2494    -2469    -2451 
   -2450    -2462    -2482    -2498    -2504    -2509    -2515    -2512 
   -2500    -2475    -2448    -2425    -2405    -2386    -2374    -2370 
   -2367    -2363    -2355    -2344    -2342    -2344    -2338    -2330 
   -2326    -2319    -2319    -2328    -2338    -2353    -2377    -2400 
   -2420    -2435    -2442    -2454    -2469    -2481    -2486    -2479 
   -2465    -2447    -2430    -2405    -2377    -2351    -2328    -2311 
   -2305    -2304    -2305    -2309    -2308    -2301    -2313    -2343 
   -2381    -2415    -2436    -2444    -2443    -2436    -2430    -2423 
   -2412    -2400    -2381    -2359    -2347    -2347    -2349    -2343 
   -2340    -2351    -2363    -2374    -2389    -2416    -2451    -2489 
   -2528    -2562    -2586    -2613    -2643    -2670    -2694    -2709 
   -2716    -2717    -2710    -2705    -2700    -2678    -2648    -2619 
   -2582    -2543    -2511    -2478    -2443    -2404    -2362    -2324 
   -2296    -2274    -2254    -2235    -2214    -2188    -2164    -2142 
   -2127    -2126    -2134    -2143    -2161    -2188    -2215    -2241 
   -2269    -2307    -2343    -2376    -2405    -2430    -2447    -2461 
   -2475    -2492    -2516    -2544    -2570    -2593    -2612    -2625 
   -2625    -2621    -2614    -2602    -2594    -2592    -2585    -2567 
   -2536    -2500    -2477    -2474    -2475    -2473    -2470    -2466 
   -2459    -2446    -2424    -2401    -2373    -2334    -2293    -2254 
   -2209    -2162    -2114    -2066    -2030    -2016    -2022    -2035 
   -2060    -2084    -2100    -2120    -2155    -2200    -2249    -2299 
   -2349    -2404    -2465    -2527    -2582    -2631    -2673    -2709 
   -2739    -2760    -2779    -2795    -2806    -2817    -2818    -2803 
   -2776    -2739    -2693    -2643    -2586    -2527    -2474    -2423 
   -2361    -2292    -2224    -2169    -2130    -2111    -2108    -2115 
   -2127    -2141    -2153    -2165    -2182    -2197    -2204    -2211 
   -2224    -2245    -2274    -2313    -2359    -2416    -2471    -2519 
   -2556    -2593    -2635    -2668    -2683    -2685    -2673    -2648 
   -2627    -2612    -2598    -2585    -2573    -2554    -2527    -2502 
   -2485    -2467    -2444    -2413    -2385    -2357    -2327    -2301 
   -2277    -2251    -2231    -2228    -2241    -2263    -2289    -2311 
   -2332    -2359    -2396    -2431    -2457    -2470    -2471    -2470 
   -2469    -2462    -2462    -2471    -2484    -2493    -2497    -2488 
   -2481    -2479    -2475    -2473    -2474    -2477    -2488    -2497 
   -2496    -2494    -2497    -2490    -2485    -2474    -2446    -2419 
   -2405    -2389    -2367    -2344    -2324    -2304    -2289    -2276 
   -2259    -2241    -2223    -2216    -2230    -2249    -2266    -2289 
   -2307    -2311    -2313    -2316    -2317    -2334    -2366    -2405 
   -2450    -2494    -2539    -2592    -2648    -2701    -2749    -2786 
   -2806    -2813    -2817    -2821    -2824    -2810    -2772    -2720 
   -2662    -2604    -2555    -2517    -2486    -2462    -2438    -2415 
   -2404    -2401    -2404    -2411    -2415    -2417    -2425    -2431 
   -2431    -2438    -2447    -2461    -2482    -2501    -2505    -2501 
   -2490    -2477    -2473    -2473    -2461    -2446    -2435    -2420 
   -2409    -2416    -2434    -2455    -2486    -2515    -2539    -2566 
   -2582    -2587    -2585    -2567    -2535    -2496    -2444    -2389 
   -2351    -2328    -2320    -2328    -2342    -2354    -2373    -2386 
   -2385    -2378    -2362    -2331    -2293    -2257    -2222    -2205 
   -2219    -2254    -2300    -2349    -2382    -2404    -2440    -2486 
   -2524    -2554    -2573    -2577    -2573    -2552    -2519    -2484 
   -2451    -2432    -2427    -2428    -2430    -2423    -2407    -2384 
   -2353    -2311    -2269    -2235    -2208    -2184    -2164    -2149 
   -2139    -2126    -2118    -2120    -2128    -2143    -2176    -2211 
   -2236    -2262    -2289    -2319    -2361    -2412    -2474    -2536 
   -2581    -2620    -2652    -2674    -2697    -2716    -2721    -2728 
   -2722    -2702    -2671    -2628    -2593    -2567    -2540    -2509 
   -2479    -2447    -2416    -2394    -2376    -2347    -2316    -2282 
   -2242    -2205    -2182    -2170    -2161    -2150    -2128    -2100 
   -2073    -2052    -2043    -2046    -2061    -2084    -2112    -2137 
   -2151    -2165    -2188    -2222    -2276    -2339    -2405    -2474 
   -2535    -2583    -2631    -2682    -2741    -2808    -2856    -2875 
   -2882    -2887    -2893    -2899    -2906    -2901    -2880    -2841 
   -2782    -2706    -2612    -2505    -2415    -2342    -2282    -2236 
   -2207    -2191    -2187    -2191    -2191    -2187    -2187    -2191 
   -2189    -2188    -2193    -2184    -2155    -2138    -2133    -2133 
   -2146    -2161    -2173    -2195    -2227    -2268    -2308    -2336 
   -2358    -2378    -2405    -2452    -2509    -2566    -2619    -2671 
   -2714    -2743    -2763    -2781    -2790    -2791    -2786    -2768 
   -2735    -2682    -2614    -2547    -2493    -2454    -2416    -2370 
   -2323    -2285    -2259    -2249    -2249    -2249    -2243    -2238 
   -2241    -2262    -2299    -2334    -2349    -2351    -2349    -2349 
   -2369    -2405    -2444    -2485    -2523    -2550    -2562    -2566 
   -2570    -2577    -2583    -2593    -2604    -2601    -2582    -2567 
   -2565    -2559    -2546    -2532    -2517    -2500    -2475    -2440 
   -2405    -2371    -2336    -2307    -2277    -2243    -2222    -2212 
   -2197    -2181    -2169    -2155    -2143    -2139    -2143    -2154 
   -2176    -2209    -2258    -2315    -2362    -2394    -2432    -2477 
   -2519    -2554    -2582    -2602    -2617    -2629    -2648    -2677 
   -2689    -2679    -2664    -2646    -2625    -2597    -2556    -2506 
   -2461    -2425    -2397    -2373    -2361    -2353    -2340    -2323 
   -2292    -2261    -2241    -2222    -2218    -2234    -2254    -2284 
   -2322    -2351    -2376    -2389    -2381    -2358    -2328    -2300 
   -2273    -2254    -2242    -2228    -2209    -2195    -2189    -2203 
   -2232    -2273    -2332    -2400    -2463    -2517    -2551    -2563 
   -2562    -2559    -2554    -2546    -2544    -2551    -2552    -2544 
   -2531    -2519    -2515    -2516    -2520    -2527    -2539    -2552 
   -2563    -2570    -2587    -2606    -2606    -2589    -2579    -2575 
   -2562    -2546    -2523    -2478    -2425    -2377    -2328    -2282 
   -2243    -2211    -2193    -2189    -2197    -2211    -2223    -2239 
   -2268    -2309    -2361    -2432    -2529    -2640    -2752    -2849 
   -2925    -2975    -2998    -3002    -2999    -2997    -2988    -2965 
   -2921    -2856    -2782    -2709    -2633    -2546    -2435    -2312 
   -2200    -2111    -2039    -1977    -1918    -1863    -1818    -1786 
   -1757    -1733    -1718    -1718    -1730    -1760    -1803    -1852 
   -1918    -2015    -2138    -2281    -2435    -2586    -2735    -2884 
   -3030    -3164    -3279    -3364    -3416    -3451    -3470    -3474 
   -3468    -3451    -3424    -3383    -3330    -3275    -3210    -3126 
   -3042    -2961    -2862    -2737    -2601    -2446    -2285    -2133 
   -1989    -1856    -1732    -1625    -1541    -1485    -1451    -1428 
   -1412    -1406    -1416    -1443    -1487    -1539    -1595    -1653 
   -1713    -1771    -1823    -1876    -1935    -2012    -2112    -2238 
   -2381    -2532    -2679    -2824    -2968    -3100    -3214    -3302 
   -3360    -3389    -3393    -3379    -3341    -3273    -3184    -3088 
   -2987    -2889    -2793    -2690    -2582    -2469    -2353    -2243 
   -2139    -2042    -1958    -1890    -1841    -1810    -1791    -1786 
   -1800    -1837    -1904    -2006    -2126    -2249    -2366    -2475 
   -2578    -2658    -2706    -2732    -2739    -2729    -2714    -2704 
   -2689    -2667    -2640    -2610    -2581    -2548    -2512    -2473 
   -2425    -2370    -2319    -2274    -2246    -2235    -2228    -2228 
   -2236    -2249    -2261    -2270    -2276    -2280    -2278    -2266 
   -2241    -2193    -2133    -2074    -2027    -1992    -1966    -1949 
   -1938    -1933    -1935    -1958    -2006    -2068    -2126    -2173 
   -2215    -2265    -2330    -2401    -2481    -2562    -2636    -2697 
   -2732    -2739    -2720    -2671    -2596    -2506    -2412    -2316 
   -2228    -2162    -2118    -2095    -2077    -2061    -2056    -2060 
   -2069    -2103    -2168    -2246    -2331    -2416    -2490    -2547 
   -2596    -2631    -2655    -2679    -2701    -2710    -2710    -2701 
   -2687    -2677    -2670    -2662    -2646    -2621    -2600    -2590 
   -2600    -2616    -2635    -2660    -2686    -2714    -2756    -2808 
   -2863    -2924    -2986    -3042    -3076    -3082    -3055    -2992 
   -2897    -2771    -2632    -2489    -2342    -2191    -2033    -1881 
   -1755    -1655    -1579    -1530    -1512    -1514    -1539    -1583 
   -1657    -1764    -1899    -2058    -2238    -2427    -2613    -2785 
   -2938    -3068    -3179    -3276    -3358    -3419    -3460    -3477 
   -3466    -3430    -3369    -3281    -3167    -3036    -2905    -2781 
   -2655    -2525    -2396    -2262    -2123    -1993    -1879    -1782 
   -1709    -1653    -1611    -1588    -1580    -1582    -1591    -1609 
   -1633    -1659    -1678    -1702    -1729    -1753    -1787    -1842 
   -1915    -2006    -2112    -2224    -2336    -2457    -2581    -2698 
   -2806    -2907    -3002    -3083    -3149    -3199    -3229    -3231 
   -3208    -3165    -3105    -3032    -2960    -2894    -2828    -2759 
   -2689    -2613    -2528    -2446    -2381    -2335    -2307    -2289 
   -2282    -2286    -2297    -2317    -2354    -2398    -2440    -2481 
   -2520    -2558    -2601    -2647    -2693    -2724    -2733    -2729 
   -2722    -2708    -2686    -2663    -2636    -2604    -2563    -2521 
   -2481    -2440    -2398    -2363    -2342    -2330    -2331    -2349 
   -2373    -2393    -2408    -2409    -2393    -2358    -2309    -2261 
   -2222    -2193    -2174    -2169    -2172    -2177    -2185    -2193 
   -2193    -2184    -2169    -2153    -2135    -2124    -2118    -2119 
   -2130    -2154    -2195    -2246    -2299    -2358    -2427    -2501 
   -2578    -2647    -2697    -2725    -2727    -2705    -2666    -2608 
   -2525    -2421    -2301    -2169    -2043    -1937    -1852    -1792 
   -1759    -1738    -1726    -1725    -1741    -1782    -1840    -1911 
   -1991    -2074    -2160    -2247    -2338    -2428    -2517    -2601 
   -2666    -2701    -2700    -2667    -2602    -2521    -2435    -2342 
   -2243    -2142    -2050    -1966    -1884    -1814    -1765    -1734 
   -1721    -1730    -1759    -1799    -1853    -1929    -2031    -2151 
   -2286    -2432    -2586    -2751    -2920    -3088    -3257    -3415 
   -3551    -3680    -3798    -3888    -3951    -3993    -4005    -3994 
   -3967    -3919    -3846    -3755    -3651    -3553    -3458    -3361 
   -3273    -3198    -3123    -3048    -2982    -2917    -2835    -2736 
   -2623    -2485    -2328    -2169    -2018    -1877    -1752    -1647 
   -1563    -1509    -1485    -1490    -1518    -1568    -1634    -1707 
   -1783    -1869    -1965    -2076    -2193    -2299    -2382    -2455 
   -2513    -2554    -2585    -2608    -2623    -2633    -2628    -2602 
   -2554    -2490    -2416    -2339    -2257    -2166    -2076    -1995 
   -1937    -1917    -1937    -1985    -2053    -2134    -2220    -2299 
   -2370    -2435    -2479    -2497    -2488    -2440    -2355    -2239 
   -2097    -1942    -1784    -1628    -1474    -1320    -1178    -1053 
    -950     -876     -824     -792     -787     -816     -882     -980 
   -1102    -1250    -1425    -1636    -1871    -2120    -2382    -2650 
   -2918    -3187    -3449    -3682    -3883    -4056    -4193    -4305 
   -4398    -4459    -4487    -4482    -4436    -4360    -4260    -4126 
   -3969    -3805    -3642    -3481    -3331    -3186    -3044    -2932 
   -2851    -2783    -2736    -2709    -2678    -2641    -2608    -2573 
   -2532    -2479    -2412    -2336    -2247    -2145    -2039    -1939 
   -1846    -1768    -1703    -1638    -1580    -1537    -1525    -1551 
   -1603    -1674    -1765    -1875    -1992    -2123    -2258    -2378 
   -2484    -2571    -2628    -2655    -2658    -2633    -2598    -2563 
   -2520    -2469    -2407    -2331    -2249    -2173    -2106    -2054 
   -2011    -1966    -1926    -1900    -1892    -1902    -1934    -1973 
   -2011    -2053    -2097    -2141    -2184    -2216    -2228    -2226 
   -2204    -2161    -2097    -2015    -1922    -1830    -1745    -1665 
   -1593    -1536    -1499    -1485    -1494    -1525    -1578    -1656 
   -1759    -1885    -2027    -2174    -2328    -2486    -2631    -2758 
   -2872    -2978    -3069    -3150    -3229    -3312    -3393    -3457 
   -3503    -3545    -3576    -3592    -3608    -3627    -3643    -3657 
   -3655    -3638    -3618    -3596    -3576    -3553    -3520    -3488 
   -3466    -3445    -3422    -3402    -3383    -3354    -3307    -3235 
   -3137    -3006    -2847    -2660    -2451    -2228    -2002    -1779 
   -1574    -1391    -1232    -1109    -1030     -990     -982     -999 
   -1040    -1111    -1209    -1325    -1460    -1609    -1757    -1896 
   -2016    -2120    -2216    -2297    -2351    -2376    -2374    -2349 
   -2299    -2227    -2141    -2054    -1971    -1891    -1821    -1767 
   -1733    -1723    -1746    -1796    -1857    -1917    -1975    -2034 
   -2103    -2173    -2238    -2296    -2358    -2432    -2520    -2621 
   -2740    -2874    -3002    -3105    -3179    -3229    -3252    -3241 
   -3195    -3123    -3036    -2937    -2836    -2743    -2662    -2590 
   -2536    -2506    -2497    -2504    -2519    -2538    -2563    -2604 
   -2652    -2708    -2763    -2820    -2884    -2951    -3022    -3099 
   -3167    -3219    -3264    -3298    -3319    -3323    -3303    -3253 
   -3171    -3061    -2926    -2766    -2587    -2403    -2215    -2031 
   -1858    -1691    -1530    -1381    -1237    -1108     -994     -893 
    -812     -758     -727     -726     -753     -801     -876     -985 
   -1127    -1306    -1520    -1757    -2008    -2265    -2523    -2789 
   -3055    -3308    -3542    -3748    -3927    -4066    -4156    -4199 
   -4197    -4158    -4090    -4006    -3910    -3798    -3669    -3530 
   -3397    -3279    -3167    -3048    -2922    -2787    -2646    -2500 
   -2355    -2218    -2081    -1944    -1803    -1665    -1529    -1413 
   -1323    -1252    -1202    -1173    -1152    -1143    -1144    -1150 
   -1165    -1196    -1237    -1296    -1374    -1475    -1593    -1729 
   -1883    -2050    -2215    -2381    -2542    -2677    -2787    -2879 
   -2947    -2988    -3011    -3013    -2997    -2967    -2926    -2884 
   -2848    -2820    -2789    -2747    -2694    -2627    -2548    -2469 
   -2381    -2289    -2205    -2131    -2073    -2039    -2025    -2035 
   -2073    -2130    -2200    -2276    -2350    -2432    -2524    -2624 
   -2724    -2818    -2906    -2976    -3022    -3049    -3065    -3069 
   -3049    -3003    -2936    -2852    -2763    -2677    -2589    -2496 
   -2408    -2320    -2234    -2161    -2110    -2081    -2080    -2103 
   -2146    -2204    -2270    -2330    -2392    -2465    -2538    -2616 
   -2695    -2760    -2809    -2839    -2848    -2851    -2851    -2832 
   -2799    -2766    -2729    -2710    -2724    -2759    -2808    -2870 
   -2937    -3005    -3072    -3132    -3169    -3188    -3184    -3157 
   -3113    -3048    -2964    -2867    -2747    -2610    -2461    -2292 
   -2122    -1965    -1825    -1702    -1602    -1525    -1476    -1462 
   -1482    -1526    -1584    -1655    -1737    -1836    -1950    -2068 
   -2185    -2301    -2416    -2533    -2646    -2743    -2824    -2875 
   -2897    -2894    -2867    -2817    -2751    -2667    -2574    -2479 
   -2384    -2289    -2209    -2155    -2120    -2096    -2087    -2091 
   -2103    -2124    -2151    -2182    -2219    -2257    -2297    -2344 
   -2389    -2431    -2465    -2490    -2511    -2538    -2563    -2581 
   -2600    -2629    -2663    -2700    -2736    -2764    -2776    -2774 
   -2764    -2758    -2751    -2751    -2756    -2755    -2747    -2740 
   -2728    -2705    -2679    -2654    -2614    -2551    -2469    -2365 
   -2238    -2088    -1926    -1768    -1621    -1479    -1347    -1239 
   -1161    -1109    -1077    -1058    -1051    -1065    -1097    -1151 
   -1236    -1343    -1462    -1595    -1741    -1883    -2025    -2162 
   -2296    -2423    -2532    -2621    -2687    -2724    -2732    -2717 
   -2683    -2640    -2596    -2555    -2524    -2513    -2521    -2543 
   -2574    -2605    -2625    -2625    -2612    -2587    -2559    -2531 
   -2498    -2467    -2448    -2443    -2452    -2477    -2505    -2540 
   -2593    -2647    -2698    -2748    -2787    -2813    -2832    -2837 
   -2826    -2820    -2814    -2814    -2830    -2853    -2880    -2920 
   -2970    -3029    -3100    -3164    -3211    -3241    -3245    -3214 
   -3150    -3060    -2952    -2829    -2701    -2570    -2431    -2285 
   -2141    -2006    -1885    -1783    -1698    -1633    -1593    -1574 
   -1587    -1636    -1714    -1826    -1964    -2101    -2238    -2365 
   -2473    -2578    -2682    -2772    -2852    -2917    -2953    -2972 
   -2974    -2953    -2926    -2899    -2871    -2837    -2789    -2720 
   -2636    -2543    -2442    -2338    -2231    -2123    -2018    -1918 
   -1822    -1728    -1642    -1578    -1532    -1501    -1485    -1480 
   -1490    -1513    -1545    -1583    -1632    -1690    -1764    -1863 
   -1981    -2114    -2261    -2430    -2617    -2816    -3019    -3226 
